{
"type": "FeatureCollection",
"name": "X00035",
"crs": { "type": "name", "properties": { "name": "urn:ogc:def:crs:OGC:1.3:CRS84" } },
"features": [
{ "type": "Feature", "properties": { "part": "direct", "crossing_id": "X00035", "area_ac": 4.3 }, "geometry": { "type": "MultiPolygon", "coordinates": [ [ [ [ -120.162712007117619, 39.142711550567327 ], [ -120.16273439897013, 39.142730113833366 ], [ -120.162711283953072, 39.142729550692714 ], [ -120.162712007117619, 39.142711550567327 ] ] ], [ [ [ -120.162735845286832, 39.142694113581811 ], [ -120.16275823714065, 39.142712676843338 ], [ -120.162735122128808, 39.142712113707617 ], [ -120.162735845286832, 39.142694113581811 ] ] ], [ [ [ -120.162759683444307, 39.142676676590881 ], [ -120.162782075299418, 39.142695239847946 ], [ -120.162758960292805, 39.14269467671717 ], [ -120.162759683444307, 39.142676676590881 ] ] ], [ [ [ -120.162783521590043, 39.142659239594643 ], [ -120.162805913446434, 39.142677802847132 ], [ -120.162782798445036, 39.142677239721301 ], [ -120.162783521590043, 39.142659239594643 ] ] ], [ [ [ -120.159907954608045, 39.141670244919453 ], [ -120.160890305945756, 39.141982480790389 ], [ -120.161135885495696, 39.142204680193316 ], [ -120.161433484215792, 39.142284005072256 ], [ -120.161749134713006, 39.142489893323841 ], [ -120.162331318081158, 39.142972541487943 ], [ -120.162665053920918, 39.142728424397674 ], [ -120.162710560787858, 39.142747550818065 ], [ -120.162353709907691, 39.142991104825846 ], [ -120.161965784350784, 39.143432095578 ], [ -120.161738972645281, 39.14331846170812 ], [ -120.161023125680899, 39.143282995783892 ], [ -120.160888776563326, 39.14317161422327 ], [ -120.160939348574445, 39.143064740654694 ], [ -120.160583257743042, 39.142713722355474 ], [ -120.160524768626914, 39.142442030266352 ], [ -120.159922383028103, 39.141886809621269 ], [ -120.159835715286988, 39.141740554174895 ], [ -120.159907954608045, 39.141670244919453 ] ] ] ] } }
]
}
