{
"type": "FeatureCollection",
"name": "X00057",
"crs": { "type": "name", "properties": { "name": "urn:ogc:def:crs:OGC:1.3:CRS84" } },
"features": [
{ "type": "Feature", "properties": { "part": "direct", "crossing_id": "X00057", "area_ac": 8.8 }, "geometry": { "type": "Polygon", "coordinates": [ [ [ -120.168387411539968, 39.14081367262591 ], [ -120.168776750339191, 39.140913226997107 ], [ -120.169264320257241, 39.14087102557329 ], [ -120.169884806619635, 39.1409761942895 ], [ -120.170071165826471, 39.140944687246673 ], [ -120.170134739733157, 39.141090374183463 ], [ -120.170472084316117, 39.141332801699804 ], [ -120.170419364381928, 39.141493680763091 ], [ -120.169564148654914, 39.142049467746325 ], [ -120.16955837741682, 39.142193469618569 ], [ -120.169808314151112, 39.142307650331539 ], [ -120.169772214681046, 39.142631092852987 ], [ -120.170053957671442, 39.143106401332716 ], [ -120.170210715835907, 39.143236334745801 ], [ -120.170556003536262, 39.143280759648547 ], [ -120.169977398559297, 39.143284718610857 ], [ -120.169788868943783, 39.143370225965249 ], [ -120.169195084878751, 39.143175616749325 ], [ -120.169062165597722, 39.143028243706908 ], [ -120.16946014604072, 39.142335224323965 ], [ -120.169464474645096, 39.142227222932 ], [ -120.169330113523358, 39.142115850682217 ], [ -120.168173645146666, 39.142105754024691 ], [ -120.167502577414794, 39.141530884113671 ], [ -120.167087956585064, 39.141484763766115 ], [ -120.167053279589211, 39.141195636080091 ], [ -120.167166686633735, 39.141252447938911 ], [ -120.167844229157168, 39.141088748921504 ], [ -120.168177215859771, 39.14086261514079 ], [ -120.168387411539968, 39.14081367262591 ] ] ] } }
]
}
