{
"type": "FeatureCollection",
"name": "X00064",
"crs": { "type": "name", "properties": { "name": "urn:ogc:def:crs:OGC:1.3:CRS84" } },
"features": [
{ "type": "Feature", "properties": { "part": "direct", "crossing_id": "X00064", "area_ac": 0.9 }, "geometry": { "type": "MultiPolygon", "coordinates": [ [ [ [ -120.167218042196168, 39.145163550327048 ], [ -120.167240436025423, 39.145182112791467 ], [ -120.167217320116151, 39.145181550515126 ], [ -120.167218042196168, 39.145163550327048 ] ] ], [ [ [ -120.164961367425391, 39.144315855564372 ], [ -120.165260424914209, 39.144359170801835 ], [ -120.165279927748628, 39.144449734257869 ], [ -120.165990011231528, 39.144629175874293 ], [ -120.166078139908493, 39.144739426930606 ], [ -120.166175659213181, 39.144615675677741 ], [ -120.166543343829588, 39.144678675284695 ], [ -120.166788950769217, 39.144900863668653 ], [ -120.166996270942661, 39.144923924910799 ], [ -120.167218042196168, 39.145163550327048 ], [ -120.165092112310163, 39.144517233506932 ], [ -120.164958476889666, 39.14438785618605 ], [ -120.164961367425391, 39.144315855564372 ] ] ] ] } }
]
}
