{
"type": "FeatureCollection",
"name": "X00099",
"crs": { "type": "name", "properties": { "name": "urn:ogc:def:crs:OGC:1.3:CRS84" } },
"features": [
{ "type": "Feature", "properties": { "part": "direct", "crossing_id": "X00099", "area_ac": 7.4 }, "geometry": { "type": "MultiPolygon", "coordinates": [ [ [ [ -120.179133241427976, 39.139398789431631 ], [ -120.179201146437165, 39.13943646973496 ], [ -120.179199708673707, 39.139472470519209 ], [ -120.179133241427976, 39.139398789431631 ] ] ], [ [ [ -120.179110846075559, 39.139380229191971 ], [ -120.179133241427976, 39.139398789431631 ], [ -120.179110127172592, 39.139398229582874 ], [ -120.179110846075559, 39.139380229191971 ] ] ], [ [ [ -120.179992194854137, 39.136428634411843 ], [ -120.180317936699453, 39.136382467677606 ], [ -120.181036012196415, 39.136940384635693 ], [ -120.180820088344063, 39.137133354164092 ], [ -120.1807847616343, 39.137438801876279 ], [ -120.180636739699565, 39.137669450284683 ], [ -120.180470632593753, 39.137773535981744 ], [ -120.180223686333065, 39.138163949213627 ], [ -120.179315168957956, 39.138898697193802 ], [ -120.179087731826655, 39.139379669338993 ], [ -120.178863060052251, 39.139212067071441 ], [ -120.178823302407451, 39.13904894378171 ], [ -120.179146569634995, 39.137327064559571 ], [ -120.17944118293218, 39.136901772389194 ], [ -120.179964769889736, 39.136536077248039 ], [ -120.179992194854137, 39.136428634411843 ] ] ] ] } }
]
}
