{
"type": "FeatureCollection",
"name": "X00073",
"crs": { "type": "name", "properties": { "name": "urn:ogc:def:crs:OGC:1.3:CRS84" } },
"features": [
{ "type": "Feature", "properties": { "part": "direct", "crossing_id": "X00073", "area_ac": 1.9 }, "geometry": { "type": "Polygon", "coordinates": [ [ [ -120.172307932006817, 39.145755708958418 ], [ -120.172695862568318, 39.145891251886319 ], [ -120.172985564405735, 39.146168551236045 ], [ -120.173302708313614, 39.146338409352452 ], [ -120.173434922029486, 39.146503778312656 ], [ -120.173406041251397, 39.146647219490035 ], [ -120.173585209390353, 39.146795710152823 ], [ -120.173724629251467, 39.146781075995733 ], [ -120.173788935800829, 39.146908760993142 ], [ -120.173970266636132, 39.14700325025224 ], [ -120.174385645954942, 39.147031347103535 ], [ -120.174261418653828, 39.147244546151697 ], [ -120.174028090244377, 39.147292937723783 ], [ -120.17368422122793, 39.147212521783914 ], [ -120.173395953604796, 39.146899223401398 ], [ -120.172984899591398, 39.146763121423739 ], [ -120.172721194748235, 39.146414382134161 ], [ -120.172703844033776, 39.146269818771444 ], [ -120.172162026457713, 39.145932343851321 ], [ -120.172307932006817, 39.145755708958418 ] ] ] } }
]
}
