{
"type": "FeatureCollection",
"name": "X00089",
"crs": { "type": "name", "properties": { "name": "urn:ogc:def:crs:OGC:1.3:CRS84" } },
"features": [
{ "type": "Feature", "properties": { "part": "direct", "crossing_id": "X00089", "area_ac": 11.3 }, "geometry": { "type": "MultiPolygon", "coordinates": [ [ [ [ -120.170959493159287, 39.149380565170162 ], [ -120.170981889287489, 39.14939912698815 ], [ -120.170958771923964, 39.149398565403487 ], [ -120.170959493159287, 39.149380565170162 ] ] ], [ [ [ -120.167837132549423, 39.145881300001392 ], [ -120.168181709315306, 39.145943732549924 ], [ -120.168669335078462, 39.146478103585963 ], [ -120.168805868133887, 39.146535476166591 ], [ -120.168845605587293, 39.146698601998189 ], [ -120.169048601975121, 39.14682966105925 ], [ -120.169198149833093, 39.147139598121178 ], [ -120.16958463817744, 39.147311151883351 ], [ -120.169754420092033, 39.147693651043944 ], [ -120.169742876031066, 39.147981654552176 ], [ -120.170148880183632, 39.148243769557908 ], [ -120.170401724187656, 39.148285948808962 ], [ -120.17080917511251, 39.148512061191113 ], [ -120.170768747692037, 39.148943505163338 ], [ -120.170903123532582, 39.149054876198193 ], [ -120.171090225129547, 39.149005368093512 ], [ -120.171272278462396, 39.149081861353558 ], [ -120.171242670789042, 39.14924330197649 ], [ -120.171353209461984, 39.149372111241298 ], [ -120.17123401683061, 39.149459304829705 ], [ -120.17098261051693, 39.149381126754477 ], [ -120.170895189842668, 39.149252878762326 ], [ -120.170687855341001, 39.14922982396687 ], [ -120.170406840894344, 39.14931308509864 ], [ -120.170088970048255, 39.149161219152646 ], [ -120.169742211098409, 39.149152792287893 ], [ -120.169285639291004, 39.148997553200175 ], [ -120.16911152712845, 39.148723054649921 ], [ -120.168861569518526, 39.148608871757695 ], [ -120.168847113474783, 39.148392307324613 ], [ -120.168644834958641, 39.148243247590827 ], [ -120.168472892525642, 39.147914747613449 ], [ -120.168502505751789, 39.147753307875078 ], [ -120.168141300330603, 39.147528312079871 ], [ -120.167965030171729, 39.147307812633208 ], [ -120.167507030273683, 39.147188567485429 ], [ -120.167418896471986, 39.14707831735732 ], [ -120.167302591705706, 39.14709350617693 ], [ -120.167609593168933, 39.146362245507603 ], [ -120.16785519514211, 39.146007863532887 ], [ -120.167837132549423, 39.145881300001392 ] ] ] ] } }
]
}
