{
"type": "FeatureCollection",
"name": "X00026",
"crs": { "type": "name", "properties": { "name": "urn:ogc:def:crs:OGC:1.3:CRS84" } },
"features": [
{ "type": "Feature", "properties": { "part": "direct", "crossing_id": "X00026", "area_ac": 1.1 }, "geometry": { "type": "Polygon", "coordinates": [ [ [ -120.160319765365244, 39.140635257944041 ], [ -120.160362375385034, 39.140726385594384 ], [ -120.160547289922221, 39.140730894125952 ], [ -120.160884598242788, 39.140973348168394 ], [ -120.160780562808469, 39.141259095800073 ], [ -120.160865784817659, 39.141441350805025 ], [ -120.160405664932696, 39.141376079739373 ], [ -120.160264806516921, 39.141426698427132 ], [ -120.160110242663791, 39.141242752137344 ], [ -120.160006975098398, 39.140933932377322 ], [ -120.160106670410741, 39.140756186066938 ], [ -120.160319765365244, 39.140635257944041 ] ] ] } }
]
}
