{
"type": "FeatureCollection",
"name": "X00088",
"crs": { "type": "name", "properties": { "name": "urn:ogc:def:crs:OGC:1.3:CRS84" } },
"features": [
{ "type": "Feature", "properties": { "part": "direct", "crossing_id": "X00088", "area_ac": 3.8 }, "geometry": { "type": "Polygon", "coordinates": [ [ [ -120.16798232658293, 39.145722671121483 ], [ -120.168211322102636, 39.145782292831704 ], [ -120.168727115434152, 39.146191224262438 ], [ -120.168769017702743, 39.146300349489636 ], [ -120.169018967199847, 39.14641453231453 ], [ -120.169195238686541, 39.146635030233647 ], [ -120.1695810028138, 39.146824584136645 ], [ -120.169674911786245, 39.146790830975348 ], [ -120.169745011780151, 39.147351085054765 ], [ -120.170355456626496, 39.147708256438619 ], [ -120.171267910970101, 39.148613293599638 ], [ -120.171501245358286, 39.148564907800719 ], [ -120.171521478174071, 39.148637470245916 ], [ -120.171403008141127, 39.148706663827205 ], [ -120.17151570957131, 39.148781472198813 ], [ -120.171258536138026, 39.148847296720618 ], [ -120.171384259200323, 39.14917467010504 ], [ -120.171333697793585, 39.149281548534105 ], [ -120.171242670789042, 39.14924330197649 ], [ -120.171272278462396, 39.149081861353558 ], [ -120.171090225129547, 39.149005368093512 ], [ -120.170812097066801, 39.149016629321842 ], [ -120.170786779299164, 39.148493499349392 ], [ -120.170401724187656, 39.148285948808962 ], [ -120.170148880183632, 39.148243769557908 ], [ -120.169742876031066, 39.147981654552176 ], [ -120.169754420092033, 39.147693651043944 ], [ -120.16958463817744, 39.147311151883351 ], [ -120.169198149833093, 39.147139598121178 ], [ -120.169048601975121, 39.14682966105925 ], [ -120.168845605587293, 39.146698601998189 ], [ -120.168805868133887, 39.146535476166591 ], [ -120.168669335078462, 39.146478103585963 ], [ -120.168159314997936, 39.14592517025077 ], [ -120.167930319072013, 39.145865548424069 ], [ -120.16798232658293, 39.145722671121483 ] ] ] } }
]
}
