{
"type": "FeatureCollection",
"name": "X00061",
"crs": { "type": "name", "properties": { "name": "urn:ogc:def:crs:OGC:1.3:CRS84" } },
"features": [
{ "type": "Feature", "properties": { "part": "direct", "crossing_id": "X00061", "area_ac": 0.1 }, "geometry": { "type": "Polygon", "coordinates": [ [ [ -120.158795265025802, 39.144598012664112 ], [ -120.158904325125249, 39.144762832855939 ], [ -120.158667375118966, 39.144901193849989 ], [ -120.158699181656644, 39.144685757143691 ], [ -120.158795265025802, 39.144598012664112 ] ] ] } }
]
}
