{
"type": "FeatureCollection",
"name": "X00018",
"crs": { "type": "name", "properties": { "name": "urn:ogc:def:crs:OGC:1.3:CRS84" } },
"features": [
{ "type": "Feature", "properties": { "part": "direct", "crossing_id": "X00018", "area_ac": 1.0 }, "geometry": { "type": "Polygon", "coordinates": [ [ [ -120.165467968095399, 39.09996836193546 ], [ -120.165424668385754, 39.100471808231077 ], [ -120.165330099091321, 39.100523560689389 ], [ -120.164242896234185, 39.100533136640323 ], [ -120.164198858813563, 39.100478011125944 ], [ -120.164302810529804, 39.100192255956792 ], [ -120.164619732439348, 39.100362130538009 ], [ -120.165305538990168, 39.099982427531152 ], [ -120.165467968095399, 39.09996836193546 ] ] ] } }
]
}
