{
"type": "FeatureCollection",
"name": "X00017",
"crs": { "type": "name", "properties": { "name": "urn:ogc:def:crs:OGC:1.3:CRS84" } },
"features": [
{ "type": "Feature", "properties": { "part": "direct", "crossing_id": "X00017", "area_ac": 2.9 }, "geometry": { "type": "MultiPolygon", "coordinates": [ [ [ [ -120.166591216345253, 39.099058758250713 ], [ -120.166613596124037, 39.099077320420676 ], [ -120.166590495289952, 39.099076758571698 ], [ -120.166591216345253, 39.099058758250713 ] ] ], [ [ [ -120.166590495289952, 39.099076758571698 ], [ -120.166428815063881, 39.099649397548248 ], [ -120.165807972903295, 39.099562223620048 ], [ -120.165546648853265, 39.099736044239684 ], [ -120.165444145623326, 39.099985800149071 ], [ -120.165305538990168, 39.099982427531152 ], [ -120.164619732439348, 39.100362130538009 ], [ -120.164417594660847, 39.100213067772692 ], [ -120.164256608227134, 39.100191131311881 ], [ -120.164461622863229, 39.099691621805057 ], [ -120.164882491355144, 39.099575740064765 ], [ -120.165003046473501, 39.099452548922443 ], [ -120.165517037670682, 39.099320913137412 ], [ -120.165755980622023, 39.099128530196367 ], [ -120.166054127936036, 39.099189836971036 ], [ -120.166196338897819, 39.099103207069433 ], [ -120.166590495289952, 39.099076758571698 ] ] ] ] } }
]
}
