{
"type": "FeatureCollection",
"name": "X00036",
"crs": { "type": "name", "properties": { "name": "urn:ogc:def:crs:OGC:1.3:CRS84" } },
"features": [
{ "type": "Feature", "properties": { "part": "direct", "crossing_id": "X00036", "area_ac": 0.6 }, "geometry": { "type": "Polygon", "coordinates": [ [ [ -120.158482755807782, 39.142013852853175 ], [ -120.158942153465958, 39.142097131671015 ], [ -120.157906996410276, 39.142522317690236 ], [ -120.157771929389725, 39.142428932803647 ], [ -120.157754609917248, 39.142284368290113 ], [ -120.15796336725144, 39.142271445137503 ], [ -120.158109299130643, 39.142094828978244 ], [ -120.158291319786827, 39.142171341448361 ], [ -120.158482755807782, 39.142013852853175 ] ] ] } }
]
}
