{
"type": "FeatureCollection",
"name": "X00086",
"crs": { "type": "name", "properties": { "name": "urn:ogc:def:crs:OGC:1.3:CRS84" } },
"features": [
{ "type": "Feature", "properties": { "part": "direct", "crossing_id": "X00086", "area_ac": 1.2 }, "geometry": { "type": "Polygon", "coordinates": [ [ [ -120.175785687686513, 39.14211041815976 ], [ -120.176374445446726, 39.142430996494667 ], [ -120.176385326127118, 39.142737562682015 ], [ -120.176535618844824, 39.143029491031839 ], [ -120.17669382853741, 39.143123415463933 ], [ -120.176597049005693, 39.143229175970113 ], [ -120.176389009911901, 39.143224132229015 ], [ -120.17637165204016, 39.143079569096749 ], [ -120.176172250353929, 39.142858520959379 ], [ -120.175467194164156, 39.142553138853394 ], [ -120.175643397963142, 39.142197056464298 ], [ -120.175785687686513, 39.14211041815976 ] ] ] } }
]
}
