{
"type": "FeatureCollection",
"name": "X00022",
"crs": { "type": "name", "properties": { "name": "urn:ogc:def:crs:OGC:1.3:CRS84" } },
"features": [
{ "type": "Feature", "properties": { "part": "direct", "crossing_id": "X00022", "area_ac": 7.0 }, "geometry": { "type": "Polygon", "coordinates": [ [ [ -120.161226442390372, 39.081198577967356 ], [ -120.162035485859079, 39.081200269351477 ], [ -120.162998257598133, 39.081403895176926 ], [ -120.163322309055374, 39.081393767320961 ], [ -120.163701940061742, 39.081727331480032 ], [ -120.164022386705184, 39.081807203389417 ], [ -120.164156630221413, 39.081918578243581 ], [ -120.165093439506691, 39.082193626552261 ], [ -120.165395120269864, 39.082164930750707 ], [ -120.165596490056174, 39.082331990753381 ], [ -120.165590723007881, 39.082475993608945 ], [ -120.165834680900261, 39.082734178730732 ], [ -120.165206753074798, 39.082250437277899 ], [ -120.164376764435531, 39.08219420438104 ], [ -120.164311084595028, 39.082102516409122 ], [ -120.164123437615871, 39.082170020806323 ], [ -120.163690398469086, 39.082015336744007 ], [ -120.163068271046441, 39.081964154463535 ], [ -120.162979497992808, 39.081871903462719 ], [ -120.162148073030934, 39.08185165552544 ], [ -120.162104048039353, 39.081796529553621 ], [ -120.161734526404487, 39.08178752844136 ], [ -120.161508628781831, 39.08165590008543 ], [ -120.161162925098395, 39.081629459543144 ], [ -120.160666375683505, 39.081905645985302 ], [ -120.160411607282185, 39.081917454977258 ], [ -120.160260036542383, 39.082238082624052 ], [ -120.160402925869562, 39.082710030009054 ], [ -120.160816464255234, 39.083350733743458 ], [ -120.160788313774816, 39.083476172886627 ], [ -120.160483737410161, 39.083576857564907 ], [ -120.160218128770964, 39.083858669966148 ], [ -120.160163973946723, 39.084632118503038 ], [ -120.160195755319393, 39.083840106764406 ], [ -120.15988469531149, 39.083526220735699 ], [ -120.160003785102816, 39.08343903431345 ], [ -120.159985745824699, 39.083312469477846 ], [ -120.159611181935745, 39.082852891781961 ], [ -120.159670375856805, 39.082530013108588 ], [ -120.159788019431389, 39.082478827372462 ], [ -120.159791631214858, 39.082388826041125 ], [ -120.160166933434169, 39.08225383124622 ], [ -120.160153227569324, 39.082019264775511 ], [ -120.160345210753192, 39.081843765241246 ], [ -120.161077765040076, 39.08144720574608 ], [ -120.161226442390372, 39.081198577967356 ] ] ] } }
]
}
