{
"type": "FeatureCollection",
"name": "X00020",
"crs": { "type": "name", "properties": { "name": "urn:ogc:def:crs:OGC:1.3:CRS84" } },
"features": [
{ "type": "Feature", "properties": { "part": "direct", "crossing_id": "X00020", "area_ac": 0.4 }, "geometry": { "type": "Polygon", "coordinates": [ [ [ -120.166720419864021, 39.098719561303227 ], [ -120.167110248533234, 39.098801112923944 ], [ -120.167227914970553, 39.098749920596362 ], [ -120.16741055839222, 39.098808415222457 ], [ -120.167758511406802, 39.098780839311779 ], [ -120.167819885584436, 39.098980527888266 ], [ -120.167776566935743, 39.098907403306931 ], [ -120.167476256561656, 39.098900101935762 ], [ -120.166733426415178, 39.098972127657376 ], [ -120.166720419864021, 39.098719561303227 ] ] ] } }
]
}
