{
"type": "FeatureCollection",
"name": "X00090",
"crs": { "type": "name", "properties": { "name": "urn:ogc:def:crs:OGC:1.3:CRS84" } },
"features": [
{ "type": "Feature", "properties": { "part": "direct", "crossing_id": "X00090", "area_ac": 2.4 }, "geometry": { "type": "Polygon", "coordinates": [ [ [ -120.166963071928805, 39.147481637653691 ], [ -120.167284538810065, 39.147543510742651 ], [ -120.167527991398586, 39.147819698473185 ], [ -120.167587232953167, 39.148073387793019 ], [ -120.167897151385915, 39.148423262297968 ], [ -120.167868980413104, 39.148548701429299 ], [ -120.168203463226334, 39.148863137033075 ], [ -120.168153619276183, 39.148952013725498 ], [ -120.168285825096433, 39.149117388206555 ], [ -120.168233093346601, 39.149278265693432 ], [ -120.168371075082362, 39.14929963856121 ], [ -120.168365299923536, 39.149443640105353 ], [ -120.168204200594971, 39.149421705089587 ], [ -120.168230205633961, 39.14935026645766 ], [ -120.167935456907472, 39.149198956919861 ], [ -120.167558350019021, 39.148793395134213 ], [ -120.167562682525087, 39.148685394039859 ], [ -120.166732631769534, 39.148034581613175 ], [ -120.167004972076128, 39.147590763422649 ], [ -120.166963071928805, 39.147481637653691 ] ] ] } }
]
}
