{
"type": "FeatureCollection",
"name": "X00077",
"crs": { "type": "name", "properties": { "name": "urn:ogc:def:crs:OGC:1.3:CRS84" } },
"features": [
{ "type": "Feature", "properties": { "part": "direct", "crossing_id": "X00077", "area_ac": 9.1 }, "geometry": { "type": "Polygon", "coordinates": [ [ [ -120.166811350410072, 39.145495994381278 ], [ -120.167085854009926, 39.145574743146284 ], [ -120.16741598761142, 39.145997181628502 ], [ -120.167707834263382, 39.146220492793027 ], [ -120.167302591705706, 39.14709350617693 ], [ -120.167418896471986, 39.14707831735732 ], [ -120.167507030273683, 39.147188567485429 ], [ -120.167965030171729, 39.147307812633208 ], [ -120.168141300330603, 39.147528312079871 ], [ -120.168502505751789, 39.147753307875078 ], [ -120.168472892525642, 39.147914747613449 ], [ -120.168644834958641, 39.148243247590827 ], [ -120.168847113474783, 39.148392307324613 ], [ -120.168861569518526, 39.148608871757695 ], [ -120.16911152712845, 39.148723054649921 ], [ -120.169285639291004, 39.148997553200175 ], [ -120.169490807704406, 39.149074611087173 ], [ -120.170088970048255, 39.149161219152646 ], [ -120.170406840894344, 39.14931308509864 ], [ -120.170687855341001, 39.14922982396687 ], [ -120.170895189842668, 39.149252878762326 ], [ -120.17098261051693, 39.149381126754477 ], [ -120.17026164425107, 39.149471716846236 ], [ -120.170148943165842, 39.149396907276326 ], [ -120.169084824199089, 39.149389062248453 ], [ -120.168811747061852, 39.149274317216154 ], [ -120.168432486262375, 39.149499326971629 ], [ -120.168371075082362, 39.14929963856121 ], [ -120.168233093346601, 39.149278265693432 ], [ -120.168285825096433, 39.149117388206555 ], [ -120.168153619276183, 39.148952013725498 ], [ -120.168203463226334, 39.148863137033075 ], [ -120.167868980413104, 39.148548701429299 ], [ -120.167897151385915, 39.148423262297968 ], [ -120.167587232953167, 39.148073387793019 ], [ -120.167527991398586, 39.147819698473185 ], [ -120.167284538810065, 39.147543510742651 ], [ -120.167056260739145, 39.147465886864907 ], [ -120.166794750306266, 39.147063134632504 ], [ -120.166504347967901, 39.146803820841036 ], [ -120.16663148237528, 39.145942062163954 ], [ -120.166811350410072, 39.145495994381278 ] ] ] } }
]
}
