{
"type": "FeatureCollection",
"name": "X00056",
"crs": { "type": "name", "properties": { "name": "urn:ogc:def:crs:OGC:1.3:CRS84" } },
"features": [
{ "type": "Feature", "properties": { "part": "direct", "crossing_id": "X00056", "area_ac": 0.8, "n_upstream": null }, "geometry": { "type": "MultiPolygon", "coordinates": [ [ [ [ -120.170348577707543, 39.141527996440338 ], [ -120.170370971301068, 39.141546558300462 ], [ -120.170347856518219, 39.141545996688443 ], [ -120.170348577707543, 39.141527996440338 ] ] ], [ [ [ -120.170372413667351, 39.1415105578035 ], [ -120.170394807262113, 39.141529119659097 ], [ -120.170371692484537, 39.141528558052009 ], [ -120.170372413667351, 39.1415105578035 ] ] ], [ [ [ -120.170396249615393, 39.141493119161275 ], [ -120.170418643211491, 39.14151168101241 ], [ -120.170395528439073, 39.141511119410239 ], [ -120.170396249615393, 39.141493119161275 ] ] ], [ [ [ -120.170794928722188, 39.140782093999178 ], [ -120.171016701149057, 39.141021712322519 ], [ -120.170786276001166, 39.140998097082942 ], [ -120.170779065329313, 39.141178099645366 ], [ -120.170419364381928, 39.141493680763091 ], [ -120.170472084316117, 39.141332801699804 ], [ -120.170134739733157, 39.141090374183463 ], [ -120.170050214995214, 39.140890124846337 ], [ -120.170494439735251, 39.140774793897428 ], [ -120.170794928722188, 39.140782093999178 ] ] ] ] } },
{ "type": "Feature", "properties": { "part": "upstream", "crossing_id": "X00056", "area_ac": 15.5, "n_upstream": 3.0 }, "geometry": { "type": "MultiPolygon", "coordinates": [ [ [ [ -120.171748488589785, 39.141814250149054 ], [ -120.171975362583368, 39.142504434933777 ], [ -120.172111170302529, 39.142579803759141 ], [ -120.172051245076872, 39.142920686344091 ], [ -120.171963108893678, 39.142810439521227 ], [ -120.172093871705371, 39.143011810275098 ], [ -120.17236621031239, 39.14314454729552 ], [ -120.171950855017485, 39.143116444089387 ], [ -120.171953115065079, 39.144215582986625 ], [ -120.171772514950746, 39.144103090644613 ], [ -120.171654053029926, 39.144172284817358 ], [ -120.171353549406405, 39.144164986404149 ], [ -120.170826216220121, 39.144044070446334 ], [ -120.170850013223273, 39.143450062233292 ], [ -120.170716368748771, 39.143320691189508 ], [ -120.170534330555412, 39.143244197561202 ], [ -120.170210715835907, 39.143236334745801 ], [ -120.170053957671442, 39.143106401332716 ], [ -120.169772214681046, 39.142631092852987 ], [ -120.16975847731085, 39.142396528043641 ], [ -120.169855986862501, 39.142272773307077 ], [ -120.169922446627481, 39.142346459404486 ], [ -120.16985670819578, 39.142254773068871 ], [ -120.169785199130601, 39.142307088598827 ], [ -120.16955837741682, 39.142193469618569 ], [ -120.169660215271477, 39.141961713633243 ], [ -120.170490150989082, 39.141459365040106 ], [ -120.170779065329313, 39.141178099645366 ], [ -120.170786276001166, 39.140998097082942 ], [ -120.170902570104104, 39.140982904371469 ], [ -120.171287588243928, 39.141190452074753 ], [ -120.171748488589785, 39.141814250149054 ] ] ], [ [ [ -120.172365489595393, 39.143162547570022 ], [ -120.172387884235448, 39.143181109076004 ], [ -120.172364768877756, 39.143180547844445 ], [ -120.172365489595393, 39.143162547570022 ] ] ], [ [ [ -120.173113281462022, 39.144712212089765 ], [ -120.172839494206428, 39.144615477130102 ], [ -120.172580895845115, 39.144717305767152 ], [ -120.171957488604377, 39.144684151183156 ], [ -120.171950855017485, 39.143116444089387 ], [ -120.172890657584503, 39.143337457271038 ], [ -120.173191158088656, 39.143344751592835 ], [ -120.173087167737663, 39.14363051182476 ], [ -120.173113281462022, 39.144712212089765 ] ] ] ] } }
]
}
