{
"type": "FeatureCollection",
"name": "X00091",
"crs": { "type": "name", "properties": { "name": "urn:ogc:def:crs:OGC:1.3:CRS84" } },
"features": [
{ "type": "Feature", "properties": { "part": "direct", "crossing_id": "X00091", "area_ac": 0.0 }, "geometry": { "type": "MultiPolygon", "coordinates": [ [ [ [ -120.19766049775977, 39.143611791646961 ], [ -120.197682899480526, 39.143630348531993 ], [ -120.197659783472858, 39.143629792311721 ], [ -120.19766049775977, 39.143611791646961 ] ] ], [ [ [ -120.197664069184725, 39.143521788322289 ], [ -120.197614980056159, 39.143592678529316 ], [ -120.19764095321294, 39.143521232099566 ], [ -120.197664069184725, 39.143521788322289 ] ] ] ] } }
]
}
