{
"type": "FeatureCollection",
"name": "X00011",
"crs": { "type": "name", "properties": { "name": "urn:ogc:def:crs:OGC:1.3:CRS84" } },
"features": [
{ "type": "Feature", "properties": { "part": "direct", "crossing_id": "X00011", "area_ac": 7.1 }, "geometry": { "type": "Polygon", "coordinates": [ [ [ -120.168161847429872, 39.106610393314298 ], [ -120.168319966664455, 39.106704326234741 ], [ -120.1683914391201, 39.106652010037315 ], [ -120.168735106504812, 39.106732434621811 ], [ -120.168776268376277, 39.106859559966416 ], [ -120.169166144165885, 39.106941106344699 ], [ -120.169573360399212, 39.107167215546859 ], [ -120.170010166480253, 39.107231881551549 ], [ -120.170223913888066, 39.107669502476668 ], [ -120.170114930241937, 39.108081265524753 ], [ -120.1705698044738, 39.108272493370038 ], [ -120.170540217964614, 39.108433935379217 ], [ -120.17044492083825, 39.10850369202825 ], [ -120.169544586349744, 39.108463801404028 ], [ -120.168793687863086, 39.108157268208465 ], [ -120.16850198758371, 39.107933964143974 ], [ -120.168200917846235, 39.107944663556175 ], [ -120.16812800210343, 39.108032980207554 ], [ -120.168013925018712, 39.107994171250702 ], [ -120.167904894702659, 39.10782935998774 ], [ -120.167907023906366, 39.107198787259989 ], [ -120.168003763379204, 39.107093032066061 ], [ -120.167916395932551, 39.106964783142274 ], [ -120.168161847429872, 39.106610393314298 ] ] ] } }
]
}
