{
"type": "FeatureCollection",
"name": "X00070",
"crs": { "type": "name", "properties": { "name": "urn:ogc:def:crs:OGC:1.3:CRS84" } },
"features": [
{ "type": "Feature", "properties": { "part": "direct", "crossing_id": "X00070", "area_ac": 2.4 }, "geometry": { "type": "Polygon", "coordinates": [ [ [ -120.169330113523358, 39.142115850682217 ], [ -120.169464474645096, 39.142227222932 ], [ -120.16946014604072, 39.142335224323965 ], [ -120.169061444042256, 39.143046243930371 ], [ -120.168444549708155, 39.14285106916244 ], [ -120.167930224984715, 39.142406136815325 ], [ -120.167822590301228, 39.142205323968206 ], [ -120.167848592619336, 39.142133885260201 ], [ -120.16824298991591, 39.142107440160686 ], [ -120.169330113523358, 39.142115850682217 ] ] ] } }
]
}
