{
"type": "FeatureCollection",
"name": "X00023",
"crs": { "type": "name", "properties": { "name": "urn:ogc:def:crs:OGC:1.3:CRS84" } },
"features": [
{ "type": "Feature", "properties": { "part": "direct", "crossing_id": "X00023", "area_ac": 0.2, "n_upstream": null }, "geometry": { "type": "Polygon", "coordinates": [ [ [ -120.167915854376076, 39.098316200007815 ], [ -120.167885546682584, 39.098495641858321 ], [ -120.167976507990559, 39.098533888861091 ], [ -120.16783357953824, 39.09863852140905 ], [ -120.167515936044978, 39.098486655869962 ], [ -120.16789563657899, 39.098243637051148 ], [ -120.167899960781597, 39.098135634986946 ], [ -120.167915854376076, 39.098316200007815 ] ] ] } },
{ "type": "Feature", "properties": { "part": "upstream", "crossing_id": "X00023", "area_ac": 1.9, "n_upstream": 1.0 }, "geometry": { "type": "Polygon", "coordinates": [ [ [ -120.17040634521635, 39.097908252897369 ], [ -120.170496587237679, 39.097964498341689 ], [ -120.169732829020063, 39.09798198148691 ], [ -120.168877435169293, 39.098555786621034 ], [ -120.168021988682639, 39.098553012337135 ], [ -120.167885546682584, 39.098495641858321 ], [ -120.167902843570431, 39.098063633609449 ], [ -120.167997407707674, 39.098011878851231 ], [ -120.169199355693507, 39.098023073415 ], [ -120.169573286066338, 39.097924051753452 ], [ -120.17040634521635, 39.097908252897369 ] ] ] } }
]
}
