{
"type": "FeatureCollection",
"name": "X00168",
"crs": { "type": "name", "properties": { "name": "urn:ogc:def:crs:OGC:1.3:CRS84" } },
"features": [
{ "type": "Feature", "properties": { "part": "direct", "crossing_id": "X00168", "area_ac": 0.0 }, "geometry": { "type": "MultiPolygon", "coordinates": [ [ [ [ -120.147032174360916, 39.15054455605663 ], [ -120.147054564264508, 39.150563122256976 ], [ -120.147031447000415, 39.150562555912408 ], [ -120.147032174360916, 39.15054455605663 ] ] ], [ [ [ -120.147009784469063, 39.150525989852412 ], [ -120.147032174360916, 39.15054455605663 ], [ -120.147009057103361, 39.150543989707842 ], [ -120.147009784469063, 39.150525989852412 ] ] ], [ [ [ -120.146987394588976, 39.1505074236442 ], [ -120.147009784469063, 39.150525989852412 ], [ -120.146986667218059, 39.150525423499403 ], [ -120.146987394588976, 39.1505074236442 ] ] ], [ [ [ -120.146965004720627, 39.150488857432123 ], [ -120.146987394588976, 39.1505074236442 ], [ -120.146964277344452, 39.150506857286977 ], [ -120.146965004720627, 39.150488857432123 ] ] ], [ [ [ -120.146942614864017, 39.150470291216116 ], [ -120.146965004720627, 39.150488857432123 ], [ -120.14694188748264, 39.150488291070687 ], [ -120.146942614864017, 39.150470291216116 ] ] ], [ [ [ -120.146920225019144, 39.150451724996159 ], [ -120.146942614864017, 39.150470291216116 ], [ -120.146919497632553, 39.150469724850474 ], [ -120.146920225019144, 39.150451724996159 ] ] ], [ [ [ -120.146897835186053, 39.150433158772309 ], [ -120.146920225019144, 39.150451724996159 ], [ -120.146897107794217, 39.150451158626296 ], [ -120.146897835186053, 39.150433158772309 ] ] ], [ [ [ -120.146875445364685, 39.150414592544543 ], [ -120.146897835186053, 39.150433158772309 ], [ -120.146874717967663, 39.150432592398225 ], [ -120.146875445364685, 39.150414592544543 ] ] ], [ [ [ -120.14685451035767, 39.150360026605796 ], [ -120.146829210941576, 39.150413459783358 ], [ -120.146831393164064, 39.150359460223989 ], [ -120.14685451035767, 39.150360026605796 ] ] ] ] } }
]
}
