{
"type": "FeatureCollection",
"name": "X00180",
"crs": { "type": "name", "properties": { "name": "urn:ogc:def:crs:OGC:1.3:CRS84" } },
"features": [
{ "type": "Feature", "properties": { "part": "direct", "crossing_id": "X00180", "area_ac": 5.6 }, "geometry": { "type": "Polygon", "coordinates": [ [ [ -120.102097520488513, 39.18483940081255 ], [ -120.101998743515523, 39.186116180986637 ], [ -120.102267403039605, 39.186339077669366 ], [ -120.101656262853751, 39.185999550597217 ], [ -120.100875093440919, 39.185853978307527 ], [ -120.100190139926511, 39.18562071017157 ], [ -120.099591038683357, 39.185551733900517 ], [ -120.09927909726153, 39.185255682991667 ], [ -120.099337199311833, 39.184968851565387 ], [ -120.100843452245911, 39.184934300624626 ], [ -120.101124683043082, 39.184851216321157 ], [ -120.101677525178587, 39.184919033018303 ], [ -120.102097520488513, 39.18483940081255 ] ] ] } }
]
}
