{
"type": "FeatureCollection",
"name": "X00126",
"crs": { "type": "name", "properties": { "name": "urn:ogc:def:crs:OGC:1.3:CRS84" } },
"features": [
{ "type": "Feature", "properties": { "part": "direct", "crossing_id": "X00126", "area_ac": 0.8 }, "geometry": { "type": "Polygon", "coordinates": [ [ [ -120.152091606475096, 39.071516273035122 ], [ -120.152199100197137, 39.071717096930875 ], [ -120.152423500876822, 39.071884742092585 ], [ -120.152475401201329, 39.072318439479368 ], [ -120.152362838016828, 39.072243617066611 ], [ -120.151742256259865, 39.072156377335602 ], [ -120.151727854167291, 39.071939810798 ], [ -120.151820945028362, 39.071924068465187 ], [ -120.152091606475096, 39.071516273035122 ] ] ] } }
]
}
