{
"type": "FeatureCollection",
"name": "X00149",
"crs": { "type": "name", "properties": { "name": "urn:ogc:def:crs:OGC:1.3:CRS84" } },
"features": [
{ "type": "Feature", "properties": { "part": "direct", "crossing_id": "X00149", "area_ac": 25.7, "n_upstream": null }, "geometry": { "type": "Polygon", "coordinates": [ [ [ -120.154366345740129, 39.054022410621982 ], [ -120.154479606338001, 39.054079230035292 ], [ -120.154425481590863, 39.054276105574743 ], [ -120.154491847640315, 39.054349797804228 ], [ -120.154276843204173, 39.054524726891273 ], [ -120.154197462162372, 39.054775039312403 ], [ -120.154103671410866, 39.054808784705784 ], [ -120.15409499428435, 39.055024787854144 ], [ -120.153856900484513, 39.055199152233961 ], [ -120.153850391994041, 39.055361154550525 ], [ -120.153418926008811, 39.055747010014088 ], [ -120.15328758065435, 39.056140195683668 ], [ -120.153375587082323, 39.056250453011728 ], [ -120.153301263937578, 39.056374762847192 ], [ -120.153366907292053, 39.056466455969797 ], [ -120.153294753904945, 39.056536765052726 ], [ -120.153307713865559, 39.056789332449327 ], [ -120.153066718387421, 39.057035695839687 ], [ -120.153032780209998, 39.057305135394117 ], [ -120.152727585448872, 39.057423804187863 ], [ -120.152417324574529, 39.05766847373588 ], [ -120.152136661692069, 39.057751704588732 ], [ -120.151906514723862, 39.057728061964177 ], [ -120.151809823998605, 39.057833806181897 ], [ -120.151866057984464, 39.058159502934863 ], [ -120.151563752978106, 39.058206167596573 ], [ -120.151370368851218, 39.058417655268151 ], [ -120.151140220080038, 39.058394011060578 ], [ -120.151132980699998, 39.058574013109855 ], [ -120.150855932906481, 39.058567239665734 ], [ -120.150492968844532, 39.058972776400672 ], [ -120.150145933160204, 39.058982307708206 ], [ -120.15021229871796, 39.059056002322727 ], [ -120.150036201827362, 39.059412053619951 ], [ -120.150173278850559, 39.059451441832678 ], [ -120.150188400179445, 39.059650008512307 ], [ -120.150020992616319, 39.059790057486119 ], [ -120.149813927706617, 39.059766975171428 ], [ -120.149715782320428, 39.059908717755874 ], [ -120.149482731905934, 39.059957070822058 ], [ -120.14933768558862, 39.060115683669842 ], [ -120.149202056766853, 39.060040294107495 ], [ -120.149038268937957, 39.060090340713678 ], [ -120.14891486009202, 39.060285518174219 ], [ -120.14856202091967, 39.060439045799797 ], [ -120.148607371584319, 39.061034745882537 ], [ -120.148786279355633, 39.061183266663875 ], [ -120.149336772156872, 39.061286824325641 ], [ -120.149561858572213, 39.061436473614087 ], [ -120.149669331412142, 39.061637299314015 ], [ -120.149586302653844, 39.061977608273324 ], [ -120.14903860471837, 39.062378620973455 ], [ -120.148899349021178, 39.062393231728578 ], [ -120.148327209504927, 39.062253106397009 ], [ -120.148024885078911, 39.062299761105692 ], [ -120.14802705955573, 39.062245760672361 ], [ -120.147773811496094, 39.062221544316138 ], [ -120.147776711044159, 39.062149543753044 ], [ -120.147615092140782, 39.062145587704535 ], [ -120.147555976061554, 39.061891890257982 ], [ -120.147465797624704, 39.061835629113169 ], [ -120.147537962304114, 39.061765324114504 ], [ -120.14733959254967, 39.06152623557967 ], [ -120.147346842323543, 39.0613462342166 ], [ -120.147233576605203, 39.061289407708593 ], [ -120.147331728917777, 39.061147667501956 ], [ -120.147319515443868, 39.060877100232425 ], [ -120.147159349524614, 39.060837143387303 ], [ -120.146993383391518, 39.060941187389346 ], [ -120.146679578051675, 39.060699271440996 ], [ -120.14669698090978, 39.060267268345633 ], [ -120.14677204498868, 39.060124963250672 ], [ -120.147057073047165, 39.059933745124575 ], [ -120.147194985590247, 39.059378566996926 ], [ -120.147266422931779, 39.059326262198475 ], [ -120.148006567588311, 39.059884915915262 ], [ -120.148510974304799, 39.059410776870457 ], [ -120.148793096722002, 39.059291554848905 ], [ -120.14882342967681, 39.059112118080968 ], [ -120.148917953028786, 39.059060377099598 ], [ -120.149244799330006, 39.058978283973545 ], [ -120.149288076475941, 39.059051414271607 ], [ -120.149539865261517, 39.059111627299636 ], [ -120.149800346025827, 39.058955837613183 ], [ -120.149985045387098, 39.058960355024773 ], [ -120.150083913030642, 39.058800611936718 ], [ -120.150200074086214, 39.058785434873897 ], [ -120.150262180452131, 39.058390559894832 ], [ -120.150447602525475, 39.058377076326146 ], [ -120.150405772762198, 39.058267946034213 ], [ -120.150594090776664, 39.058182461434775 ], [ -120.150620798261173, 39.058093024971342 ], [ -120.150828582665127, 39.058098105483566 ], [ -120.15092527519154, 39.05799236215271 ], [ -120.15111069615547, 39.057978877483919 ], [ -120.1510688655531, 39.057869747394342 ], [ -120.151368350306115, 39.057318513687051 ], [ -120.151654802414953, 39.057091282913568 ], [ -120.151792599776726, 39.057112668881736 ], [ -120.151892908012016, 39.056916923523914 ], [ -120.152320771550762, 39.0566210755036 ], [ -120.152618070375013, 39.05612383862092 ], [ -120.152623858362574, 39.05597983673529 ], [ -120.152717651332139, 39.05594609262355 ], [ -120.152724886011484, 39.055766090244759 ], [ -120.152794145327263, 39.055767782456314 ], [ -120.152730673708305, 39.055622088336889 ], [ -120.152904576482626, 39.055320032635223 ], [ -120.152862744395918, 39.055210903101916 ], [ -120.152978899087927, 39.055195723017931 ], [ -120.15313116018298, 39.054857102368786 ], [ -120.153769673106794, 39.054494322913698 ], [ -120.153869971827177, 39.054298575434721 ], [ -120.154104447067908, 39.054214212214703 ], [ -120.154203298346857, 39.054054464923425 ], [ -120.154366345740129, 39.054022410621982 ] ] ] } },
{ "type": "Feature", "properties": { "part": "upstream", "crossing_id": "X00149", "area_ac": 99.2, "n_upstream": 2.0 }, "geometry": { "type": "Polygon", "coordinates": [ [ [ -120.153796962832331, 39.048062588861292 ], [ -120.153672143726141, 39.048293773537708 ], [ -120.153803417882273, 39.048477159034974 ], [ -120.154810401227522, 39.049294537206912 ], [ -120.154771415660676, 39.049689979993161 ], [ -120.15513064995595, 39.049951001116554 ], [ -120.155125591010531, 39.050077003171907 ], [ -120.154958939327614, 39.050199060358565 ], [ -120.154948097941926, 39.050469064707144 ], [ -120.155036100523077, 39.050579320708778 ], [ -120.155006467459231, 39.051317332560494 ], [ -120.154694796425673, 39.051598010255852 ], [ -120.154687567820758, 39.051778013072003 ], [ -120.154570696148852, 39.051811195369361 ], [ -120.154507175847215, 39.052242074699173 ], [ -120.154730800477381, 39.052427714095529 ], [ -120.154726463248878, 39.052535715774006 ], [ -120.155176607712875, 39.052834992286577 ], [ -120.155252326578577, 39.053251253062896 ], [ -120.155088558507074, 39.053301308972223 ], [ -120.15510730740651, 39.053409874247819 ], [ -120.15487066737424, 39.053548240476893 ], [ -120.154769649664104, 39.053761989258632 ], [ -120.154203298346857, 39.054054464923425 ], [ -120.154104447067908, 39.054214212214703 ], [ -120.153869971827177, 39.054298575434721 ], [ -120.153769673106794, 39.054494322913698 ], [ -120.153227121353012, 39.054769357031311 ], [ -120.152978899087927, 39.055195723017931 ], [ -120.15280020766555, 39.055225951671034 ], [ -120.152907470107763, 39.055248031665073 ], [ -120.152730673708305, 39.055622088336889 ], [ -120.152797039110723, 39.055695781498613 ], [ -120.152717651332139, 39.05594609262355 ], [ -120.152623858362574, 39.05597983673529 ], [ -120.152618070375013, 39.05612383862092 ], [ -120.152320771550762, 39.0566210755036 ], [ -120.151892908012016, 39.056916923523914 ], [ -120.151792599776726, 39.057112668881736 ], [ -120.151654802414953, 39.057091282913568 ], [ -120.151247124687231, 39.057459693487836 ], [ -120.151164109574509, 39.057800004250488 ], [ -120.1510688655531, 39.057869747394342 ], [ -120.15111069615547, 39.057978877483919 ], [ -120.15092527519154, 39.05799236215271 ], [ -120.150828582665127, 39.058098105483566 ], [ -120.150620798261173, 39.058093024971342 ], [ -120.150594090776664, 39.058182461434775 ], [ -120.150405772762198, 39.058267946034213 ], [ -120.150447602525475, 39.058377076326146 ], [ -120.150262180452131, 39.058390559894832 ], [ -120.150200074086214, 39.058785434873897 ], [ -120.150083913030642, 39.058800611936718 ], [ -120.149985045387098, 39.058960355024773 ], [ -120.149800346025827, 39.058955837613183 ], [ -120.149632939454861, 39.059095886076257 ], [ -120.149470602875255, 39.059109933034662 ], [ -120.149106274859449, 39.058974895061681 ], [ -120.148847241661315, 39.059094682801572 ], [ -120.148793096722002, 39.059291554848905 ], [ -120.148582410757314, 39.059358471229977 ], [ -120.1483399407836, 39.059640824123704 ], [ -120.147960392221506, 39.059883785784123 ], [ -120.147243335444884, 39.059325696995408 ], [ -120.147375445851736, 39.058914519656824 ], [ -120.147248520675362, 39.058623126241464 ], [ -120.147268093516601, 39.058137122342046 ], [ -120.148008434373921, 39.057542635559102 ], [ -120.148018580221901, 39.057290633329565 ], [ -120.14825452111576, 39.057170282229961 ], [ -120.148258868919356, 39.057062281245976 ], [ -120.148443563099406, 39.057066800916225 ], [ -120.148712007952938, 39.056713011551587 ], [ -120.148876512488698, 39.056644964921453 ], [ -120.149143504735378, 39.056327174757087 ], [ -120.149354905367503, 39.056242256790988 ], [ -120.149348478454726, 39.055827687798782 ], [ -120.149499309614669, 39.05552507300218 ], [ -120.149431499323214, 39.055487378467987 ], [ -120.14951967914844, 39.054444496883434 ], [ -120.149589661206463, 39.054428190757456 ], [ -120.149552180137448, 39.054211059069807 ], [ -120.14956594039198, 39.053869055385036 ], [ -120.14963519766421, 39.053870749403949 ], [ -120.149740575781109, 39.053549004473368 ], [ -120.149651854097982, 39.053456744886169 ], [ -120.149739214964725, 39.053008433861308 ], [ -120.149628132647379, 39.052897609438439 ], [ -120.150156285614003, 39.052406024954223 ], [ -120.150268174734208, 39.051922277410164 ], [ -120.150044563844233, 39.051736629925074 ], [ -120.150552515555887, 39.051172477712299 ], [ -120.151038173510315, 39.050013186696809 ], [ -120.152029495878764, 39.048920305605044 ], [ -120.153056107178259, 39.048098546608728 ], [ -120.153370660570346, 39.04774587172777 ], [ -120.153796962832331, 39.048062588861292 ] ], [ [ -120.152157200948423, 39.054941412324588 ], [ -120.152609519058728, 39.055186698110383 ], [ -120.152781310586363, 39.055222061692184 ], [ -120.152157200948423, 39.054941412324588 ] ] ] } }
]
}
