{
"type": "FeatureCollection",
"name": "X00127",
"crs": { "type": "name", "properties": { "name": "urn:ogc:def:crs:OGC:1.3:CRS84" } },
"features": [
{ "type": "Feature", "properties": { "part": "direct", "crossing_id": "X00127", "area_ac": 0.5 }, "geometry": { "type": "Polygon", "coordinates": [ [ [ -120.150484616857582, 39.071242752374523 ], [ -120.150755194824896, 39.071411529966028 ], [ -120.151014271414866, 39.071291739760149 ], [ -120.150956499435068, 39.071578613139465 ], [ -120.150720513262172, 39.07169896783725 ], [ -120.150630320138205, 39.071642708668087 ], [ -120.150558872165803, 39.071695015063298 ], [ -120.150260130644256, 39.071651673303045 ], [ -120.150367710770368, 39.071275929088074 ], [ -120.150484616857582, 39.071242752374523 ] ] ] } }
]
}
