{
"type": "FeatureCollection",
"name": "X00167",
"crs": { "type": "name", "properties": { "name": "urn:ogc:def:crs:OGC:1.3:CRS84" } },
"features": [
{ "type": "Feature", "properties": { "part": "direct", "crossing_id": "X00167", "area_ac": 0.2 }, "geometry": { "type": "Polygon", "coordinates": [ [ [ -120.149232699559263, 39.153355150486291 ], [ -120.148945830633011, 39.153582357229489 ], [ -120.148599783389713, 39.153555866791052 ], [ -120.148674954364949, 39.153413566006527 ], [ -120.148951646222315, 39.153438358216036 ], [ -120.149023908663878, 39.153368056684535 ], [ -120.149232699559263, 39.153355150486291 ] ] ] } }
]
}
