{
"type": "FeatureCollection",
"name": "X00132",
"crs": { "type": "name", "properties": { "name": "urn:ogc:def:crs:OGC:1.3:CRS84" } },
"features": [
{ "type": "Feature", "properties": { "part": "direct", "crossing_id": "X00132", "area_ac": 0.1 }, "geometry": { "type": "Polygon", "coordinates": [ [ [ -120.15086268453733, 39.07161235495181 ], [ -120.151019255335868, 39.07174230843394 ], [ -120.150898002573598, 39.071883486620109 ], [ -120.150694524108516, 39.071770403797139 ], [ -120.15086268453733, 39.07161235495181 ] ] ] } }
]
}
