{
"type": "FeatureCollection",
"name": "X00145",
"crs": { "type": "name", "properties": { "name": "urn:ogc:def:crs:OGC:1.3:CRS84" } },
"features": [
{ "type": "Feature", "properties": { "part": "direct", "crossing_id": "X00145", "area_ac": 122.1 }, "geometry": { "type": "Polygon", "coordinates": [ [ [ -120.150808129052862, 39.04941297117746 ], [ -120.15138306659631, 39.04948107996853 ], [ -120.151447977926011, 39.049590774174888 ], [ -120.151038173510315, 39.050013186696809 ], [ -120.150552515555887, 39.051172477712299 ], [ -120.150044563844233, 39.051736629925074 ], [ -120.150268174734208, 39.051922277410164 ], [ -120.150156285614003, 39.052406024954223 ], [ -120.149628132647379, 39.052897609438439 ], [ -120.149739214964725, 39.053008433861308 ], [ -120.149651854097982, 39.053456744886169 ], [ -120.149740575781109, 39.053549004473368 ], [ -120.14963519766421, 39.053870749403949 ], [ -120.14956594039198, 39.053869055385036 ], [ -120.149589661206463, 39.054428190757456 ], [ -120.14951967914844, 39.054444496883434 ], [ -120.149556435956171, 39.054679628766706 ], [ -120.149445985066365, 39.055127374705336 ], [ -120.149431499323214, 39.055487378467987 ], [ -120.149499309614669, 39.05552507300218 ], [ -120.149348478454726, 39.055827687798782 ], [ -120.149354905367503, 39.056242256790988 ], [ -120.149143504735378, 39.056327174757087 ], [ -120.148876512488698, 39.056644964921453 ], [ -120.148712007952938, 39.056713011551587 ], [ -120.148443563099406, 39.057066800916225 ], [ -120.148258868919356, 39.057062281245976 ], [ -120.14825452111576, 39.057170282229961 ], [ -120.148018580221901, 39.057290633329565 ], [ -120.148008434373921, 39.057542635559102 ], [ -120.147268093516601, 39.058137122342046 ], [ -120.147342209693903, 39.059165956493246 ], [ -120.147170448150931, 39.059414002058872 ], [ -120.147057073047165, 39.059933745124575 ], [ -120.14677204498868, 39.060124963250672 ], [ -120.146562688133329, 39.060732444968941 ], [ -120.146294941601013, 39.061068228076046 ], [ -120.146649847304332, 39.06143727663968 ], [ -120.147079821951081, 39.061664019016256 ], [ -120.147027119879738, 39.061824889649309 ], [ -120.146735557484817, 39.062178108484069 ], [ -120.146642478693948, 39.062193847209421 ], [ -120.146241877094653, 39.062958805860283 ], [ -120.146025375038349, 39.063169717976464 ], [ -120.145331262842276, 39.063188751336064 ], [ -120.145310350751629, 39.063134185406156 ], [ -120.144598230318181, 39.06302664811929 ], [ -120.143764861963703, 39.063060277535541 ], [ -120.143773128351583, 39.061709139881692 ], [ -120.14363750290471, 39.061633743963412 ], [ -120.14355386156312, 39.061415479221168 ], [ -120.143306426585085, 39.061247252715617 ], [ -120.143222786662648, 39.061028987777924 ], [ -120.14304243934879, 39.0609164590361 ], [ -120.143188953072055, 39.060721854489138 ], [ -120.143114026344691, 39.060287588609981 ], [ -120.143259812489177, 39.060110983974987 ], [ -120.143243258674005, 39.059948417283273 ], [ -120.143002363709584, 39.059618189638243 ], [ -120.143310486701466, 39.059427547015368 ], [ -120.1433184721066, 39.059229546140216 ], [ -120.142832331824735, 39.058677091260378 ], [ -120.141805910856945, 39.057769044286076 ], [ -120.141923523990712, 39.057717875356126 ], [ -120.141977686367454, 39.057521007123697 ], [ -120.142478483549539, 39.057136895268513 ], [ -120.142844385925429, 39.056659384440941 ], [ -120.142972885883239, 39.056338213112845 ], [ -120.142845257112086, 39.05606481571612 ], [ -120.143814295095012, 39.055530016341017 ], [ -120.144559713609908, 39.054809550556854 ], [ -120.14456406667604, 39.054701549877059 ], [ -120.144805807662777, 39.054437204684184 ], [ -120.145206245849181, 39.054248818345272 ], [ -120.14556558714203, 39.053933298684328 ], [ -120.14643788363378, 39.053504214396071 ], [ -120.147016582551728, 39.052905774833754 ], [ -120.147021656416442, 39.052779773729199 ], [ -120.14743947283921, 39.052159375178377 ], [ -120.147532538162295, 39.052143635294321 ], [ -120.147873845366206, 39.051701541360849 ], [ -120.147952519824614, 39.051469234014824 ], [ -120.148116288009902, 39.051419188156828 ], [ -120.148192063320806, 39.051258881320841 ], [ -120.148524669061487, 39.051032787332325 ], [ -120.148792364464839, 39.050696996784723 ], [ -120.149411395566418, 39.050243674640228 ], [ -120.149787989485631, 39.05007270662913 ], [ -120.149815418345113, 39.049965269954853 ], [ -120.150219437965546, 39.049686863737911 ], [ -120.150808129052862, 39.04941297117746 ] ] ] } }
]
}
