{
"type": "FeatureCollection",
"name": "X00157",
"crs": { "type": "name", "properties": { "name": "urn:ogc:def:crs:OGC:1.3:CRS84" } },
"features": [
{ "type": "Feature", "properties": { "part": "direct", "crossing_id": "X00157", "area_ac": 1.5 }, "geometry": { "type": "Polygon", "coordinates": [ [ [ -120.149271403024315, 39.160419023669242 ], [ -120.150334221518179, 39.160463055674242 ], [ -120.150308920601276, 39.160516489490391 ], [ -120.150031473602297, 39.160509699362535 ], [ -120.150071173157116, 39.160672829948062 ], [ -120.149732218672952, 39.161042904575083 ], [ -120.149522677973749, 39.16107381067895 ], [ -120.149237958256819, 39.161247017174958 ], [ -120.148937387850609, 39.161239658296964 ], [ -120.149068261261661, 39.160864491769274 ], [ -120.14916292522318, 39.160812756427937 ], [ -120.149150710822681, 39.160542192514406 ], [ -120.149271403024315, 39.160419023669242 ] ] ] } }
]
}
