{
"type": "FeatureCollection",
"name": "X00112",
"crs": { "type": "name", "properties": { "name": "urn:ogc:def:crs:OGC:1.3:CRS84" } },
"features": [
{ "type": "Feature", "properties": { "part": "direct", "crossing_id": "X00112", "area_ac": 163.1 }, "geometry": { "type": "MultiPolygon", "coordinates": [ [ [ [ -120.204781188957881, 39.150773845245006 ], [ -120.204826713286181, 39.150792955777717 ], [ -120.204780476302901, 39.150791845997183 ], [ -120.204781188957881, 39.150773845245006 ] ] ], [ [ [ -120.208831253182069, 39.147249392465554 ], [ -120.208882817321651, 39.147701075233769 ], [ -120.209579186426964, 39.148816853195719 ], [ -120.20995049772354, 39.149960875693303 ], [ -120.210874883560862, 39.150577608054164 ], [ -120.211266476855883, 39.150623021715603 ], [ -120.211303471100592, 39.150858140002612 ], [ -120.211672658542241, 39.150884997901812 ], [ -120.211982814121541, 39.151234763235024 ], [ -120.21212081600406, 39.151256084844519 ], [ -120.212566846086801, 39.151681172818286 ], [ -120.212861707339812, 39.151832373108206 ], [ -120.21314946433418, 39.152163581460783 ], [ -120.213444328878168, 39.152314780381516 ], [ -120.213664153583679, 39.152608326229945 ], [ -120.215769924871225, 39.154370389203294 ], [ -120.21668448358227, 39.155239091755682 ], [ -120.217007456522978, 39.155264828434163 ], [ -120.217212699902049, 39.155341804662925 ], [ -120.216936676595779, 39.155299172697028 ], [ -120.216556106824072, 39.155560345305986 ], [ -120.216348024298966, 39.155555371585002 ], [ -120.215918370532577, 39.155887440281184 ], [ -120.21561709564989, 39.155898255106507 ], [ -120.215333260315958, 39.156053629196357 ], [ -120.215081776378554, 39.15597554384496 ], [ -120.214938792853218, 39.156080231639578 ], [ -120.214424461065235, 39.156212072876507 ], [ -120.213941773485544, 39.156128454404396 ], [ -120.213704885197032, 39.156266929751688 ], [ -120.213426729148992, 39.156278292021973 ], [ -120.212552080612625, 39.156743841904969 ], [ -120.211880872716904, 39.156745791546008 ], [ -120.211808666917761, 39.156816134222318 ], [ -120.211111493199368, 39.156889529165632 ], [ -120.210665799898848, 39.157041015245305 ], [ -120.209651338111328, 39.156944640335695 ], [ -120.208972300030666, 39.157144581944671 ], [ -120.208676714358674, 39.157011372213098 ], [ -120.207727346042361, 39.157024647913758 ], [ -120.207528518215739, 39.156785648193846 ], [ -120.207054383324504, 39.156485992052126 ], [ -120.206847724302918, 39.156444999735534 ], [ -120.205927576708234, 39.155720229900027 ], [ -120.205662961188764, 39.155389559348706 ], [ -120.20562384672057, 39.15520844228012 ], [ -120.205467707794469, 39.1550605527163 ], [ -120.205351395677482, 39.155075779362363 ], [ -120.205170712447057, 39.154963336088379 ], [ -120.205048385137246, 39.154545989696238 ], [ -120.204848860416689, 39.154324986634123 ], [ -120.204879819964617, 39.154127533381747 ], [ -120.204767785762371, 39.154034755043142 ], [ -120.204603499945733, 39.153508293949393 ], [ -120.204218312162652, 39.153300850844268 ], [ -120.204066457655969, 39.153044955207825 ], [ -120.203861949483056, 39.152949955798753 ], [ -120.203895762663237, 39.152680499915682 ], [ -120.203783731995699, 39.152587720739724 ], [ -120.203811841681727, 39.152462270728101 ], [ -120.203981516724127, 39.15226814827836 ], [ -120.204360686513581, 39.152043019185882 ], [ -120.204325853540738, 39.151753897324248 ], [ -120.204572721594928, 39.15136343063665 ], [ -120.204612945289725, 39.150931967616508 ], [ -120.204756645150709, 39.150809291851857 ], [ -120.20503691751162, 39.150743947294927 ], [ -120.205135804499704, 39.150584159810187 ], [ -120.205046181111527, 39.150509937457933 ], [ -120.205098831013359, 39.150349040303141 ], [ -120.204965821675756, 39.150201705209291 ], [ -120.2051269372501, 39.15022358981421 ], [ -120.205152905744228, 39.150152141592351 ], [ -120.205382663694508, 39.150193691024306 ], [ -120.206542524607471, 39.149536839464375 ], [ -120.206612261865942, 39.148943922613043 ], [ -120.206777647835025, 39.148857800125306 ], [ -120.206787617137479, 39.14860578907485 ], [ -120.206979680065018, 39.148430216766293 ], [ -120.206945549248672, 39.148123094412199 ], [ -120.206605905621416, 39.147934769501013 ], [ -120.206519132367674, 39.147788545164765 ], [ -120.206694484874916, 39.147450411619765 ], [ -120.206934203508197, 39.147239946598233 ], [ -120.208831253182069, 39.147249392465554 ] ] ] ] } }
]
}
