{
"type": "FeatureCollection",
"name": "X00161",
"crs": { "type": "name", "properties": { "name": "urn:ogc:def:crs:OGC:1.3:CRS84" } },
"features": [
{ "type": "Feature", "properties": { "part": "direct", "crossing_id": "X00161", "area_ac": 2.6 }, "geometry": { "type": "Polygon", "coordinates": [ [ [ -120.149753274417208, 39.157656099241095 ], [ -120.150220027731038, 39.157559416868494 ], [ -120.150067364102796, 39.158474581727525 ], [ -120.149951037719404, 39.158489752347947 ], [ -120.149827442739024, 39.158684921598038 ], [ -120.149638121490469, 39.158788393559725 ], [ -120.14926529342597, 39.158851337573729 ], [ -120.149178629563465, 39.158705074611468 ], [ -120.14899657809309, 39.15862854686749 ], [ -120.14911668512417, 39.157946816203562 ], [ -120.14905386927903, 39.157783119333331 ], [ -120.149261219330654, 39.157806213309655 ], [ -120.149334213175152, 39.157717911916613 ], [ -120.149472204171715, 39.15773930756324 ], [ -120.149569771114571, 39.157615572208591 ], [ -120.149753274417208, 39.157656099241095 ] ] ] } }
]
}
