{
"type": "FeatureCollection",
"name": "X00190",
"crs": { "type": "name", "properties": { "name": "urn:ogc:def:crs:OGC:1.3:CRS84" } },
"features": [
{ "type": "Feature", "properties": { "part": "direct", "crossing_id": "X00190", "area_ac": 72.1, "n_upstream": null }, "geometry": { "type": "MultiPolygon", "coordinates": [ [ [ [ -120.112366228649066, 39.185094550265298 ], [ -120.112388619426241, 39.185113123108223 ], [ -120.112365491552254, 39.185112549466766 ], [ -120.112366228649066, 39.185094550265298 ] ] ], [ [ [ -120.113731537282945, 39.182281642524615 ], [ -120.114500619601969, 39.182156566233331 ], [ -120.114772251774966, 39.182307438099784 ], [ -120.114878313800105, 39.182544293948489 ], [ -120.114972294868238, 39.182510587865004 ], [ -120.115081303208413, 39.182675446552764 ], [ -120.114978485528923, 39.182925143718535 ], [ -120.115185894126313, 39.18294830067213 ], [ -120.115159085261467, 39.183037723874222 ], [ -120.115357658883582, 39.183276871580546 ], [ -120.115348389257392, 39.184069411760682 ], [ -120.11511711336361, 39.184063681141737 ], [ -120.114856082036553, 39.184219370128069 ], [ -120.114849454063076, 39.184381363319225 ], [ -120.114941964807272, 39.184383655849778 ], [ -120.115074103445963, 39.184549087726644 ], [ -120.115235997672016, 39.184553099309142 ], [ -120.115254707342373, 39.184661667867573 ], [ -120.115158514340095, 39.184749371807229 ], [ -120.115223479620269, 39.184859086528299 ], [ -120.115499541271376, 39.184901961582732 ], [ -120.115676465503711, 39.185104537387446 ], [ -120.115924247151383, 39.185272833280969 ], [ -120.116017495321657, 39.185257125742623 ], [ -120.116007188883955, 39.185509115361747 ], [ -120.115869156642049, 39.185487678468945 ], [ -120.11583793012251, 39.185685097320736 ], [ -120.115767809484566, 39.185701377669375 ], [ -120.115829831590958, 39.185883089119528 ], [ -120.115922344383662, 39.185885380944818 ], [ -120.115930012146819, 39.186263938248509 ], [ -120.115757069932059, 39.186529916255772 ], [ -120.115840748570534, 39.186748199193893 ], [ -120.115746025818837, 39.186799905011817 ], [ -120.115690933290281, 39.187014750001261 ], [ -120.11571111667844, 39.187087320000117 ], [ -120.115871544308263, 39.187127329415674 ], [ -120.115867126762055, 39.187235324919705 ], [ -120.115644978962408, 39.187572153647537 ], [ -120.11469183984623, 39.1882331998114 ], [ -120.114374956905266, 39.188621730475589 ], [ -120.114092250928493, 39.18874084521935 ], [ -120.114171506109543, 39.189067124496397 ], [ -120.11404701880177, 39.189280248359921 ], [ -120.113925477963534, 39.189421375204269 ], [ -120.113666634234718, 39.189523062926618 ], [ -120.113629503920762, 39.189864474426926 ], [ -120.113349739572129, 39.189911590295175 ], [ -120.113407052835242, 39.189642749247639 ], [ -120.113260623868783, 39.189260751445467 ], [ -120.11241046313387, 39.188536986085069 ], [ -120.111185097708415, 39.187930027335454 ], [ -120.110767778361847, 39.187379147131587 ], [ -120.110916875215722, 39.187130602576033 ], [ -120.111216808399334, 39.187156062791971 ], [ -120.111336138070627, 39.187068936323563 ], [ -120.11134129993151, 39.18694294206859 ], [ -120.111456942202949, 39.186945811358001 ], [ -120.111625477405966, 39.186787835512803 ], [ -120.112018660430678, 39.186797589638182 ], [ -120.112117808940965, 39.186637891801524 ], [ -120.112303573063116, 39.186624482151039 ], [ -120.112239348137919, 39.186496766742515 ], [ -120.112615297969015, 39.18636195151587 ], [ -120.112671873244167, 39.186111109886888 ], [ -120.112812116517574, 39.18607855296397 ], [ -120.11298138357013, 39.185902575735163 ], [ -120.112848510658665, 39.185755140810997 ], [ -120.113014092073541, 39.185669159539266 ], [ -120.11297594243527, 39.185470021180151 ], [ -120.11310263620679, 39.185202900571866 ], [ -120.112939266888006, 39.18523488439034 ], [ -120.112851914018094, 39.185106595765568 ], [ -120.112712409731543, 39.185121153607284 ], [ -120.112646711208271, 39.185029436831641 ], [ -120.112415432719573, 39.185023700733318 ], [ -120.112389356517198, 39.185095123906386 ], [ -120.112173557858426, 39.184711404111518 ], [ -120.112186089067876, 39.184405417707822 ], [ -120.112069713730662, 39.184420548495751 ], [ -120.111983100575159, 39.184274260101382 ], [ -120.111821207453289, 39.184270244023075 ], [ -120.111417716118623, 39.184512478397203 ], [ -120.111390901807951, 39.184601900508952 ], [ -120.111179803110531, 39.184668732581088 ], [ -120.111268627101737, 39.184761023965557 ], [ -120.111300135324981, 39.185122155374195 ], [ -120.111137502945056, 39.185136137456524 ], [ -120.111149569651317, 39.185406699067961 ], [ -120.110913865377086, 39.185508955016218 ], [ -120.110667097256098, 39.185881198048698 ], [ -120.110630482067876, 39.187339704784208 ], [ -120.110688803994307, 39.187611414323179 ], [ -120.110888848995415, 39.187814571070639 ], [ -120.110880735964173, 39.188012561932453 ], [ -120.110660775083929, 39.188295382623473 ], [ -120.110554244301056, 39.188635070589029 ], [ -120.110220110149541, 39.188879021679469 ], [ -120.109570282880838, 39.188916942084546 ], [ -120.109387464262255, 39.188858350550937 ], [ -120.109315125247619, 39.18892862425394 ], [ -120.108642168284121, 39.188965965140945 ], [ -120.108984426629746, 39.188524028300854 ], [ -120.109063407753183, 39.188291762546577 ], [ -120.108973844545787, 39.188217468606894 ], [ -120.108980486912316, 39.188055476362742 ], [ -120.109169945018067, 39.187952076178171 ], [ -120.109174372926418, 39.187844081325693 ], [ -120.109498912743462, 39.187834122075458 ], [ -120.110278389799021, 39.187457088168294 ], [ -120.110172337119536, 39.187220228602698 ], [ -120.109629796244505, 39.186900463186511 ], [ -120.109454845232875, 39.186085333343875 ], [ -120.109025004467355, 39.185840433189398 ], [ -120.109089709261838, 39.185391603119498 ], [ -120.108955369723958, 39.185280162373708 ], [ -120.108984401285298, 39.185136743515073 ], [ -120.108874666125914, 39.184989878713417 ], [ -120.108900745796603, 39.184918456458867 ], [ -120.109179754524689, 39.18488934977502 ], [ -120.10923412676928, 39.184692507633784 ], [ -120.109328113183949, 39.18465880632872 ], [ -120.109310150565662, 39.184532238004131 ], [ -120.10949812280667, 39.184464835171397 ], [ -120.109501811855694, 39.184374839381114 ], [ -120.109830024291327, 39.184274882794753 ], [ -120.110023896741012, 39.184063485737418 ], [ -120.109960415752411, 39.183917770096265 ], [ -120.10984330317703, 39.183950897836255 ], [ -120.1097761340353, 39.183895177933117 ], [ -120.109714866908476, 39.183695464687148 ], [ -120.110118358880342, 39.183453236232992 ], [ -120.110559252424579, 39.18342814437117 ], [ -120.110655449011247, 39.183340444363466 ], [ -120.11088377190751, 39.183418180483081 ], [ -120.110911323732381, 39.183310759295644 ], [ -120.111238792030193, 39.183228797646244 ], [ -120.111241741365262, 39.183156800888156 ], [ -120.111895200819816, 39.183028873093036 ], [ -120.112344198985497, 39.182805783086479 ], [ -120.113055981905092, 39.182949557635517 ], [ -120.113203586891501, 39.182737007774513 ], [ -120.113296832143263, 39.182721302308089 ], [ -120.113375791548251, 39.182489032649421 ], [ -120.113538417535594, 39.182475047187694 ], [ -120.113731537282945, 39.182281642524615 ] ], [ [ -120.114123656583715, 39.184579584497989 ], [ -120.113773057011329, 39.184660980785011 ], [ -120.11352925405734, 39.184961233723797 ], [ -120.11362102868074, 39.184981526552619 ], [ -120.113741825163132, 39.184858398892978 ], [ -120.114020095700724, 39.184847279743991 ], [ -120.114123656583715, 39.184579584497989 ] ], [ [ -120.111838163197717, 39.183856262510723 ], [ -120.111768043630363, 39.183872540486611 ], [ -120.111766569195069, 39.183908538878093 ], [ -120.111838163197717, 39.183856262510723 ] ], [ [ -120.113829492487611, 39.182716490748177 ], [ -120.113527366528501, 39.182745035603759 ], [ -120.1136385818766, 39.182855897841073 ], [ -120.114050451209764, 39.182974213053022 ], [ -120.113846726344619, 39.182861057927575 ], [ -120.113829492487611, 39.182716490748177 ] ] ] ] } },
{ "type": "Feature", "properties": { "part": "upstream", "crossing_id": "X00190", "area_ac": 194.0, "n_upstream": 33.0 }, "geometry": { "type": "MultiPolygon", "coordinates": [ [ [ [ -120.113961625552008, 39.182881923715627 ], [ -120.114050451209764, 39.182974213053022 ], [ -120.1136385818766, 39.182855897841073 ], [ -120.11352810326693, 39.182727036376519 ], [ -120.113669076078224, 39.18267647890881 ], [ -120.113829492487611, 39.182716490748177 ], [ -120.113846726344619, 39.182861057927575 ], [ -120.113961625552008, 39.182881923715627 ] ] ], [ [ [ -120.116263924477821, 39.184326320113684 ], [ -120.116147549896425, 39.18434145501837 ], [ -120.116214724706637, 39.184397171443329 ], [ -120.116164788722003, 39.184486022011519 ], [ -120.116387969591486, 39.184689742539206 ], [ -120.116402264710217, 39.184906306575968 ], [ -120.11653882396898, 39.184963741338159 ], [ -120.116386807258991, 39.185284291150687 ], [ -120.116249511420378, 39.185244855457022 ], [ -120.116009397417201, 39.18545511758736 ], [ -120.116017495321657, 39.185257125742623 ], [ -120.115924247151383, 39.185272833280969 ], [ -120.115676465503711, 39.185104537387446 ], [ -120.115499541271376, 39.184901961582732 ], [ -120.115223479620269, 39.184859086528299 ], [ -120.115156305211258, 39.184803369547687 ], [ -120.115235997672016, 39.184553099309142 ], [ -120.115074103445963, 39.184549087726644 ], [ -120.114941964807272, 39.184383655849778 ], [ -120.114849454063076, 39.184381363319225 ], [ -120.114856082036553, 39.184219370128069 ], [ -120.11511711336361, 39.184063681141737 ], [ -120.116089208680947, 39.184069747397437 ], [ -120.116176566425523, 39.184198033783659 ], [ -120.116269077037629, 39.184200325251638 ], [ -120.116263924477821, 39.184326320113684 ] ] ], [ [ [ -120.11362102868074, 39.184981526552619 ], [ -120.11352925405734, 39.184961233723797 ], [ -120.113773057011329, 39.184660980785011 ], [ -120.114123656583715, 39.184579584497989 ], [ -120.114020095700724, 39.184847279743991 ], [ -120.113741825163132, 39.184858398892978 ], [ -120.11362102868074, 39.184981526552619 ] ] ], [ [ [ -120.112851914018094, 39.185106595765568 ], [ -120.112939266888006, 39.18523488439034 ], [ -120.11310263620679, 39.185202900571866 ], [ -120.11297594243527, 39.185470021180151 ], [ -120.113014092073541, 39.185669159539266 ], [ -120.112848510658665, 39.185755140810997 ], [ -120.11298138357013, 39.185902575735163 ], [ -120.112812116517574, 39.18607855296397 ], [ -120.112671873244167, 39.186111109886888 ], [ -120.112615297969015, 39.18636195151587 ], [ -120.112239348137919, 39.186496766742515 ], [ -120.112303573063116, 39.186624482151039 ], [ -120.112070077779734, 39.186672742753366 ], [ -120.112066391704403, 39.186762738712183 ], [ -120.111855286971746, 39.186829571770247 ], [ -120.111625477405966, 39.186787835512803 ], [ -120.111456942202949, 39.186945811358001 ], [ -120.111317434066578, 39.186960367376095 ], [ -120.111277076528665, 39.18681522618936 ], [ -120.111336138070627, 39.187068936323563 ], [ -120.111123556857237, 39.187171766344086 ], [ -120.110916875215722, 39.187130602576033 ], [ -120.110770728613019, 39.187307150454878 ], [ -120.110788694268393, 39.187433718625748 ], [ -120.110924515788625, 39.18750915913845 ], [ -120.111185097708415, 39.187930027335454 ], [ -120.111230617795002, 39.187949174325709 ], [ -120.11125300912002, 39.187967747401984 ], [ -120.111275400456833, 39.187986320474309 ], [ -120.111274602912218, 39.18798630068482 ], [ -120.112229854503084, 39.188424401393014 ], [ -120.112903823113953, 39.18892758903656 ], [ -120.113347245226407, 39.189407039107358 ], [ -120.113400420256028, 39.189804742080653 ], [ -120.113349739572129, 39.189911590295175 ], [ -120.112952853365854, 39.189991835995855 ], [ -120.112883464914162, 39.189990115215444 ], [ -120.112845314061673, 39.189790976869105 ], [ -120.112880516537089, 39.190062111993235 ], [ -120.112729945331466, 39.190346657365161 ], [ -120.112633281205348, 39.191010906420942 ], [ -120.112376641560942, 39.191058593406659 ], [ -120.112276749503977, 39.191236290328362 ], [ -120.112288082906502, 39.191524850956718 ], [ -120.111915791268729, 39.191569668097436 ], [ -120.111922114576785, 39.191554315731459 ], [ -120.111914227646793, 39.191554606432426 ], [ -120.111877913413707, 39.191929077749187 ], [ -120.111708628295716, 39.192105052568905 ], [ -120.111477594101103, 39.192657861765476 ], [ -120.111409944700299, 39.193178689638756 ], [ -120.11154430258587, 39.193290128126286 ], [ -120.111559320415807, 39.193488692824396 ], [ -120.112367417283735, 39.193544775071175 ], [ -120.112456253360065, 39.193637065902266 ], [ -120.112448880351167, 39.193817057664027 ], [ -120.112348246796984, 39.19401275360844 ], [ -120.112160988343149, 39.194062160928759 ], [ -120.112459476913557, 39.194123617380704 ], [ -120.112470810800446, 39.194412177911396 ], [ -120.112581304420004, 39.194541040766303 ], [ -120.112537528924918, 39.195044443931209 ], [ -120.111624822380847, 39.194715505329832 ], [ -120.111654591149858, 39.194554086789594 ], [ -120.111606111278164, 39.194715734062797 ], [ -120.11169200283895, 39.194771224515414 ], [ -120.112833810272321, 39.195159897109349 ], [ -120.113362879083581, 39.195245087123752 ], [ -120.113397347884415, 39.195534221230957 ], [ -120.113279479924785, 39.19558535089535 ], [ -120.11341237104088, 39.195732785835922 ], [ -120.113327497117297, 39.196109047970921 ], [ -120.113305907719393, 39.196108512621315 ], [ -120.113317177090636, 39.196361036522099 ], [ -120.113259061887433, 39.196403464029409 ], [ -120.113265753786777, 39.196485883594747 ], [ -120.113191935816189, 39.19659215783895 ], [ -120.113137250943041, 39.196523702243475 ], [ -120.113120329239962, 39.196644434493315 ], [ -120.1132121187389, 39.196664728173275 ], [ -120.113119891529536, 39.196813258571979 ], [ -120.113228615785999, 39.196827294400251 ], [ -120.113196637726119, 39.197042710920499 ], [ -120.113311559573077, 39.197063578163025 ], [ -120.113525186874185, 39.19750129432488 ], [ -120.113839452734268, 39.197743313198096 ], [ -120.113872449986715, 39.198068445544926 ], [ -120.113941109409552, 39.198088165217818 ], [ -120.113838998953568, 39.198319860622568 ], [ -120.113929316757464, 39.198376152190214 ], [ -120.113763705552984, 39.19846213352654 ], [ -120.11382425746946, 39.198679844288613 ], [ -120.113533400469549, 39.198996946923124 ], [ -120.113517639679898, 39.19881638156982 ], [ -120.113662331027328, 39.198675829540491 ], [ -120.113574961649149, 39.198547541045919 ], [ -120.113482432443547, 39.19854524674011 ], [ -120.113403909702328, 39.198200968001821 ], [ -120.112812058316393, 39.197952063740473 ], [ -120.112778328678672, 39.197644930441243 ], [ -120.112571615536993, 39.197603768493416 ], [ -120.112423702479802, 39.19725776797732 ], [ -120.112266204142713, 39.197145756429336 ], [ -120.111966228100698, 39.197120297353301 ], [ -120.111602020200067, 39.196967121638643 ], [ -120.111516869460118, 39.196784834327914 ], [ -120.111219108421437, 39.196705375943992 ], [ -120.111313848036474, 39.19665367451082 ], [ -120.111248879236214, 39.196543957622026 ], [ -120.110792887574092, 39.196370484339106 ], [ -120.110767542640701, 39.196423907667167 ], [ -120.110536227183559, 39.196418166449938 ], [ -120.110331732887431, 39.196323003291006 ], [ -120.110289897394097, 39.196213860110198 ], [ -120.109901090589119, 39.196096103430953 ], [ -120.109714563096063, 39.196127507400277 ], [ -120.109648121123243, 39.196053787969831 ], [ -120.109162361768455, 39.19604172631167 ], [ -120.108742305295735, 39.196121381687881 ], [ -120.10941606897174, 39.196066043695978 ], [ -120.109502689664581, 39.196212334085303 ], [ -120.109125942545276, 39.196365135979988 ], [ -120.108035808966321, 39.196410129378833 ], [ -120.107870934398889, 39.196478103159514 ], [ -120.10771344534956, 39.196366085770627 ], [ -120.10789332737032, 39.196496676926948 ], [ -120.106952552969602, 39.196851667121031 ], [ -120.10682729026226, 39.197082780754833 ], [ -120.10668997788477, 39.197043333189136 ], [ -120.106569886211219, 39.197148452985843 ], [ -120.106455705556272, 39.197109580082852 ], [ -120.105872979206708, 39.197203198935398 ], [ -120.105758059792493, 39.19718232441884 ], [ -120.105628139204768, 39.196962885033869 ], [ -120.105534134424829, 39.196996582606474 ], [ -120.105377387367966, 39.196866563104585 ], [ -120.105102026182436, 39.196805663533461 ], [ -120.105038545687592, 39.19665994543675 ], [ -120.104790013778441, 39.196509625166051 ], [ -120.104682489414543, 39.196308759189229 ], [ -120.104713014220948, 39.196129344039399 ], [ -120.104377875111695, 39.19583272941415 ], [ -120.104285350218902, 39.195830427936869 ], [ -120.104088261567028, 39.195555263790361 ], [ -120.103630076739137, 39.195435760406234 ], [ -120.103476295178538, 39.195233742455855 ], [ -120.103247943867515, 39.195155990807656 ], [ -120.103185208245321, 39.194992272837723 ], [ -120.103092684552507, 39.194989970454415 ], [ -120.1032447843494, 39.194669441530976 ], [ -120.103109697984237, 39.194575992899424 ], [ -120.103185007838675, 39.194433727458289 ], [ -120.102964796523963, 39.194157986079531 ], [ -120.102991625796932, 39.194068566575375 ], [ -120.103155759181249, 39.194018598677843 ], [ -120.1034458997553, 39.193719521765246 ], [ -120.10362590213802, 39.193596376831685 ], [ -120.10356820842118, 39.193560407989217 ], [ -120.103242902712992, 39.193588348696451 ], [ -120.102655023907005, 39.193807945578612 ], [ -120.102519200113065, 39.193732495359541 ], [ -120.102505687494386, 39.193497932417479 ], [ -120.10222738259057, 39.193509022661992 ], [ -120.101934826948309, 39.193303548304456 ], [ -120.101941486678882, 39.193141557210687 ], [ -120.102082488236817, 39.19309101495476 ], [ -120.101989227174087, 39.193106710800343 ], [ -120.101508671928656, 39.192968624938622 ], [ -120.101274963070466, 39.192458317783469 ], [ -120.101044402734999, 39.192434559206525 ], [ -120.100909323549175, 39.19234110825878 ], [ -120.100959284547415, 39.192252265273495 ], [ -120.100802556331232, 39.192122240227363 ], [ -120.100834568917548, 39.191906828291778 ], [ -120.100680802679761, 39.191704807128595 ], [ -120.100689685642394, 39.191488819182922 ], [ -120.100620296470964, 39.191487091044571 ], [ -120.10069634780173, 39.191326828217257 ], [ -120.10058217998224, 39.191287949990823 ], [ -120.100482077744473, 39.19090709077603 ], [ -120.100366430103492, 39.190904210352045 ], [ -120.100302964126683, 39.190758490109033 ], [ -120.100166408343739, 39.19070103641446 ], [ -120.100156605288376, 39.190376478454866 ], [ -120.099999882579255, 39.190246452502954 ], [ -120.099679034265378, 39.190166389865212 ], [ -120.099732697315872, 39.189987552454163 ], [ -120.099527496421629, 39.189910370442519 ], [ -120.099758788290373, 39.189916132719638 ], [ -120.100277254602219, 39.189694821188262 ], [ -120.100544440900748, 39.189953720031227 ], [ -120.100752603895103, 39.18995890428922 ], [ -120.101268847534101, 39.18979158525628 ], [ -120.101344895346557, 39.189631321840203 ], [ -120.101485150116275, 39.189598779047728 ], [ -120.102419585824208, 39.190522912456494 ], [ -120.102654596621107, 39.190937381827048 ], [ -120.102659215382502, 39.190889225299628 ], [ -120.103029288564912, 39.190898434967743 ], [ -120.103244110975822, 39.19074162354277 ], [ -120.103819391784356, 39.190828006377458 ], [ -120.104031254824335, 39.190743189624257 ], [ -120.104629362668163, 39.190827419126293 ], [ -120.104825051541511, 39.190582758802542 ], [ -120.104916091314195, 39.19062105772683 ], [ -120.105201036364591, 39.19044796896587 ], [ -120.105524110110665, 39.190474019426148 ], [ -120.10555167345268, 39.190366600031261 ], [ -120.105763533180323, 39.190281779987394 ], [ -120.105722446799632, 39.190154636383866 ], [ -120.105820136653719, 39.190030942869349 ], [ -120.105542584477874, 39.190024042503595 ], [ -120.105597710575353, 39.189809203663792 ], [ -120.105765526737571, 39.189669236205447 ], [ -120.106160201380831, 39.189643012525373 ], [ -120.106773379878888, 39.18936997359377 ], [ -120.107710360913103, 39.189104976320657 ], [ -120.108572781105366, 39.188964241830959 ], [ -120.109315125247619, 39.18892862425394 ], [ -120.109456851386824, 39.188860073371899 ], [ -120.109462610454159, 39.188973726396057 ], [ -120.109477766632253, 39.188914645068053 ], [ -120.110220110149541, 39.188879021679469 ], [ -120.110481168976264, 39.188723344232287 ], [ -120.11065339889636, 39.18847537426528 ], [ -120.110736062494198, 39.188153111338529 ], [ -120.110880735964173, 39.188012561932453 ], [ -120.110888848995415, 39.187814571070639 ], [ -120.110776893220432, 39.187721705324613 ], [ -120.110871620649903, 39.187670003742269 ], [ -120.110732848573718, 39.18766655983115 ], [ -120.110649922667008, 39.187430274633144 ], [ -120.110667097256098, 39.185881198048698 ], [ -120.110737956596097, 39.185846921652249 ], [ -120.110783065505913, 39.185876068309689 ], [ -120.110784950279054, 39.185830070420508 ], [ -120.110691700435211, 39.185845773691589 ], [ -120.110887049976895, 39.185598376960364 ], [ -120.110937730822897, 39.185491529773067 ], [ -120.111149569651317, 39.185406699067961 ], [ -120.111137502945056, 39.185136137456524 ], [ -120.111300135324981, 39.185122155374195 ], [ -120.111268627101737, 39.184761023965557 ], [ -120.111179803110531, 39.184668732581088 ], [ -120.111843597831808, 39.184288816958023 ], [ -120.111983100575159, 39.184274260101382 ], [ -120.112024195616172, 39.184401401900374 ], [ -120.112186089067876, 39.184405417707822 ], [ -120.112153378681043, 39.184638833634665 ], [ -120.112359907590815, 39.185119273677259 ], [ -120.112646711208271, 39.185029436831641 ], [ -120.112712409731543, 39.185121153607284 ], [ -120.112851914018094, 39.185106595765568 ] ], [ [ -120.11102540885075, 39.187872012321932 ], [ -120.111184485467149, 39.187944970045905 ], [ -120.111185097708415, 39.187930027335454 ], [ -120.11102540885075, 39.187872012321932 ] ], [ [ -120.111191538132843, 39.187948204620028 ], [ -120.111229935991119, 39.187965815072054 ], [ -120.111230617795002, 39.187949174325709 ], [ -120.111191538132843, 39.187948204620028 ] ], [ [ -120.111233070511034, 39.187967252659455 ], [ -120.11125266126345, 39.187976237578837 ], [ -120.11125300912002, 39.187967747401984 ], [ -120.111233070511034, 39.187967252659455 ] ], [ [ -120.108012480813187, 39.195927842089176 ], [ -120.108146058127474, 39.195980449507573 ], [ -120.108742305295735, 39.196121381687881 ], [ -120.108012480813187, 39.195927842089176 ] ], [ [ -120.112467126522844, 39.185457402478413 ], [ -120.112446492751872, 39.185454405541087 ], [ -120.112455333154045, 39.185745389701765 ], [ -120.112467126522844, 39.185457402478413 ] ], [ [ -120.112068486528528, 39.185228180392023 ], [ -120.11205966901872, 39.185231086086041 ], [ -120.112167937036958, 39.185413946535391 ], [ -120.112068486528528, 39.185228180392023 ] ], [ [ -120.111619501628311, 39.185238184035995 ], [ -120.111813713705786, 39.185176697859887 ], [ -120.111784345934566, 39.185170203709518 ], [ -120.111619501628311, 39.185238184035995 ] ], [ [ -120.111584661761611, 39.185322779632443 ], [ -120.111616552460191, 39.185310180792321 ], [ -120.111726293951634, 39.1854570432331 ], [ -120.111619501628311, 39.185238184035995 ], [ -120.111584661761611, 39.185322779632443 ] ], [ [ -120.111600164278727, 39.185848101359952 ], [ -120.111641426864438, 39.185833304844991 ], [ -120.111726293951634, 39.1854570432331 ], [ -120.111600164278727, 39.185848101359952 ] ], [ [ -120.109417141749788, 39.189150970359272 ], [ -120.109350313845511, 39.18919975995707 ], [ -120.109367539235748, 39.18934432737472 ], [ -120.109417141749788, 39.189150970359272 ] ], [ [ -120.10834295701315, 39.190206684333994 ], [ -120.108359939868166, 39.190202160194588 ], [ -120.108654565405885, 39.190162304888759 ], [ -120.108302477247364, 39.190173106125172 ], [ -120.10834295701315, 39.190206684333994 ] ], [ [ -120.108104986170943, 39.19019918643702 ], [ -120.108234077344321, 39.190175204349053 ], [ -120.108129383611981, 39.190178415838034 ], [ -120.108104986170943, 39.19019918643702 ] ], [ [ -120.107517679644445, 39.190415463601141 ], [ -120.107512559073271, 39.190427893997203 ], [ -120.108150393207339, 39.190257982057972 ], [ -120.108009306330516, 39.190283537747312 ], [ -120.108010840616046, 39.190279336459433 ], [ -120.107985438501089, 39.190300962289328 ], [ -120.107517679644445, 39.190415463601141 ] ], [ [ -120.107522666550409, 39.190499122981578 ], [ -120.107502390130662, 39.190452579506719 ], [ -120.107466251211576, 39.190540307999626 ], [ -120.107522666550409, 39.190499122981578 ] ], [ [ -120.107329689478689, 39.190482862508517 ], [ -120.106882842132407, 39.190651933188001 ], [ -120.107352080492973, 39.190501436320176 ], [ -120.107466251211576, 39.190540307999626 ], [ -120.107329689478689, 39.190482862508517 ] ], [ [ -120.105936970771793, 39.191132911819572 ], [ -120.105950107960624, 39.191126231617019 ], [ -120.105928032454472, 39.191129947831357 ], [ -120.105936970771793, 39.191132911819572 ] ], [ [ -120.105525808988688, 39.19099656767898 ], [ -120.105914128406866, 39.191125337181745 ], [ -120.105916057756147, 39.191078339583058 ], [ -120.105525808988688, 39.19099656767898 ] ], [ [ -120.104664797304778, 39.19099655285941 ], [ -120.105291556171323, 39.191062813000528 ], [ -120.104693141568646, 39.190975862073316 ], [ -120.104664797304778, 39.19099655285941 ] ], [ [ -120.104556581476061, 39.190918413383898 ], [ -120.104506099254564, 39.19158380325046 ], [ -120.104614950455726, 39.191032940085414 ], [ -120.104549928276143, 39.191080404914665 ], [ -120.104556581476061, 39.190918413383898 ] ], [ [ -120.1115357813716, 39.195758308627298 ], [ -120.112634289789597, 39.196073839134172 ], [ -120.111447236238959, 39.195691230005082 ], [ -120.111445468822964, 39.195702015376057 ], [ -120.110715595831749, 39.195431658455767 ], [ -120.1115357813716, 39.195758308627298 ] ], [ [ -120.109835871837078, 39.195427838587975 ], [ -120.108607704007994, 39.195451393081569 ], [ -120.110715595831749, 39.195431658455767 ], [ -120.109835871837078, 39.195427838587975 ] ], [ [ -120.107405892851219, 39.194268420651362 ], [ -120.107417525760695, 39.19398493490845 ], [ -120.107392667181756, 39.194128287477753 ], [ -120.107385201673608, 39.194233473184894 ], [ -120.107405892851219, 39.194268420651362 ] ], [ [ -120.107309479888585, 39.192103931139243 ], [ -120.107233442386772, 39.192264198802967 ], [ -120.107244062651262, 39.192334530564338 ], [ -120.107309479888585, 39.192103931139243 ] ], [ [ -120.107128237639472, 39.191778035143834 ], [ -120.107110347786517, 39.19176566011631 ], [ -120.107114604470311, 39.191774774618551 ], [ -120.107020607404067, 39.191808473704299 ], [ -120.107128237639472, 39.191778035143834 ] ], [ [ -120.107239117165278, 39.191561659202641 ], [ -120.107072037679146, 39.191683629590848 ], [ -120.107088290441709, 39.191718430421083 ], [ -120.107239117165278, 39.191561659202641 ] ], [ [ -120.1109254596943, 39.186356064167029 ], [ -120.110940432320362, 39.186361161618315 ], [ -120.110797015583628, 39.18610063199408 ], [ -120.1109254596943, 39.186356064167029 ] ], [ [ -120.110933750428558, 39.185984209013192 ], [ -120.110920827573537, 39.185995212211516 ], [ -120.110953754734794, 39.185992623637539 ], [ -120.110933750428558, 39.185984209013192 ] ], [ [ -120.111426599252042, 39.185910340501351 ], [ -120.111167107385157, 39.185975850653826 ], [ -120.111265478247333, 39.185968116971118 ], [ -120.111426599252042, 39.185910340501351 ] ], [ [ -120.112178435962932, 39.188549248278377 ], [ -120.112165803103338, 39.188557380606724 ], [ -120.112167322056607, 39.188558640507054 ], [ -120.112178435962932, 39.188549248278377 ] ], [ [ -120.112154569725817, 39.188566673740766 ], [ -120.112154656460106, 39.18856455618932 ], [ -120.112135430471639, 39.188576932794319 ], [ -120.112142271653681, 39.188579810288019 ], [ -120.112157723680582, 39.18856675197631 ], [ -120.112154569725817, 39.188566673740766 ] ], [ [ -120.112082970943902, 39.188618950095702 ], [ -120.112088602231921, 39.188607078136485 ], [ -120.112064740122605, 39.188622439179838 ], [ -120.112078410698956, 39.18863377829387 ], [ -120.112113340183626, 39.188604259886645 ], [ -120.112082970943902, 39.188618950095702 ] ], [ [ -120.11205910465975, 39.188636375536582 ], [ -120.112059538346514, 39.188625787780289 ], [ -120.112039474348521, 39.188638703808223 ], [ -120.112056182829804, 39.188652562728691 ], [ -120.112074874447856, 39.188636766727001 ], [ -120.11205910465975, 39.188636375536582 ] ], [ [ -120.112035238363788, 39.18865380097207 ], [ -120.11203575879253, 39.188641095664835 ], [ -120.112014208562869, 39.188654968430619 ], [ -120.112033954948728, 39.188671347158817 ], [ -120.11205416211385, 39.188654270404349 ], [ -120.112035238363788, 39.18865380097207 ] ], [ [ -120.11203344976947, 39.18867177407764 ], [ -120.112011372056074, 39.188671226402214 ], [ -120.112011979228285, 39.188656403544094 ], [ -120.111988942765649, 39.188671233047089 ], [ -120.112010634774947, 39.18868922558697 ], [ -120.111987505736593, 39.188688651826929 ], [ -120.111988199653808, 39.18867171141806 ], [ -120.111893081253541, 39.18873294286113 ], [ -120.111891303027093, 39.188776352654621 ], [ -120.111845044898843, 39.188775205080432 ], [ -120.111722763364497, 39.18893432868218 ], [ -120.11203344976947, 39.18867177407764 ] ], [ [ -120.111870433991243, 39.188747521763695 ], [ -120.111821742345853, 39.188778866387985 ], [ -120.111845044898843, 39.188775205080432 ], [ -120.111870433991243, 39.188747521763695 ] ], [ [ -120.112070055284931, 39.191195128163258 ], [ -120.112237862635965, 39.191055151040302 ], [ -120.112241426175189, 39.190968154997861 ], [ -120.112070055284931, 39.191195128163258 ] ], [ [ -120.112423362866039, 39.190483193208856 ], [ -120.112526338430584, 39.190026662129299 ], [ -120.112459762307111, 39.19015978154323 ], [ -120.112423362866039, 39.190483193208856 ] ], [ [ -120.112572023945688, 39.189935313294306 ], [ -120.112637841918556, 39.189849664746738 ], [ -120.112611071295703, 39.189857237348185 ], [ -120.112572023945688, 39.189935313294306 ] ], [ [ -120.109801223521913, 39.190060778845556 ], [ -120.109824475944563, 39.190058353198708 ], [ -120.109803560141927, 39.190003781551482 ], [ -120.109801223521913, 39.190060778845556 ] ], [ [ -120.111753143995543, 39.191583650475089 ], [ -120.111814681416462, 39.191558275517806 ], [ -120.111037917650947, 39.191586902612762 ], [ -120.111753143995543, 39.191583650475089 ] ], [ [ -120.110461076569081, 39.192038059181002 ], [ -120.110523382443503, 39.191605862579372 ], [ -120.110501912693763, 39.191606653662497 ], [ -120.110461076569081, 39.192038059181002 ] ], [ [ -120.110433035195399, 39.1924679804888 ], [ -120.1104276176127, 39.192289473157444 ], [ -120.110370290293631, 39.192558312124682 ], [ -120.110433035195399, 39.1924679804888 ] ], [ [ -120.108772826579568, 39.192554684445959 ], [ -120.108776091472222, 39.192530156323784 ], [ -120.10854143637232, 39.19258461568581 ], [ -120.110370290293631, 39.192558312124682 ], [ -120.108772826579568, 39.192554684445959 ] ], [ [ -120.108929619924908, 39.191578327634183 ], [ -120.10893089684383, 39.191603531093023 ], [ -120.110086311293813, 39.191578320103979 ], [ -120.108929619924908, 39.191578327634183 ] ], [ [ -120.111368250228182, 39.190240808232815 ], [ -120.111358873566559, 39.190469654814059 ], [ -120.111382529953204, 39.190457372171117 ], [ -120.111368250228182, 39.190240808232815 ] ], [ [ -120.111499384350481, 39.189865695078659 ], [ -120.111510714690326, 39.190154255714894 ], [ -120.111503808995067, 39.189757700039522 ], [ -120.111499384350481, 39.189865695078659 ] ], [ [ -120.111112822268652, 39.189693946061681 ], [ -120.111148300973142, 39.189619153079057 ], [ -120.111094333119141, 39.1897012090297 ], [ -120.111112822268652, 39.189693946061681 ] ], [ [ -120.109105940862122, 39.190110349001522 ], [ -120.109306614950768, 39.19010900279396 ], [ -120.10919776712484, 39.190096845307856 ], [ -120.109105940862122, 39.190110349001522 ] ], [ [ -120.111371242743914, 39.194951848543106 ], [ -120.111369397544252, 39.194904850934734 ], [ -120.111361530070297, 39.194925181933343 ], [ -120.111371242743914, 39.194951848543106 ] ], [ [ -120.111489724212959, 39.194622066010936 ], [ -120.111434604591182, 39.19464872550936 ], [ -120.111465118087182, 39.194657490390533 ], [ -120.111450319850775, 39.194695732047592 ], [ -120.111488986642613, 39.194640065168983 ], [ -120.111542411883462, 39.194674580818315 ], [ -120.111489724212959, 39.194622066010936 ] ], [ [ -120.113288944621473, 39.19610809198668 ], [ -120.11323497113041, 39.196106753587358 ], [ -120.11323946025496, 39.196162043381179 ], [ -120.113288944621473, 39.19610809198668 ] ], [ [ -120.112969803575425, 39.196242065270255 ], [ -120.112973152403512, 39.196280435423056 ], [ -120.113153044468845, 39.196411018804184 ], [ -120.112969803575425, 39.196242065270255 ] ], [ [ -120.107418806360641, 39.193080298249427 ], [ -120.107435211757632, 39.193055275955267 ], [ -120.107417851088286, 39.193059304830122 ], [ -120.107418806360641, 39.193080298249427 ] ], [ [ -120.107364602669236, 39.191889091388461 ], [ -120.107410387079639, 39.192895272868896 ], [ -120.107419725074777, 39.19167425159204 ], [ -120.107364602669236, 39.191889091388461 ] ], [ [ -120.111272883196392, 39.194602271510092 ], [ -120.111053924246903, 39.194521164690926 ], [ -120.110947083231494, 39.194508685563889 ], [ -120.111272883196392, 39.194602271510092 ] ], [ [ -120.110839570304748, 39.194496127854187 ], [ -120.11031065819904, 39.194434348435429 ], [ -120.110313456062102, 39.194471350118377 ], [ -120.110839570304748, 39.194496127854187 ] ], [ [ -120.11030557526162, 39.194367126630226 ], [ -120.110420277343167, 39.194163106672626 ], [ -120.110299458310266, 39.194286229897635 ], [ -120.11030557526162, 39.194367126630226 ] ], [ [ -120.110400577648335, 39.193513989234482 ], [ -120.110438176836382, 39.193500508530654 ], [ -120.110382183973357, 39.193473732916239 ], [ -120.110420277343167, 39.194163106672626 ], [ -120.110400577648335, 39.193513989234482 ] ], [ [ -120.110480271563105, 39.193485415988427 ], [ -120.11049457559254, 39.193480287451038 ], [ -120.110502056285142, 39.19342135334113 ], [ -120.110480271563105, 39.193485415988427 ] ], [ [ -120.110600058596134, 39.193133154887839 ], [ -120.110625721401263, 39.193105175863565 ], [ -120.110614770966748, 39.193089889529006 ], [ -120.110600058596134, 39.193133154887839 ] ], [ [ -120.110311006668042, 39.193439696081526 ], [ -120.110308055303946, 39.19351169265309 ], [ -120.110358695454821, 39.193462500765335 ], [ -120.110311006668042, 39.193439696081526 ] ], [ [ -120.107624911916346, 39.193445059881356 ], [ -120.107621957810551, 39.19351705628204 ], [ -120.107658558820361, 39.193517102532496 ], [ -120.107624911916346, 39.193445059881356 ] ], [ [ -120.110107032470381, 39.194461627795249 ], [ -120.11026680401126, 39.194469152890498 ], [ -120.110017460670363, 39.194387334393333 ], [ -120.110107032470381, 39.194461627795249 ] ], [ [ -120.109204190031775, 39.194457229396313 ], [ -120.109219475231939, 39.194457259103544 ], [ -120.109205666328066, 39.194421231151566 ], [ -120.109204190031775, 39.194457229396313 ] ], [ [ -120.10419062436776, 39.191936305206248 ], [ -120.104176037031465, 39.191893548369713 ], [ -120.104119016400404, 39.191988576283705 ], [ -120.10419062436776, 39.191936305206248 ] ], [ [ -120.10256334596653, 39.191739348591312 ], [ -120.103545204793662, 39.191866196496406 ], [ -120.102578187900889, 39.191734028268975 ], [ -120.10256334596653, 39.191739348591312 ] ], [ [ -120.102345604893131, 39.192322814764132 ], [ -120.102349482933448, 39.192323672590938 ], [ -120.102500866187043, 39.191761745410417 ], [ -120.102484188947045, 39.191767723610333 ], [ -120.102345604893131, 39.192322814764132 ] ], [ [ -120.103963502443506, 39.193365412541183 ], [ -120.10420825850305, 39.19319796466722 ], [ -120.104329165963463, 39.193064123735077 ], [ -120.103963502443506, 39.193365412541183 ] ], [ [ -120.107366745982517, 39.195222372552855 ], [ -120.107366351224712, 39.195101784461947 ], [ -120.107261373678043, 39.194827874806585 ], [ -120.107366745982517, 39.195222372552855 ] ], [ [ -120.106943502428749, 39.195003653495554 ], [ -120.107002558532358, 39.195069183136127 ], [ -120.107366745982517, 39.195222372552855 ], [ -120.106943502428749, 39.195003653495554 ] ], [ [ -120.106869682451105, 39.194921741407583 ], [ -120.106886678198464, 39.194940600240834 ], [ -120.106856894084729, 39.194669179377478 ], [ -120.106869682451105, 39.194921741407583 ] ], [ [ -120.107298597106336, 39.194626103497669 ], [ -120.107274481357024, 39.194649527517875 ], [ -120.107365035282953, 39.19469982414342 ], [ -120.107298597106336, 39.194626103497669 ] ], [ [ -120.107513152925449, 39.195604376699201 ], [ -120.107459942079799, 39.195593778264112 ], [ -120.107804257764627, 39.195845836115687 ], [ -120.107882212114333, 39.195876537499956 ], [ -120.107513152925449, 39.195604376699201 ] ], [ [ -120.107360845004862, 39.195574040224535 ], [ -120.107306449353516, 39.195563205722124 ], [ -120.107259694189409, 39.195587184535512 ], [ -120.107360845004862, 39.195574040224535 ] ] ], [ [ [ -120.11196363940536, 39.188706077246252 ], [ -120.111964376698936, 39.188688078062285 ], [ -120.111986768448901, 39.188706651011245 ], [ -120.11196363940536, 39.188706077246252 ] ] ], [ [ [ -120.11194051036243, 39.188705503476662 ], [ -120.111962902111117, 39.188724076430191 ], [ -120.111939773062332, 39.188723502660231 ], [ -120.11194051036243, 39.188705503476662 ] ] ], [ [ [ -120.111768043630363, 39.183872540486611 ], [ -120.111813561336376, 39.183891687168405 ], [ -120.111766569195069, 39.183908538878093 ], [ -120.111768043630363, 39.183872540486611 ] ] ] ] } }
]
}
