{
"type": "FeatureCollection",
"name": "X00134",
"crs": { "type": "name", "properties": { "name": "urn:ogc:def:crs:OGC:1.3:CRS84" } },
"features": [
{ "type": "Feature", "properties": { "part": "direct", "crossing_id": "X00134", "area_ac": 1.7 }, "geometry": { "type": "Polygon", "coordinates": [ [ [ -120.139293703422368, 39.067328933856778 ], [ -120.139284977287559, 39.067544933751009 ], [ -120.139090076016089, 39.067792398387162 ], [ -120.139222798867209, 39.067939799746547 ], [ -120.139101530303435, 39.068080965095092 ], [ -120.139120257047921, 39.068189531934159 ], [ -120.138978806691497, 39.068258130263935 ], [ -120.139038622942138, 39.068493830889018 ], [ -120.138986624061999, 39.068636696862811 ], [ -120.138821354963412, 39.068722727983705 ], [ -120.138232644989714, 39.068419985262921 ], [ -120.13828246281787, 39.068331119590049 ], [ -120.138582635985216, 39.06833849135095 ], [ -120.138566092190686, 39.068175924524859 ], [ -120.138475913627062, 39.06811965643918 ], [ -120.138642636376659, 39.067997625805454 ], [ -120.138556822224047, 39.067833357914388 ], [ -120.138650637260739, 39.067799626029419 ], [ -120.138712818683786, 39.067404760445648 ], [ -120.139293703422368, 39.067328933856778 ] ] ] } }
]
}
