{
"type": "FeatureCollection",
"name": "X00153",
"crs": { "type": "name", "properties": { "name": "urn:ogc:def:crs:OGC:1.3:CRS84" } },
"features": [
{ "type": "Feature", "properties": { "part": "direct", "crossing_id": "X00153", "area_ac": 0.2 }, "geometry": { "type": "Polygon", "coordinates": [ [ [ -120.152823652443871, 39.068831480813316 ], [ -120.153117318209652, 39.069000817056825 ], [ -120.153255862759863, 39.069004201928294 ], [ -120.153253691743998, 39.069058202544788 ], [ -120.152947721673939, 39.069194870038437 ], [ -120.152793323894841, 39.069010918582634 ], [ -120.152823652443871, 39.068831480813316 ] ] ] } }
]
}
