{
"type": "FeatureCollection",
"name": "X00272",
"crs": { "type": "name", "properties": { "name": "urn:ogc:def:crs:OGC:1.3:CRS84" } },
"features": [
{ "type": "Feature", "properties": { "part": "direct", "crossing_id": "X00272", "area_ac": 22.9, "n_upstream": null }, "geometry": { "type": "Polygon", "coordinates": [ [ [ -120.110871620649903, 39.187670003742269 ], [ -120.11102540885075, 39.187872012321932 ], [ -120.112229854503084, 39.188424401393014 ], [ -120.112903823113953, 39.18892758903656 ], [ -120.113347245226407, 39.189407039107358 ], [ -120.113400420256028, 39.189804742080653 ], [ -120.113349739572129, 39.189911590295175 ], [ -120.112952853365854, 39.189991835995855 ], [ -120.112883464914162, 39.189990115215444 ], [ -120.112845314061673, 39.189790976869105 ], [ -120.112611071295703, 39.189857237348185 ], [ -120.112459762307111, 39.19015978154323 ], [ -120.112423362866039, 39.190483193208856 ], [ -120.112510720997761, 39.190611482271734 ], [ -120.112070055284931, 39.191195128163258 ], [ -120.111962788601033, 39.191552816536557 ], [ -120.110501912693763, 39.191606653662497 ], [ -120.110461076569081, 39.192038059181002 ], [ -120.110546219549619, 39.192220347077878 ], [ -120.1104276176127, 39.192289473157444 ], [ -120.110370290293631, 39.192558312124682 ], [ -120.108772826579568, 39.192554684445959 ], [ -120.108806291596736, 39.192303271181082 ], [ -120.108630109196852, 39.192082686089819 ], [ -120.108941872590137, 39.191820166928437 ], [ -120.108927600368773, 39.191603603005198 ], [ -120.110086311293813, 39.191578320103979 ], [ -120.110307023261157, 39.191277501958488 ], [ -120.11026887927099, 39.191078363052007 ], [ -120.110395594521762, 39.190811246377734 ], [ -120.11080429002395, 39.190443023138741 ], [ -120.110968409941592, 39.190393043668159 ], [ -120.111216935076769, 39.190543350563694 ], [ -120.111382529953204, 39.190457372171117 ], [ -120.111368250228182, 39.190240808232815 ], [ -120.111510714690326, 39.190154255714894 ], [ -120.111503808995067, 39.189757700039522 ], [ -120.111694743157145, 39.189618297451268 ], [ -120.11182071278246, 39.189369178044778 ], [ -120.111831772924504, 39.189099190342809 ], [ -120.111717601819009, 39.189060322936449 ], [ -120.111722763364497, 39.18893432868218 ], [ -120.112178435962932, 39.188549248278377 ], [ -120.111774183022831, 39.188809482046139 ], [ -120.111448901205932, 39.188837446661459 ], [ -120.111484098031383, 39.189108582028268 ], [ -120.111064350921808, 39.189746795655687 ], [ -120.110853973840861, 39.189795627332771 ], [ -120.110751129463338, 39.190045319546805 ], [ -120.110424366235463, 39.190109279378383 ], [ -120.109612621337718, 39.190143180848821 ], [ -120.10919776712484, 39.190096845307856 ], [ -120.108778484692039, 39.190158503081797 ], [ -120.108813424279987, 39.189871091421089 ], [ -120.109367539235748, 39.18934432737472 ], [ -120.109477766632253, 39.188914645068053 ], [ -120.110220110149541, 39.188879021679469 ], [ -120.110481168976264, 39.188723344232287 ], [ -120.11065339889636, 39.18847537426528 ], [ -120.110736062494198, 39.188153111338529 ], [ -120.110880735964173, 39.188012561932453 ], [ -120.110888848995415, 39.187814571070639 ], [ -120.110776893220432, 39.187721705324613 ], [ -120.110871620649903, 39.187670003742269 ] ], [ [ -120.109548398568521, 39.190015464084773 ], [ -120.109405932135189, 39.190102014121813 ], [ -120.109824475944563, 39.190058353198708 ], [ -120.109803560141927, 39.190003781551482 ], [ -120.109548398568521, 39.190015464084773 ] ] ] } },
{ "type": "Feature", "properties": { "part": "upstream", "crossing_id": "X00272", "area_ac": 57.5, "n_upstream": 14.0 }, "geometry": { "type": "MultiPolygon", "coordinates": [ [ [ [ -120.112177698727578, 39.188567247466175 ], [ -120.112154569725817, 39.188566673740766 ], [ -120.11215530696704, 39.188548674553331 ], [ -120.112177698727578, 39.188567247466175 ] ] ], [ [ [ -120.112153832483955, 39.188584672928179 ], [ -120.112082970943902, 39.188618950095702 ], [ -120.112108311724256, 39.188565526276207 ], [ -120.112153832483955, 39.188584672928179 ] ] ], [ [ [ -120.112082233682372, 39.188636949281793 ], [ -120.11205910465975, 39.188636375536582 ], [ -120.112059841927135, 39.18861837635086 ], [ -120.112082233682372, 39.188636949281793 ] ] ], [ [ [ -120.112058367391683, 39.188654374722219 ], [ -120.112035238363788, 39.18865380097207 ], [ -120.112035975637738, 39.188635801786795 ], [ -120.112058367391683, 39.188654374722219 ] ] ], [ [ [ -120.112034501089198, 39.188671800157323 ], [ -120.112011372056074, 39.188671226402214 ], [ -120.112012109336561, 39.18865322721733 ], [ -120.112034501089198, 39.188671800157323 ] ] ], [ [ [ -120.112010634774947, 39.18868922558697 ], [ -120.111987505736593, 39.188688651826929 ], [ -120.111988243023617, 39.188670652642536 ], [ -120.112010634774947, 39.18868922558697 ] ] ], [ [ [ -120.112376641560942, 39.191058593406659 ], [ -120.112276749503977, 39.191236290328362 ], [ -120.112288082906502, 39.191524850956718 ], [ -120.111915791268729, 39.191569668097436 ], [ -120.112070055284931, 39.191195128163258 ], [ -120.112237862635965, 39.191055151040302 ], [ -120.112243760899418, 39.190911157589888 ], [ -120.112510720997761, 39.190611482271734 ], [ -120.112423362866039, 39.190483193208856 ], [ -120.112536522744932, 39.189981510694508 ], [ -120.112658804457624, 39.189822386261653 ], [ -120.112845314061673, 39.189790976869105 ], [ -120.112880516537089, 39.190062111993235 ], [ -120.112729945331466, 39.190346657365161 ], [ -120.112633281205348, 39.191010906420942 ], [ -120.112376641560942, 39.191058593406659 ] ] ], [ [ [ -120.111654591149858, 39.194554086789594 ], [ -120.111606111278164, 39.194715734062797 ], [ -120.11169200283895, 39.194771224515414 ], [ -120.112833810272321, 39.195159897109349 ], [ -120.113362879083581, 39.195245087123752 ], [ -120.113397347884415, 39.195534221230957 ], [ -120.113279479924785, 39.19558535089535 ], [ -120.11341237104088, 39.195732785835922 ], [ -120.113327497117297, 39.196109047970921 ], [ -120.113305907719393, 39.196108512621315 ], [ -120.113317177090636, 39.196361036522099 ], [ -120.113259061887433, 39.196403464029409 ], [ -120.113265753786777, 39.196485883594747 ], [ -120.113191935816189, 39.19659215783895 ], [ -120.113137250943041, 39.196523702243475 ], [ -120.113120329239962, 39.196644434493315 ], [ -120.1132121187389, 39.196664728173275 ], [ -120.113112957136565, 39.196824426267462 ], [ -120.1128831144309, 39.196782691310943 ], [ -120.11276524398501, 39.196833820352758 ], [ -120.112513744522715, 39.196755512625884 ], [ -120.112427854222062, 39.196591225065049 ], [ -120.112312196041387, 39.196588356151729 ], [ -120.112323257143586, 39.196318368667804 ], [ -120.112634289789597, 39.196073839134172 ], [ -120.111447236238959, 39.195691230005082 ], [ -120.111445468822964, 39.195702015376057 ], [ -120.110715595831749, 39.195431658455767 ], [ -120.109835871837078, 39.195427838587975 ], [ -120.108607704007994, 39.195451393081569 ], [ -120.10743023026069, 39.19536808954232 ], [ -120.107437382450129, 39.194629552008536 ], [ -120.107510468054812, 39.194541280727471 ], [ -120.107397768182196, 39.194466410684271 ], [ -120.107417525760695, 39.19398493490845 ], [ -120.107392667181756, 39.194128287477753 ], [ -120.107382762077989, 39.194267845909174 ], [ -120.107232664994783, 39.193975837115417 ], [ -120.10725260801054, 39.193489861595594 ], [ -120.107047388092496, 39.193412692198102 ], [ -120.107147296488108, 39.193235000433809 ], [ -120.107112115354454, 39.192963864470514 ], [ -120.107288061070179, 39.192625904994415 ], [ -120.107228272212822, 39.192390192485419 ], [ -120.107309479888585, 39.192103931139243 ], [ -120.107174392548714, 39.192010487173938 ], [ -120.107204908509317, 39.19183107094716 ], [ -120.107069821816523, 39.191737626881398 ], [ -120.107239117165278, 39.191561659202641 ], [ -120.107209106129176, 39.191164529513472 ], [ -120.107620773582084, 39.190724321754168 ], [ -120.107493811652944, 39.190432888035716 ], [ -120.108359939868166, 39.190202160194588 ], [ -120.109035122965267, 39.190110823995582 ], [ -120.110465533286188, 39.190101221498587 ], [ -120.110751129463338, 39.190045319546805 ], [ -120.110853973840861, 39.189795627332771 ], [ -120.111112822268652, 39.189693946061681 ], [ -120.111315556651391, 39.189266557394227 ], [ -120.111484098031383, 39.189108582028268 ], [ -120.111448901205932, 39.188837446661459 ], [ -120.111845044898843, 39.188775205080432 ], [ -120.111722763364497, 39.18893432868218 ], [ -120.111717601819009, 39.189060322936449 ], [ -120.111831772924504, 39.189099190342809 ], [ -120.11182071278246, 39.189369178044778 ], [ -120.111694743157145, 39.189618297451268 ], [ -120.111503808995067, 39.189757700039522 ], [ -120.111499384350481, 39.189865695078659 ], [ -120.111510714690326, 39.190154255714894 ], [ -120.111368250228182, 39.190240808232815 ], [ -120.111357925358874, 39.190492796602534 ], [ -120.111216935076769, 39.190543350563694 ], [ -120.110968409941592, 39.190393043668159 ], [ -120.11080429002395, 39.190443023138741 ], [ -120.110395594521762, 39.190811246377734 ], [ -120.11026887927099, 39.191078363052007 ], [ -120.110307023261157, 39.191277501958488 ], [ -120.110086311293813, 39.191578320103979 ], [ -120.108929619924908, 39.191578327634183 ], [ -120.108941872590137, 39.191820166928437 ], [ -120.108630109196852, 39.192082686089819 ], [ -120.108806291596736, 39.192303271181082 ], [ -120.108820563453122, 39.192519835087793 ], [ -120.10854143637232, 39.19258461568581 ], [ -120.110370290293631, 39.192558312124682 ], [ -120.110433035195399, 39.1924679804888 ], [ -120.1104276176127, 39.192289473157444 ], [ -120.110546219549619, 39.192220347077878 ], [ -120.110461076569081, 39.192038059181002 ], [ -120.110525780394937, 39.191589228600868 ], [ -120.111753143995543, 39.191583650475089 ], [ -120.111918003409443, 39.191515670574162 ], [ -120.111877913413707, 39.191929077749187 ], [ -120.111708628295716, 39.192105052568905 ], [ -120.111477594101103, 39.192657861765476 ], [ -120.111409944700299, 39.193178689638756 ], [ -120.11154430258587, 39.193290128126286 ], [ -120.111559320415807, 39.193488692824396 ], [ -120.112367417283735, 39.193544775071175 ], [ -120.112456253360065, 39.193637065902266 ], [ -120.112448880351167, 39.193817057664027 ], [ -120.112348246796984, 39.19401275360844 ], [ -120.112160988343149, 39.194062160928759 ], [ -120.112459476913557, 39.194123617380704 ], [ -120.112470810800446, 39.194412177911396 ], [ -120.112581304420004, 39.194541040766303 ], [ -120.112537528924918, 39.195044443931209 ], [ -120.111624822380847, 39.194715505329832 ], [ -120.111654591149858, 39.194554086789594 ] ], [ [ -120.111369397544252, 39.194904850934734 ], [ -120.111361530070297, 39.194925181933343 ], [ -120.111371242743914, 39.194951848543106 ], [ -120.111369397544252, 39.194904850934734 ] ], [ [ -120.111488986642613, 39.194640065168983 ], [ -120.111542411883462, 39.194674580818315 ], [ -120.111489724212959, 39.194622066010936 ], [ -120.111434604591182, 39.19464872550936 ], [ -120.111465118087182, 39.194657490390533 ], [ -120.111450319850775, 39.194695732047592 ], [ -120.111488986642613, 39.194640065168983 ] ], [ [ -120.11323497113041, 39.196106753587358 ], [ -120.11323946025496, 39.196162043381179 ], [ -120.113288944621473, 39.19610809198668 ], [ -120.11323497113041, 39.196106753587358 ] ], [ [ -120.112973152403512, 39.196280435423056 ], [ -120.113153044468845, 39.196411018804184 ], [ -120.112969803575425, 39.196242065270255 ], [ -120.112973152403512, 39.196280435423056 ] ], [ [ -120.107435211757632, 39.193055275955267 ], [ -120.107417851088286, 39.193059304830122 ], [ -120.107418806360641, 39.193080298249427 ], [ -120.107435211757632, 39.193055275955267 ] ], [ [ -120.107410387079639, 39.192895272868896 ], [ -120.107419725074777, 39.19167425159204 ], [ -120.107364602669236, 39.191889091388461 ], [ -120.107410387079639, 39.192895272868896 ] ], [ [ -120.111053924246903, 39.194521164690926 ], [ -120.110947083231494, 39.194508685563889 ], [ -120.111272883196392, 39.194602271510092 ], [ -120.111053924246903, 39.194521164690926 ] ], [ [ -120.11031065819904, 39.194434348435429 ], [ -120.110313456062102, 39.194471350118377 ], [ -120.110839570304748, 39.194496127854187 ], [ -120.11031065819904, 39.194434348435429 ] ], [ [ -120.110420277343167, 39.194163106672626 ], [ -120.110299458310266, 39.194286229897635 ], [ -120.11030557526162, 39.194367126630226 ], [ -120.110420277343167, 39.194163106672626 ] ], [ [ -120.110400577648335, 39.193513989234482 ], [ -120.110438176836382, 39.193500508530654 ], [ -120.110382183973357, 39.193473732916239 ], [ -120.110420277343167, 39.194163106672626 ], [ -120.110400577648335, 39.193513989234482 ] ], [ [ -120.11049457559254, 39.193480287451038 ], [ -120.110502056285142, 39.19342135334113 ], [ -120.110480271563105, 39.193485415988427 ], [ -120.11049457559254, 39.193480287451038 ] ], [ [ -120.110625721401263, 39.193105175863565 ], [ -120.110614770966748, 39.193089889529006 ], [ -120.110600058596134, 39.193133154887839 ], [ -120.110625721401263, 39.193105175863565 ] ], [ [ -120.110308055303946, 39.19351169265309 ], [ -120.110358695454821, 39.193462500765335 ], [ -120.110311006668042, 39.193439696081526 ], [ -120.110308055303946, 39.19351169265309 ] ], [ [ -120.107621957810551, 39.19351705628204 ], [ -120.107658558820361, 39.193517102532496 ], [ -120.107624911916346, 39.193445059881356 ], [ -120.107621957810551, 39.19351705628204 ] ], [ [ -120.11026680401126, 39.194469152890498 ], [ -120.110017460670363, 39.194387334393333 ], [ -120.110107032470381, 39.194461627795249 ], [ -120.11026680401126, 39.194469152890498 ] ], [ [ -120.109219475231939, 39.194457259103544 ], [ -120.109205666328066, 39.194421231151566 ], [ -120.109204190031775, 39.194457229396313 ], [ -120.109219475231939, 39.194457259103544 ] ] ], [ [ [ -120.111986768448901, 39.188706651011245 ], [ -120.11196363940536, 39.188706077246252 ], [ -120.111964376698936, 39.188688078062285 ], [ -120.111986768448901, 39.188706651011245 ] ] ], [ [ [ -120.111962902111117, 39.188724076430191 ], [ -120.111939773062332, 39.188723502660231 ], [ -120.11194051036243, 39.188705503476662 ], [ -120.111962902111117, 39.188724076430191 ] ] ], [ [ [ -120.111891303027093, 39.188776352654621 ], [ -120.111845044898843, 39.188775205080432 ], [ -120.111893514966724, 39.18872235510657 ], [ -120.111891303027093, 39.188776352654621 ] ] ], [ [ [ -120.109803560141927, 39.190003781551482 ], [ -120.10980060862083, 39.190075778133341 ], [ -120.109405932135189, 39.190102014121813 ], [ -120.109549136512541, 39.189997464943232 ], [ -120.109803560141927, 39.190003781551482 ] ] ] ] } }
]
}
