{
"type": "FeatureCollection",
"name": "X00247",
"crs": { "type": "name", "properties": { "name": "urn:ogc:def:crs:OGC:1.3:CRS84" } },
"features": [
{ "type": "Feature", "properties": { "part": "direct", "crossing_id": "X00247", "area_ac": 0.2 }, "geometry": { "type": "Polygon", "coordinates": [ [ [ -120.112957393233145, 39.196099869996488 ], [ -120.11323497113041, 39.196106753587358 ], [ -120.113265753786777, 39.196485883594747 ], [ -120.113191935816189, 39.19659215783895 ], [ -120.113103832460538, 39.196481868257443 ], [ -120.113153044468845, 39.196411018804184 ], [ -120.11295223257666, 39.196225864232794 ], [ -120.112957393233145, 39.196099869996488 ] ] ] } }
]
}
