{
"type": "FeatureCollection",
"name": "X00207",
"crs": { "type": "name", "properties": { "name": "urn:ogc:def:crs:OGC:1.3:CRS84" } },
"features": [
{ "type": "Feature", "properties": { "part": "direct", "crossing_id": "X00207", "area_ac": 1.2 }, "geometry": { "type": "Polygon", "coordinates": [ [ [ -120.118309069731851, 39.193764073474753 ], [ -120.118329257350297, 39.193836643118516 ], [ -120.118513568453224, 39.193859222772346 ], [ -120.118482344144397, 39.194056642223501 ], [ -120.118666243483574, 39.194655770892098 ], [ -120.118661093287841, 39.194781765793714 ], [ -120.118542494336964, 39.194850900255815 ], [ -120.118559003565849, 39.195013466214114 ], [ -120.118438932498293, 39.195118599085319 ], [ -120.118476365427853, 39.195335735402104 ], [ -120.118383840035307, 39.195333445145074 ], [ -120.118175338829957, 39.194769742037401 ], [ -120.118061890739298, 39.194712881154111 ], [ -120.11816177397958, 39.194535178997292 ], [ -120.118121398816754, 39.194390039662039 ], [ -120.11824294070513, 39.194248908545653 ], [ -120.118215074750282, 39.193797781696212 ], [ -120.118309069731851, 39.193764073474753 ] ] ] } }
]
}
