{
"type": "FeatureCollection",
"name": "X00211",
"crs": { "type": "name", "properties": { "name": "urn:ogc:def:crs:OGC:1.3:CRS84" } },
"features": [
{ "type": "Feature", "properties": { "part": "direct", "crossing_id": "X00211", "area_ac": 3.7 }, "geometry": { "type": "Polygon", "coordinates": [ [ [ -120.110017460670363, 39.194387334393333 ], [ -120.110107032470381, 39.194461627795249 ], [ -120.110915876386414, 39.194499721346581 ], [ -120.111465118087182, 39.194657490390533 ], [ -120.111361530070297, 39.194925181933343 ], [ -120.111507220886324, 39.195325181012159 ], [ -120.111445468822964, 39.195702015376057 ], [ -120.110715595831749, 39.195431658455767 ], [ -120.109835871837078, 39.195427838587975 ], [ -120.109840784879253, 39.194743297364774 ], [ -120.110017460670363, 39.194387334393333 ] ] ] } }
]
}
