{
"type": "FeatureCollection",
"name": "X00279",
"crs": { "type": "name", "properties": { "name": "urn:ogc:def:crs:OGC:1.3:CRS84" } },
"features": [
{ "type": "Feature", "properties": { "part": "direct", "crossing_id": "X00279", "area_ac": 0.1 }, "geometry": { "type": "Polygon", "coordinates": [ [ [ -120.073544420191169, 39.23408714884048 ], [ -120.073579482073427, 39.23435828917814 ], [ -120.073247244615956, 39.234548124083744 ], [ -120.073343559600204, 39.234460459997869 ], [ -120.073377928129318, 39.23419106561029 ], [ -120.073544420191169, 39.23408714884048 ] ] ] } }
]
}
