{
"type": "FeatureCollection",
"name": "X00253",
"crs": { "type": "name", "properties": { "name": "urn:ogc:def:crs:OGC:1.3:CRS84" } },
"features": [
{ "type": "Feature", "properties": { "part": "direct", "crossing_id": "X00253", "area_ac": 0.8 }, "geometry": { "type": "MultiPolygon", "coordinates": [ [ [ [ -120.098608255454195, 39.189743325007356 ], [ -120.098516479770794, 39.1897230202798 ], [ -120.098519442768506, 39.189651024412541 ], [ -120.098612699809522, 39.189635331197692 ], [ -120.098608255454195, 39.189743325007356 ] ] ], [ [ [ -120.099063831572906, 39.188799754270626 ], [ -120.099104905152757, 39.188926899770983 ], [ -120.098814027157488, 39.189243965094313 ], [ -120.098779047432572, 39.189531372259864 ], [ -120.098612699809522, 39.189635331197692 ], [ -120.098464870720292, 39.189289315718902 ], [ -120.0984602605145, 39.188838765070919 ], [ -120.099063831572906, 39.188799754270626 ] ] ] ] } }
]
}
