{
"type": "FeatureCollection",
"name": "X00238",
"crs": { "type": "name", "properties": { "name": "urn:ogc:def:crs:OGC:1.3:CRS84" } },
"features": [
{ "type": "Feature", "properties": { "part": "direct", "crossing_id": "X00238", "area_ac": 0.4 }, "geometry": { "type": "MultiPolygon", "coordinates": [ [ [ [ -120.096414991765016, 39.18790491814493 ], [ -120.096437378994409, 39.187923493925652 ], [ -120.096414250525839, 39.187922917083654 ], [ -120.096414991765016, 39.18790491814493 ] ] ], [ [ [ -120.096088821803306, 39.18739229481352 ], [ -120.096200756846031, 39.187485173952091 ], [ -120.096173922076105, 39.187574591748934 ], [ -120.096564880529854, 39.187638395004036 ], [ -120.096445532524285, 39.187725505592041 ], [ -120.096414991765016, 39.18790491814493 ], [ -120.095759836088519, 39.187510210239154 ], [ -120.096088821803306, 39.18739229481352 ] ] ] ] } }
]
}
