{
"type": "FeatureCollection",
"name": "X00216",
"crs": { "type": "name", "properties": { "name": "urn:ogc:def:crs:OGC:1.3:CRS84" } },
"features": [
{ "type": "Feature", "properties": { "part": "direct", "crossing_id": "X00216", "area_ac": 7.2, "n_upstream": null }, "geometry": { "type": "MultiPolygon", "coordinates": [ [ [ [ -120.142003780627462, 39.175862150773675 ], [ -120.142026176780092, 39.17588071811943 ], [ -120.142003051329283, 39.175880150472103 ], [ -120.142003780627462, 39.175862150773675 ] ] ], [ [ [ -120.141981384486598, 39.175843583423976 ], [ -120.142003780627462, 39.175862150773675 ], [ -120.141980655183175, 39.175861583122121 ], [ -120.141981384486598, 39.175843583423976 ] ] ], [ [ [ -120.141958988357487, 39.175825016070384 ], [ -120.141981384486598, 39.175843583423976 ], [ -120.141958259048835, 39.175843015768216 ], [ -120.141958988357487, 39.175825016070384 ] ] ], [ [ [ -120.141936592240128, 39.175806448712827 ], [ -120.141958988357487, 39.175825016070384 ], [ -120.14193586292626, 39.175824448410388 ], [ -120.141936592240128, 39.175806448712827 ] ] ], [ [ [ -120.141914196134579, 39.17578788135139 ], [ -120.141936592240128, 39.175806448712827 ], [ -120.141913466815467, 39.175805881048618 ], [ -120.141914196134579, 39.17578788135139 ] ] ], [ [ [ -120.141891800040781, 39.175769313985974 ], [ -120.141914196134579, 39.17578788135139 ], [ -120.141891070716426, 39.17578731368296 ], [ -120.141891800040781, 39.175769313985974 ] ] ], [ [ [ -120.141869403958708, 39.175750746616664 ], [ -120.141891800040781, 39.175769313985974 ], [ -120.141868674629151, 39.175768746313317 ], [ -120.141869403958708, 39.175750746616664 ] ] ], [ [ [ -120.141847007888416, 39.175732179243454 ], [ -120.141869403958708, 39.175750746616664 ], [ -120.141846278553615, 39.175750178939793 ], [ -120.141847007888416, 39.175732179243454 ] ] ], [ [ [ -120.141824611829918, 39.175713611866264 ], [ -120.141847007888416, 39.175732179243454 ], [ -120.141823882489902, 39.175731611562355 ], [ -120.141824611829918, 39.175713611866264 ] ] ], [ [ [ -120.141802215783144, 39.175695044485195 ], [ -120.141824611829918, 39.175713611866264 ], [ -120.141801486437899, 39.175713044180945 ], [ -120.141802215783144, 39.175695044485195 ] ] ], [ [ [ -120.141779819748137, 39.175676477100197 ], [ -120.141802215783144, 39.175695044485195 ], [ -120.141779090397662, 39.175694476795655 ], [ -120.141779819748137, 39.175676477100197 ] ] ], [ [ [ -120.141757423724897, 39.175657909711219 ], [ -120.141779819748137, 39.175676477100197 ], [ -120.141756694369192, 39.175675909406429 ], [ -120.141757423724897, 39.175657909711219 ] ] ], [ [ [ -120.141735027713423, 39.175639342318377 ], [ -120.141757423724897, 39.175657909711219 ], [ -120.141734298352489, 39.175657342013238 ], [ -120.141735027713423, 39.175639342318377 ] ] ], [ [ [ -120.14021718120884, 39.172539079335841 ], [ -120.141945979927897, 39.173860778093925 ], [ -120.141779001299994, 39.173982802432334 ], [ -120.141903164705681, 39.17434620242188 ], [ -120.142037538888431, 39.174457606466277 ], [ -120.141890037484799, 39.174670197039205 ], [ -120.142472331114917, 39.175152947015491 ], [ -120.142864001857816, 39.175198594092855 ], [ -120.143075774119552, 39.175113702554896 ], [ -120.14322817409662, 39.17535167079145 ], [ -120.143261303304286, 39.175676800531775 ], [ -120.143482352575305, 39.175934470384512 ], [ -120.143409331373647, 39.176022766894874 ], [ -120.143832682018115, 39.176429540116757 ], [ -120.144154255130985, 39.176491480962945 ], [ -120.144334159657603, 39.17662201678764 ], [ -120.144646990400517, 39.176899953141067 ], [ -120.144618035288332, 39.177043383890762 ], [ -120.144305204062306, 39.176765447446193 ], [ -120.143980714291402, 39.176775505875945 ], [ -120.143464129302671, 39.176384463400396 ], [ -120.143430270083329, 39.176077333425788 ], [ -120.143275681068417, 39.17589336455201 ], [ -120.141100357379145, 39.174164334629268 ], [ -120.140955042468363, 39.174322924881729 ], [ -120.140973060736016, 39.174449490526221 ], [ -120.141244724667388, 39.174600301763107 ], [ -120.141293675114184, 39.175105996432563 ], [ -120.141519091747867, 39.175255671557977 ], [ -120.141466276493261, 39.1754165332977 ], [ -120.141735027713423, 39.175639342318377 ], [ -120.140386910493248, 39.174633289624296 ], [ -120.140371811969572, 39.174434725221431 ], [ -120.140465771056498, 39.17440099765097 ], [ -120.140496192420898, 39.1742215687906 ], [ -120.140382757049508, 39.174164730055679 ], [ -120.140299743554195, 39.173928462413421 ], [ -120.140393701982418, 39.173894734874892 ], [ -120.140331624399167, 39.173713034234346 ], [ -120.14042558252028, 39.173679306657725 ], [ -120.140480587451734, 39.173464446342528 ], [ -120.140395385385432, 39.173282177807287 ], [ -120.14047059605511, 39.173139884138607 ], [ -120.140003224573789, 39.172677964893765 ], [ -120.14021718120884, 39.172539079335841 ] ] ] ] } },
{ "type": "Feature", "properties": { "part": "upstream", "crossing_id": "X00216", "area_ac": 17.9, "n_upstream": 6.0 }, "geometry": { "type": "MultiPolygon", "coordinates": [ [ [ [ -120.143931744071097, 39.176269811707911 ], [ -120.144251859093387, 39.176367751722637 ], [ -120.14449021037899, 39.176769984926899 ], [ -120.144154255130985, 39.176491480962945 ], [ -120.143832682018115, 39.176429540116757 ], [ -120.143630382210631, 39.17628043651316 ], [ -120.143409331373647, 39.176022766894874 ], [ -120.143527145749644, 39.175971604533032 ], [ -120.143931744071097, 39.176269811707911 ] ] ], [ [ [ -120.141466276493261, 39.1754165332977 ], [ -120.141519091747867, 39.175255671557977 ], [ -120.141293675114184, 39.175105996432563 ], [ -120.141266390776835, 39.174636868926925 ], [ -120.140973060736016, 39.174449490526221 ], [ -120.141005669377591, 39.174216062424229 ], [ -120.141099627894675, 39.174182334318722 ], [ -120.143275681068417, 39.17589336455201 ], [ -120.143430270083329, 39.176077333425788 ], [ -120.143464129302671, 39.176384463400396 ], [ -120.143980714291402, 39.176775505875945 ], [ -120.144305204062306, 39.176765447446193 ], [ -120.144574698210505, 39.176970250651031 ], [ -120.144655543209296, 39.177260515005393 ], [ -120.14450585701087, 39.17752710808071 ], [ -120.144697960941215, 39.177928206623172 ], [ -120.144927765519412, 39.177969877264751 ], [ -120.144846000227105, 39.178274171476822 ], [ -120.144704327796646, 39.178342767642135 ], [ -120.14460234943671, 39.178574495539984 ], [ -120.144612359121467, 39.178899057855752 ], [ -120.144807381617696, 39.179228157372272 ], [ -120.14477769690204, 39.179389587819472 ], [ -120.144633835939089, 39.179512182990422 ], [ -120.144665514993761, 39.179873311894724 ], [ -120.144947218575098, 39.180348677733228 ], [ -120.145195786514449, 39.18049891364312 ], [ -120.145265708317908, 39.181059173667805 ], [ -120.144993282492209, 39.180926370456859 ], [ -120.144999840468088, 39.18076437288628 ], [ -120.144863263899126, 39.180706970936455 ], [ -120.14485325330908, 39.180382408678504 ], [ -120.144512907601623, 39.180211903572342 ], [ -120.144451543478226, 39.180012204979668 ], [ -120.144204436556024, 39.179825968149515 ], [ -120.143922011068852, 39.17936860045554 ], [ -120.143865751582297, 39.17904290359143 ], [ -120.143596981006013, 39.178820098877225 ], [ -120.143448217967403, 39.178492132360269 ], [ -120.143334044351931, 39.178453295908881 ], [ -120.14327195579672, 39.178271596532738 ], [ -120.143026316154931, 39.178049358074219 ], [ -120.143010480938543, 39.177868793521867 ], [ -120.142721508035606, 39.177573420714403 ], [ -120.14266835215038, 39.177368870975357 ], [ -120.142678901844491, 39.177482287130857 ], [ -120.142350243278912, 39.177023781106307 ], [ -120.142377015272146, 39.176934350194379 ], [ -120.142219510282857, 39.17682237877316 ], [ -120.142270137335515, 39.176715515801263 ], [ -120.142220239550298, 39.176804379074269 ], [ -120.141908877853908, 39.176490437172163 ], [ -120.141987006603955, 39.176276143820431 ], [ -120.142321992940467, 39.17633689634669 ], [ -120.142286909960887, 39.176301522683382 ], [ -120.142010132184168, 39.17627671147573 ], [ -120.142016695920702, 39.176114714197531 ], [ -120.141992841086108, 39.176132146242978 ], [ -120.141882318773554, 39.176003310041146 ], [ -120.142072427683672, 39.175881853400341 ], [ -120.142065134842341, 39.176061850391768 ], [ -120.142095553136443, 39.175882421033933 ], [ -120.141466276493261, 39.1754165332977 ] ], [ [ -120.142064551412204, 39.176076250150793 ], [ -120.142253055909507, 39.175994392553712 ], [ -120.142544208221437, 39.176235767165565 ], [ -120.142253785146906, 39.175976392851737 ], [ -120.142065134842341, 39.176061850391768 ], [ -120.142064551412204, 39.176076250150793 ] ], [ [ -120.142647074359402, 39.177140119964662 ], [ -120.142657110030427, 39.177248010514191 ], [ -120.142738278525869, 39.177159427494402 ], [ -120.142782549148563, 39.176638003498844 ], [ -120.142689839287414, 39.177212291562448 ], [ -120.142647074359402, 39.177140119964662 ] ], [ [ -120.14265452495971, 39.176941160921885 ], [ -120.142598272619693, 39.176615463614205 ], [ -120.142631192082732, 39.176969373818984 ], [ -120.14265452495971, 39.176941160921885 ] ], [ [ -120.142328424823788, 39.176343381517221 ], [ -120.14218419787673, 39.176551248048071 ], [ -120.142351911418245, 39.176411223672467 ], [ -120.142598272619693, 39.176615463614205 ], [ -120.142328424823788, 39.176343381517221 ] ] ] ] } }
]
}
