{
"type": "FeatureCollection",
"name": "X00241",
"crs": { "type": "name", "properties": { "name": "urn:ogc:def:crs:OGC:1.3:CRS84" } },
"features": [
{ "type": "Feature", "properties": { "part": "direct", "crossing_id": "X00241", "area_ac": 11.5, "n_upstream": null }, "geometry": { "type": "Polygon", "coordinates": [ [ [ -120.101132021369438, 39.207193002793268 ], [ -120.102022437241459, 39.207503452389652 ], [ -120.102556952140333, 39.208021245671127 ], [ -120.102654863745897, 39.208456100379038 ], [ -120.102504583893648, 39.209857716622729 ], [ -120.102677086431527, 39.210168306199201 ], [ -120.103304169647302, 39.210688400259237 ], [ -120.103383392807544, 39.21101468486372 ], [ -120.103304363066954, 39.211246944312833 ], [ -120.102376692253159, 39.211277907063049 ], [ -120.101823643870489, 39.211210086173963 ], [ -120.101764420683892, 39.210397829032644 ], [ -120.10162486450254, 39.210412371559933 ], [ -120.101571747942259, 39.210014666343426 ], [ -120.101560099301651, 39.208609019628149 ], [ -120.100824037061997, 39.207924045631486 ], [ -120.100861984760897, 39.207564642878864 ], [ -120.101015606384181, 39.207208120971082 ], [ -120.101132021369438, 39.207193002793268 ] ] ] } },
{ "type": "Feature", "properties": { "part": "upstream", "crossing_id": "X00241", "area_ac": 25.6, "n_upstream": 3.0 }, "geometry": { "type": "MultiPolygon", "coordinates": [ [ [ [ -120.101851222877656, 39.211102668505987 ], [ -120.101799026695545, 39.211245508021442 ], [ -120.101637813641446, 39.211223476535324 ], [ -120.101721291734009, 39.210883224709995 ], [ -120.101518991125928, 39.210734048286042 ], [ -120.101356298185962, 39.210748014351189 ], [ -120.101407754259355, 39.210623173991713 ], [ -120.101315210204206, 39.210620869432432 ], [ -120.10125098638801, 39.210493148344383 ], [ -120.101764420683892, 39.210397829032644 ], [ -120.101851222877656, 39.211102668505987 ] ] ], [ [ [ -120.103304363066954, 39.211246944312833 ], [ -120.103375992077773, 39.211194674644219 ], [ -120.103420044368534, 39.21124982306354 ], [ -120.104022327316841, 39.211246791730595 ], [ -120.103991791825152, 39.211426205980707 ], [ -120.103847794107764, 39.211548745024984 ], [ -120.103867970634511, 39.211621316617531 ], [ -120.104052321884978, 39.21164392069187 ], [ -120.10394275750042, 39.212055594835093 ], [ -120.104484717842368, 39.212393390847581 ], [ -120.104602620528908, 39.212342271515425 ], [ -120.104690728482211, 39.212452567517168 ], [ -120.10506017581001, 39.212479773946583 ], [ -120.105354296496145, 39.212649245167661 ], [ -120.105791676575151, 39.212714173435067 ], [ -120.106199266151435, 39.212940516043751 ], [ -120.106570195521982, 39.212931719751126 ], [ -120.106912813451217, 39.213048340409721 ], [ -120.107022584515079, 39.213195207926027 ], [ -120.1073883415513, 39.213312402301526 ], [ -120.107521990160905, 39.21344184533244 ], [ -120.108210930098892, 39.213585085123746 ], [ -120.108528200504708, 39.213755123562876 ], [ -120.108781232091587, 39.213797443699193 ], [ -120.108999808888328, 39.213550629025981 ], [ -120.109522361653191, 39.213797832843177 ], [ -120.110306074110738, 39.213889361476618 ], [ -120.110565013977222, 39.213787685131898 ], [ -120.110904690425187, 39.213976290767555 ], [ -120.111112188065519, 39.213999458243066 ], [ -120.111151081044554, 39.214180597648223 ], [ -120.111447438493542, 39.214296056948164 ], [ -120.111578882408622, 39.214479492938935 ], [ -120.111572977839572, 39.214623485721262 ], [ -120.111711803066683, 39.214626930602378 ], [ -120.112026873170308, 39.214850957269135 ], [ -120.112283600722179, 39.214803274472715 ], [ -120.11263978418468, 39.215154441387931 ], [ -120.11318845084881, 39.215330207082928 ], [ -120.113275100785756, 39.215476495417242 ], [ -120.113457253148482, 39.215553082432727 ], [ -120.113475965349195, 39.215661650976571 ], [ -120.113681256361261, 39.21573881145914 ], [ -120.113894197991556, 39.216194527043541 ], [ -120.114476616965092, 39.216677419771123 ], [ -120.115024846549872, 39.217429723506136 ], [ -120.1144306192204, 39.217234819371697 ], [ -120.113332982476933, 39.216324749436644 ], [ -120.113315008055622, 39.216198181762003 ], [ -120.113532102236846, 39.215987356592237 ], [ -120.113405813972633, 39.215677928693424 ], [ -120.112292242933506, 39.215722376977403 ], [ -120.112178767228031, 39.215665509452869 ], [ -120.112138395093737, 39.215520368510049 ], [ -120.111576187301935, 39.215110035497965 ], [ -120.110977560389742, 39.215023109286705 ], [ -120.110676770932443, 39.215015643210293 ], [ -120.110628280664201, 39.215068491758011 ], [ -120.109959504215951, 39.214997836360318 ], [ -120.108409052658487, 39.214400790275704 ], [ -120.108035898488041, 39.214463589275297 ], [ -120.107832834978382, 39.214332422067855 ], [ -120.107716409116335, 39.214347546548048 ], [ -120.107517042047348, 39.214126383643311 ], [ -120.10715349818274, 39.213955192433119 ], [ -120.106772733177493, 39.213639432854009 ], [ -120.10651896429286, 39.213615107434237 ], [ -120.106316645509111, 39.213465938741585 ], [ -120.105669547960289, 39.21343183260278 ], [ -120.105031327779727, 39.213181734917086 ], [ -120.105033546894759, 39.213127737923003 ], [ -120.104849191376672, 39.213105135251638 ], [ -120.104625220469941, 39.212919390327862 ], [ -120.104004965938287, 39.21279585572772 ], [ -120.103807095021139, 39.212538689050135 ], [ -120.103370458425616, 39.212455754454218 ], [ -120.103297347807356, 39.212544022006071 ], [ -120.103253294868409, 39.212488873524237 ], [ -120.102998051385001, 39.212500538558196 ], [ -120.102954738929242, 39.212427391005292 ], [ -120.102815178856019, 39.212441934814819 ], [ -120.102777788697082, 39.212224795483927 ], [ -120.10238446712404, 39.212215004892649 ], [ -120.102390389953044, 39.212071013220502 ], [ -120.102344116933665, 39.21206986130494 ], [ -120.102361330566893, 39.212214428934224 ], [ -120.102222511237898, 39.212210973087331 ], [ -120.102250090128905, 39.212103555332753 ], [ -120.10213588837928, 39.212064677457782 ], [ -120.101973192416764, 39.212078644272388 ], [ -120.101781435833345, 39.212236026380786 ], [ -120.10174182740684, 39.212072883681564 ], [ -120.101514905904324, 39.21195912895908 ], [ -120.101552112987747, 39.211617725095373 ], [ -120.101808834278259, 39.211570065218908 ], [ -120.101819201020675, 39.211318079890319 ], [ -120.101868435380553, 39.211247236182437 ], [ -120.102284887616023, 39.211257604281371 ], [ -120.103304363066954, 39.211246944312833 ] ], [ [ -120.102392611002998, 39.212017016342323 ], [ -120.102417782485276, 39.211405051680487 ], [ -120.102394588530004, 39.211379317945976 ], [ -120.10234855909826, 39.211961867552354 ], [ -120.102392611002998, 39.212017016342323 ] ] ] ] } }
]
}
