{
"type": "FeatureCollection",
"name": "X00249",
"crs": { "type": "name", "properties": { "name": "urn:ogc:def:crs:OGC:1.3:CRS84" } },
"features": [
{ "type": "Feature", "properties": { "part": "direct", "crossing_id": "X00249", "area_ac": 1.0 }, "geometry": { "type": "MultiPolygon", "coordinates": [ [ [ [ -120.120135524537673, 39.189863439295856 ], [ -120.120307327698427, 39.190192004044491 ], [ -120.120362012934592, 39.19055370665378 ], [ -120.120121554864483, 39.190205426173812 ], [ -120.120135524537673, 39.189863439295856 ] ] ], [ [ [ -120.119606554453355, 39.188643180572285 ], [ -120.119693188597907, 39.18878946398587 ], [ -120.119945404365282, 39.188849756212782 ], [ -120.12007682759878, 39.189033182357875 ], [ -120.120023951739228, 39.18919403182273 ], [ -120.120156110991275, 39.189359458589237 ], [ -120.120135524537673, 39.189863439295856 ], [ -120.119869734395692, 39.189568584156603 ], [ -120.119773205305322, 39.189097741107616 ], [ -120.119611300005644, 39.189093735442526 ], [ -120.119547794976441, 39.188948024234044 ], [ -120.119278333457302, 39.188743164432253 ], [ -120.119606554453355, 39.188643180572285 ] ] ] ] } }
]
}
