{
"type": "FeatureCollection",
"name": "X00215",
"crs": { "type": "name", "properties": { "name": "urn:ogc:def:crs:OGC:1.3:CRS84" } },
"features": [
{ "type": "Feature", "properties": { "part": "direct", "crossing_id": "X00215", "area_ac": 2.0, "n_upstream": null }, "geometry": { "type": "Polygon", "coordinates": [ [ [ -120.14201462505109, 39.173880480687885 ], [ -120.142885873403515, 39.174658602641607 ], [ -120.143054106919479, 39.175077135690444 ], [ -120.142864001857816, 39.175198594092855 ], [ -120.142472331114917, 39.175152947015491 ], [ -120.141890037484799, 39.174670197039205 ], [ -120.142037538888431, 39.174457606466277 ], [ -120.141903164705681, 39.17434620242188 ], [ -120.141779001299994, 39.173982802432334 ], [ -120.14201462505109, 39.173880480687885 ] ] ] } },
{ "type": "Feature", "properties": { "part": "upstream", "crossing_id": "X00215", "area_ac": 1.1, "n_upstream": 1.0 }, "geometry": { "type": "Polygon", "coordinates": [ [ [ -120.14238316356564, 39.173925561493675 ], [ -120.14279139085923, 39.174133773544646 ], [ -120.143092014541111, 39.174141150294993 ], [ -120.14331597440021, 39.17432682143302 ], [ -120.143096914993563, 39.174591710715511 ], [ -120.143114208181046, 39.174736275887561 ], [ -120.143205250653907, 39.174774544953721 ], [ -120.143099628339897, 39.17509627026206 ], [ -120.142964522217682, 39.175002867064009 ], [ -120.142907540399008, 39.174695169531695 ], [ -120.142753684672897, 39.174493200373306 ], [ -120.142190873031211, 39.17410101801395 ], [ -120.14238316356564, 39.173925561493675 ] ] ] } }
]
}
