{
"type": "FeatureCollection",
"name": "X00270",
"crs": { "type": "name", "properties": { "name": "urn:ogc:def:crs:OGC:1.3:CRS84" } },
"features": [
{ "type": "Feature", "properties": { "part": "direct", "crossing_id": "X00270", "area_ac": 3.3 }, "geometry": { "type": "Polygon", "coordinates": [ [ [ -120.111830601697307, 39.185171351219942 ], [ -120.11205966901872, 39.185231086086041 ], [ -120.112167937036958, 39.185413946535391 ], [ -120.112445472705389, 39.185420830444919 ], [ -120.112455333154045, 39.185745389701765 ], [ -120.112164527193983, 39.18606249129499 ], [ -120.112151257967327, 39.186386476799839 ], [ -120.111961071051937, 39.186507881375483 ], [ -120.11207450104834, 39.186564747600571 ], [ -120.112066391704403, 39.186762738712183 ], [ -120.111855286971746, 39.186829571770247 ], [ -120.111625477405966, 39.186787835512803 ], [ -120.111456942202949, 39.186945811358001 ], [ -120.111317434066578, 39.186960367376095 ], [ -120.111277076528665, 39.18681522618936 ], [ -120.111372539750064, 39.186745524952862 ], [ -120.111382125806358, 39.18651153559906 ], [ -120.110947850454949, 39.186374637284509 ], [ -120.110797015583628, 39.18610063199408 ], [ -120.110917081369422, 39.18599550671933 ], [ -120.111265478247333, 39.185968116971118 ], [ -120.111641426864438, 39.185833304844991 ], [ -120.111726293951634, 39.1854570432331 ], [ -120.111619501628311, 39.185238184035995 ], [ -120.111830601697307, 39.185171351219942 ] ] ] } }
]
}
