{
"type": "FeatureCollection",
"name": "X00276",
"crs": { "type": "name", "properties": { "name": "urn:ogc:def:crs:OGC:1.3:CRS84" } },
"features": [
{ "type": "Feature", "properties": { "part": "direct", "crossing_id": "X00276", "area_ac": 0.8 }, "geometry": { "type": "Polygon", "coordinates": [ [ [ -120.072792183771185, 39.238248230135419 ], [ -120.073195311752087, 39.238582679553957 ], [ -120.073187078106372, 39.238780662054715 ], [ -120.073317712858227, 39.238982136984319 ], [ -120.073272861478529, 39.239503508781489 ], [ -120.073133991977457, 39.239500016252393 ], [ -120.072976469123674, 39.239387951006258 ], [ -120.072998177862402, 39.238865997275752 ], [ -120.072718258544697, 39.238354474068004 ], [ -120.072792183771185, 39.238248230135419 ] ] ] } }
]
}
