{
"type": "FeatureCollection",
"name": "X00284",
"crs": { "type": "name", "properties": { "name": "urn:ogc:def:crs:OGC:1.3:CRS84" } },
"features": [
{ "type": "Feature", "properties": { "part": "direct", "crossing_id": "X00284", "area_ac": 9.3, "n_upstream": null }, "geometry": { "type": "Polygon", "coordinates": [ [ [ -120.072209212283823, 39.237224600118118 ], [ -120.072433167100272, 39.237410406477231 ], [ -120.072687753491678, 39.237416810569187 ], [ -120.072912458765899, 39.237584617664211 ], [ -120.072978897455926, 39.237658357646787 ], [ -120.072906470302343, 39.237728604926581 ], [ -120.073066235054185, 39.237786674921367 ], [ -120.073011712449471, 39.23798349322049 ], [ -120.073169980859277, 39.238077559915098 ], [ -120.073144590882961, 39.238130973066191 ], [ -120.07300722119426, 39.238091483669841 ], [ -120.073064678030022, 39.238381204516081 ], [ -120.07349394649782, 39.238644241428652 ], [ -120.075795700494425, 39.239008394117931 ], [ -120.076163026460492, 39.239089692425409 ], [ -120.076389240964176, 39.239221496360152 ], [ -120.07653854474313, 39.239531540245792 ], [ -120.076464589679006, 39.240196320345582 ], [ -120.076364531393708, 39.240373979067222 ], [ -120.076056164680793, 39.240546404057206 ], [ -120.076027784488801, 39.240671811662899 ], [ -120.075691034713671, 39.240969643162579 ], [ -120.075745552734787, 39.240772823499704 ], [ -120.075911309827148, 39.240686902345374 ], [ -120.07601361324835, 39.240455248735046 ], [ -120.075709025018313, 39.239979147139344 ], [ -120.073272861478529, 39.239503508781489 ], [ -120.073317712858227, 39.238982136984319 ], [ -120.073187078106372, 39.238780662054715 ], [ -120.073195311752087, 39.238582679553957 ], [ -120.072613017006518, 39.238099585541939 ], [ -120.072504781511739, 39.23791669054215 ], [ -120.072165852147648, 39.237709974565647 ], [ -120.071977022052408, 39.237236775706251 ], [ -120.072209212283823, 39.237224600118118 ] ] ] } },
{ "type": "Feature", "properties": { "part": "upstream", "crossing_id": "X00284", "area_ac": 7.6, "n_upstream": 4.0 }, "geometry": { "type": "MultiPolygon", "coordinates": [ [ [ [ -120.07348277682388, 39.238355684777318 ], [ -120.074085283523758, 39.238352817282667 ], [ -120.074168882681846, 39.238571125948823 ], [ -120.07419002295957, 39.238594588469311 ], [ -120.074127831310662, 39.238443973196752 ], [ -120.074221157913271, 39.238428302299347 ], [ -120.074299570331149, 39.238214066760271 ], [ -120.074507871005991, 39.238219303264685 ], [ -120.074756475974965, 39.238369690416391 ], [ -120.07520220698072, 39.238236755593228 ], [ -120.075479193622371, 39.238261733814852 ], [ -120.075532213860299, 39.23810091101204 ], [ -120.075841318490191, 39.23791048853807 ], [ -120.076543128601074, 39.237747948147039 ], [ -120.077162048103403, 39.237907632158297 ], [ -120.077359136955522, 39.238182840683635 ], [ -120.077350915130253, 39.238380823934882 ], [ -120.077201582582489, 39.238629314991371 ], [ -120.076700591406222, 39.238977076344526 ], [ -120.076717007629981, 39.239139643912054 ], [ -120.076596049691261, 39.239262726163673 ], [ -120.076655017380375, 39.239516448855234 ], [ -120.076559446712238, 39.239586117051296 ], [ -120.076389240964176, 39.239221496360152 ], [ -120.076163026460492, 39.239089692425409 ], [ -120.074368205851201, 39.238792343864645 ], [ -120.073910550145868, 39.238654717042543 ], [ -120.073679103647891, 39.238648897440719 ], [ -120.07349394649782, 39.238644241428652 ], [ -120.073064678030022, 39.238381204516081 ], [ -120.073053510094354, 39.238092647880201 ], [ -120.073192376810752, 39.238096140401083 ], [ -120.07348277682388, 39.238355684777318 ] ], [ [ -120.073935156830657, 39.23852179621904 ], [ -120.073978505141611, 39.238506282008025 ], [ -120.073940429677592, 39.238493313183987 ], [ -120.073935156830657, 39.23852179621904 ] ] ], [ [ [ -120.073909801816811, 39.238672715463316 ], [ -120.073910550145868, 39.238654717042543 ], [ -120.073932946476191, 39.238673297398613 ], [ -120.073909801816811, 39.238672715463316 ] ] ], [ [ [ -120.073678355259872, 39.238666895857783 ], [ -120.073679103647891, 39.238648897440719 ], [ -120.074000883845443, 39.2387110400213 ], [ -120.073678355259872, 39.238666895857783 ] ] ] ] } }
]
}
