{
"type": "FeatureCollection",
"name": "X00291",
"crs": { "type": "name", "properties": { "name": "urn:ogc:def:crs:OGC:1.3:CRS84" } },
"features": [
{ "type": "Feature", "properties": { "part": "direct", "crossing_id": "X00291", "area_ac": 10.4, "n_upstream": null }, "geometry": { "type": "MultiPolygon", "coordinates": [ [ [ [ -120.072904163382489, 39.238341132879 ], [ -120.072926559340132, 39.238359713415953 ], [ -120.072903414804628, 39.238359131284547 ], [ -120.072904163382489, 39.238341132879 ] ] ], [ [ [ -120.072881767436627, 39.238322552338111 ], [ -120.072904163382489, 39.238341132879 ], [ -120.072881018853522, 39.238340550743381 ], [ -120.072881767436627, 39.238322552338111 ] ] ], [ [ [ -120.072118814774228, 39.23772680840689 ], [ -120.072437594424983, 39.237860948700764 ], [ -120.07288326460079, 39.238286555527417 ], [ -120.072745894779644, 39.238247065817362 ], [ -120.072718258544697, 39.238354474068004 ], [ -120.072998177862402, 39.238865997275752 ], [ -120.072936916736822, 39.239224801105593 ], [ -120.073020513146105, 39.239443110473324 ], [ -120.072491175612356, 39.239357726828509 ], [ -120.072476135680006, 39.240276227170575 ], [ -120.071234537805168, 39.24004679728953 ], [ -120.070800775150005, 39.239891742290638 ], [ -120.070509630240792, 39.239650189774039 ], [ -120.070311815896673, 39.239392968918892 ], [ -120.070339456278433, 39.239285561411108 ], [ -120.070225980213962, 39.239228653001788 ], [ -120.070394736759098, 39.23907074636108 ], [ -120.070770296307728, 39.238954079445321 ], [ -120.0707986849105, 39.238828673418375 ], [ -120.070940549164845, 39.238760175191942 ], [ -120.071180309805413, 39.238009485911959 ], [ -120.071833594728929, 39.23789980459528 ], [ -120.072118814774228, 39.23772680840689 ] ] ] ] } },
{ "type": "Feature", "properties": { "part": "upstream", "crossing_id": "X00291", "area_ac": 28.1, "n_upstream": 3.0 }, "geometry": { "type": "Polygon", "coordinates": [ [ [ -120.073195311752087, 39.238582679553957 ], [ -120.073187078106372, 39.238780662054715 ], [ -120.073317712858227, 39.238982136984319 ], [ -120.073272861478529, 39.239503508781489 ], [ -120.073272004259351, 39.239503487223189 ], [ -120.075502962784824, 39.239919917260465 ], [ -120.075797866113547, 39.24007146572221 ], [ -120.075814280340225, 39.240234033321407 ], [ -120.076011369727638, 39.240509244081984 ], [ -120.07567088102293, 39.240897067780047 ], [ -120.075688042966931, 39.241041636931278 ], [ -120.075439384149135, 39.241449784630881 ], [ -120.075428163887423, 39.241719761174828 ], [ -120.075208631479896, 39.241984502406474 ], [ -120.075404974868817, 39.242277712650719 ], [ -120.075291445241433, 39.242779341948513 ], [ -120.073523247850289, 39.244068164186587 ], [ -120.073242496233121, 39.244133172457239 ], [ -120.072836278083429, 39.2444292480209 ], [ -120.072509231385084, 39.244493089984886 ], [ -120.072128401606918, 39.244735750026251 ], [ -120.071448909733888, 39.24491684145309 ], [ -120.070431122319036, 39.245431739893597 ], [ -120.068898185903706, 39.245519259111589 ], [ -120.068787700623503, 39.245390355743559 ], [ -120.069418660647287, 39.245262109484308 ], [ -120.070387911049579, 39.244800049700196 ], [ -120.072324196579999, 39.243371367405928 ], [ -120.072950704176762, 39.242792559013054 ], [ -120.072989572265627, 39.242415174923224 ], [ -120.073133687881622, 39.242292679062601 ], [ -120.073388292080253, 39.242299082286038 ], [ -120.073662356984968, 39.241837526395315 ], [ -120.074063317610538, 39.241667436034263 ], [ -120.074281356515925, 39.241438693913999 ], [ -120.074264197430821, 39.241294124669238 ], [ -120.074506128171024, 39.241047965519328 ], [ -120.074498695740218, 39.240669416778445 ], [ -120.072523174720175, 39.240259393252444 ], [ -120.072441076546653, 39.240005086789679 ], [ -120.072491175612356, 39.239357726828509 ], [ -120.07309151089018, 39.239469794320904 ], [ -120.072976469123674, 39.239387951006258 ], [ -120.072998177862402, 39.238865997275752 ], [ -120.072718258544697, 39.238354474068004 ], [ -120.072792183771185, 39.238248230135419 ], [ -120.073195311752087, 39.238582679553957 ] ], [ [ -120.074982503434825, 39.240735629810359 ], [ -120.075037947634897, 39.240392693973384 ], [ -120.07496908352843, 39.240501068446044 ], [ -120.074982503434825, 39.240735629810359 ] ], [ [ -120.074854058176356, 39.241038694300002 ], [ -120.07483689795491, 39.240894125090328 ], [ -120.074828775126591, 39.241089536598999 ], [ -120.074854058176356, 39.241038694300002 ] ], [ [ -120.074677076019213, 39.241394590240624 ], [ -120.07476884478065, 39.241210051649261 ], [ -120.074628540226129, 39.241447421865558 ], [ -120.074677076019213, 39.241394590240624 ] ] ] } }
]
}
