{
"type": "FeatureCollection",
"name": "X00292",
"crs": { "type": "name", "properties": { "name": "urn:ogc:def:crs:OGC:1.3:CRS84" } },
"features": [
{ "type": "Feature", "properties": { "part": "direct", "crossing_id": "X00292", "area_ac": 5.0 }, "geometry": { "type": "Polygon", "coordinates": [ [ [ -120.085861944995045, 39.225874050282279 ], [ -120.086149366595663, 39.226205557981935 ], [ -120.086848859507668, 39.226655483696334 ], [ -120.086956372941188, 39.226856365072976 ], [ -120.087254228178196, 39.226935888971234 ], [ -120.088014970559669, 39.227585531035793 ], [ -120.088335227186178, 39.227683629999902 ], [ -120.088738375000077, 39.228018026572109 ], [ -120.089630476185036, 39.228292580511024 ], [ -120.089719322406467, 39.228384888752622 ], [ -120.090111241965602, 39.228430722902274 ], [ -120.090403157047874, 39.228654228820645 ], [ -120.090541263495055, 39.228675698680604 ], [ -120.090695817767212, 39.228859735347974 ], [ -120.089990326177428, 39.22855382085509 ], [ -120.089525260759146, 39.228596243683064 ], [ -120.088885480799931, 39.228382052355755 ], [ -120.088239005395238, 39.228329845796949 ], [ -120.088173302776752, 39.228238115476877 ], [ -120.087896348994491, 39.22821316876616 ], [ -120.087567095805113, 39.227772514648848 ], [ -120.087113204708885, 39.227544947930227 ], [ -120.086171067496366, 39.226800672311072 ], [ -120.086184475259387, 39.226476696520045 ], [ -120.085740281748272, 39.226015142400129 ], [ -120.085769382193234, 39.225871732624164 ], [ -120.085861944995045, 39.225874050282279 ] ] ] } }
]
}
