{
"type": "FeatureCollection",
"name": "X00335",
"crs": { "type": "name", "properties": { "name": "urn:ogc:def:crs:OGC:1.3:CRS84" } },
"features": [
{ "type": "Feature", "properties": { "part": "direct", "crossing_id": "X00335", "area_ac": 0.3 }, "geometry": { "type": "Polygon", "coordinates": [ [ [ -120.026942219962038, 39.238779526797991 ], [ -120.027427477901028, 39.238809940154134 ], [ -120.027423676841707, 39.238899928484443 ], [ -120.027539395669763, 39.238902884313951 ], [ -120.027672937228388, 39.239032414846427 ], [ -120.027732486847057, 39.239268157927484 ], [ -120.027526472442119, 39.239208844656318 ], [ -120.027487026547789, 39.239045683329906 ], [ -120.027285574519155, 39.238878383673871 ], [ -120.026982424797794, 39.23892469060285 ], [ -120.026893651496522, 39.238832337218341 ], [ -120.026942219962038, 39.238779526797991 ] ] ] } }
]
}
