{
"type": "FeatureCollection",
"name": "X00390",
"crs": { "type": "name", "properties": { "name": "urn:ogc:def:crs:OGC:1.3:CRS84" } },
"features": [
{ "type": "Feature", "properties": { "part": "direct", "crossing_id": "X00390", "area_ac": 1.5 }, "geometry": { "type": "Polygon", "coordinates": [ [ [ -120.007585393879083, 39.225959738423747 ], [ -120.007903987325008, 39.226094049056265 ], [ -120.007923302229031, 39.226184630875942 ], [ -120.007802252183353, 39.226307638042826 ], [ -120.008009740304033, 39.226330989498678 ], [ -120.008074569086247, 39.226440758430577 ], [ -120.007716771449793, 39.226683798274046 ], [ -120.007637409244197, 39.226915979361216 ], [ -120.006942462128606, 39.226916125932611 ], [ -120.006980903680727, 39.226556773665905 ], [ -120.007386511435143, 39.226278931412452 ], [ -120.007395691263582, 39.226062962892811 ], [ -120.007585393879083, 39.225959738423747 ] ] ] } }
]
}
