{
"type": "FeatureCollection",
"name": "X00303",
"crs": { "type": "name", "properties": { "name": "urn:ogc:def:crs:OGC:1.3:CRS84" } },
"features": [
{ "type": "Feature", "properties": { "part": "direct", "crossing_id": "X00303", "area_ac": 6.7 }, "geometry": { "type": "Polygon", "coordinates": [ [ [ -120.076543128601074, 39.237747948147039 ], [ -120.077162048103403, 39.237907632158297 ], [ -120.077359136955522, 39.238182840683635 ], [ -120.077350915130253, 39.238380823934882 ], [ -120.077201582582489, 39.238629314991371 ], [ -120.076700591406222, 39.238977076344526 ], [ -120.076717007629981, 39.239139643912054 ], [ -120.076596049691261, 39.239262726163673 ], [ -120.076655017380375, 39.239516448855234 ], [ -120.076559446712238, 39.239586117051296 ], [ -120.076389240964176, 39.239221496360152 ], [ -120.076163026460492, 39.239089692425409 ], [ -120.074368205851201, 39.238792343864645 ], [ -120.074233078861994, 39.238698860565563 ], [ -120.074127831310662, 39.238443973196752 ], [ -120.074221157913271, 39.238428302299347 ], [ -120.074299570331149, 39.238214066760271 ], [ -120.074507871005991, 39.238219303264685 ], [ -120.074756475974965, 39.238369690416391 ], [ -120.07520220698072, 39.238236755593228 ], [ -120.075479193622371, 39.238261733814852 ], [ -120.075532213860299, 39.23810091101204 ], [ -120.075841318490191, 39.23791048853807 ], [ -120.076543128601074, 39.237747948147039 ] ] ] } }
]
}
