{
"type": "FeatureCollection",
"name": "X00397",
"crs": { "type": "name", "properties": { "name": "urn:ogc:def:crs:OGC:1.3:CRS84" } },
"features": [
{ "type": "Feature", "properties": { "part": "direct", "crossing_id": "X00397", "area_ac": 5.7 }, "geometry": { "type": "Polygon", "coordinates": [ [ [ -120.037690005748274, 39.249845858613021 ], [ -120.039010933834376, 39.249843444135159 ], [ -120.039144516867552, 39.249972962883795 ], [ -120.039239802713382, 39.250461849003287 ], [ -120.039641315311528, 39.250832406367572 ], [ -120.039681551964932, 39.25097756678597 ], [ -120.039585930280495, 39.251047202487008 ], [ -120.039208744406082, 39.251199759685903 ], [ -120.03857920102817, 39.251291842162331 ], [ -120.038007320038986, 39.251115132635682 ], [ -120.037260112944338, 39.250699734284233 ], [ -120.037243787285831, 39.250537164802871 ], [ -120.037432759512299, 39.25045189066082 ], [ -120.037678637391807, 39.250115825599096 ], [ -120.037690005748274, 39.249845858613021 ] ] ] } }
]
}
