{
"type": "FeatureCollection",
"name": "X00344",
"crs": { "type": "name", "properties": { "name": "urn:ogc:def:crs:OGC:1.3:CRS84" } },
"features": [
{ "type": "Feature", "properties": { "part": "direct", "crossing_id": "X00344", "area_ac": 0.1, "n_upstream": null }, "geometry": { "type": "Polygon", "coordinates": [ [ [ -120.022044945389837, 39.235699509299408 ], [ -120.022151520684588, 39.235918441342776 ], [ -120.022126093551023, 39.23597184191803 ], [ -120.02189999749217, 39.235839936662998 ], [ -120.022044945389837, 39.235699509299408 ] ] ] } },
{ "type": "Feature", "properties": { "part": "upstream", "crossing_id": "X00344", "area_ac": 1.3, "n_upstream": 1.0 }, "geometry": { "type": "Polygon", "coordinates": [ [ [ -120.021003239413844, 39.235132335825639 ], [ -120.02104723897348, 39.235187513347384 ], [ -120.021396660158615, 39.235142406060874 ], [ -120.021641325940735, 39.235382889962096 ], [ -120.021984655772997, 39.235481761616313 ], [ -120.022068849484398, 39.235682103914876 ], [ -120.022018756757035, 39.235770907440212 ], [ -120.021876854850234, 39.235839344424193 ], [ -120.020664009180194, 39.235483993024502 ], [ -120.020692484559135, 39.235358602534802 ], [ -120.021003239413844, 39.235132335825639 ] ] ] } }
]
}
