{
"type": "FeatureCollection",
"name": "X00312",
"crs": { "type": "name", "properties": { "name": "urn:ogc:def:crs:OGC:1.3:CRS84" } },
"features": [
{ "type": "Feature", "properties": { "part": "direct", "crossing_id": "X00312", "area_ac": 0.5 }, "geometry": { "type": "Polygon", "coordinates": [ [ [ -120.093791268766935, 39.216162779690166 ], [ -120.093997280077986, 39.216221975342165 ], [ -120.094321950469677, 39.21621206346795 ], [ -120.094479459527747, 39.216324099520186 ], [ -120.09522209455163, 39.216288583121049 ], [ -120.095236324814607, 39.216505146528839 ], [ -120.094589951065302, 39.216452979095187 ], [ -120.093764417781159, 39.216252196020854 ], [ -120.093791268766935, 39.216162779690166 ] ] ] } }
]
}
