{
"type": "FeatureCollection",
"name": "X00374",
"crs": { "type": "name", "properties": { "name": "urn:ogc:def:crs:OGC:1.3:CRS84" } },
"features": [
{ "type": "Feature", "properties": { "part": "direct", "crossing_id": "X00374", "area_ac": 3.6, "n_upstream": null }, "geometry": { "type": "Polygon", "coordinates": [ [ [ -120.019977552448537, 39.23418720490335 ], [ -120.02027458970403, 39.234284896102267 ], [ -120.020269256281068, 39.234410879042578 ], [ -120.020077261463285, 39.23456811658923 ], [ -120.020210781010192, 39.234697654930137 ], [ -120.020396680778831, 39.234684397681633 ], [ -120.020439917704721, 39.234757572971944 ], [ -120.020692197095926, 39.234818083042676 ], [ -120.020824194679506, 39.23498361587464 ], [ -120.021007809913513, 39.235024350389608 ], [ -120.020978573506113, 39.235167738561536 ], [ -120.02083743371908, 39.235218176720821 ], [ -120.020664771028024, 39.235465995458625 ], [ -120.020457250515008, 39.235442665415057 ], [ -120.020426488942007, 39.235622048512937 ], [ -120.020219730042555, 39.235580720471823 ], [ -120.020124873994291, 39.235632342836524 ], [ -120.020047826276809, 39.235810540606558 ], [ -120.019794019867263, 39.235786024132672 ], [ -120.019186977372044, 39.235896596354102 ], [ -120.019287169889708, 39.235718992000663 ], [ -120.019588785194316, 39.235708699868937 ], [ -120.019614214111314, 39.235655299916786 ], [ -120.019575550339809, 39.235474139054297 ], [ -120.019417363872321, 39.235380002357907 ], [ -120.019541459512169, 39.235184992892911 ], [ -120.01935860703351, 39.235126258534592 ], [ -120.01954679438353, 39.235059010052865 ], [ -120.019549842866411, 39.234987019857023 ], [ -120.019322230657778, 39.234891104972711 ], [ -120.019403851917858, 39.234604922404976 ], [ -120.019614417877975, 39.234556264017421 ], [ -120.019642894631104, 39.234430873824913 ], [ -120.019945266409167, 39.2344025829968 ], [ -120.019977552448537, 39.23418720490335 ] ] ] } },
{ "type": "Feature", "properties": { "part": "upstream", "crossing_id": "X00374", "area_ac": 3.1, "n_upstream": 3.0 }, "geometry": { "type": "Polygon", "coordinates": [ [ [ -120.019474318813536, 39.235129222139619 ], [ -120.019365716025092, 39.235089685797071 ], [ -120.01938098722168, 39.23514484881067 ], [ -120.019541459512169, 39.235184992892911 ], [ -120.019417363872321, 39.235380002357907 ], [ -120.019575550339809, 39.235474139054297 ], [ -120.019588785194316, 39.235708699868937 ], [ -120.019287169889708, 39.235718992000663 ], [ -120.019186977372044, 39.235896596354102 ], [ -120.018960125130576, 39.235782683141437 ], [ -120.018564414504553, 39.235826597131002 ], [ -120.01856060252662, 39.235916584781826 ], [ -120.018396317044818, 39.235966426944323 ], [ -120.018380036426151, 39.235803856264162 ], [ -120.018395554603856, 39.235984424471447 ], [ -120.017344985050528, 39.236173707881854 ], [ -120.017463749074707, 39.236104683507982 ], [ -120.017450521332378, 39.235870122735143 ], [ -120.017647863853796, 39.23558690730782 ], [ -120.017785193509638, 39.235626460730685 ], [ -120.017838341635866, 39.235465669151168 ], [ -120.018209383137943, 39.235457159658736 ], [ -120.018400622067233, 39.235317923000039 ], [ -120.018725378032016, 39.235308225968815 ], [ -120.018704522662361, 39.235253640503053 ], [ -120.018868043956687, 39.235221795364602 ], [ -120.018889161014769, 39.23513997258641 ], [ -120.018871093150864, 39.235149805215308 ], [ -120.018894440270714, 39.235119516890826 ], [ -120.018895760084177, 39.235114402966829 ], [ -120.018899109692228, 39.235113459225211 ], [ -120.018993665299774, 39.234990791449263 ], [ -120.019131756898133, 39.235012345728535 ], [ -120.019205757080201, 39.234906138775308 ], [ -120.019549842866411, 39.234987019857023 ], [ -120.019474318813536, 39.235129222139619 ] ], [ [ -120.019314608874552, 39.235071080425847 ], [ -120.019218990712332, 39.235140699600315 ], [ -120.019342384496369, 39.235081192043303 ], [ -120.019314608874552, 39.235071080425847 ] ], [ [ -120.01911570763022, 39.235117784897774 ], [ -120.019232113921248, 39.235159052799112 ], [ -120.019218990712332, 39.235140699600315 ], [ -120.01911570763022, 39.235117784897774 ] ], [ [ -120.019087169650987, 39.235062251998492 ], [ -120.019060805474467, 39.235046562461442 ], [ -120.018979500259874, 39.235090809396674 ], [ -120.019012996315425, 39.23508137195109 ], [ -120.019045219461077, 39.235092795629988 ], [ -120.019087169650987, 39.235062251998492 ] ], [ [ -120.019273422247196, 39.235216823655236 ], [ -120.019155174764521, 39.23555345752829 ], [ -120.019284606823334, 39.235232465581625 ], [ -120.019273422247196, 39.235216823655236 ] ] ] } }
]
}
