{
"type": "FeatureCollection",
"name": "X00331",
"crs": { "type": "name", "properties": { "name": "urn:ogc:def:crs:OGC:1.3:CRS84" } },
"features": [
{ "type": "Feature", "properties": { "part": "direct", "crossing_id": "X00331", "area_ac": 6.1 }, "geometry": { "type": "Polygon", "coordinates": [ [ [ -120.048608797362675, 39.240898533303543 ], [ -120.048558718774984, 39.242644926483081 ], [ -120.048301854065883, 39.242692462920104 ], [ -120.048429402508702, 39.24296595523473 ], [ -120.048238198166459, 39.243105242593373 ], [ -120.048054543641527, 39.243064549717616 ], [ -120.048041213796807, 39.24282998872544 ], [ -120.048112915358757, 39.242777756120709 ], [ -120.048046499137016, 39.24270400279601 ], [ -120.047748628881266, 39.242624377816242 ], [ -120.047729259090033, 39.242533800702027 ], [ -120.047476925471955, 39.242473347413267 ], [ -120.04743516592869, 39.242364185043144 ], [ -120.047204467998057, 39.242340314394163 ], [ -120.047030634954339, 39.242065646302571 ], [ -120.046712644958006, 39.241913439595294 ], [ -120.046526728298872, 39.241926738359048 ], [ -120.046461069973901, 39.241834986246005 ], [ -120.046866622394816, 39.241557004328278 ], [ -120.046999719058149, 39.24114598753097 ], [ -120.047831426215836, 39.241203123897904 ], [ -120.048284014388926, 39.240908312954993 ], [ -120.048608797362675, 39.240898533303543 ] ] ] } }
]
}
