{
"type": "FeatureCollection",
"name": "X00381",
"crs": { "type": "name", "properties": { "name": "urn:ogc:def:crs:OGC:1.3:CRS84" } },
"features": [
{ "type": "Feature", "properties": { "part": "direct", "crossing_id": "X00381", "area_ac": 0.1 }, "geometry": { "type": "Polygon", "coordinates": [ [ [ -120.029267057094074, 39.241883785827284 ], [ -120.029208610082364, 39.242170567089012 ], [ -120.029007905179995, 39.241985272310998 ], [ -120.028914566025151, 39.24200090635 ], [ -120.028943030196729, 39.241875513498734 ], [ -120.029267057094074, 39.241883785827284 ] ] ] } }
]
}
