{
"type": "FeatureCollection",
"name": "X00309",
"crs": { "type": "name", "properties": { "name": "urn:ogc:def:crs:OGC:1.3:CRS84" } },
"features": [
{ "type": "Feature", "properties": { "part": "direct", "crossing_id": "X00309", "area_ac": 26.2, "n_upstream": null }, "geometry": { "type": "Polygon", "coordinates": [ [ [ -120.072491175612356, 39.239357726828509 ], [ -120.075502962784824, 39.239919917260465 ], [ -120.075797866113547, 39.24007146572221 ], [ -120.075814280340225, 39.240234033321407 ], [ -120.076011369727638, 39.240509244081984 ], [ -120.07567088102293, 39.240897067780047 ], [ -120.075688042966931, 39.241041636931278 ], [ -120.075439384149135, 39.241449784630881 ], [ -120.075428163887423, 39.241719761174828 ], [ -120.075208631479896, 39.241984502406474 ], [ -120.075404974868817, 39.242277712650719 ], [ -120.075291445241433, 39.242779341948513 ], [ -120.073523247850289, 39.244068164186587 ], [ -120.073242496233121, 39.244133172457239 ], [ -120.072836278083429, 39.2444292480209 ], [ -120.072509231385084, 39.244493089984886 ], [ -120.072128401606918, 39.244735750026251 ], [ -120.071448909733888, 39.24491684145309 ], [ -120.070431122319036, 39.245431739893597 ], [ -120.068898185903706, 39.245519259111589 ], [ -120.068787700623503, 39.245390355743559 ], [ -120.069418660647287, 39.245262109484308 ], [ -120.070387911049579, 39.244800049700196 ], [ -120.072324196579999, 39.243371367405928 ], [ -120.072950704176762, 39.242792559013054 ], [ -120.072989572265627, 39.242415174923224 ], [ -120.073133687881622, 39.242292679062601 ], [ -120.073388292080253, 39.242299082286038 ], [ -120.073662356984968, 39.241837526395315 ], [ -120.074063317610538, 39.241667436034263 ], [ -120.074281356515925, 39.241438693913999 ], [ -120.074264197430821, 39.241294124669238 ], [ -120.074506128171024, 39.241047965519328 ], [ -120.074498695740218, 39.240669416778445 ], [ -120.072523174720175, 39.240259393252444 ], [ -120.072441076546653, 39.240005086789679 ], [ -120.072491175612356, 39.239357726828509 ] ], [ [ -120.075107251980128, 39.239964024086525 ], [ -120.074758579139541, 39.23999129469712 ], [ -120.074601702845143, 39.240978299177669 ], [ -120.074350793245927, 39.241440439586981 ], [ -120.074628540226129, 39.241447421865558 ], [ -120.074677076019213, 39.241394590240624 ], [ -120.074854058176356, 39.241038694300002 ], [ -120.07483689795491, 39.240894125090328 ], [ -120.074982503434825, 39.240735629810359 ], [ -120.075107251980128, 39.239964024086525 ] ] ] } },
{ "type": "Feature", "properties": { "part": "upstream", "crossing_id": "X00309", "area_ac": 1.1, "n_upstream": 1.0 }, "geometry": { "type": "Polygon", "coordinates": [ [ [ -120.074758579139541, 39.23999129469712 ], [ -120.075107251980128, 39.239964024086525 ], [ -120.075093038761594, 39.240305994358827 ], [ -120.07496908352843, 39.240501068446044 ], [ -120.074982503434825, 39.240735629810359 ], [ -120.07483689795491, 39.240894125090328 ], [ -120.074827920087444, 39.241110106231069 ], [ -120.074628540226129, 39.241447421865558 ], [ -120.074350793245927, 39.241440439586981 ], [ -120.074601702845143, 39.240978299177669 ], [ -120.074758579139541, 39.23999129469712 ] ] ] } }
]
}
