{
"type": "FeatureCollection",
"name": "X00305",
"crs": { "type": "name", "properties": { "name": "urn:ogc:def:crs:OGC:1.3:CRS84" } },
"features": [
{ "type": "Feature", "properties": { "part": "direct", "crossing_id": "X00305", "area_ac": 15.6 }, "geometry": { "type": "Polygon", "coordinates": [ [ [ -120.07591280800267, 39.228939691881472 ], [ -120.077367735274692, 39.229048306231448 ], [ -120.078025394603671, 39.22938913041925 ], [ -120.078586011773154, 39.229835618699596 ], [ -120.078716647353048, 39.230037087791118 ], [ -120.078710672358142, 39.230181075987289 ], [ -120.078592721800462, 39.230232167101676 ], [ -120.078200055193918, 39.230204292569688 ], [ -120.077893232996146, 39.230340727518943 ], [ -120.077661065837816, 39.230352915362261 ], [ -120.077499819020758, 39.230330849117699 ], [ -120.077437865091866, 39.230149120697114 ], [ -120.077302749687689, 39.230055641316227 ], [ -120.076937710676404, 39.22992035273905 ], [ -120.076153130852489, 39.229846592879454 ], [ -120.076007551990074, 39.230005090833473 ], [ -120.075804439781209, 39.230990937052461 ], [ -120.075642444575294, 39.230986866675124 ], [ -120.075616311647806, 39.231058279061955 ], [ -120.07531022880876, 39.231176708381192 ], [ -120.075150436594967, 39.231677175870381 ], [ -120.074914525439951, 39.231779350343594 ], [ -120.074862257381042, 39.231922174686567 ], [ -120.074954827230428, 39.231924501310175 ], [ -120.074924953741373, 39.232085905781283 ], [ -120.075014532321035, 39.232160226198438 ], [ -120.075269848136102, 39.232148625473307 ], [ -120.075334789014761, 39.232258360995829 ], [ -120.076441148602783, 39.232394262210576 ], [ -120.076342597678078, 39.23253592457835 ], [ -120.076397822629289, 39.23287963980119 ], [ -120.076274632876959, 39.233056717650101 ], [ -120.076381376596117, 39.233275606316667 ], [ -120.075549726829507, 39.233218676735603 ], [ -120.075403430328137, 39.232836638106669 ], [ -120.075195893247226, 39.232813405341645 ], [ -120.075180228961301, 39.232632839133942 ], [ -120.075016734298444, 39.232664764661216 ], [ -120.07474799729053, 39.232441803170552 ], [ -120.074541209657355, 39.232400570836347 ], [ -120.07442105470453, 39.231947119121116 ], [ -120.07479894133192, 39.230100840337187 ], [ -120.074896743720657, 39.229977177677995 ], [ -120.074966957715304, 39.229402390045017 ], [ -120.075121510715618, 39.229027911784158 ], [ -120.07591280800267, 39.228939691881472 ] ] ] } }
]
}
