{
"type": "FeatureCollection",
"name": "X00301",
"crs": { "type": "name", "properties": { "name": "urn:ogc:def:crs:OGC:1.3:CRS84" } },
"features": [
{ "type": "Feature", "properties": { "part": "direct", "crossing_id": "X00301", "area_ac": 5.5 }, "geometry": { "type": "Polygon", "coordinates": [ [ [ -120.075928167671307, 39.234147065710047 ], [ -120.076226039036953, 39.234226618459417 ], [ -120.076307398016155, 39.234498921204271 ], [ -120.076487311809942, 39.234629561659986 ], [ -120.076502232022705, 39.234828126255451 ], [ -120.076041500916446, 39.236438104067716 ], [ -120.075607748304748, 39.236283067354513 ], [ -120.075444993084389, 39.236296994699714 ], [ -120.075312860791627, 39.236131518939473 ], [ -120.074991838851432, 39.236051381920468 ], [ -120.075108348500706, 39.235477758281526 ], [ -120.075285311759032, 39.235121860725201 ], [ -120.075221864387203, 39.234976128218683 ], [ -120.075291294805226, 39.234977873091907 ], [ -120.075371195209243, 39.234727639539678 ], [ -120.075322705094436, 39.234221937946266 ], [ -120.075928167671307, 39.234147065710047 ] ] ] } }
]
}
