{
"type": "FeatureCollection",
"name": "X00325",
"crs": { "type": "name", "properties": { "name": "urn:ogc:def:crs:OGC:1.3:CRS84" } },
"features": [
{ "type": "Feature", "properties": { "part": "direct", "crossing_id": "X00325", "area_ac": 0.2 }, "geometry": { "type": "Polygon", "coordinates": [ [ [ -120.057847435639175, 39.243258500343373 ], [ -120.058009456484228, 39.243262596533974 ], [ -120.058056318774035, 39.243804296476107 ], [ -120.057918195240617, 39.243782787338148 ], [ -120.057877171161593, 39.243655629947447 ], [ -120.057948866678117, 39.243603391038945 ], [ -120.057816764150246, 39.243437896620968 ], [ -120.057847435639175, 39.243258500343373 ] ] ] } }
]
}
