{
"type": "FeatureCollection",
"name": "X00355",
"crs": { "type": "name", "properties": { "name": "urn:ogc:def:crs:OGC:1.3:CRS84" } },
"features": [
{ "type": "Feature", "properties": { "part": "direct", "crossing_id": "X00355", "area_ac": 1.3 }, "geometry": { "type": "Polygon", "coordinates": [ [ [ -120.018431330900498, 39.242795787465653 ], [ -120.019263021303146, 39.242853128002686 ], [ -120.019178338024233, 39.243211299800755 ], [ -120.019082708152638, 39.243280918348013 ], [ -120.017554374945121, 39.243259775112499 ], [ -120.018431330900498, 39.242795787465653 ] ] ] } }
]
}
