{
"type": "FeatureCollection",
"name": "X00348",
"crs": { "type": "name", "properties": { "name": "urn:ogc:def:crs:OGC:1.3:CRS84" } },
"features": [
{ "type": "Feature", "properties": { "part": "direct", "crossing_id": "X00348", "area_ac": 17.0, "n_upstream": null }, "geometry": { "type": "MultiPolygon", "coordinates": [ [ [ [ -120.015236099861383, 39.241650870745019 ], [ -120.01521142863281, 39.241686272023557 ], [ -120.01521295545065, 39.241650277109073 ], [ -120.015236099861383, 39.241650870745019 ] ] ], [ [ [ -120.021568795517013, 39.238191696619204 ], [ -120.021892041687394, 39.238217986392634 ], [ -120.021819564909947, 39.238288199872969 ], [ -120.021823200172705, 39.239297248625356 ], [ -120.021102696068255, 39.23935087551336 ], [ -120.020953167071781, 39.239599286612709 ], [ -120.021018027426322, 39.239709049360023 ], [ -120.020911737616913, 39.240030635497362 ], [ -120.020561529726535, 39.240093737898384 ], [ -120.020322469026723, 39.240267787567547 ], [ -120.020026448852036, 39.240692616931561 ], [ -120.01955289319416, 39.240932728055739 ], [ -120.019235245785012, 39.241320967250509 ], [ -120.019154376712862, 39.241589151565542 ], [ -120.01864138580784, 39.241666095228744 ], [ -120.017322151105944, 39.241632289210479 ], [ -120.016229020719834, 39.241730385168708 ], [ -120.016070062292286, 39.241654241109835 ], [ -120.01560412059888, 39.241714360686665 ], [ -120.015236099861383, 39.241650870745019 ], [ -120.015331731020595, 39.241581255405549 ], [ -120.014754648524701, 39.241530418726192 ], [ -120.013272646901441, 39.241510408169205 ], [ -120.013083672590113, 39.241595642959368 ], [ -120.012688690678701, 39.241621538096631 ], [ -120.013817186667438, 39.241236110499642 ], [ -120.014420464462717, 39.241215555726491 ], [ -120.014531604296224, 39.241326509304336 ], [ -120.014763047226367, 39.241332446770357 ], [ -120.014881822651944, 39.241263425519413 ], [ -120.015275275447209, 39.241273517741902 ], [ -120.015466536429471, 39.241134286861545 ], [ -120.01595332895505, 39.241128753586707 ], [ -120.016490988460191, 39.241016420157116 ], [ -120.016651472032692, 39.241056568644488 ], [ -120.016982357988624, 39.240902897628281 ], [ -120.018791420203172, 39.240859171694851 ], [ -120.019169351650987, 39.240688682534135 ], [ -120.019316602382631, 39.240494266685147 ], [ -120.019280986843626, 39.240241115668255 ], [ -120.019188410716481, 39.240238744382822 ], [ -120.019198047534402, 39.239464257846137 ], [ -120.019625306691097, 39.239222962328171 ], [ -120.019752457933464, 39.238955962831412 ], [ -120.02008561375402, 39.238748289664528 ], [ -120.020187332678759, 39.238534689584199 ], [ -120.021207170553055, 39.238524764878022 ], [ -120.021491748181319, 39.238369895310861 ], [ -120.021568795517013, 39.238191696619204 ] ], [ [ -120.015389470188623, 39.241312480712764 ], [ -120.015294602845984, 39.241364098659275 ], [ -120.01529383946604, 39.241382096118805 ], [ -120.015389470188623, 39.241312480712764 ] ], [ [ -120.019250493077678, 39.240961016750347 ], [ -120.019203442170991, 39.240977828611541 ], [ -120.019190481777486, 39.241283786524356 ], [ -120.019250493077678, 39.240961016750347 ] ] ] ] } },
{ "type": "Feature", "properties": { "part": "upstream", "crossing_id": "X00348", "area_ac": 17.1, "n_upstream": 6.0 }, "geometry": { "type": "MultiPolygon", "coordinates": [ [ [ [ -120.018580834618177, 39.2409078277988 ], [ -120.017863363584794, 39.24088944384247 ], [ -120.018007076051234, 39.240861460252205 ], [ -120.016982357988624, 39.240902897628281 ], [ -120.016651472032692, 39.241056568644488 ], [ -120.016490988460191, 39.241016420157116 ], [ -120.01595332895505, 39.241128753586707 ], [ -120.015466536429471, 39.241134286861545 ], [ -120.015275275447209, 39.241273517741902 ], [ -120.014881822651944, 39.241263425519413 ], [ -120.014763047226367, 39.241332446770357 ], [ -120.014531604296224, 39.241326509304336 ], [ -120.014420464462717, 39.241215555726491 ], [ -120.013817186667438, 39.241236110499642 ], [ -120.012571440783844, 39.241654562169842 ], [ -120.011755274403157, 39.241777742848981 ], [ -120.013083672590113, 39.241595642959368 ], [ -120.013272646901441, 39.241510408169205 ], [ -120.015330967644246, 39.24159925286498 ], [ -120.015186757378601, 39.241721673295736 ], [ -120.013194810795397, 39.241706597750479 ], [ -120.012427225812232, 39.241776978987843 ], [ -120.012400260763698, 39.241866371845227 ], [ -120.011864882159728, 39.241924693640065 ], [ -120.011191400652663, 39.24196144897769 ], [ -120.011148934070846, 39.241870273137494 ], [ -120.010256402820161, 39.241882916215992 ], [ -120.010150666810333, 39.241916697097793 ], [ -120.00982588061207, 39.241926368950452 ], [ -120.00968166048996, 39.242048782152644 ], [ -120.00909463527185, 39.242231883066857 ], [ -120.008093301650078, 39.242350278491458 ], [ -120.007435305790381, 39.242567580212629 ], [ -120.007490014342707, 39.242370799988826 ], [ -120.007918094514153, 39.242111552488197 ], [ -120.008972598788986, 39.241832372040648 ], [ -120.009284184214053, 39.241588142065574 ], [ -120.009566504531648, 39.241487295332803 ], [ -120.010263125970738, 39.241451143882813 ], [ -120.010569353273368, 39.241332891873547 ], [ -120.011034530971244, 39.241290789925635 ], [ -120.012029732374614, 39.24131634763301 ], [ -120.012473293426851, 39.241237650802049 ], [ -120.01252951491324, 39.241004872755497 ], [ -120.013623400696417, 39.240888813894877 ], [ -120.013837044031234, 39.240768177149121 ], [ -120.014069248656554, 39.240756118483745 ], [ -120.014136389958196, 39.240811892352824 ], [ -120.014995776339532, 39.240761871524263 ], [ -120.015224927367314, 39.240821800377411 ], [ -120.015440857902306, 39.240647168182235 ], [ -120.015835070677781, 39.240639260913881 ], [ -120.015931463030981, 39.240551647523084 ], [ -120.016607219320036, 39.240460871658179 ], [ -120.016820093575618, 39.240358226663382 ], [ -120.01702457522525, 39.240453553655797 ], [ -120.017164202446835, 39.240439115659363 ], [ -120.017494321595379, 39.240303440514175 ], [ -120.017758821164421, 39.240075997538391 ], [ -120.018061217805695, 39.240047712595853 ], [ -120.018372764910495, 39.239803456683852 ], [ -120.018627347523903, 39.23980997926467 ], [ -120.018947278007175, 39.239367748933098 ], [ -120.019271290422026, 39.23937604862833 ], [ -120.019198047534402, 39.239464257846137 ], [ -120.019188410716481, 39.240238744382822 ], [ -120.018862869482831, 39.240266439348318 ], [ -120.019280986843626, 39.240241115668255 ], [ -120.019316602382631, 39.240494266685147 ], [ -120.019098394341412, 39.240722899041522 ], [ -120.018580834618177, 39.2409078277988 ] ], [ [ -120.018190433185396, 39.240825756786407 ], [ -120.018283554630187, 39.24074297133911 ], [ -120.018101851888332, 39.240843005457236 ], [ -120.018190433185396, 39.240825756786407 ] ], [ [ -120.01538159294627, 39.240951937880361 ], [ -120.015381974619274, 39.240942939149242 ], [ -120.015358448762143, 39.240951344282124 ], [ -120.015376353431279, 39.240966217130811 ], [ -120.01538930767444, 39.240952135745417 ], [ -120.01538159294627, 39.240951937880361 ] ], [ [ -120.015395784794052, 39.240945095052126 ], [ -120.015405500470976, 39.24093453401138 ], [ -120.015389816570448, 39.240940137437178 ], [ -120.015395784794052, 39.240945095052126 ] ], [ [ -120.015206508583987, 39.240972804546111 ], [ -120.015356922056611, 39.240987339205716 ], [ -120.015373114869647, 39.240969737476902 ], [ -120.015357685409711, 39.240969341743984 ], [ -120.015206508583987, 39.240972804546111 ] ] ], [ [ [ -120.019249730719537, 39.24097901427605 ], [ -120.01922658644493, 39.240978421446094 ], [ -120.019227348808982, 39.240960423920782 ], [ -120.019249730719537, 39.24097901427605 ] ] ], [ [ [ -120.019190481777486, 39.241283786524356 ], [ -120.019203442170991, 39.240977828611541 ], [ -120.01922658644493, 39.240978421446094 ], [ -120.019190481777486, 39.241283786524356 ] ] ], [ [ [ -120.015388706834329, 39.241330478173985 ], [ -120.015365562525702, 39.241329884572387 ], [ -120.015366325885907, 39.241311887111557 ], [ -120.015388706834329, 39.241330478173985 ] ] ], [ [ [ -120.015342418217713, 39.241329290966206 ], [ -120.015364799164828, 39.241347882033182 ], [ -120.015341654850928, 39.241347288426617 ], [ -120.015342418217713, 39.241329290966206 ] ] ], [ [ [ -120.01534089148349, 39.241365285886921 ], [ -120.015317747164374, 39.24136469227539 ], [ -120.015318510537753, 39.241346694815476 ], [ -120.01534089148349, 39.241365285886921 ] ] ], [ [ [ -120.015316983790342, 39.24138268973531 ], [ -120.01529383946604, 39.241382096118805 ], [ -120.015294602845984, 39.241364098659275 ], [ -120.015316983790342, 39.24138268973531 ] ] ] ] } }
]
}
