{
"type": "FeatureCollection",
"name": "X00362",
"crs": { "type": "name", "properties": { "name": "urn:ogc:def:crs:OGC:1.3:CRS84" } },
"features": [
{ "type": "Feature", "properties": { "part": "direct", "crossing_id": "X00362", "area_ac": 20.5, "n_upstream": null }, "geometry": { "type": "Polygon", "coordinates": [ [ [ -120.022412156953493, 39.238519568710821 ], [ -120.022494070583406, 39.238773903552932 ], [ -120.022388550628818, 39.239077493814889 ], [ -120.022818383196551, 39.239322713073463 ], [ -120.022807723505522, 39.239574679315915 ], [ -120.022641147575243, 39.239678519994698 ], [ -120.022507913626683, 39.240089503648782 ], [ -120.022182373804682, 39.240117207984682 ], [ -120.022329151170581, 39.240481305077076 ], [ -120.022169722851729, 39.240963686247312 ], [ -120.022074098983794, 39.241033307509078 ], [ -120.0220125771433, 39.241392074371731 ], [ -120.022253457453857, 39.241722545533079 ], [ -120.022071642200203, 39.242186336534068 ], [ -120.022155081323163, 39.242404676456452 ], [ -120.021983927306081, 39.24261650125549 ], [ -120.021966114389485, 39.242489925991727 ], [ -120.021688376493884, 39.24248281797874 ], [ -120.021679235131799, 39.242698788705042 ], [ -120.021439405935624, 39.242890837926133 ], [ -120.021505793449151, 39.242964605381488 ], [ -120.021471220772384, 39.243233976308325 ], [ -120.021253484464111, 39.242904095999215 ], [ -120.020913930130433, 39.242715233205686 ], [ -120.020969363465724, 39.24250044764981 ], [ -120.020209395834414, 39.242390904798413 ], [ -120.019880033617412, 39.242508589902741 ], [ -120.019710397261903, 39.242684416021177 ], [ -120.019572290525602, 39.242662861867572 ], [ -120.019381032893463, 39.242802099622054 ], [ -120.01922130601622, 39.242743957179464 ], [ -120.019193586632852, 39.242851349436307 ], [ -120.018385041192403, 39.242794601430234 ], [ -120.017530467096947, 39.243277179407315 ], [ -120.01553923677767, 39.243244144840553 ], [ -120.015490656754082, 39.243296950015072 ], [ -120.014517041886165, 39.243308009488054 ], [ -120.014351208949236, 39.243393839983483 ], [ -120.01383896465336, 39.243452764298119 ], [ -120.013766474425836, 39.243522972187179 ], [ -120.013117650832626, 39.243524337225402 ], [ -120.012926378642504, 39.24366356376327 ], [ -120.01202219468226, 39.243676384468202 ], [ -120.011972847498669, 39.24374718545436 ], [ -120.011787687272232, 39.243742430839461 ], [ -120.01162949400991, 39.243648283349934 ], [ -120.010334140280051, 39.24359699375205 ], [ -120.01010804419532, 39.243465065627092 ], [ -120.009416757287369, 39.243375233869216 ], [ -120.009079529807366, 39.243132345607293 ], [ -120.008318813679892, 39.243040722850971 ], [ -120.00949843046466, 39.243089060549416 ], [ -120.009654324865721, 39.24323720287088 ], [ -120.010023112427731, 39.243282713221966 ], [ -120.013450847542373, 39.24331668479654 ], [ -120.013892892533022, 39.243273977854201 ], [ -120.01459793083454, 39.243039829223584 ], [ -120.015570015307205, 39.243064763847201 ], [ -120.015991966035358, 39.242949465374011 ], [ -120.016373730957184, 39.242688998693318 ], [ -120.016382888585639, 39.24247302901064 ], [ -120.019139400658162, 39.242489620459544 ], [ -120.019261986067647, 39.242330607053034 ], [ -120.019782603916028, 39.242073685513589 ], [ -120.020029294133195, 39.241719661930766 ], [ -120.020541522256607, 39.241660709646759 ], [ -120.021075082996489, 39.24109782355476 ], [ -120.021565685165285, 39.241002278957829 ], [ -120.021453772492208, 39.240909329252702 ], [ -120.021107369972668, 39.240882445347403 ], [ -120.021223853244493, 39.240867410018332 ], [ -120.02130699897647, 39.240545231218391 ], [ -120.021837498097327, 39.24005433124421 ], [ -120.02180415857643, 39.239747187929112 ], [ -120.021878160267391, 39.239640979386472 ], [ -120.021810251933616, 39.239603207356538 ], [ -120.021884253450324, 39.239496998801592 ], [ -120.021814821922874, 39.239495221924258 ], [ -120.021818630228495, 39.239405234062133 ], [ -120.021962062844494, 39.239300802313799 ], [ -120.022289585647698, 39.238678586057276 ], [ -120.022180721652902, 39.238513646797351 ], [ -120.022412156953493, 39.238519568710821 ] ] ] } },
{ "type": "Feature", "properties": { "part": "upstream", "crossing_id": "X00362", "area_ac": 267.1, "n_upstream": 14.0 }, "geometry": { "type": "Polygon", "coordinates": [ [ [ -120.021018027426322, 39.239709049360023 ], [ -120.020980120320687, 39.239509891290453 ], [ -120.021126601682241, 39.239333470388651 ], [ -120.021891869867545, 39.239317023064331 ], [ -120.021814821922874, 39.239495221924258 ], [ -120.021884253450324, 39.239496998801592 ], [ -120.021808728598401, 39.239639202500079 ], [ -120.021878160267391, 39.239640979386472 ], [ -120.02180415857643, 39.239747187929112 ], [ -120.021837498097327, 39.24005433124421 ], [ -120.02130699897647, 39.240545231218391 ], [ -120.021223853244493, 39.240867410018332 ], [ -120.020990886658225, 39.240897480557855 ], [ -120.021361957120206, 39.240888962100158 ], [ -120.021565685165285, 39.241002278957829 ], [ -120.021075082996489, 39.24109782355476 ], [ -120.020541522256607, 39.241660709646759 ], [ -120.020121872277798, 39.241722032622285 ], [ -120.020335507845161, 39.24160138362079 ], [ -120.02000538741315, 39.24173706678215 ], [ -120.019782603916028, 39.242073685513589 ], [ -120.019261986067647, 39.242330607053034 ], [ -120.019139400658162, 39.242489620459544 ], [ -120.017076467101688, 39.24250882691306 ], [ -120.016383512965831, 39.242458303804618 ], [ -120.016373730957184, 39.242688998693318 ], [ -120.015991966035358, 39.242949465374011 ], [ -120.015570015307205, 39.243064763847201 ], [ -120.01478308968872, 39.243044579300168 ], [ -120.015180369668968, 39.242964684974503 ], [ -120.01459793083454, 39.243039829223584 ], [ -120.01375325922335, 39.243288411673923 ], [ -120.014226085861139, 39.243066323062344 ], [ -120.013777167961081, 39.243271008191847 ], [ -120.013242543282971, 39.24331133852624 ], [ -120.010023112427731, 39.243282713221966 ], [ -120.009654324865721, 39.24323720287088 ], [ -120.009567099864768, 39.243108842264526 ], [ -120.009314037341653, 39.243066304711263 ], [ -120.008388247847748, 39.243042507907418 ], [ -120.008309389306817, 39.243023964965516 ], [ -120.008341193199612, 39.243059315214431 ], [ -120.009079529807366, 39.243132345607293 ], [ -120.009416757287369, 39.243375233869216 ], [ -120.01010804419532, 39.243465065627092 ], [ -120.010334140280051, 39.24359699375205 ], [ -120.01162949400991, 39.243648283349934 ], [ -120.011787687272232, 39.243742430839461 ], [ -120.011972847498669, 39.24374718545436 ], [ -120.01202219468226, 39.243676384468202 ], [ -120.012926378642504, 39.24366356376327 ], [ -120.013117650832626, 39.243524337225402 ], [ -120.013766474425836, 39.243522972187179 ], [ -120.01383896465336, 39.243452764298119 ], [ -120.014351208949236, 39.243393839983483 ], [ -120.014517041886165, 39.243308009488054 ], [ -120.015490656754082, 39.243296950015072 ], [ -120.01553923677767, 39.243244144840553 ], [ -120.015769159602783, 39.243286075468482 ], [ -120.016951842461992, 39.243262348017723 ], [ -120.018038894398174, 39.243308226154788 ], [ -120.017531229956745, 39.243259181916983 ], [ -120.017554869844474, 39.243259513270459 ], [ -120.018431330900498, 39.242795787465653 ], [ -120.019236477965663, 39.242851298076644 ], [ -120.019197398742349, 39.242761361840948 ], [ -120.019381032893463, 39.242802099622054 ], [ -120.019572290525602, 39.242662861867572 ], [ -120.019805263434947, 39.242632794426122 ], [ -120.019950992434218, 39.242474372982144 ], [ -120.020231778447965, 39.242409494988124 ], [ -120.020969363465724, 39.24250044764981 ], [ -120.020913930130433, 39.242715233205686 ], [ -120.021253484464111, 39.242904095999215 ], [ -120.021448075709884, 39.243233383891479 ], [ -120.021471553203554, 39.243231386203412 ], [ -120.021505793449151, 39.242964605381488 ], [ -120.021439405935624, 39.242890837926133 ], [ -120.021679235131799, 39.242698788705042 ], [ -120.021688376493884, 39.24248281797874 ], [ -120.021966114389485, 39.242489925991727 ], [ -120.021994123207875, 39.242923052165771 ], [ -120.021850682906319, 39.243027483615414 ], [ -120.021841541864916, 39.24324345435334 ], [ -120.021605172097367, 39.243303522446823 ], [ -120.021653334072425, 39.243310705709519 ], [ -120.021665052064392, 39.243581261451489 ], [ -120.021364453156366, 39.244114079104129 ], [ -120.021173956711152, 39.244235322213868 ], [ -120.021037655960541, 39.24471829342086 ], [ -120.020870302860246, 39.244840128456204 ], [ -120.020571978489258, 39.245318950915092 ], [ -120.020436433260258, 39.24578392356878 ], [ -120.02028764906882, 39.24601433543026 ], [ -120.020146486572401, 39.246064771813622 ], [ -120.019993126920284, 39.246403168362498 ], [ -120.019733183475395, 39.246522630472121 ], [ -120.019728609151599, 39.246630615569202 ], [ -120.019056115335133, 39.247189935408684 ], [ -120.01878167703839, 39.247651347697492 ], [ -120.01847238300715, 39.247841610662725 ], [ -120.018156984679578, 39.24817585262106 ], [ -120.018017342119578, 39.248190291209959 ], [ -120.017728901515369, 39.248435137613995 ], [ -120.017027632853456, 39.248579316033009 ], [ -120.01664660007944, 39.24882178603638 ], [ -120.01641513213626, 39.248815851371219 ], [ -120.016388932134475, 39.248887247696857 ], [ -120.016202994294147, 39.248900497036338 ], [ -120.015960838364052, 39.249146525735718 ], [ -120.01537300346051, 39.249347653940568 ], [ -120.014465922829501, 39.249972997038157 ], [ -120.014256834807256, 39.249985649245161 ], [ -120.013547139961773, 39.250327777259614 ], [ -120.013281822550809, 39.25057320569659 ], [ -120.013273416923553, 39.250771177070149 ], [ -120.012994120118094, 39.250800041862931 ], [ -120.012780443851611, 39.250920675650057 ], [ -120.01278295555997, 39.251407199365254 ], [ -120.012685779380973, 39.251512806665481 ], [ -120.012356362215726, 39.251630468168976 ], [ -120.012172710105702, 39.25158971861643 ], [ -120.011980648671482, 39.251746939888413 ], [ -120.011226923918372, 39.252033871614707 ], [ -120.01070314175638, 39.252362739821763 ], [ -120.010028029667581, 39.252435479173137 ], [ -120.009908465157608, 39.252522491776695 ], [ -120.009652308356721, 39.252551943040729 ], [ -120.0087040113727, 39.252509551758514 ], [ -120.008211017389613, 39.252659030082114 ], [ -120.007770442164983, 39.252665718353938 ], [ -120.00732144397125, 39.252870375178503 ], [ -120.00655373296658, 39.252940712597763 ], [ -120.006657047326968, 39.252691132618786 ], [ -120.006874568138912, 39.252480524296516 ], [ -120.006898372357014, 39.252465693479934 ], [ -120.006898481760942, 39.252463122438925 ], [ -120.006900203450314, 39.252464552647666 ], [ -120.006922176565197, 39.252450862658037 ], [ -120.006926990283262, 39.252337736849142 ], [ -120.00674870106657, 39.252170997778116 ], [ -120.006556455863105, 39.25178769557543 ], [ -120.006450163958021, 39.24992921127766 ], [ -120.006545049293251, 39.249877601309059 ], [ -120.00655653692489, 39.249607641961504 ], [ -120.006676100175994, 39.249520632735802 ], [ -120.006787065981044, 39.249091079356461 ], [ -120.007098692405322, 39.24884685703573 ], [ -120.007129495693206, 39.248667479351326 ], [ -120.007444181323592, 39.248351266744294 ], [ -120.007477280124107, 39.24811789698272 ], [ -120.007594543057053, 39.248084878586027 ], [ -120.007694783550718, 39.247907286342198 ], [ -120.007700142032022, 39.247781305140073 ], [ -120.007543476919381, 39.24765115738159 ], [ -120.007550366674437, 39.247489181564909 ], [ -120.007716982754488, 39.247385364197271 ], [ -120.007613500140735, 39.247094431099654 ], [ -120.007714504483204, 39.246898841439211 ], [ -120.007601071094726, 39.246841873461541 ], [ -120.007453594481191, 39.246495757867152 ], [ -120.007390101404866, 39.245809478913294 ], [ -120.007231144379944, 39.245733322831235 ], [ -120.007196336699693, 39.245462172572431 ], [ -120.007355878603207, 39.244979816608911 ], [ -120.007571075731605, 39.244823197702608 ], [ -120.007551757698224, 39.244732615895266 ], [ -120.007753176479881, 39.244899948428881 ], [ -120.007485383781827, 39.244658840992869 ], [ -120.007446748043535, 39.244477677354759 ], [ -120.007334084166672, 39.244402711935273 ], [ -120.007410993304404, 39.243684009547685 ], [ -120.00727824775349, 39.243536459613715 ], [ -120.007267350692942, 39.243247907233616 ], [ -120.007110695984863, 39.243117759225008 ], [ -120.007234074456932, 39.242940762283332 ], [ -120.00726193047575, 39.242937170272477 ], [ -120.007340431270393, 39.242619191369656 ], [ -120.00802310291877, 39.242366490622302 ], [ -120.008092704384211, 39.242364325194345 ], [ -120.008093301650078, 39.242350278491458 ], [ -120.008158991492621, 39.242362262843116 ], [ -120.008974322805116, 39.242336892819921 ], [ -120.008209024108211, 39.242353253743111 ], [ -120.00909463527185, 39.242231883066857 ], [ -120.00968166048996, 39.242048782152644 ], [ -120.00982588061207, 39.241926368950452 ], [ -120.010198484986788, 39.241881891635387 ], [ -120.011148934070846, 39.241870273137494 ], [ -120.011191400652663, 39.24196144897769 ], [ -120.012400260763698, 39.241866371845227 ], [ -120.012427225812232, 39.241776978987843 ], [ -120.013194810795397, 39.241706597750479 ], [ -120.015198139433394, 39.241723749104935 ], [ -120.015186757378601, 39.241721673295736 ], [ -120.015236099861383, 39.241650870745019 ], [ -120.015650409479662, 39.241715547800112 ], [ -120.016070062292286, 39.241654241109835 ], [ -120.016229020719834, 39.241730385168708 ], [ -120.017322151105944, 39.241632289210479 ], [ -120.01864138580784, 39.241666095228744 ], [ -120.019154376712862, 39.241589151565542 ], [ -120.019235245785012, 39.241320967250509 ], [ -120.01955289319416, 39.240932728055739 ], [ -120.020026448852036, 39.240692616931561 ], [ -120.020322469026723, 39.240267787567547 ], [ -120.020561529726535, 39.240093737898384 ], [ -120.020792969877846, 39.240099663227603 ], [ -120.020911737616913, 39.240030635497362 ], [ -120.021018027426322, 39.239709049360023 ] ], [ [ -120.015644363272344, 39.242404407979194 ], [ -120.015643785000577, 39.242418042420141 ], [ -120.01593309345148, 39.242425461590067 ], [ -120.015644363272344, 39.242404407979194 ] ], [ [ -120.015551969661189, 39.242397670673697 ], [ -120.015200219196359, 39.242496751181058 ], [ -120.015629486333438, 39.242403323163728 ], [ -120.015551969661189, 39.242397670673697 ] ], [ [ -120.015218541426776, 39.242064812253815 ], [ -120.015207883067262, 39.242022588756747 ], [ -120.015124436360693, 39.242098432556766 ], [ -120.015218541426776, 39.242064812253815 ] ], [ [ -120.015159032396753, 39.241829064385534 ], [ -120.015151398093877, 39.24200903894085 ], [ -120.015204808542578, 39.242010408901677 ], [ -120.015159032396753, 39.241829064385534 ] ], [ [ -120.015301716165865, 39.241742638918574 ], [ -120.015282556362763, 39.241739144655817 ], [ -120.015159032396753, 39.241829064385534 ], [ -120.015301716165865, 39.241742638918574 ] ], [ [ -120.021282745563894, 39.239914013261128 ], [ -120.021451667450094, 39.239864285801197 ], [ -120.021278326155354, 39.239893309210444 ], [ -120.021282745563894, 39.239914013261128 ] ], [ [ -120.021276392664817, 39.239884251188244 ], [ -120.021531001983789, 39.239632094541328 ], [ -120.021267277643759, 39.239841549083138 ], [ -120.021276392664817, 39.239884251188244 ] ], [ [ -120.020562097273313, 39.241174775915361 ], [ -120.020546991401218, 39.241203216446941 ], [ -120.020577137244331, 39.241167790371236 ], [ -120.020562097273313, 39.241174775915361 ] ], [ [ -120.021589712452425, 39.243289647191943 ], [ -120.021335173351076, 39.243263252278282 ], [ -120.021586374186668, 39.243300718770101 ], [ -120.021589712452425, 39.243289647191943 ] ], [ [ -120.019178338024233, 39.243211299800755 ], [ -120.019260734082337, 39.242907120562492 ], [ -120.019253948141326, 39.242891503557928 ], [ -120.019178338024233, 39.243211299800755 ] ], [ [ -120.012399286012055, 39.245163462344969 ], [ -120.012411240874684, 39.245154760764983 ], [ -120.012370997061396, 39.245162736046254 ], [ -120.012399286012055, 39.245163462344969 ] ], [ [ -120.021205747971251, 39.243249831048765 ], [ -120.021146428024849, 39.243243679604383 ], [ -120.021097852063832, 39.243296487283303 ], [ -120.021205747971251, 39.243249831048765 ] ], [ [ -120.014937048417508, 39.24866318586789 ], [ -120.014443074585486, 39.248873372709397 ], [ -120.014938320945674, 39.248669874053462 ], [ -120.014937048417508, 39.24866318586789 ] ] ] } }
]
}
