{
"type": "FeatureCollection",
"name": "X00382",
"crs": { "type": "name", "properties": { "name": "urn:ogc:def:crs:OGC:1.3:CRS84" } },
"features": [
{ "type": "Feature", "properties": { "part": "direct", "crossing_id": "X00382", "area_ac": 0.2 }, "geometry": { "type": "Polygon", "coordinates": [ [ [ -120.030437525912362, 39.243246924458624 ], [ -120.030503923504327, 39.243320687147502 ], [ -120.030469384869363, 39.243590062049449 ], [ -120.030264874641631, 39.243494757695615 ], [ -120.030275509139059, 39.243242789915513 ], [ -120.030437525912362, 39.243246924458624 ] ] ] } }
]
}
