{
"type": "FeatureCollection",
"name": "X00380",
"crs": { "type": "name", "properties": { "name": "urn:ogc:def:crs:OGC:1.3:CRS84" } },
"features": [
{ "type": "Feature", "properties": { "part": "direct", "crossing_id": "X00380", "area_ac": 0.1 }, "geometry": { "type": "Polygon", "coordinates": [ [ [ -120.029297449477014, 39.241163878301258 ], [ -120.029269746106706, 39.241271273599125 ], [ -120.029130118785758, 39.241285726161344 ], [ -120.029165010424791, 39.241556873188216 ], [ -120.029140346057531, 39.241592277692611 ], [ -120.028973425882739, 39.241155606183497 ], [ -120.029297449477014, 39.241163878301258 ] ] ] } }
]
}
