{
"type": "FeatureCollection",
"name": "X00341",
"crs": { "type": "name", "properties": { "name": "urn:ogc:def:crs:OGC:1.3:CRS84" } },
"features": [
{ "type": "Feature", "properties": { "part": "direct", "crossing_id": "X00341", "area_ac": 3.2 }, "geometry": { "type": "Polygon", "coordinates": [ [ [ -120.024612686406456, 39.241818925362651 ], [ -120.024658529287208, 39.242378626598935 ], [ -120.024559861572726, 39.242520240345293 ], [ -120.024529419295632, 39.243240144604243 ], [ -120.0232526312343, 39.243297576199993 ], [ -120.023266336295066, 39.242973619676398 ], [ -120.023382822735257, 39.242958582304603 ], [ -120.023466723079821, 39.2426184041868 ], [ -120.023588537945798, 39.242477383446449 ], [ -120.023843892658689, 39.242465897399768 ], [ -120.023990373693081, 39.242289472928761 ], [ -120.023934640774186, 39.241963740424978 ], [ -120.024287900084246, 39.241828637702696 ], [ -120.024612686406456, 39.241818925362651 ] ] ] } }
]
}
