{
"type": "FeatureCollection",
"name": "X00302",
"crs": { "type": "name", "properties": { "name": "urn:ogc:def:crs:OGC:1.3:CRS84" } },
"features": [
{ "type": "Feature", "properties": { "part": "direct", "crossing_id": "X00302", "area_ac": 2.7 }, "geometry": { "type": "Polygon", "coordinates": [ [ [ -120.074885051326888, 39.236391025561709 ], [ -120.075138138681851, 39.236433421051302 ], [ -120.075520367996091, 39.236713285506873 ], [ -120.075839898030623, 39.236829418110894 ], [ -120.075904095910843, 39.236957151893016 ], [ -120.076310970737936, 39.23720159854912 ], [ -120.076427439519961, 39.237186507237574 ], [ -120.076606612507476, 39.2373351461911 ], [ -120.076576739709779, 39.237496551012043 ], [ -120.076708129842331, 39.237680023980218 ], [ -120.076547614380544, 39.23763995734992 ], [ -120.076282592718243, 39.237327006347854 ], [ -120.075773419028906, 39.237314213347339 ], [ -120.075583029974339, 39.237435549958398 ], [ -120.075167928862712, 39.237389083707285 ], [ -120.075073107819762, 39.237440752313653 ], [ -120.074799864936807, 39.237325781053848 ], [ -120.074545278393487, 39.237319381590709 ], [ -120.074751378319235, 39.236820079506373 ], [ -120.074762599219639, 39.2365501028982 ], [ -120.074885051326888, 39.236391025561709 ] ] ] } }
]
}
