{
"type": "FeatureCollection",
"name": "X00371",
"crs": { "type": "name", "properties": { "name": "urn:ogc:def:crs:OGC:1.3:CRS84" } },
"features": [
{ "type": "Feature", "properties": { "part": "direct", "crossing_id": "X00371", "area_ac": 0.4, "n_upstream": null }, "geometry": { "type": "Polygon", "coordinates": [ [ [ -120.026779548519983, 39.237694345745354 ], [ -120.026936229869889, 39.237824468295102 ], [ -120.026952104237736, 39.238545557233074 ], [ -120.026725990563676, 39.238413660746907 ], [ -120.026684265716696, 39.238304492185236 ], [ -120.026759779305692, 39.23816228485871 ], [ -120.026677090252164, 39.237925950090442 ], [ -120.026779548519983, 39.237694345745354 ] ] ] } },
{ "type": "Feature", "properties": { "part": "upstream", "crossing_id": "X00371", "area_ac": 3.8, "n_upstream": 1.0 }, "geometry": { "type": "Polygon", "coordinates": [ [ [ -120.026886141458036, 39.237913274066059 ], [ -120.027348249956034, 39.237943096251897 ], [ -120.027572082955515, 39.238128984536566 ], [ -120.027671837750972, 39.238509891279669 ], [ -120.028318340014664, 39.238562436292298 ], [ -120.028236749018603, 39.238848626163737 ], [ -120.028363452023967, 39.239140135069135 ], [ -120.028264036519815, 39.239299750166055 ], [ -120.028772442889107, 39.239330749080615 ], [ -120.02843702835861, 39.239592441036187 ], [ -120.028669574908051, 39.240120874410735 ], [ -120.028391844661698, 39.240113782738788 ], [ -120.028123235301507, 39.239890718319423 ], [ -120.027914178276532, 39.239903396347181 ], [ -120.02787549130754, 39.239722237449115 ], [ -120.027718804133755, 39.239592115972897 ], [ -120.027672937228388, 39.239032414846427 ], [ -120.027539395669763, 39.238902884313951 ], [ -120.027423676841707, 39.238899928484443 ], [ -120.027427477901028, 39.238809940154134 ], [ -120.02698850739182, 39.238780709331877 ], [ -120.026886141458036, 39.237913274066059 ] ] ] } }
]
}
