{
"type": "FeatureCollection",
"name": "X00357",
"crs": { "type": "name", "properties": { "name": "urn:ogc:def:crs:OGC:1.3:CRS84" } },
"features": [
{ "type": "Feature", "properties": { "part": "direct", "crossing_id": "X00357", "area_ac": 0.0 }, "geometry": { "type": "MultiPolygon", "coordinates": [ [ [ [ -120.015294602845984, 39.241364098659275 ], [ -120.015316983790342, 39.24138268973531 ], [ -120.01529383946604, 39.241382096118805 ], [ -120.015294602845984, 39.241364098659275 ] ] ], [ [ [ -120.015318510537753, 39.241346694815476 ], [ -120.01534089148349, 39.241365285886921 ], [ -120.015317747164374, 39.24136469227539 ], [ -120.015318510537753, 39.241346694815476 ] ] ], [ [ [ -120.015342418217713, 39.241329290966206 ], [ -120.015364799164828, 39.241347882033182 ], [ -120.015341654850928, 39.241347288426617 ], [ -120.015342418217713, 39.241329290966206 ] ] ], [ [ [ -120.015366325885907, 39.241311887111557 ], [ -120.015388706834329, 39.241330478173985 ], [ -120.015365562525702, 39.241329884572387 ], [ -120.015366325885907, 39.241311887111557 ] ] ] ] } }
]
}
