{
"type": "FeatureCollection",
"name": "X00459",
"crs": { "type": "name", "properties": { "name": "urn:ogc:def:crs:OGC:1.3:CRS84" } },
"features": [
{ "type": "Feature", "properties": { "part": "direct", "crossing_id": "X00459", "area_ac": 0.8 }, "geometry": { "type": "Polygon", "coordinates": [ [ [ -120.077647576670131, 39.23179395792318 ], [ -120.077900649697455, 39.231836346869116 ], [ -120.077723708726126, 39.232192249390998 ], [ -120.077687863816337, 39.232497642809527 ], [ -120.07754601863121, 39.232566150055355 ], [ -120.076994330239927, 39.232462208930556 ], [ -120.077647576670131, 39.23179395792318 ] ] ] } }
]
}
