{
"type": "FeatureCollection",
"name": "X00471",
"crs": { "type": "name", "properties": { "name": "urn:ogc:def:crs:OGC:1.3:CRS84" } },
"features": [
{ "type": "Feature", "properties": { "part": "direct", "crossing_id": "X00471", "area_ac": 0.7 }, "geometry": { "type": "Polygon", "coordinates": [ [ [ -120.019029338687929, 39.236883496926275 ], [ -120.019019702173779, 39.237657983688614 ], [ -120.018438073010699, 39.237715151553253 ], [ -120.018421792147407, 39.237552580901955 ], [ -120.018562938271799, 39.237502145938898 ], [ -120.018542844930991, 39.237429562916688 ], [ -120.018734851236701, 39.237272328402732 ], [ -120.018794860019241, 39.236949558619926 ], [ -120.019029338687929, 39.236883496926275 ] ] ] } }
]
}
