{
"type": "FeatureCollection",
"name": "X00417",
"crs": { "type": "name", "properties": { "name": "urn:ogc:def:crs:OGC:1.3:CRS84" } },
"features": [
{ "type": "Feature", "properties": { "part": "direct", "crossing_id": "X00417", "area_ac": 2.3, "n_upstream": null }, "geometry": { "type": "Polygon", "coordinates": [ [ [ -120.161052949679174, 39.140238724652754 ], [ -120.161233522183181, 39.140351232701136 ], [ -120.161208237513691, 39.140404669618917 ], [ -120.161070275690193, 39.140383288950609 ], [ -120.161156221045388, 39.14054754364831 ], [ -120.161559256758736, 39.140881686606761 ], [ -120.161790400684538, 39.140887319870529 ], [ -120.162036702877316, 39.141091517254999 ], [ -120.16249465328336, 39.14121078224273 ], [ -120.162490314185987, 39.141318783001665 ], [ -120.162348734006528, 39.141387404396077 ], [ -120.16228300649108, 39.14129571416445 ], [ -120.161759329313597, 39.141084757840318 ], [ -120.161411889036728, 39.141094307755317 ], [ -120.161278990203542, 39.140946926520677 ], [ -120.160937339187399, 39.140812474197844 ], [ -120.160954665029976, 39.140957038496872 ], [ -120.161092627921079, 39.140978419340378 ], [ -120.161406824845017, 39.141220308524638 ], [ -120.161424151702832, 39.141364872783988 ], [ -120.161558498436875, 39.141476253661388 ], [ -120.161212503267322, 39.141449802692485 ], [ -120.16119155925503, 39.141395238948355 ], [ -120.160934404911544, 39.141461041366505 ], [ -120.160776221084575, 39.141367096397495 ], [ -120.160884598242788, 39.140973348168394 ], [ -120.160547289922221, 39.140730894125952 ], [ -120.160362375385034, 39.140726385594384 ], [ -120.160298822256294, 39.140580694066934 ], [ -120.160418012057235, 39.140493511506207 ], [ -120.160402858447853, 39.140294946871649 ], [ -120.161052949679174, 39.140238724652754 ] ] ] } },
{ "type": "Feature", "properties": { "part": "upstream", "crossing_id": "X00417", "area_ac": 19.9, "n_upstream": 5.0 }, "geometry": { "type": "MultiPolygon", "coordinates": [ [ [ [ -120.165771142241766, 39.141434707329083 ], [ -120.165771864593765, 39.141416707151926 ], [ -120.165794256896675, 39.141435269847406 ], [ -120.165771142241766, 39.141434707329083 ] ] ], [ [ [ -120.16574730522899, 39.141452144982885 ], [ -120.165748027587512, 39.141434144806176 ], [ -120.165770419889114, 39.141452707506147 ], [ -120.16574730522899, 39.141452144982885 ] ] ], [ [ [ -120.16574730522899, 39.141452144982885 ], [ -120.165724190569492, 39.141451582455041 ], [ -120.165724912933896, 39.141433582278694 ], [ -120.16574730522899, 39.141452144982885 ] ] ], [ [ [ -120.165723468204462, 39.141469582631323 ], [ -120.165724190569492, 39.141451582455041 ], [ -120.165746582869829, 39.141470145159516 ], [ -120.165723468204462, 39.141469582631323 ] ] ], [ [ [ -120.165699686735294, 39.141485635645473 ], [ -120.165686369107817, 39.14149462533112 ], [ -120.165698908796017, 39.14150502045019 ], [ -120.165675794120205, 39.14150445791212 ], [ -120.165675905255355, 39.141501688654351 ], [ -120.165661636362202, 39.141511320457148 ], [ -120.165675071741489, 39.141522458087522 ], [ -120.165651957060462, 39.141521895544514 ], [ -120.165652123764659, 39.141517741657943 ], [ -120.165636903604948, 39.141528015577457 ], [ -120.165651234675195, 39.14153989571944 ], [ -120.165983507944347, 39.141331768746042 ], [ -120.166818523200902, 39.141280014186705 ], [ -120.16687920226407, 39.141497703434261 ], [ -120.166971661058682, 39.141499952604164 ], [ -120.166874147745887, 39.141623704791904 ], [ -120.167027286462186, 39.141843643158609 ], [ -120.166993340844115, 39.142113083798314 ], [ -120.166387302024958, 39.142801032376809 ], [ -120.16553131741324, 39.143374788038301 ], [ -120.165285714033573, 39.143729165157595 ], [ -120.165126789455115, 39.144229793670846 ], [ -120.165077667939542, 39.144300668928189 ], [ -120.164962812689382, 39.144279855253089 ], [ -120.164461510395356, 39.143510905346126 ], [ -120.165056735312973, 39.143092970204684 ], [ -120.165205541940026, 39.142844343926782 ], [ -120.164429306625181, 39.142164974790859 ], [ -120.163947946324541, 39.142471388520661 ], [ -120.162994448935024, 39.142592307038854 ], [ -120.162499632731979, 39.142814482830723 ], [ -120.161888547607234, 39.142475273113433 ], [ -120.161507892967506, 39.142159694467956 ], [ -120.161826469809398, 39.141717015106856 ], [ -120.161780240474997, 39.141715888485137 ], [ -120.161424151702832, 39.141364872783988 ], [ -120.161406824845017, 39.141220308524638 ], [ -120.161092627921079, 39.140978419340378 ], [ -120.160954665029976, 39.140957038496872 ], [ -120.160982120784794, 39.140849601340726 ], [ -120.161278990203542, 39.140946926520677 ], [ -120.161411889036728, 39.141094307755317 ], [ -120.161759329313597, 39.141084757840318 ], [ -120.161987580713415, 39.141162391207885 ], [ -120.162348734006528, 39.141387404396077 ], [ -120.162563273669747, 39.141230471853014 ], [ -120.163487132199222, 39.141270994506634 ], [ -120.163656162956315, 39.141094933747389 ], [ -120.163888753645367, 39.141064562580688 ], [ -120.164327206472066, 39.14109325681045 ], [ -120.164505618600003, 39.141259760510906 ], [ -120.164691980441845, 39.141228262198723 ], [ -120.165008358992964, 39.141416141656414 ], [ -120.165269844780369, 39.14124232907232 ], [ -120.165560220750905, 39.141501645153099 ], [ -120.165677961252513, 39.141450457385623 ], [ -120.165723468204462, 39.141469582631323 ], [ -120.165711101841808, 39.141477930199351 ], [ -120.165722745838792, 39.141487582807549 ], [ -120.165699631168224, 39.141487020274411 ], [ -120.165699686735294, 39.141485635645473 ] ], [ [ -120.164684021923051, 39.14200283180147 ], [ -120.164451020622437, 39.142151152460087 ], [ -120.164492599151984, 39.142160331107895 ], [ -120.164743245858787, 39.141992328154998 ], [ -120.164684021923051, 39.14200283180147 ] ], [ [ -120.165281174913815, 39.141846892618823 ], [ -120.16529069131883, 39.141837422383972 ], [ -120.1652691175276, 39.141836897269322 ], [ -120.165281174913815, 39.141846892618823 ] ], [ [ -120.165269736804959, 39.141821468553836 ], [ -120.165246002751886, 39.141836334642036 ], [ -120.165219997962595, 39.14190777267887 ], [ -120.165273017993158, 39.141855009962278 ], [ -120.165268395036776, 39.141854897437305 ], [ -120.1652691175276, 39.141836897269322 ], [ -120.165269736804959, 39.141821468553836 ] ], [ [ -120.165292954788285, 39.141819459723564 ], [ -120.165293470848113, 39.141806602460385 ], [ -120.165271562500948, 39.141820325008354 ], [ -120.16529137106194, 39.141836745938583 ], [ -120.165292297984379, 39.141835823513055 ], [ -120.165292954788285, 39.141819459723564 ] ], [ [ -120.165301567207152, 39.141826599257328 ], [ -120.165308364635663, 39.141819834802575 ], [ -120.165292954788285, 39.141819459723564 ], [ -120.165301567207152, 39.141826599257328 ] ], [ [ -120.165316792037231, 39.141802022172492 ], [ -120.16531720488139, 39.141791736361689 ], [ -120.165297122238499, 39.141804315368624 ], [ -120.165311763349393, 39.141816452575043 ], [ -120.16531639795852, 39.141811840446401 ], [ -120.165316792037231, 39.141802022172492 ] ], [ [ -120.165321959488651, 39.141806305891762 ], [ -120.165326037943501, 39.141802247218166 ], [ -120.165316792037231, 39.141802022172492 ], [ -120.165321959488651, 39.141806305891762 ] ], [ [ -120.165340629274425, 39.141784584616019 ], [ -120.165340938904777, 39.141776870257758 ], [ -120.165322681964625, 39.14178830572277 ], [ -120.165332155624938, 39.141796159207459 ], [ -120.165340497916063, 39.141787857374084 ], [ -120.165340629274425, 39.141784584616019 ] ], [ [ -120.16534235175827, 39.141786012522125 ], [ -120.1653437112425, 39.141784659630673 ], [ -120.165340629274425, 39.141784584616019 ], [ -120.16534235175827, 39.141786012522125 ] ], [ [ -120.165364672918301, 39.141762004148582 ], [ -120.16534824167924, 39.141772296070862 ], [ -120.165352547888631, 39.141775865835797 ], [ -120.165364597857049, 39.141763874296068 ], [ -120.165364672918301, 39.141762004148582 ] ], [ [ -120.165414308266861, 39.141678271402448 ], [ -120.165412797689299, 39.141715908123039 ], [ -120.16543207760364, 39.14169672164747 ], [ -120.165459551297999, 39.14164773163818 ], [ -120.165414308266861, 39.141678271402448 ] ], [ [ -120.165485653029037, 39.141630112534692 ], [ -120.165461871452393, 39.141646165495921 ], [ -120.16546099745527, 39.141667941927274 ], [ -120.165485097313407, 39.141643958820886 ], [ -120.165485653029037, 39.141630112534692 ] ], [ [ -120.165508934455346, 39.141626521226073 ], [ -120.165509434594895, 39.141614059568212 ], [ -120.165488506817496, 39.14162818617902 ], [ -120.165497877127677, 39.141635953976056 ], [ -120.165512786907371, 39.141626614988482 ], [ -120.165508934455346, 39.141626521226073 ] ], [ [ -120.165532771585561, 39.141609083625895 ], [ -120.165533216150067, 39.141598006596404 ], [ -120.16551323964444, 39.141611491093087 ], [ -120.165523436747606, 39.141619944281821 ], [ -120.165540476487834, 39.141609271148972 ], [ -120.165532771585561, 39.141609083625895 ] ], [ [ -120.165556608704037, 39.141591646020309 ], [ -120.16555699769448, 39.141581953619308 ], [ -120.165537972459802, 39.141594796001407 ], [ -120.165548996356094, 39.141603934581489 ], [ -120.165568166054939, 39.141591927302258 ], [ -120.165556608704037, 39.141591646020309 ] ], [ [ -120.165580445810775, 39.141574208409416 ], [ -120.165580779228151, 39.141565900636891 ], [ -120.165562705263511, 39.14157810090402 ], [ -120.165574555953114, 39.141587924875097 ], [ -120.165595855608458, 39.141574583448467 ], [ -120.165580445810775, 39.141574208409416 ] ], [ [ -120.165604282905733, 39.141556770793116 ], [ -120.165604560751049, 39.141549847649209 ], [ -120.165587438055638, 39.141561405800893 ], [ -120.165600115538624, 39.141571915162622 ], [ -120.165623545148605, 39.141557239587506 ], [ -120.165604282905733, 39.141556770793116 ] ], [ [ -120.165628119988966, 39.141539333171515 ], [ -120.165628342263219, 39.141533794656226 ], [ -120.165612170836098, 39.141544710692045 ], [ -120.165625675112665, 39.141555905444065 ], [ -120.165651234675195, 39.14153989571944 ], [ -120.165628119988966, 39.141539333171515 ] ] ], [ [ [ -120.161559256758736, 39.140881686606761 ], [ -120.161200279108812, 39.1406026708149 ], [ -120.161068828644147, 39.140419289164491 ], [ -120.161116504124578, 39.14038441582197 ], [ -120.161975315871786, 39.140891826151986 ], [ -120.161947861594243, 39.140999263596825 ], [ -120.161790400684538, 39.140887319870529 ], [ -120.161559256758736, 39.140881686606761 ] ] ], [ [ [ -120.160959729980235, 39.140831037771235 ], [ -120.160936615619789, 39.140830474301396 ], [ -120.160937339187399, 39.140812474197844 ], [ -120.160959729980235, 39.140831037771235 ] ] ], [ [ [ -120.165268395036776, 39.141854897437305 ], [ -120.165245280255164, 39.141854334809665 ], [ -120.165246002751886, 39.141836334642036 ], [ -120.165268395036776, 39.141854897437305 ] ] ] ] } }
]
}
