{
"type": "FeatureCollection",
"name": "X00430",
"crs": { "type": "name", "properties": { "name": "urn:ogc:def:crs:OGC:1.3:CRS84" } },
"features": [
{ "type": "Feature", "properties": { "part": "direct", "crossing_id": "X00430", "area_ac": 0.9 }, "geometry": { "type": "Polygon", "coordinates": [ [ [ -120.151137000845466, 39.065943430253569 ], [ -120.151361381410894, 39.066111076834204 ], [ -120.152099530800029, 39.066147137792065 ], [ -120.152255368637981, 39.066295089551602 ], [ -120.152271943824843, 39.066457655631581 ], [ -120.151813765590731, 39.066356367849117 ], [ -120.151350520174319, 39.066381079599608 ], [ -120.15109870412445, 39.066320869533861 ], [ -120.150865633102399, 39.066369224571126 ], [ -120.15068960532966, 39.066148705754493 ], [ -120.150781240222273, 39.06616896431477 ], [ -120.151137000845466, 39.065943430253569 ] ] ] } }
]
}
