{
"type": "FeatureCollection",
"name": "X00463",
"crs": { "type": "name", "properties": { "name": "urn:ogc:def:crs:OGC:1.3:CRS84" } },
"features": [
{ "type": "Feature", "properties": { "part": "direct", "crossing_id": "X00463", "area_ac": 0.2 }, "geometry": { "type": "MultiPolygon", "coordinates": [ [ [ [ -120.094798067812818, 39.215899635814992 ], [ -120.094820463039483, 39.215918212147223 ], [ -120.094797325422192, 39.215917634641208 ], [ -120.094798067812818, 39.215899635814992 ] ] ], [ [ [ -120.094683864603866, 39.215860750568972 ], [ -120.094798067812818, 39.215899635814992 ], [ -120.094683122185103, 39.215878749393482 ], [ -120.094683864603866, 39.215860750568972 ] ] ], [ [ [ -120.094000875876816, 39.21557344038952 ], [ -120.094323315762296, 39.215617524850927 ], [ -120.094683864603866, 39.215860750568972 ], [ -120.093857595227519, 39.215677967206005 ], [ -120.094000875876816, 39.21557344038952 ] ] ] ] } }
]
}
