{
"type": "FeatureCollection",
"name": "X00408",
"crs": { "type": "name", "properties": { "name": "urn:ogc:def:crs:OGC:1.3:CRS84" } },
"features": [
{ "type": "Feature", "properties": { "part": "direct", "crossing_id": "X00408", "area_ac": 0.8 }, "geometry": { "type": "Polygon", "coordinates": [ [ [ -120.044037191760069, 39.253754826060081 ], [ -120.044104369694324, 39.253810583898904 ], [ -120.044077140570465, 39.254458507956535 ], [ -120.043640785802012, 39.254915867015811 ], [ -120.043481009861409, 39.254857756186283 ], [ -120.04375834665376, 39.254324289446096 ], [ -120.043646383192041, 39.254231359355359 ], [ -120.043676340582266, 39.254069966545202 ], [ -120.044037191760069, 39.253754826060081 ] ] ] } }
]
}
