{
"type": "FeatureCollection",
"name": "X00412",
"crs": { "type": "name", "properties": { "name": "urn:ogc:def:crs:OGC:1.3:CRS84" } },
"features": [
{ "type": "Feature", "properties": { "part": "direct", "crossing_id": "X00412", "area_ac": 32.3 }, "geometry": { "type": "Polygon", "coordinates": [ [ [ -120.007700029361203, 39.242880676845466 ], [ -120.008274819893728, 39.242985540773283 ], [ -120.008341193199612, 39.243059315214431 ], [ -120.009079529807366, 39.243132345607293 ], [ -120.009416757287369, 39.243375233869216 ], [ -120.01010804419532, 39.243465065627092 ], [ -120.010334140280051, 39.24359699375205 ], [ -120.01162949400991, 39.243648283349934 ], [ -120.011787687272232, 39.243742430839461 ], [ -120.011972847498669, 39.24374718545436 ], [ -120.01202219468226, 39.243676384468202 ], [ -120.012926378642504, 39.24366356376327 ], [ -120.013117650832626, 39.243524337225402 ], [ -120.013766474425836, 39.243522972187179 ], [ -120.01383896465336, 39.243452764298119 ], [ -120.014351208949236, 39.243393839983483 ], [ -120.014517041886165, 39.243308009488054 ], [ -120.015490656754082, 39.243296950015072 ], [ -120.01553923677767, 39.243244144840553 ], [ -120.015769159602783, 39.243286075468482 ], [ -120.016951842461992, 39.243262348017723 ], [ -120.018038894398174, 39.243308226154788 ], [ -120.017383968155883, 39.243453595012561 ], [ -120.017123268900065, 39.243591049073515 ], [ -120.01633099405629, 39.243696857082696 ], [ -120.014960328310252, 39.244328335240667 ], [ -120.01435473262444, 39.244402884087251 ], [ -120.013429912240682, 39.244901645851137 ], [ -120.013175312428274, 39.244895111205004 ], [ -120.012940037736229, 39.244979157184652 ], [ -120.012779547798544, 39.244939003335283 ], [ -120.012773434821227, 39.245082982590397 ], [ -120.012049046255825, 39.245226537782131 ], [ -120.01121504349392, 39.245223136955566 ], [ -120.011189604392399, 39.245276534615861 ], [ -120.009499218501404, 39.245251122443911 ], [ -120.009363405676794, 39.245175564046669 ], [ -120.0086003715478, 39.245137934322109 ], [ -120.008395889045701, 39.245042592497384 ], [ -120.008141289894652, 39.2450360468276 ], [ -120.008029389711382, 39.244943084695151 ], [ -120.007753176479881, 39.244899948428881 ], [ -120.007485383781827, 39.244658840992869 ], [ -120.007446748043535, 39.244477677354759 ], [ -120.007334084166672, 39.244402711935273 ], [ -120.007410993304404, 39.243684009547685 ], [ -120.00727824775349, 39.243536459613715 ], [ -120.007267350692942, 39.243247907233616 ], [ -120.007110695984863, 39.243117759225008 ], [ -120.007234074456932, 39.242940762283332 ], [ -120.007700029361203, 39.242880676845466 ] ] ] } }
]
}
