{
"type": "FeatureCollection",
"name": "X00477",
"crs": { "type": "name", "properties": { "name": "urn:ogc:def:crs:OGC:1.3:CRS84" } },
"features": [
{ "type": "Feature", "properties": { "part": "direct", "crossing_id": "X00477", "area_ac": 9.3 }, "geometry": { "type": "Polygon", "coordinates": [ [ [ -119.889125928962031, 38.960959250629401 ], [ -119.889168878357495, 38.961032465474275 ], [ -119.888937794136794, 38.961566816550182 ], [ -119.888952178882462, 38.961765389865079 ], [ -119.888809149801475, 38.961869676715871 ], [ -119.888846584650395, 38.962068865100704 ], [ -119.888648787217633, 38.962369879763457 ], [ -119.88829357340191, 38.962576606825785 ], [ -119.88824116829629, 38.962719345967813 ], [ -119.888075085526609, 38.962823016577161 ], [ -119.887755528426283, 38.962742418111787 ], [ -119.887587080464883, 38.962900076534659 ], [ -119.887266735429662, 38.962837472913868 ], [ -119.887078388627188, 38.962922530461228 ], [ -119.886688291009747, 38.963398579349509 ], [ -119.8866041584226, 38.963738659824379 ], [ -119.886800579647101, 38.963996145756411 ], [ -119.886756241705385, 38.964481426594801 ], [ -119.88709885641083, 38.964562643507207 ], [ -119.886956607218195, 38.964648931535585 ], [ -119.886951877001493, 38.964756908511326 ], [ -119.887172930118084, 38.964979017099139 ], [ -119.886912269632134, 38.965134212413908 ], [ -119.886311960900571, 38.964613700161145 ], [ -119.886373648940747, 38.963732504220594 ], [ -119.886503095838577, 38.963411651230523 ], [ -119.886522018370769, 38.962979743397426 ], [ -119.886424899240524, 38.962562753955659 ], [ -119.886507454080473, 38.962258665855046 ], [ -119.887226556444801, 38.961647263784577 ], [ -119.887458635668551, 38.961617425067594 ], [ -119.888099117341127, 38.961220125196192 ], [ -119.888331194906769, 38.961190284667069 ], [ -119.888498061225761, 38.961068617296306 ], [ -119.88882076308775, 38.961077228648833 ], [ -119.889125928962031, 38.960959250629401 ] ] ] } }
]
}
