{
"type": "FeatureCollection",
"name": "X00482",
"crs": { "type": "name", "properties": { "name": "urn:ogc:def:crs:OGC:1.3:CRS84" } },
"features": [
{ "type": "Feature", "properties": { "part": "direct", "crossing_id": "X00482", "area_ac": 3.0, "n_upstream": null }, "geometry": { "type": "Polygon", "coordinates": [ [ [ -120.137092758075113, 39.057166864831778 ], [ -120.137094020446199, 39.057707431649639 ], [ -120.137067296237404, 39.057796864383306 ], [ -120.136926592962553, 39.057847461044403 ], [ -120.136990760757172, 39.057975162604698 ], [ -120.136895503237483, 39.058044893624299 ], [ -120.136863685749773, 39.058260326164991 ], [ -120.136564283342622, 39.058234951588489 ], [ -120.136145808007811, 39.058296739217866 ], [ -120.136002919794961, 39.058401334602394 ], [ -120.13567970243507, 39.058393390284337 ], [ -120.135663894113947, 39.058212823176 ], [ -120.135788062492239, 39.057999660961904 ], [ -120.135795543885862, 39.057243094918796 ], [ -120.136074038322789, 39.057213904002531 ], [ -120.136232733594198, 39.057289875525271 ], [ -120.136831530374565, 39.05734062532084 ], [ -120.136948418554766, 39.057307461505005 ], [ -120.136952783602865, 39.057199461589903 ], [ -120.137092758075113, 39.057166864831778 ] ] ] } },
{ "type": "Feature", "properties": { "part": "upstream", "crossing_id": "X00482", "area_ac": 3.8, "n_upstream": 1.0 }, "geometry": { "type": "Polygon", "coordinates": [ [ [ -120.137703191728932, 39.056929610219377 ], [ -120.138092026505802, 39.057029249687716 ], [ -120.138125837109214, 39.057336383736434 ], [ -120.138216729356046, 39.057374651655785 ], [ -120.138770082554984, 39.057406257604079 ], [ -120.138981497776342, 39.057321359067757 ], [ -120.139188550866606, 39.057344460253688 ], [ -120.13905003080427, 39.057341059515878 ], [ -120.138739725273425, 39.057585690875584 ], [ -120.138246177429551, 39.057789785707506 ], [ -120.138261992331081, 39.057970352719316 ], [ -120.138002218780684, 39.058108115807308 ], [ -120.137396867581259, 39.058219371675243 ], [ -120.137253253826827, 39.058341968658283 ], [ -120.136862230636112, 39.058296326127618 ], [ -120.136895503237483, 39.058044893624299 ], [ -120.136990760757172, 39.057975162604698 ], [ -120.136926592962553, 39.057847461044403 ], [ -120.137067296237404, 39.057796864383306 ], [ -120.137094020446199, 39.057707431649639 ], [ -120.137094940481234, 39.057112864866397 ], [ -120.137279632992602, 39.057117402221017 ], [ -120.137425426229655, 39.05694080510569 ], [ -120.137703191728932, 39.056929610219377 ] ] ] } }
]
}
