{
"type": "FeatureCollection",
"name": "X00452",
"crs": { "type": "name", "properties": { "name": "urn:ogc:def:crs:OGC:1.3:CRS84" } },
"features": [
{ "type": "Feature", "properties": { "part": "direct", "crossing_id": "X00452", "area_ac": 2.3 }, "geometry": { "type": "Polygon", "coordinates": [ [ [ -120.072521816857304, 39.232493929880007 ], [ -120.072675581774973, 39.232695987344854 ], [ -120.072638966149299, 39.233019376764851 ], [ -120.072819617623409, 39.233132024104094 ], [ -120.072834527399323, 39.233330588811555 ], [ -120.072927847369442, 39.233314918694674 ], [ -120.072918117623189, 39.233548898168912 ], [ -120.073265262025515, 39.233557628723688 ], [ -120.073492950207736, 39.233653440668448 ], [ -120.07341379299011, 39.233885674336712 ], [ -120.073221164611013, 39.23406100261596 ], [ -120.073235327172469, 39.234277565718131 ], [ -120.073137515498885, 39.234401226564358 ], [ -120.07295536343841, 39.234324576435846 ], [ -120.072781445269044, 39.234049943454281 ], [ -120.072622437605474, 39.233973874950721 ], [ -120.072538847889916, 39.233755565410334 ], [ -120.072286520601523, 39.233695166260226 ], [ -120.072350772786024, 39.233264368770406 ], [ -120.072285835835842, 39.233154631738941 ], [ -120.072403795607613, 39.233103547401448 ], [ -120.072356075858664, 39.232579846881457 ], [ -120.072521816857304, 39.232493929880007 ] ] ] } }
]
}
