{
"type": "FeatureCollection",
"name": "X00449",
"crs": { "type": "name", "properties": { "name": "urn:ogc:def:crs:OGC:1.3:CRS84" } },
"features": [
{ "type": "Feature", "properties": { "part": "direct", "crossing_id": "X00449", "area_ac": 0.5 }, "geometry": { "type": "Polygon", "coordinates": [ [ [ -120.101764420683892, 39.210397829032644 ], [ -120.101851222877656, 39.211102668505987 ], [ -120.101799026695545, 39.211245508021442 ], [ -120.101637813641446, 39.211223476535324 ], [ -120.101721291734009, 39.210883224709995 ], [ -120.101518991125928, 39.210734048286042 ], [ -120.101356298185962, 39.210748014351189 ], [ -120.101407754259355, 39.210623173991713 ], [ -120.101315210204206, 39.210620869432432 ], [ -120.10125098638801, 39.210493148344383 ], [ -120.101764420683892, 39.210397829032644 ] ] ] } }
]
}
