{
"type": "FeatureCollection",
"name": "X00465",
"crs": { "type": "name", "properties": { "name": "urn:ogc:def:crs:OGC:1.3:CRS84" } },
"features": [
{ "type": "Feature", "properties": { "part": "direct", "crossing_id": "X00465", "area_ac": 24.1, "n_upstream": null }, "geometry": { "type": "Polygon", "coordinates": [ [ [ -120.032105935443482, 39.239397795464257 ], [ -120.032264907678481, 39.239473918097872 ], [ -120.032168909761467, 39.240102068340576 ], [ -120.032297908292009, 39.240339580394824 ], [ -120.032698181435705, 39.242385719345158 ], [ -120.032435236940941, 39.242577202269388 ], [ -120.031894549447941, 39.242761600821353 ], [ -120.031806893239221, 39.243191775189729 ], [ -120.031665743915738, 39.243242226111853 ], [ -120.031446806157092, 39.24348888047713 ], [ -120.03143426349294, 39.2443353635717 ], [ -120.031629666329323, 39.24464663861805 ], [ -120.031715783207218, 39.245351501606265 ], [ -120.031967352055077, 39.245429986666508 ], [ -120.032099395330349, 39.245595508218173 ], [ -120.03201477266353, 39.245953691596213 ], [ -120.031881210452511, 39.245824165373939 ], [ -120.031695282100472, 39.24583743991478 ], [ -120.031606860312053, 39.246285611453665 ], [ -120.031850839446321, 39.246544074010977 ], [ -120.031847042994045, 39.246634062582942 ], [ -120.031983643624415, 39.24669159802081 ], [ -120.031788208835962, 39.247479364661025 ], [ -120.031968067262966, 39.247610071847923 ], [ -120.031985139710059, 39.247754643935295 ], [ -120.031118872247362, 39.246867725953408 ], [ -120.031036159961261, 39.246631393638083 ], [ -120.030847950746022, 39.246698659831743 ], [ -120.030630159630064, 39.246368795154147 ], [ -120.030513668583566, 39.246383839621309 ], [ -120.030244673813826, 39.245620257721136 ], [ -120.03026214614296, 39.245206310805671 ], [ -120.030453791991391, 39.24450853536726 ], [ -120.030511159752137, 39.242600188383228 ], [ -120.030751760171228, 39.241291080259394 ], [ -120.030991195565292, 39.240558488563536 ], [ -120.031375172227655, 39.24024397674178 ], [ -120.031409704954413, 39.239974601240711 ], [ -120.031653293550988, 39.239692541287098 ], [ -120.031634704386647, 39.239583964543648 ], [ -120.031920024180152, 39.239411071029238 ], [ -120.032105935443482, 39.239397795464257 ] ] ] } },
{ "type": "Feature", "properties": { "part": "upstream", "crossing_id": "X00465", "area_ac": 5.9, "n_upstream": 3.0 }, "geometry": { "type": "MultiPolygon", "coordinates": [ [ [ [ -120.031910799060867, 39.246221295901755 ], [ -120.031948739767515, 39.246420451533496 ], [ -120.032040565857841, 39.246440810704144 ], [ -120.032006030791905, 39.246710186103911 ], [ -120.031847042994045, 39.246634062582942 ], [ -120.031850839446321, 39.246544074010977 ], [ -120.031606100967608, 39.246303609164997 ], [ -120.031695282100472, 39.24583743991478 ], [ -120.031881210452511, 39.245824165373939 ], [ -120.03199314495771, 39.245917105803045 ], [ -120.031910799060867, 39.246221295901755 ] ] ], [ [ [ -120.030849469843176, 39.246662664436229 ], [ -120.030827351421223, 39.246716151303467 ], [ -120.031013013580889, 39.246630803079441 ], [ -120.031118872247362, 39.246867725953408 ], [ -120.032029914699052, 39.247791820117065 ], [ -120.031977546804853, 39.247934621061937 ], [ -120.0322515126757, 39.248031693941371 ], [ -120.032584292004671, 39.248382505118002 ], [ -120.032440854953848, 39.24848694972215 ], [ -120.032506500145232, 39.248578709198355 ], [ -120.03231449071626, 39.24873596618432 ], [ -120.032399487026694, 39.248918304627196 ], [ -120.032296269013926, 39.249167911333032 ], [ -120.032357359190087, 39.249367657184443 ], [ -120.031744532355376, 39.249063753382416 ], [ -120.031559354816167, 39.249059029667443 ], [ -120.031384809951192, 39.248802337865712 ], [ -120.031300575926025, 39.248602001084905 ], [ -120.031352945759096, 39.248459200530775 ], [ -120.031161332187025, 39.248057936345319 ], [ -120.031174243688611, 39.247751975458954 ], [ -120.030865380630587, 39.247383753504074 ], [ -120.030826683100202, 39.24720259534088 ], [ -120.030686284519476, 39.247235047014449 ], [ -120.030487840899909, 39.246995761151538 ], [ -120.030433594640542, 39.246634035312034 ], [ -120.030577790175542, 39.246511595430661 ], [ -120.0305375744922, 39.246366432582434 ], [ -120.030630159630064, 39.246368795154147 ], [ -120.030735257069935, 39.246623716017552 ], [ -120.030849469843176, 39.246662664436229 ] ], [ [ -120.031179560132117, 39.247625991558827 ], [ -120.031098490008276, 39.247539216042036 ], [ -120.031174243688611, 39.247751975458954 ], [ -120.031179560132117, 39.247625991558827 ] ] ], [ [ [ -120.032356599954198, 39.249385654898511 ], [ -120.032357359190087, 39.249367657184443 ], [ -120.032379747268351, 39.249386245224599 ], [ -120.032356599954198, 39.249385654898511 ] ] ] ] } }
]
}
