{
"type": "FeatureCollection",
"name": "X00495",
"crs": { "type": "name", "properties": { "name": "urn:ogc:def:crs:OGC:1.3:CRS84" } },
"features": [
{ "type": "Feature", "properties": { "part": "direct", "crossing_id": "X00495", "area_ac": 1.7 }, "geometry": { "type": "MultiPolygon", "coordinates": [ [ [ [ -120.013725156093059, 38.826074440553292 ], [ -120.013793431209891, 38.826094205310127 ], [ -120.013724403527362, 38.826092439270653 ], [ -120.013725156093059, 38.826074440553292 ] ] ], [ [ [ -120.015362573227421, 38.826026232151136 ], [ -120.015963518809315, 38.826528082655763 ], [ -120.016240383766828, 38.826517142586205 ], [ -120.016250610136922, 38.826823709651705 ], [ -120.015817189763325, 38.826722539319036 ], [ -120.015685901724908, 38.826557020812906 ], [ -120.015459568290012, 38.826461143802405 ], [ -120.014402642255533, 38.826398077482231 ], [ -120.014130292590124, 38.826301020857734 ], [ -120.014045780278849, 38.826118679162377 ], [ -120.01379418375825, 38.826076206591644 ], [ -120.015362573227421, 38.826026232151136 ] ] ] ] } }
]
}
