{
"type": "FeatureCollection",
"name": "X00492",
"crs": { "type": "name", "properties": { "name": "urn:ogc:def:crs:OGC:1.3:CRS84" } },
"features": [
{ "type": "Feature", "properties": { "part": "direct", "crossing_id": "X00492", "area_ac": 9.0 }, "geometry": { "type": "Polygon", "coordinates": [ [ [ -120.066153470686587, 38.873079901933245 ], [ -120.066106745333101, 38.873655304573646 ], [ -120.066230153826012, 38.874577327834729 ], [ -120.066156697911936, 38.875242148494429 ], [ -120.066014096785167, 38.875346671088735 ], [ -120.065880573276061, 38.87691088297737 ], [ -120.066098247927115, 38.877222663233113 ], [ -120.066392411741802, 38.877356185862041 ], [ -120.06642809631937, 38.877609335592339 ], [ -120.066760169963374, 38.877942008872559 ], [ -120.066315249347639, 38.878111003362534 ], [ -120.066191965890297, 38.878306101948745 ], [ -120.065966879972095, 38.878174315850821 ], [ -120.065848719325345, 38.877684857537439 ], [ -120.065717966049533, 38.877501389032666 ], [ -120.065726855985005, 38.877285396163273 ], [ -120.065874647052354, 38.877054878253816 ], [ -120.065613883959642, 38.876669941820573 ], [ -120.065479368856742, 38.87601790946281 ], [ -120.065121262388843, 38.875198090805824 ], [ -120.065069167955144, 38.874223806298247 ], [ -120.064886387074367, 38.873624613266948 ], [ -120.064795766563336, 38.873586297620207 ], [ -120.065549623633004, 38.873190843750528 ], [ -120.066153470686587, 38.873079901933245 ] ] ] } }
]
}
