{
"type": "FeatureCollection",
"name": "X00435",
"crs": { "type": "name", "properties": { "name": "urn:ogc:def:crs:OGC:1.3:CRS84" } },
"features": [
{ "type": "Feature", "properties": { "part": "direct", "crossing_id": "X00435", "area_ac": 1.4 }, "geometry": { "type": "Polygon", "coordinates": [ [ [ -120.14807089962855, 39.15920046220446 ], [ -120.148590300132085, 39.15951948212205 ], [ -120.148869197141963, 39.159490275824169 ], [ -120.148817139594684, 39.159633142482981 ], [ -120.148652389002592, 39.159701179069955 ], [ -120.148609784402495, 39.15961004752851 ], [ -120.148425549612995, 39.159587518390801 ], [ -120.148303402951584, 39.15974668606674 ], [ -120.147926204600864, 39.159917624610109 ], [ -120.147584491753264, 39.159783131015288 ], [ -120.147260807725914, 39.159775201691915 ], [ -120.147317233637352, 39.159524336859292 ], [ -120.147432834656172, 39.159527168792479 ], [ -120.147742853711136, 39.159300533370541 ], [ -120.14807089962855, 39.15920046220446 ] ] ] } }
]
}
