{
"type": "FeatureCollection",
"name": "X00562",
"crs": { "type": "name", "properties": { "name": "urn:ogc:def:crs:OGC:1.3:CRS84" } },
"features": [
{ "type": "Feature", "properties": { "part": "direct", "crossing_id": "X00562", "area_ac": 1.5 }, "geometry": { "type": "Polygon", "coordinates": [ [ [ -120.02499849179361, 38.848506425818478 ], [ -120.025362257362289, 38.848623806254217 ], [ -120.025663486927414, 38.849135986913765 ], [ -120.02486965710537, 38.849386021449661 ], [ -120.024769580409895, 38.849023110926126 ], [ -120.024607712085142, 38.849037002036532 ], [ -120.024497881137137, 38.848908076053469 ], [ -120.024570683766171, 38.848819842466547 ], [ -120.02451364073363, 38.848530100743226 ], [ -120.02499849179361, 38.848506425818478 ] ] ] } }
]
}
