{
"type": "FeatureCollection",
"name": "X00560",
"crs": { "type": "name", "properties": { "name": "urn:ogc:def:crs:OGC:1.3:CRS84" } },
"features": [
{ "type": "Feature", "properties": { "part": "direct", "crossing_id": "X00560", "area_ac": 1.9 }, "geometry": { "type": "Polygon", "coordinates": [ [ [ -120.020947089923609, 38.847862537304138 ], [ -120.021221032853717, 38.847923583766537 ], [ -120.021212768916044, 38.848121570264929 ], [ -120.021458438110898, 38.848308020141204 ], [ -120.021804437463189, 38.848298832509968 ], [ -120.022208221051059, 38.848561387565461 ], [ -120.02194076711173, 38.848896903863242 ], [ -120.02208385851489, 38.849332986052204 ], [ -120.02173785411884, 38.849342174314813 ], [ -120.021508707621692, 38.848759751851162 ], [ -120.021349844566785, 38.848701643344135 ], [ -120.021178483214641, 38.848390964342506 ], [ -120.021063400402056, 38.848388026785024 ], [ -120.020999610036341, 38.848260272819843 ], [ -120.020630594407976, 38.848268870462093 ], [ -120.020749433937226, 38.848181814617185 ], [ -120.02071316911514, 38.847946655510398 ], [ -120.020947089923609, 38.847862537304138 ] ] ] } }
]
}
