{
"type": "FeatureCollection",
"name": "X00574",
"crs": { "type": "name", "properties": { "name": "urn:ogc:def:crs:OGC:1.3:CRS84" } },
"features": [
{ "type": "Feature", "properties": { "part": "direct", "crossing_id": "X00574", "area_ac": 3.3 }, "geometry": { "type": "Polygon", "coordinates": [ [ [ -120.126371718700256, 39.026921256726467 ], [ -120.126529607526962, 39.027015238794185 ], [ -120.126123446210244, 39.027347564862822 ], [ -120.126344730251645, 39.02758725345069 ], [ -120.126338165358746, 39.027749252639964 ], [ -120.126077755197613, 39.027904992950695 ], [ -120.12587563110246, 39.028332438327936 ], [ -120.125563956174787, 39.02861303850333 ], [ -120.125262495066423, 39.02864163928875 ], [ -120.124520829335282, 39.029271987987215 ], [ -120.124165180340512, 39.029497445715684 ], [ -120.124099598643497, 39.029405738116743 ], [ -120.124238062347644, 39.029409154573415 ], [ -120.124427790392403, 39.029287710472829 ], [ -120.125048963285096, 39.028780515540696 ], [ -120.12505553136198, 39.028618516563583 ], [ -120.124833518994166, 39.028396825490255 ], [ -120.124866813492616, 39.028145396368465 ], [ -120.125176299693578, 39.027918797737733 ], [ -120.125253557005692, 39.027722506479357 ], [ -120.125369670484858, 39.027707352399823 ], [ -120.125609923099233, 39.027479045003503 ], [ -120.125811316465359, 39.027069599904713 ], [ -120.126371718700256, 39.026921256726467 ] ] ] } }
]
}
