{
"type": "FeatureCollection",
"name": "X00583",
"crs": { "type": "name", "properties": { "name": "urn:ogc:def:crs:OGC:1.3:CRS84" } },
"features": [
{ "type": "Feature", "properties": { "part": "direct", "crossing_id": "X00583", "area_ac": 4.7 }, "geometry": { "type": "Polygon", "coordinates": [ [ [ -119.991470910658606, 38.874799753139733 ], [ -119.992131786199138, 38.874978952162799 ], [ -119.992420475518102, 38.875238643103856 ], [ -119.992580888623095, 38.875260795773869 ], [ -119.992668431939734, 38.875371158958579 ], [ -119.99312057536801, 38.875581007769398 ], [ -119.993109948007287, 38.875832982911682 ], [ -119.99319597464789, 38.87597934220026 ], [ -119.993075536493507, 38.876102362874832 ], [ -119.992913602995571, 38.876116207246653 ], [ -119.992954338765458, 38.876243381626374 ], [ -119.992747873438901, 38.87622004247585 ], [ -119.992696509038296, 38.876344843063059 ], [ -119.992488524989596, 38.876357499872235 ], [ -119.992423246501843, 38.876265728266361 ], [ -119.991393960479755, 38.876077031450876 ], [ -119.991200646486647, 38.876288259824676 ], [ -119.991037952731361, 38.876320099748931 ], [ -119.991511643220278, 38.874926927916114 ], [ -119.991470910658606, 38.874799753139733 ] ] ] } }
]
}
