{
"type": "FeatureCollection",
"name": "X00580",
"crs": { "type": "name", "properties": { "name": "urn:ogc:def:crs:OGC:1.3:CRS84" } },
"features": [
{ "type": "Feature", "properties": { "part": "direct", "crossing_id": "X00580", "area_ac": 8.2 }, "geometry": { "type": "Polygon", "coordinates": [ [ [ -120.037355227053709, 38.863883809122115 ], [ -120.037453889306846, 38.864282709347876 ], [ -120.037304542422703, 38.864549187085068 ], [ -120.037384668691871, 38.86483950891769 ], [ -120.037217531793814, 38.864979409069441 ], [ -120.037064443750111, 38.865335881276089 ], [ -120.036534929674346, 38.865322434675797 ], [ -120.036504428554764, 38.865501839675026 ], [ -120.035827802582261, 38.865700869097054 ], [ -120.03577352888837, 38.865897687938997 ], [ -120.035516540578982, 38.865981249133895 ], [ -120.035535822420215, 38.866071828783134 ], [ -120.03528032963824, 38.866119391523284 ], [ -120.035156237906222, 38.866332454077806 ], [ -120.034854698679155, 38.866378845884171 ], [ -120.034686804876841, 38.866536740977104 ], [ -120.034288682917676, 38.866688784553396 ], [ -120.034166832709971, 38.866847849101134 ], [ -120.034074741571303, 38.866845508373345 ], [ -120.033880827784103, 38.867074812677082 ], [ -120.033844330197553, 38.867398208000353 ], [ -120.033726969525091, 38.867449278478681 ], [ -120.033452940028866, 38.867388258208138 ], [ -120.033636560169001, 38.866852387843913 ], [ -120.034519836653331, 38.866118084830902 ], [ -120.035346746706594, 38.865076037424821 ], [ -120.035448561410959, 38.864844390673319 ], [ -120.037355227053709, 38.863883809122115 ] ] ] } }
]
}
