{
"type": "FeatureCollection",
"name": "X00502",
"crs": { "type": "name", "properties": { "name": "urn:ogc:def:crs:OGC:1.3:CRS84" } },
"features": [
{ "type": "Feature", "properties": { "part": "direct", "crossing_id": "X00502", "area_ac": 6.3, "n_upstream": null }, "geometry": { "type": "Polygon", "coordinates": [ [ [ -120.127895860909973, 39.056580196438091 ], [ -120.129744947101258, 39.056571702380708 ], [ -120.129763657442723, 39.05668027026131 ], [ -120.129812747207708, 39.056609408018737 ], [ -120.129995978714476, 39.05664995661288 ], [ -120.130013960200287, 39.056776524345089 ], [ -120.129825623226566, 39.056861974891923 ], [ -120.129916509993961, 39.056900249101645 ], [ -120.129907758530052, 39.057116247609095 ], [ -120.129579443118232, 39.057234285706514 ], [ -120.129242373024397, 39.057568321199788 ], [ -120.128941518369672, 39.057578926954768 ], [ -120.128947825231876, 39.05799349249645 ], [ -120.128776733609541, 39.058223508814407 ], [ -120.128906499221571, 39.058442920086762 ], [ -120.127843775937052, 39.058434749164014 ], [ -120.127921794306744, 39.058220458167838 ], [ -120.127895860909973, 39.056580196438091 ] ] ] } },
{ "type": "Feature", "properties": { "part": "upstream", "crossing_id": "X00502", "area_ac": 5.3, "n_upstream": 2.0 }, "geometry": { "type": "Polygon", "coordinates": [ [ [ -120.130012653518136, 39.056845367900571 ], [ -120.130127204065744, 39.056833366852985 ], [ -120.130559282349523, 39.057006167710526 ], [ -120.130888081272573, 39.057446691769073 ], [ -120.130810801834656, 39.057642985258056 ], [ -120.130644820883418, 39.0577470053911 ], [ -120.130626592633945, 39.058197002492676 ], [ -120.130431689733726, 39.058444452815351 ], [ -120.129946865813622, 39.058432512831708 ], [ -120.129947327532861, 39.058414708816741 ], [ -120.129899962793132, 39.058449375456497 ], [ -120.128884141979881, 39.058424351404874 ], [ -120.128776733609541, 39.058223508814407 ], [ -120.128947825231876, 39.05799349249645 ], [ -120.128941518369672, 39.057578926954768 ], [ -120.129242373024397, 39.057568321199788 ], [ -120.129579443118232, 39.057234285706514 ], [ -120.129907758530052, 39.057116247609095 ], [ -120.129916509993961, 39.056900249101645 ], [ -120.129825623226566, 39.056861974891923 ], [ -120.130013230943163, 39.056794524223037 ], [ -120.130012653518136, 39.056845367900571 ] ] ] } }
]
}
