{
"type": "FeatureCollection",
"name": "X00511",
"crs": { "type": "name", "properties": { "name": "urn:ogc:def:crs:OGC:1.3:CRS84" } },
"features": [
{ "type": "Feature", "properties": { "part": "direct", "crossing_id": "X00511", "area_ac": 1.3 }, "geometry": { "type": "Polygon", "coordinates": [ [ [ -120.128929586050702, 39.05844348890912 ], [ -120.129622920627796, 39.058442551591305 ], [ -120.129455477198348, 39.058582569610287 ], [ -120.129425095767189, 39.058761999518765 ], [ -120.129233834674068, 39.058919448299648 ], [ -120.129251085606683, 39.059064015935732 ], [ -120.129156548856926, 39.059115740415194 ], [ -120.129356308011822, 39.059318857740884 ], [ -120.129195169699287, 39.059873440732304 ], [ -120.128918122139964, 39.059866614985502 ], [ -120.128929586050702, 39.05844348890912 ] ] ] } }
]
}
