{
"type": "FeatureCollection",
"name": "X00524",
"crs": { "type": "name", "properties": { "name": "urn:ogc:def:crs:OGC:1.3:CRS84" } },
"features": [
{ "type": "Feature", "properties": { "part": "direct", "crossing_id": "X00524", "area_ac": 6.3 }, "geometry": { "type": "Polygon", "coordinates": [ [ [ -120.024570337102048, 38.883630453225187 ], [ -120.025116248152699, 38.883806535086549 ], [ -120.025607843392052, 38.88417942641874 ], [ -120.026497933492365, 38.883841757176334 ], [ -120.026751993564417, 38.883830214036415 ], [ -120.026830591370711, 38.88415653895828 ], [ -120.026821086185038, 38.885489620210578 ], [ -120.026705942954095, 38.885486685874639 ], [ -120.02661833382777, 38.885376345851277 ], [ -120.026042618861297, 38.88536167207414 ], [ -120.026062145949183, 38.88489370490673 ], [ -120.025886931359139, 38.884673023951613 ], [ -120.025401833461146, 38.88469669278232 ], [ -120.024741260944907, 38.885058224534461 ], [ -120.024544524642053, 38.884800957022733 ], [ -120.024607863466358, 38.884388161159272 ], [ -120.024357558597089, 38.884309705974843 ], [ -120.024325028323346, 38.883984554498724 ], [ -120.024235170297402, 38.883928209012751 ], [ -120.024244939327332, 38.883694225761779 ], [ -120.024570337102048, 38.883630453225187 ] ] ] } }
]
}
