{
"type": "FeatureCollection",
"name": "X00534",
"crs": { "type": "name", "properties": { "name": "urn:ogc:def:crs:OGC:1.3:CRS84" } },
"features": [
{ "type": "Feature", "properties": { "part": "direct", "crossing_id": "X00534", "area_ac": 0.6 }, "geometry": { "type": "Polygon", "coordinates": [ [ [ -120.002469023177881, 38.886776380683777 ], [ -120.00283293841342, 38.88689383699991 ], [ -120.003086253023227, 38.886900344372677 ], [ -120.003144742636579, 38.887154095988343 ], [ -120.00329913191743, 38.887320221913569 ], [ -120.003288536063877, 38.887572198901552 ], [ -120.003044301954404, 38.887349711649001 ], [ -120.002961270078501, 38.887131365122791 ], [ -120.002448582939564, 38.887262335967385 ], [ -120.002475396885529, 38.887172935932547 ], [ -120.002615082996854, 38.887140489228976 ], [ -120.002574324786224, 38.887013317500497 ], [ -120.002438424167607, 38.88695577244733 ], [ -120.002469023177881, 38.886776380683777 ] ] ] } }
]
}
