{
"type": "FeatureCollection",
"name": "X00533",
"crs": { "type": "name", "properties": { "name": "urn:ogc:def:crs:OGC:1.3:CRS84" } },
"features": [
{ "type": "Feature", "properties": { "part": "direct", "crossing_id": "X00533", "area_ac": 0.1 }, "geometry": { "type": "Polygon", "coordinates": [ [ [ -120.002100123822203, 38.887325453534388 ], [ -120.002302839772042, 38.887438769180335 ], [ -120.002299811380482, 38.887510762539655 ], [ -120.002184667463439, 38.887507803896725 ], [ -120.001943779007448, 38.887753862940542 ], [ -120.00185469245848, 38.887679502415217 ], [ -120.002092552342035, 38.88750543690076 ], [ -120.002100123822203, 38.887325453534388 ] ] ] } }
]
}
