{
"type": "FeatureCollection",
"name": "X00557",
"crs": { "type": "name", "properties": { "name": "urn:ogc:def:crs:OGC:1.3:CRS84" } },
"features": [
{ "type": "Feature", "properties": { "part": "direct", "crossing_id": "X00557", "area_ac": 0.7 }, "geometry": { "type": "Polygon", "coordinates": [ [ [ -120.138091572812854, 39.067335450085785 ], [ -120.137926305840438, 39.067421480025992 ], [ -120.13791466537802, 39.067709479533804 ], [ -120.137797032545933, 39.06776064360956 ], [ -120.137809209124796, 39.068031210282989 ], [ -120.137596304592833, 39.068152105231476 ], [ -120.137438311767013, 39.068058134766588 ], [ -120.137512675680284, 39.067933836772063 ], [ -120.137399408227196, 39.067877000656019 ], [ -120.13747231670169, 39.067788702601511 ], [ -120.137369236906068, 39.067479867009908 ], [ -120.137600136374814, 39.067485539368896 ], [ -120.137814493925887, 39.067328644389626 ], [ -120.138091572812854, 39.067335450085785 ] ] ] } }
]
}
