{
"type": "FeatureCollection",
"name": "X00543",
"crs": { "type": "name", "properties": { "name": "urn:ogc:def:crs:OGC:1.3:CRS84" } },
"features": [
{ "type": "Feature", "properties": { "part": "direct", "crossing_id": "X00543", "area_ac": 2.7 }, "geometry": { "type": "Polygon", "coordinates": [ [ [ -120.041116262151192, 38.859330597384719 ], [ -120.041128584976192, 38.860700277143529 ], [ -120.041099467568387, 38.861402240379491 ], [ -120.040917538170433, 38.861343573171567 ], [ -120.040841880382402, 38.86094525888835 ], [ -120.040593129550601, 38.860830842705418 ], [ -120.040622870982205, 38.86066943508181 ], [ -120.040178882642635, 38.86026177875825 ], [ -120.040450779917876, 38.859818225202808 ], [ -120.040431492961517, 38.85972764610392 ], [ -120.040745694186427, 38.859375254636269 ], [ -120.041116262151192, 38.859330597384719 ] ] ] } }
]
}
