{
"type": "FeatureCollection",
"name": "X00559",
"crs": { "type": "name", "properties": { "name": "urn:ogc:def:crs:OGC:1.3:CRS84" } },
"features": [
{ "type": "Feature", "properties": { "part": "direct", "crossing_id": "X00559", "area_ac": 3.7, "n_upstream": null }, "geometry": { "type": "Polygon", "coordinates": [ [ [ -120.017849528100072, 38.833765457287946 ], [ -120.018218930818477, 38.834297416380892 ], [ -120.018100283136746, 38.835483570965167 ], [ -120.018072760452, 38.835590975577027 ], [ -120.017609505698658, 38.835651210672665 ], [ -120.017583485908219, 38.835722617632513 ], [ -120.017420895281461, 38.835754498679677 ], [ -120.017349305259884, 38.83636527988314 ], [ -120.017210477648121, 38.836379749928795 ], [ -120.017288381436146, 38.835066429622458 ], [ -120.017391708421613, 38.834798800726546 ], [ -120.017326431564555, 38.834707042734223 ], [ -120.017407497673219, 38.834420826947415 ], [ -120.017382525902448, 38.833915685740891 ], [ -120.017457576049352, 38.833773459878628 ], [ -120.017849528100072, 38.833765457287946 ] ] ] } },
{ "type": "Feature", "properties": { "part": "upstream", "crossing_id": "X00559", "area_ac": 198.4, "n_upstream": 2.0 }, "geometry": { "type": "Polygon", "coordinates": [ [ [ -120.017391708421613, 38.834798800726546 ], [ -120.017330932860801, 38.834797247591055 ], [ -120.017207469785802, 38.836451744899549 ], [ -120.016675923059054, 38.836492212875775 ], [ -120.016370741400394, 38.8366285552422 ], [ -120.015931243831247, 38.836671372912548 ], [ -120.015763384056257, 38.836829242562636 ], [ -120.015231834108903, 38.836869703811267 ], [ -120.014949661038798, 38.837006630804041 ], [ -120.013671161056067, 38.837280229470593 ], [ -120.013575345228276, 38.837367867480495 ], [ -120.012578261560577, 38.837522529004325 ], [ -120.012010886431355, 38.837868363399075 ], [ -120.011935820817158, 38.838010585070208 ], [ -120.011633637881147, 38.838074919803404 ], [ -120.01156007815959, 38.838181143900215 ], [ -120.011044747906894, 38.838384162579977 ], [ -120.011017966886627, 38.838473566381559 ], [ -120.010830847148725, 38.838540845749911 ], [ -120.009711532839489, 38.839413068875416 ], [ -120.009361807308295, 38.839512215304325 ], [ -120.00905282907739, 38.839738530398343 ], [ -120.008506538703813, 38.839580385662821 ], [ -120.008240937538446, 38.839321326509996 ], [ -120.008011558225803, 38.839297428356652 ], [ -120.007035942500934, 38.839488628029294 ], [ -120.006543604434484, 38.839692216069935 ], [ -120.006018069519385, 38.83958864583758 ], [ -120.005915447319211, 38.839838263955365 ], [ -120.005486104379315, 38.840187606817047 ], [ -120.005362730852383, 38.840382638216099 ], [ -120.005081281182967, 38.840501541427074 ], [ -120.005075995254501, 38.840627531140065 ], [ -120.004983940361015, 38.840625168805644 ], [ -120.004886599193014, 38.84074879608734 ], [ -120.004680230619911, 38.840725481860055 ], [ -120.00465268540141, 38.840832882340713 ], [ -120.004463288096943, 38.840954146546672 ], [ -120.00413807320308, 38.841017870365917 ], [ -120.003896603259832, 38.841281940135303 ], [ -120.003687211582857, 38.841330618130669 ], [ -120.003371061398383, 38.841178357686822 ], [ -120.003380883872708, 38.840944377176022 ], [ -120.003093794891072, 38.840648718979999 ], [ -120.003002495795073, 38.840628356586436 ], [ -120.002835354438318, 38.840768207538801 ], [ -120.002768580431635, 38.84071243898974 ], [ -120.002217007600535, 38.840680254477938 ], [ -120.001798646725845, 38.840219060115473 ], [ -120.001583208977905, 38.84041172220693 ], [ -120.001333083906545, 38.840333224196833 ], [ -120.001216503960819, 38.840366264534048 ], [ -120.001105216810302, 38.840273315491238 ], [ -120.00058044340993, 38.840151722446137 ], [ -120.00044916913852, 38.839986187539438 ], [ -120.000265061795375, 38.839981455571085 ], [ -120.000108506113207, 38.839869324158641 ], [ -119.999915001171928, 38.839540028022334 ], [ -119.999921052396417, 38.839396040432668 ], [ -119.999645650281977, 38.839370942768596 ], [ -119.999403096453293, 38.839112456410511 ], [ -119.999288030876244, 38.839109497989405 ], [ -119.998894224407792, 38.838612889031118 ], [ -119.998815792419663, 38.83828655012379 ], [ -119.998915410003065, 38.83810893283983 ], [ -119.998902233283943, 38.837874361407899 ], [ -119.999587756658201, 38.837459557656196 ], [ -119.999503708054235, 38.836718663114638 ], [ -119.999958338053375, 38.836315938586246 ], [ -120.000058706062745, 38.836120321590947 ], [ -120.000219791250544, 38.83612446201986 ], [ -120.000597815909359, 38.835899944908135 ], [ -120.000672901159817, 38.835757731299047 ], [ -120.001168250419141, 38.835482173585241 ], [ -120.001410464983991, 38.835200110373471 ], [ -120.001526280372758, 38.835185067966954 ], [ -120.001835598274795, 38.835499318773095 ], [ -120.002061183813311, 38.835613221001381 ], [ -120.002335817035842, 38.835656310933537 ], [ -120.002624395258053, 38.835915973283967 ], [ -120.002968066589304, 38.835960834759604 ], [ -120.003330217909237, 38.836114277193751 ], [ -120.003518848235061, 38.836011012826653 ], [ -120.00381196431492, 38.836162681326208 ], [ -120.004111879010921, 38.836152362384809 ], [ -120.004143954243972, 38.835936970743397 ], [ -120.004262036077137, 38.83586793005442 ], [ -120.004583451457421, 38.835894197589901 ], [ -120.004728320453594, 38.835735754323942 ], [ -120.004844136233245, 38.835720708630483 ], [ -120.004711349063115, 38.835591175425151 ], [ -120.004859992370356, 38.83534273924375 ], [ -120.005118409478598, 38.835223245188459 ], [ -120.005279493390901, 38.835227378560489 ], [ -120.006135850018453, 38.834582685492855 ], [ -120.006297687301313, 38.834568818836019 ], [ -120.006886563736472, 38.834259599422474 ], [ -120.00757691540116, 38.834277301496535 ], [ -120.007987355532578, 38.834377913773899 ], [ -120.008587170031404, 38.834357252993279 ], [ -120.009076449206816, 38.83422564893953 ], [ -120.009445391110376, 38.83421708502172 ], [ -120.010770972854431, 38.833368163752503 ], [ -120.011422075370021, 38.833222676158996 ], [ -120.011729510426775, 38.833032350481957 ], [ -120.012144469223713, 38.833024956093283 ], [ -120.012506627628809, 38.833178370289964 ], [ -120.013227512701874, 38.833016640744255 ], [ -120.013685483452207, 38.833082413368608 ], [ -120.014565940354402, 38.832960794170454 ], [ -120.015186497509731, 38.83299468365248 ], [ -120.015320052294229, 38.833106206819714 ], [ -120.015799533155288, 38.833208557153597 ], [ -120.015953092124377, 38.833392662935942 ], [ -120.016670212874686, 38.833320905586952 ], [ -120.01714668984755, 38.833495245503464 ], [ -120.017209709789014, 38.833640999814058 ], [ -120.017416815384451, 38.833646292491707 ], [ -120.017337642575782, 38.834707329237204 ], [ -120.017372455716924, 38.834708218897482 ], [ -120.017391708421613, 38.834798800726546 ] ] ] } }
]
}
