{
"type": "FeatureCollection",
"name": "X00682",
"crs": { "type": "name", "properties": { "name": "urn:ogc:def:crs:OGC:1.3:CRS84" } },
"features": [
{ "type": "Feature", "properties": { "part": "direct", "crossing_id": "X00682", "area_ac": 2.0 }, "geometry": { "type": "Polygon", "coordinates": [ [ [ -120.035578545907342, 38.874469278057241 ], [ -120.035666157013651, 38.874579611544469 ], [ -120.035917938937828, 38.874622043851147 ], [ -120.036412525967791, 38.8749228941276 ], [ -120.035444534660385, 38.875474877709813 ], [ -120.035127415836996, 38.875340694445775 ], [ -120.034706399642772, 38.874933600907887 ], [ -120.034867577499242, 38.874937696973888 ], [ -120.035578545907342, 38.874469278057241 ] ] ] } }
]
}
