{
"type": "FeatureCollection",
"name": "X00658",
"crs": { "type": "name", "properties": { "name": "urn:ogc:def:crs:OGC:1.3:CRS84" } },
"features": [
{ "type": "Feature", "properties": { "part": "direct", "crossing_id": "X00658", "area_ac": 3.8 }, "geometry": { "type": "Polygon", "coordinates": [ [ [ -119.964920104911997, 38.91263384161288 ], [ -119.965767839323192, 38.91276400268174 ], [ -119.96578857448273, 38.912818594893437 ], [ -119.965882253190898, 38.912784996513984 ], [ -119.966743826636687, 38.913131721834276 ], [ -119.966599474335538, 38.913272108747464 ], [ -119.96653113211822, 38.913252313794061 ], [ -119.96652653113695, 38.913360299793858 ], [ -119.966247027054393, 38.91342510086286 ], [ -119.966161016894404, 38.913278722903108 ], [ -119.965229569056959, 38.912948192927473 ], [ -119.964334994033692, 38.912834826480136 ], [ -119.964215208828236, 38.912939814549937 ], [ -119.964204465098007, 38.913191781351244 ], [ -119.963854316068804, 38.913290773170139 ], [ -119.963555620594519, 38.913805508152819 ], [ -119.963354433663127, 38.913656129805098 ], [ -119.963167071692652, 38.913723322225557 ], [ -119.963057263611333, 38.913594340057045 ], [ -119.962829970950764, 38.913516351495772 ], [ -119.962929793783147, 38.913338774741071 ], [ -119.96332448141932, 38.91327698046539 ], [ -119.963117916909212, 38.912713056964385 ], [ -119.964363401736136, 38.912709442583136 ], [ -119.964920104911997, 38.91263384161288 ] ] ] } }
]
}
