{
"type": "FeatureCollection",
"name": "X00646",
"crs": { "type": "name", "properties": { "name": "urn:ogc:def:crs:OGC:1.3:CRS84" } },
"features": [
{ "type": "Feature", "properties": { "part": "direct", "crossing_id": "X00646", "area_ac": 0.1 }, "geometry": { "type": "MultiPolygon", "coordinates": [ [ [ [ -119.975223611015508, 38.901352172526551 ], [ -119.975245879394279, 38.901370767607389 ], [ -119.975222846706714, 38.901370170374946 ], [ -119.975223611015508, 38.901352172526551 ] ] ], [ [ [ -119.975199814019831, 38.901369573137977 ], [ -119.97518529191251, 38.901711532237371 ], [ -119.975067834863623, 38.901762539482277 ], [ -119.97503247036461, 38.901509375112489 ], [ -119.975199814019831, 38.901369573137977 ] ] ] ] } }
]
}
