{
"type": "FeatureCollection",
"name": "X00625",
"crs": { "type": "name", "properties": { "name": "urn:ogc:def:crs:OGC:1.3:CRS84" } },
"features": [
{ "type": "Feature", "properties": { "part": "direct", "crossing_id": "X00625", "area_ac": 9.8, "n_upstream": null }, "geometry": { "type": "Polygon", "coordinates": [ [ [ -119.988894577994387, 38.884498921269163 ], [ -119.989052729272501, 38.88457507393526 ], [ -119.989352087574048, 38.884582799351541 ], [ -119.989608652532922, 38.885057881424068 ], [ -119.98950513768817, 38.885325476665294 ], [ -119.989636462423832, 38.885491025092144 ], [ -119.989875103070389, 38.8852989872046 ], [ -119.990132209548278, 38.885215531735106 ], [ -119.99039615578792, 38.884970092318746 ], [ -119.991059400548679, 38.885095306321205 ], [ -119.991257532621177, 38.885316629239632 ], [ -119.991349643999939, 38.885319004671096 ], [ -119.991045954047991, 38.885959811911121 ], [ -119.990408009517566, 38.88578119712782 ], [ -119.990287549058877, 38.885904213894065 ], [ -119.990101804713291, 38.885935457509483 ], [ -119.989686760946256, 38.886483299308019 ], [ -119.989457239425008, 38.886459359034944 ], [ -119.989292240455143, 38.886545189907579 ], [ -119.989262368980121, 38.886706578778295 ], [ -119.989167974812332, 38.886758196004855 ], [ -119.98905435433997, 38.886719228214915 ], [ -119.989004495675957, 38.886808030178763 ], [ -119.988872409762109, 38.886660479154607 ], [ -119.988555338457331, 38.886526170941117 ], [ -119.988657337839101, 38.886294573038043 ], [ -119.988591295629092, 38.886220797373277 ], [ -119.987788356189142, 38.886127998031782 ], [ -119.987647144972783, 38.886196422988398 ], [ -119.98718658409193, 38.886184530279039 ], [ -119.98674220259781, 38.886335213303113 ], [ -119.98677131855041, 38.886191823377175 ], [ -119.987680062782786, 38.885963042245685 ], [ -119.987581659800639, 38.885564111049462 ], [ -119.987677574864307, 38.885476498872663 ], [ -119.987609252160837, 38.885456717024297 ], [ -119.988211778473371, 38.885382184218031 ], [ -119.988446619725124, 38.885280139970888 ], [ -119.988907935719126, 38.885274029354505 ], [ -119.988627586753779, 38.884816349655367 ], [ -119.988771075595309, 38.884693928976965 ], [ -119.988777919496854, 38.884531945851073 ], [ -119.988894577994387, 38.884498921269163 ] ] ] } },
{ "type": "Feature", "properties": { "part": "upstream", "crossing_id": "X00625", "area_ac": 16.1, "n_upstream": 14.0 }, "geometry": { "type": "MultiPolygon", "coordinates": [ [ [ [ -119.99045139535302, 38.88481125407791 ], [ -119.990493586705583, 38.884846481343736 ], [ -119.990322512330579, 38.885076299098245 ], [ -119.989636462423832, 38.885491025092144 ], [ -119.98950513768817, 38.885325476665294 ], [ -119.989608652532922, 38.885057881424068 ], [ -119.989352087574048, 38.884582799351541 ], [ -119.989052729272501, 38.88457507393526 ], [ -119.988894577994387, 38.884498921269163 ], [ -119.988753371085849, 38.884567347752842 ], [ -119.98872056778508, 38.884550121306042 ], [ -119.988775638202455, 38.884585940226984 ], [ -119.988771075595309, 38.884693928976965 ], [ -119.988627586753779, 38.884816349655367 ], [ -119.988907935719126, 38.885274029354505 ], [ -119.988446619725124, 38.885280139970888 ], [ -119.987771207565729, 38.885442880924501 ], [ -119.987753923277737, 38.885380102995136 ], [ -119.987740069275262, 38.885380945319007 ], [ -119.98777044685626, 38.885460879030362 ], [ -119.987539407962075, 38.885472931341418 ], [ -119.987522691479754, 38.885394161677873 ], [ -119.987450339868559, 38.885398560494217 ], [ -119.987383351086194, 38.885443464869113 ], [ -119.987519423238936, 38.885400344330087 ], [ -119.987514813846062, 38.885509391651929 ], [ -119.987677574864307, 38.885476498872663 ], [ -119.987582420560543, 38.885546112947054 ], [ -119.987576943073947, 38.885675699283006 ], [ -119.987646939616795, 38.885655885330813 ], [ -119.987680062782786, 38.885963042245685 ], [ -119.986747529532082, 38.886209226698753 ], [ -119.986719372501923, 38.886875155855513 ], [ -119.986691778124566, 38.886982549572345 ], [ -119.986598903945676, 38.886998168463492 ], [ -119.98662573743168, 38.886908772857161 ], [ -119.986466822866703, 38.886850614901988 ], [ -119.986511921867219, 38.886329265372822 ], [ -119.986377558881543, 38.8862357059961 ], [ -119.986544843466532, 38.886095885105611 ], [ -119.986161740091191, 38.88588779389233 ], [ -119.986323696632084, 38.88587395985455 ], [ -119.98588616630019, 38.885862656943196 ], [ -119.986051167426567, 38.885776830983112 ], [ -119.985817843799211, 38.8858428740511 ], [ -119.985751805024051, 38.885769096906465 ], [ -119.985785553728633, 38.885697897892051 ], [ -119.98568576638317, 38.885695319729024 ], [ -119.985629730337706, 38.885409982660221 ], [ -119.985610561979286, 38.885394617397331 ], [ -119.985314087701894, 38.88521725488539 ], [ -119.985293344000226, 38.885162665648615 ], [ -119.985322128584812, 38.885163409446449 ], [ -119.985182773794676, 38.885051702002386 ], [ -119.986184183997551, 38.884266776909811 ], [ -119.986866996298417, 38.883383526265419 ], [ -119.986959865666833, 38.88336790696259 ], [ -119.986884697279038, 38.883510107653187 ], [ -119.987571914854698, 38.884158475138719 ], [ -119.987654135249784, 38.884394828817726 ], [ -119.987653020249553, 38.884540012377578 ], [ -119.987899070301509, 38.884599347987852 ], [ -119.988303856588615, 38.884512502116635 ], [ -119.988318129428933, 38.884502059908598 ], [ -119.988327667518547, 38.884507393490964 ], [ -119.988573713611842, 38.884454604065922 ], [ -119.98859301519461, 38.884467158271725 ], [ -119.988876112888619, 38.884390338180843 ], [ -119.989121689157599, 38.88443741187789 ], [ -119.989175470366291, 38.884398064019258 ], [ -119.989704342914592, 38.884429729074576 ], [ -119.990089505450356, 38.884043275831381 ], [ -119.990630764142097, 38.884327504828846 ], [ -119.990593297207838, 38.884668875806774 ], [ -119.99045139535302, 38.88481125407791 ] ], [ [ -119.986078762174614, 38.885669437418599 ], [ -119.986105595696529, 38.885580041920477 ], [ -119.986081058794142, 38.885576652392501 ], [ -119.986051167426567, 38.885776830983112 ], [ -119.986078762174614, 38.885669437418599 ] ], [ [ -119.987868643597153, 38.885319272358714 ], [ -119.987649016188882, 38.885061353315251 ], [ -119.987866361550473, 38.885373266682144 ], [ -119.987868643597153, 38.885319272358714 ] ], [ [ -119.987202772211702, 38.885564511235046 ], [ -119.987212453509116, 38.8855725950459 ], [ -119.987191519109174, 38.885572054436857 ], [ -119.98716563696442, 38.885589403796502 ], [ -119.987147953193855, 38.885593271383236 ], [ -119.987420464899998, 38.885559948773576 ], [ -119.98728229786883, 38.885556380931725 ], [ -119.987307002704625, 38.885551388343366 ], [ -119.987217796388407, 38.885554440195023 ], [ -119.987202772211702, 38.885564511235046 ] ], [ [ -119.987530278691722, 38.885688908560255 ], [ -119.987563610394957, 38.885679473364199 ], [ -119.987420464899998, 38.885559948773576 ], [ -119.987530278691722, 38.885688908560255 ] ], [ [ -119.986627933947503, 38.885783721786794 ], [ -119.986868968210771, 38.885654287287686 ], [ -119.986723542170182, 38.885686092636817 ], [ -119.986627933947503, 38.885783721786794 ] ], [ [ -119.986485653124831, 38.885860125589176 ], [ -119.986546423953541, 38.885827492123532 ], [ -119.986431667632672, 38.885864737036243 ], [ -119.986485653124831, 38.885860125589176 ] ], [ [ -119.985850006133191, 38.885627492118168 ], [ -119.985945162152348, 38.88555787953036 ], [ -119.985866372945466, 38.885603891310318 ], [ -119.985850006133191, 38.885627492118168 ] ] ], [ [ [ -119.990257680186261, 38.886065603135449 ], [ -119.989983086710367, 38.886563015972285 ], [ -119.989686000691876, 38.886501297442386 ], [ -119.989837093500014, 38.886198894179763 ], [ -119.990073455696518, 38.886060850401122 ], [ -119.990101804713291, 38.885935457509483 ], [ -119.990454065469535, 38.885782385199512 ], [ -119.990797205329372, 38.885845289623923 ], [ -119.99102140619506, 38.88599521430821 ], [ -119.990830342176451, 38.886152446178173 ], [ -119.990257680186261, 38.886065603135449 ] ] ], [ [ [ -119.986598142898202, 38.887016166545116 ], [ -119.986575114605316, 38.887015571735382 ], [ -119.986575875658602, 38.886997573654142 ], [ -119.986598142898202, 38.887016166545116 ] ] ] ] } }
]
}
