{
"type": "FeatureCollection",
"name": "X00667",
"crs": { "type": "name", "properties": { "name": "urn:ogc:def:crs:OGC:1.3:CRS84" } },
"features": [
{ "type": "Feature", "properties": { "part": "direct", "crossing_id": "X00667", "area_ac": 6.9 }, "geometry": { "type": "Polygon", "coordinates": [ [ [ -120.024430619188422, 38.885320570422607 ], [ -120.024651136420331, 38.88556042672132 ], [ -120.024751251860494, 38.885923337370748 ], [ -120.024905690903566, 38.886089436588264 ], [ -120.02496050173805, 38.886433173894417 ], [ -120.024894156841981, 38.886917964684415 ], [ -120.025235085164567, 38.887034765291183 ], [ -120.025534463696872, 38.887042398353373 ], [ -120.025768510773702, 38.886958275784529 ], [ -120.026179279382774, 38.887058836192345 ], [ -120.026180527625058, 38.887581386440964 ], [ -120.025898917926284, 38.887700333100952 ], [ -120.025601038981591, 38.88765670342142 ], [ -120.025506667956108, 38.887708351051337 ], [ -120.025445843835044, 38.88750860368669 ], [ -120.025144960700786, 38.887536967750854 ], [ -120.024762480302044, 38.887310999980699 ], [ -120.024529933953431, 38.88735912302262 ], [ -120.024353215635017, 38.887174437200038 ], [ -120.023963975218734, 38.887110455270168 ], [ -120.023625303976957, 38.886939654939724 ], [ -120.023700677522427, 38.886238880874842 ], [ -120.023548496186351, 38.886018784082246 ], [ -120.023650382901707, 38.885787151037185 ], [ -120.023591068693861, 38.885551405524851 ], [ -120.024106716572931, 38.885348344835826 ], [ -120.024430619188422, 38.885320570422607 ] ] ] } }
]
}
