{
"type": "FeatureCollection",
"name": "X00699",
"crs": { "type": "name", "properties": { "name": "urn:ogc:def:crs:OGC:1.3:CRS84" } },
"features": [
{ "type": "Feature", "properties": { "part": "direct", "crossing_id": "X00699", "area_ac": 1.3 }, "geometry": { "type": "Polygon", "coordinates": [ [ [ -120.03264266833591, 38.877998235784993 ], [ -120.032709499877186, 38.87805398920915 ], [ -120.033194551916409, 38.878030288081384 ], [ -120.033253144515243, 38.87828402884719 ], [ -120.033343003286788, 38.878340367430333 ], [ -120.032920286398266, 38.878527815631756 ], [ -120.032798411283878, 38.878686877556369 ], [ -120.032519095453665, 38.878751845582407 ], [ -120.032412204417184, 38.87855092981674 ], [ -120.032253266660703, 38.87849283346705 ], [ -120.032326841856204, 38.878386597374245 ], [ -120.032248223302901, 38.878060275140783 ], [ -120.03264266833591, 38.877998235784993 ] ] ] } }
]
}
