{
"type": "FeatureCollection",
"name": "X00670",
"crs": { "type": "name", "properties": { "name": "urn:ogc:def:crs:OGC:1.3:CRS84" } },
"features": [
{ "type": "Feature", "properties": { "part": "direct", "crossing_id": "X00670", "area_ac": 1.4 }, "geometry": { "type": "Polygon", "coordinates": [ [ [ -120.023211555788563, 38.880839057348759 ], [ -120.023486377540621, 38.880882104547254 ], [ -120.023387504767797, 38.881041743048129 ], [ -120.023500385747042, 38.881098676499775 ], [ -120.023492118351072, 38.881296662282324 ], [ -120.023180737833471, 38.881577004153641 ], [ -120.023190986733084, 38.881883569592198 ], [ -120.02288787171905, 38.8819659248446 ], [ -120.022716906333315, 38.882195794621516 ], [ -120.022595281661722, 38.881796297614486 ], [ -120.022652613519952, 38.881527492508198 ], [ -120.022873390490446, 38.881208804435964 ], [ -120.023182515500594, 38.880982459463894 ], [ -120.023211555788563, 38.880839057348759 ] ] ] } }
]
}
