{
"type": "FeatureCollection",
"name": "X00659",
"crs": { "type": "name", "properties": { "name": "urn:ogc:def:crs:OGC:1.3:CRS84" } },
"features": [
{ "type": "Feature", "properties": { "part": "direct", "crossing_id": "X00659", "area_ac": 0.1, "n_upstream": null }, "geometry": { "type": "Polygon", "coordinates": [ [ [ -119.971140974992949, 38.91548017185049 ], [ -119.971230826532292, 38.915536557912787 ], [ -119.971134083442664, 38.915642151479183 ], [ -119.971174797817469, 38.91576933207606 ], [ -119.971038871575871, 38.915711749483499 ], [ -119.971023491935313, 38.915531173893427 ], [ -119.971140974992949, 38.91548017185049 ] ] ] } },
{ "type": "Feature", "properties": { "part": "upstream", "crossing_id": "X00659", "area_ac": 3.2, "n_upstream": 1.0 }, "geometry": { "type": "Polygon", "coordinates": [ [ [ -119.969363127936631, 38.913902494372905 ], [ -119.969449911622718, 38.914030872536152 ], [ -119.969656475491959, 38.91405425689328 ], [ -119.969621947749488, 38.914323624129388 ], [ -119.969828512538982, 38.914347008216758 ], [ -119.969869223959918, 38.914474189171344 ], [ -119.97000897678636, 38.914441784401404 ], [ -119.970069661535916, 38.914641554615336 ], [ -119.969932206356688, 38.91461996628481 ], [ -119.969906105445645, 38.914691358709383 ], [ -119.970132644476237, 38.914787331639197 ], [ -119.970149553732043, 38.914931911826152 ], [ -119.970243233457992, 38.914898309980885 ], [ -119.970488981231824, 38.91508486927863 ], [ -119.970607229726653, 38.915015870027652 ], [ -119.970744685919939, 38.915037457599503 ], [ -119.9708092021651, 38.915147238854729 ], [ -119.970757767381087, 38.915272026400594 ], [ -119.970915963885901, 38.915348205281255 ], [ -119.971066503303163, 38.915604361315317 ], [ -119.970896053427509, 38.915816146328837 ], [ -119.970647238712644, 38.915701578678437 ], [ -119.970677934396946, 38.915522199710971 ], [ -119.970386110469988, 38.915334444016636 ], [ -119.970133468417544, 38.915309863973107 ], [ -119.970002139983436, 38.915144293918729 ], [ -119.969460743580456, 38.91485996436554 ], [ -119.969440771203182, 38.914787374976775 ], [ -119.969277214388427, 38.914837178156247 ], [ -119.96926413780632, 38.914602609371933 ], [ -119.968786494739405, 38.914446056586506 ], [ -119.968702010750988, 38.914263684865205 ], [ -119.968408664554616, 38.914111919994006 ], [ -119.968291182042023, 38.914162919305085 ], [ -119.968113020291753, 38.914014147504012 ], [ -119.968232035503107, 38.913927152980584 ], [ -119.96861522819448, 38.914135306191994 ], [ -119.968617527169172, 38.914081313095032 ], [ -119.968754214527863, 38.914120900621576 ], [ -119.968899330833153, 38.913962513252109 ], [ -119.969105128062296, 38.914003896277613 ], [ -119.969155032269455, 38.913915104934041 ], [ -119.969363127936631, 38.913902494372905 ] ] ] } }
]
}
