{
"type": "FeatureCollection",
"name": "X00603",
"crs": { "type": "name", "properties": { "name": "urn:ogc:def:crs:OGC:1.3:CRS84" } },
"features": [
{ "type": "Feature", "properties": { "part": "direct", "crossing_id": "X00603", "area_ac": 2.3, "n_upstream": null }, "geometry": { "type": "MultiPolygon", "coordinates": [ [ [ [ -119.985097515629505, 38.884887339153231 ], [ -119.985119781840822, 38.884905932290799 ], [ -119.98509675426051, 38.88490533721648 ], [ -119.985097515629505, 38.884887339153231 ] ] ], [ [ [ -119.98509675426051, 38.88490533721648 ], [ -119.985180489736791, 38.885105696194728 ], [ -119.984924901412199, 38.885153144410708 ], [ -119.984872754630999, 38.885295938643047 ], [ -119.984683202646053, 38.885417163877243 ], [ -119.984673303249963, 38.885651138583803 ], [ -119.984555879620558, 38.885702156834775 ], [ -119.984525236428738, 38.88588154214991 ], [ -119.983687853807069, 38.886058090352321 ], [ -119.983615722944108, 38.886128296364603 ], [ -119.983410756963906, 38.886068943627869 ], [ -119.983153640428384, 38.886152383826953 ], [ -119.98283734509215, 38.886000062546053 ], [ -119.982888734550514, 38.885875267445705 ], [ -119.983048405664746, 38.885915432057807 ], [ -119.984980093571266, 38.884938357899443 ], [ -119.98509675426051, 38.88490533721648 ] ] ], [ [ [ -119.985121304566547, 38.884869936163469 ], [ -119.985143570779215, 38.884888529296568 ], [ -119.985120543204019, 38.884887934227166 ], [ -119.985121304566547, 38.884869936163469 ] ] ], [ [ [ -119.985145093492008, 38.884852533168292 ], [ -119.985167359706011, 38.884871126296972 ], [ -119.985144332135931, 38.884870531232487 ], [ -119.985145093492008, 38.884852533168292 ] ] ] ] } },
{ "type": "Feature", "properties": { "part": "upstream", "crossing_id": "X00603", "area_ac": 1.3, "n_upstream": 1.0 }, "geometry": { "type": "Polygon", "coordinates": [ [ [ -119.987673292674444, 38.882305264337433 ], [ -119.987763117981459, 38.882361636788595 ], [ -119.987548269838626, 38.882536267055556 ], [ -119.986184183997551, 38.884266776909811 ], [ -119.985205801424044, 38.885052297061605 ], [ -119.985115213647262, 38.885013920671277 ], [ -119.98509675426051, 38.88490533721648 ], [ -119.986095879911005, 38.884174407048157 ], [ -119.987364054922452, 38.882531510407262 ], [ -119.987673292674444, 38.882305264337433 ] ] ] } }
]
}
