{
"type": "FeatureCollection",
"name": "X00687",
"crs": { "type": "name", "properties": { "name": "urn:ogc:def:crs:OGC:1.3:CRS84" } },
"features": [
{ "type": "Feature", "properties": { "part": "direct", "crossing_id": "X00687", "area_ac": 4.1, "n_upstream": null }, "geometry": { "type": "Polygon", "coordinates": [ [ [ -119.960396770500552, 38.905146856721068 ], [ -119.961217527685932, 38.905906963000824 ], [ -119.961424064484035, 38.905930360923989 ], [ -119.961364169510219, 38.906793645808534 ], [ -119.961451698480445, 38.906904031536484 ], [ -119.961285083366619, 38.907025814458727 ], [ -119.961102345707843, 38.906985018667179 ], [ -119.960721518105075, 38.906722850187101 ], [ -119.960302307436478, 38.90627950424409 ], [ -119.959890001299385, 38.906214706434817 ], [ -119.959995197826103, 38.905911148829759 ], [ -119.959795576654486, 38.905725770200377 ], [ -119.959671972750627, 38.90538021417219 ], [ -119.95992611123242, 38.905368820210747 ], [ -119.960396770500552, 38.905146856721068 ] ], [ [ -119.961053218679865, 38.905974752890472 ], [ -119.960842841591202, 38.906041342281398 ], [ -119.960818271554459, 38.906076737334921 ], [ -119.960748401763951, 38.906092934496463 ], [ -119.960676227609241, 38.906163124387902 ], [ -119.961305823370566, 38.905999351198645 ], [ -119.961053218679865, 38.905974752890472 ] ] ] } },
{ "type": "Feature", "properties": { "part": "upstream", "crossing_id": "X00687", "area_ac": 0.1, "n_upstream": 1.0 }, "geometry": { "type": "MultiPolygon", "coordinates": [ [ [ [ -119.961305823370566, 38.905999351198645 ], [ -119.961188350011938, 38.906050343743622 ], [ -119.96070002964143, 38.906145726960247 ], [ -119.961053986691837, 38.905956755292642 ], [ -119.961305823370566, 38.905999351198645 ] ] ], [ [ [ -119.960699261534913, 38.906163724551568 ], [ -119.960676227609241, 38.906163124387902 ], [ -119.96067699572157, 38.906145126796957 ], [ -119.960699261534913, 38.906163724551568 ] ] ] ] } }
]
}
