{
"type": "FeatureCollection",
"name": "X00607",
"crs": { "type": "name", "properties": { "name": "urn:ogc:def:crs:OGC:1.3:CRS84" } },
"features": [
{ "type": "Feature", "properties": { "part": "direct", "crossing_id": "X00607", "area_ac": 2.0 }, "geometry": { "type": "Polygon", "coordinates": [ [ [ -119.963121755277683, 38.912623068905937 ], [ -119.963113310844349, 38.912821042632281 ], [ -119.963266887342812, 38.91300521705115 ], [ -119.96332448141932, 38.91327698046539 ], [ -119.962929793783147, 38.913338774741071 ], [ -119.962830738720527, 38.91349835389147 ], [ -119.96249056864292, 38.913363372660484 ], [ -119.96251974767938, 38.913219991761409 ], [ -119.962078987329434, 38.913280583344566 ], [ -119.961966110003232, 38.913223590612105 ], [ -119.961952289552201, 38.913007019518822 ], [ -119.961791036416813, 38.913002819391707 ], [ -119.961801020598642, 38.912768850736086 ], [ -119.961941541038343, 38.912718458053547 ], [ -119.962979700354524, 38.912709458271692 ], [ -119.963121755277683, 38.912623068905937 ] ] ] } }
]
}
