{
"type": "FeatureCollection",
"name": "X00668",
"crs": { "type": "name", "properties": { "name": "urn:ogc:def:crs:OGC:1.3:CRS84" } },
"features": [
{ "type": "Feature", "properties": { "part": "direct", "crossing_id": "X00668", "area_ac": 115.7, "n_upstream": null }, "geometry": { "type": "Polygon", "coordinates": [ [ [ -120.023263622967221, 38.880696242717917 ], [ -120.023350469835862, 38.880824583614952 ], [ -120.023211555788563, 38.880839057348759 ], [ -120.023182515500594, 38.880982459463894 ], [ -120.02287188701132, 38.881244801830377 ], [ -120.022804308943336, 38.881207041674479 ], [ -120.022601296238619, 38.881652308085101 ], [ -120.022716906333315, 38.882195794621516 ], [ -120.023111856976897, 38.882674337248979 ], [ -120.023108098378444, 38.882764330731376 ], [ -120.022437006973774, 38.883377831412083 ], [ -120.022681291462987, 38.883600280015123 ], [ -120.022552617758294, 38.883921318032932 ], [ -120.022556096528277, 38.884389871469985 ], [ -120.022779611953368, 38.884557736245249 ], [ -120.023325524997887, 38.884733826572855 ], [ -120.023728009132853, 38.885032380680492 ], [ -120.023724250995613, 38.885122374176952 ], [ -120.023273930628264, 38.885417189335705 ], [ -120.023289441696676, 38.885597763796625 ], [ -120.023625099207379, 38.885840559636165 ], [ -120.02337328708434, 38.885798099583347 ], [ -120.023153525411814, 38.885540242327764 ], [ -120.02289569989054, 38.885641770780978 ], [ -120.022736003387507, 38.885601659883889 ], [ -120.022482406685882, 38.88615374200468 ], [ -120.022495659864674, 38.886388312504167 ], [ -120.022650846331572, 38.886536415854053 ], [ -120.022595765093982, 38.886751224574283 ], [ -120.02243230634646, 38.886801106546585 ], [ -120.022450823348109, 38.88690968631991 ], [ -120.022210756445034, 38.887137791428181 ], [ -120.022289335921513, 38.887464118577292 ], [ -120.02217343789458, 38.887479178314813 ], [ -120.022107358717719, 38.88740542024005 ], [ -120.021898591933834, 38.887436127094205 ], [ -120.02156640448996, 38.887661879266382 ], [ -120.020703036185907, 38.887910102762959 ], [ -120.02070679850857, 38.887820109557005 ], [ -120.020405160409609, 38.88786645989925 ], [ -120.020206927969511, 38.887645182755833 ], [ -120.019952101455502, 38.887674709678819 ], [ -120.019730089135194, 38.887470842184918 ], [ -120.01963571441253, 38.887522484906043 ], [ -120.019499797779645, 38.887464959165541 ], [ -120.019198913450268, 38.887493307797854 ], [ -120.019022962041163, 38.887290615813136 ], [ -120.018771901165834, 38.887230147123844 ], [ -120.018460789826463, 38.886951929066136 ], [ -120.018163672843414, 38.886890282076259 ], [ -120.017954906338304, 38.886920981863128 ], [ -120.01771181278518, 38.887221071521772 ], [ -120.017384133626223, 38.88733881975957 ], [ -120.017246712678755, 38.887317288650308 ], [ -120.017034177732242, 38.887437979640701 ], [ -120.017031164209527, 38.887509973969422 ], [ -120.01594729018268, 38.8875182919246 ], [ -120.01582913007266, 38.887587340987274 ], [ -120.015535028221976, 38.887453693051377 ], [ -120.015162794320901, 38.887534259526298 ], [ -120.014924210645844, 38.887726351510253 ], [ -120.014416816110284, 38.88773138588509 ], [ -120.014317913004845, 38.887891015356786 ], [ -120.01417747571324, 38.887941474765391 ], [ -120.01399324234059, 38.887936759578089 ], [ -120.013953217355876, 38.887791592493031 ], [ -120.013771247042882, 38.887732881383904 ], [ -120.013573036289216, 38.887511593782378 ], [ -120.013457891183734, 38.88750864625549 ], [ -120.013282710961519, 38.887287947727515 ], [ -120.013250985288735, 38.886944796721295 ], [ -120.012804742936595, 38.886591033025177 ], [ -120.012876846688016, 38.886520807839574 ], [ -120.012834561380799, 38.886429636011464 ], [ -120.013025579928538, 38.886272366196224 ], [ -120.01304443870464, 38.885822403172916 ], [ -120.013213180972159, 38.885646544852591 ], [ -120.013316608636003, 38.885378925075223 ], [ -120.013276586146802, 38.885233757813779 ], [ -120.013845101652308, 38.884869935795813 ], [ -120.013925497570384, 38.884601725903501 ], [ -120.014259954922849, 38.884322000153652 ], [ -120.015037216859824, 38.88392747831567 ], [ -120.015371666714316, 38.883647749051775 ], [ -120.015486052120494, 38.883668693015991 ], [ -120.016104366970879, 38.883216044196672 ], [ -120.016289341960288, 38.883202756992567 ], [ -120.016724933981806, 38.882709395982999 ], [ -120.017075619826215, 38.882592237464948 ], [ -120.01710693285608, 38.882394841618101 ], [ -120.016948000551039, 38.882336724590402 ], [ -120.016977807271388, 38.882175325975204 ], [ -120.01759308723345, 38.881794662696478 ], [ -120.017636882529757, 38.881849835774027 ], [ -120.018212564751366, 38.881864549883304 ], [ -120.018495668105089, 38.881709624036333 ], [ -120.019486593222908, 38.881716924551753 ], [ -120.019765930731978, 38.881651988701314 ], [ -120.020237762298947, 38.881393771973826 ], [ -120.020560142994299, 38.881402004963292 ], [ -120.02109879499298, 38.881199544646094 ], [ -120.021372864406104, 38.881260595499647 ], [ -120.021791113614725, 38.881181183152123 ], [ -120.022123268839522, 38.880955428906574 ], [ -120.022187838664337, 38.881065184181509 ], [ -120.022668401237439, 38.881149519947172 ], [ -120.022977526594644, 38.880923175532104 ], [ -120.022981285111044, 38.880833182031971 ], [ -120.02309717211368, 38.880818121044896 ], [ -120.023148487845077, 38.88069330517655 ], [ -120.023263622967221, 38.880696242717917 ] ] ] } },
{ "type": "Feature", "properties": { "part": "upstream", "crossing_id": "X00668", "area_ac": 2.7, "n_upstream": 5.0 }, "geometry": { "type": "MultiPolygon", "coordinates": [ [ [ [ -120.022804308943336, 38.881207041674479 ], [ -120.022827336125033, 38.881207629266179 ], [ -120.022802053671498, 38.881261037762613 ], [ -120.022804308943336, 38.881207041674479 ] ] ], [ [ [ -120.023500385747042, 38.881098676499775 ], [ -120.023492118351072, 38.881296662282324 ], [ -120.023180737833471, 38.881577004153641 ], [ -120.023190986733084, 38.881883569592198 ], [ -120.02288787171905, 38.8819659248446 ], [ -120.022716906333315, 38.882195794621516 ], [ -120.022595281661722, 38.881796297614486 ], [ -120.022652613519952, 38.881527492508198 ], [ -120.022873390490446, 38.881208804435964 ], [ -120.023182515500594, 38.880982459463894 ], [ -120.023211555788563, 38.880839057348759 ], [ -120.023486377540621, 38.880882104547254 ], [ -120.023387504767797, 38.881041743048129 ], [ -120.023500385747042, 38.881098676499775 ] ] ], [ [ [ -120.022556096528277, 38.884389871469985 ], [ -120.022559104139788, 38.884317876740461 ], [ -120.022826420319916, 38.884540912832193 ], [ -120.022825668479513, 38.884558911518397 ], [ -120.022556096528277, 38.884389871469985 ] ] ], [ [ [ -120.022825668479513, 38.884558911518397 ], [ -120.022870973178854, 38.884578085460234 ], [ -120.022824916638442, 38.88457691020448 ], [ -120.022825668479513, 38.884558911518397 ] ] ], [ [ [ -120.022870973178854, 38.884578085460234 ], [ -120.022893249625682, 38.88459667176852 ], [ -120.022870221348711, 38.88459608414707 ], [ -120.022870973178854, 38.884578085460234 ] ] ], [ [ [ -120.023129467969198, 38.886116200324501 ], [ -120.022957740660303, 38.88636406863597 ], [ -120.022818063794276, 38.886396540142584 ], [ -120.022760727453601, 38.886665345006406 ], [ -120.022548203222414, 38.886786046504696 ], [ -120.022650846331572, 38.886536415854053 ], [ -120.022495659864674, 38.886388312504167 ], [ -120.022482406685882, 38.88615374200468 ], [ -120.022736003387507, 38.885601659883889 ], [ -120.02282886965466, 38.885586011816152 ], [ -120.022884989455932, 38.885636755932801 ], [ -120.023153525411814, 38.885540242327764 ], [ -120.023372535348201, 38.88581609827461 ], [ -120.023114363434232, 38.885987851280966 ], [ -120.023129467969198, 38.886116200324501 ] ] ] ] } }
]
}
