{
"type": "FeatureCollection",
"name": "X00680",
"crs": { "type": "name", "properties": { "name": "urn:ogc:def:crs:OGC:1.3:CRS84" } },
"features": [
{ "type": "Feature", "properties": { "part": "direct", "crossing_id": "X00680", "area_ac": 9.9 }, "geometry": { "type": "Polygon", "coordinates": [ [ [ -120.001747543500613, 38.846920402339187 ], [ -120.001926708829686, 38.84759166689588 ], [ -120.002060267752398, 38.847703205268637 ], [ -120.002194161294881, 38.848355288530215 ], [ -120.002269505024529, 38.849852707928818 ], [ -120.002173990916859, 38.850480880033771 ], [ -120.002246399222102, 38.850951204850375 ], [ -120.002384501181609, 38.850954752348322 ], [ -120.002401469469916, 38.851099331214549 ], [ -120.00238592528153, 38.852017843520478 ], [ -120.002284782171287, 38.8522314598723 ], [ -120.002365509800427, 38.852503801664284 ], [ -120.001673472656805, 38.852522058716325 ], [ -120.001280987654425, 38.853088545566898 ], [ -120.000945123228902, 38.853404236012537 ], [ -120.000711919401056, 38.853470313952435 ], [ -120.000718728601498, 38.853308328182365 ], [ -120.000493847860511, 38.853176423103733 ], [ -120.000501414105656, 38.852996438941318 ], [ -120.0007720085393, 38.852588982936574 ], [ -120.000890122034164, 38.85251994705569 ], [ -120.001650455171756, 38.852521467317949 ], [ -120.001656177531032, 38.851836935274093 ], [ -120.001543360198596, 38.851779982951179 ], [ -120.001489435197485, 38.851418239952373 ], [ -120.001400392105168, 38.851343880497261 ], [ -120.001440048614285, 38.850948506301833 ], [ -120.001347980726294, 38.850946140577193 ], [ -120.00139141881121, 38.850460774184448 ], [ -120.001514065856611, 38.850283746842052 ], [ -120.001747543500613, 38.846920402339187 ] ] ] } }
]
}
