{
"type": "FeatureCollection",
"name": "X00623",
"crs": { "type": "name", "properties": { "name": "urn:ogc:def:crs:OGC:1.3:CRS84" } },
"features": [
{ "type": "Feature", "properties": { "part": "direct", "crossing_id": "X00623", "area_ac": 1.2 }, "geometry": { "type": "MultiPolygon", "coordinates": [ [ [ [ -120.023638150340034, 38.884976034709752 ], [ -120.023660427114351, 38.88499462088307 ], [ -120.023637398692784, 38.884994033407899 ], [ -120.023638150340034, 38.884976034709752 ] ] ], [ [ [ -120.023615873577342, 38.884957448532603 ], [ -120.023638150340034, 38.884976034709752 ], [ -120.023615121924976, 38.884975447230417 ], [ -120.023615873577342, 38.884957448532603 ] ] ], [ [ [ -120.023593596826245, 38.884938862351618 ], [ -120.023615873577342, 38.884957448532603 ], [ -120.023592845168736, 38.884956861049105 ], [ -120.023593596826245, 38.884938862351618 ] ] ], [ [ [ -120.023571320086731, 38.884920276166717 ], [ -120.023593596826245, 38.884938862351618 ], [ -120.023570568424091, 38.884938274863956 ], [ -120.023571320086731, 38.884920276166717 ] ] ], [ [ [ -120.02354904335877, 38.884901689978022 ], [ -120.023571320086731, 38.884920276166717 ], [ -120.023548291691029, 38.884919688674913 ], [ -120.02354904335877, 38.884901689978022 ] ] ], [ [ [ -120.023526766642433, 38.884883103785434 ], [ -120.02354904335877, 38.884901689978022 ], [ -120.023526014969562, 38.88490110248204 ], [ -120.023526766642433, 38.884883103785434 ] ] ], [ [ [ -120.023504489937679, 38.884864517589008 ], [ -120.023526766642433, 38.884883103785434 ], [ -120.023503738259691, 38.884882516285295 ], [ -120.023504489937679, 38.884864517589008 ] ] ], [ [ [ -120.023482213244534, 38.88484593138876 ], [ -120.023504489937679, 38.884864517589008 ], [ -120.023481461561417, 38.884863930084727 ], [ -120.023482213244534, 38.88484593138876 ] ] ], [ [ [ -120.022933095390698, 38.883642741254995 ], [ -120.023216672923752, 38.884028352255569 ], [ -120.02316733373371, 38.884657718946897 ], [ -120.023394609992963, 38.884735589159455 ], [ -120.023482213244534, 38.88484593138876 ], [ -120.022915526084134, 38.884615258072898 ], [ -120.022536827866773, 38.884299290374422 ], [ -120.022627716897631, 38.883779091565749 ], [ -120.022933095390698, 38.883642741254995 ] ] ] ] } }
]
}
