{
"type": "FeatureCollection",
"name": "X00641",
"crs": { "type": "name", "properties": { "name": "urn:ogc:def:crs:OGC:1.3:CRS84" } },
"features": [
{ "type": "Feature", "properties": { "part": "direct", "crossing_id": "X00641", "area_ac": 4.2, "n_upstream": null }, "geometry": { "type": "Polygon", "coordinates": [ [ [ -119.9769987740045, 38.901902683567627 ], [ -119.97616500563565, 38.901989179719287 ], [ -119.975726723118427, 38.902536365442877 ], [ -119.975767439837654, 38.90266354471003 ], [ -119.975927907504612, 38.902685722461861 ], [ -119.976059993201034, 38.902833287919485 ], [ -119.976040889545715, 38.903283234342524 ], [ -119.976122324933328, 38.903537592697241 ], [ -119.976047875590055, 38.903661786408534 ], [ -119.976112391040999, 38.903771564827778 ], [ -119.975786865429185, 38.903835196524433 ], [ -119.975667112369564, 38.903940197780784 ], [ -119.975321609540757, 38.903931239570525 ], [ -119.975247158376888, 38.904055432691045 ], [ -119.97513275501359, 38.9040344484741 ], [ -119.975152322719921, 38.901944906984824 ], [ -119.975569971463514, 38.901883665447954 ], [ -119.9769987740045, 38.901902683567627 ] ] ] } },
{ "type": "Feature", "properties": { "part": "upstream", "crossing_id": "X00641", "area_ac": 19.0, "n_upstream": 5.0 }, "geometry": { "type": "MultiPolygon", "coordinates": [ [ [ [ -119.97711640270434, 38.899131009813338 ], [ -119.977481096463052, 38.899230548016192 ], [ -119.977453482287501, 38.899337938603786 ], [ -119.977703017045783, 38.899434492263374 ], [ -119.977719176512451, 38.899597070042788 ], [ -119.977877347336232, 38.899673238560162 ], [ -119.977916539470002, 38.899836413013645 ], [ -119.97820832361154, 38.900024148543565 ], [ -119.978158441320474, 38.900112944783615 ], [ -119.978249043677479, 38.90015132711045 ], [ -119.978240645004149, 38.900349304033377 ], [ -119.978143934054515, 38.900454904891689 ], [ -119.978253751690218, 38.900583873378828 ], [ -119.978174728122653, 38.900816056173234 ], [ -119.977915260959563, 38.900953475958097 ], [ -119.977909915616138, 38.901079461217449 ], [ -119.977626650599447, 38.901234281481585 ], [ -119.977528410030686, 38.901375877505949 ], [ -119.977645986526198, 38.901865401081821 ], [ -119.977437162937051, 38.90189602579801 ], [ -119.977315888054818, 38.902037024769356 ], [ -119.9769987740045, 38.901902683567627 ], [ -119.974577265635475, 38.901911976331874 ], [ -119.974581852544517, 38.901803989314963 ], [ -119.974446713739283, 38.901728413696212 ], [ -119.974785990191691, 38.901340824255705 ], [ -119.974791341105387, 38.9012148393657 ], [ -119.974981717067934, 38.901075635003323 ], [ -119.975106816282391, 38.900844649320128 ], [ -119.975918958518577, 38.900181034459308 ], [ -119.975982597031674, 38.89976827771568 ], [ -119.976195998882773, 38.899629668153509 ], [ -119.976180606921872, 38.899449092431894 ], [ -119.976399355098394, 38.899184497325976 ], [ -119.976175911138185, 38.899016546512378 ], [ -119.976270330873007, 38.898964940922902 ], [ -119.976313338863562, 38.899038126403745 ], [ -119.976587430692277, 38.899099283588271 ], [ -119.977005825474535, 38.89902003828368 ], [ -119.97711640270434, 38.899131009813338 ] ], [ [ -119.975199049704528, 38.901387570985918 ], [ -119.97518529191251, 38.901711532237371 ], [ -119.975222846706714, 38.901370170374946 ], [ -119.975199049704528, 38.901387570985918 ] ] ], [ [ [ -119.975102537235799, 38.902574234261017 ], [ -119.975130156496718, 38.902466844473224 ], [ -119.975148603384525, 38.902575428799679 ], [ -119.975144883618469, 38.903205950553051 ], [ -119.97516791689749, 38.903206547824382 ], [ -119.975164961295249, 38.90381907168527 ], [ -119.975090509994658, 38.903943264701567 ], [ -119.974777979203552, 38.903700930310833 ], [ -119.974611295819813, 38.903282201222517 ], [ -119.974461531059603, 38.903008052000537 ], [ -119.974301827846816, 38.902967874392168 ], [ -119.974401606173487, 38.902790285803661 ], [ -119.974325529659879, 38.902409941688092 ], [ -119.974595711585465, 38.902020560715378 ], [ -119.974603357380047, 38.902025359266183 ], [ -119.974574972171709, 38.901965969839452 ], [ -119.974577265635475, 38.901911976331874 ], [ -119.975222949986289, 38.901910703039093 ], [ -119.975152322719921, 38.901944906984824 ], [ -119.975102537235799, 38.902574234261017 ] ] ] ] } }
]
}
