{
"type": "FeatureCollection",
"name": "X00693",
"crs": { "type": "name", "properties": { "name": "urn:ogc:def:crs:OGC:1.3:CRS84" } },
"features": [
{ "type": "Feature", "properties": { "part": "direct", "crossing_id": "X00693", "area_ac": 0.0 }, "geometry": { "type": "MultiPolygon", "coordinates": [ [ [ [ -120.035508244615656, 38.853981069465121 ], [ -120.035530515461986, 38.85399965319781 ], [ -120.035507496790515, 38.853999068452943 ], [ -120.035508244615656, 38.853981069465121 ] ] ], [ [ [ -120.035485973780908, 38.85396248572863 ], [ -120.035508244615656, 38.853981069465121 ], [ -120.035485225950652, 38.853980484716104 ], [ -120.035485973780908, 38.85396248572863 ] ] ], [ [ [ -120.035418413500466, 38.853924733482593 ], [ -120.035487469439445, 38.853926487753462 ], [ -120.035485973780908, 38.85396248572863 ], [ -120.035418413500466, 38.853924733482593 ] ] ] ] } }
]
}
