{
"type": "FeatureCollection",
"name": "X00691",
"crs": { "type": "name", "properties": { "name": "urn:ogc:def:crs:OGC:1.3:CRS84" } },
"features": [
{ "type": "Feature", "properties": { "part": "direct", "crossing_id": "X00691", "area_ac": 2.4, "n_upstream": null }, "geometry": { "type": "MultiPolygon", "coordinates": [ [ [ [ -119.961718900953628, 38.904424561539052 ], [ -119.961761896560418, 38.904497751863168 ], [ -119.961738863150302, 38.904497151930585 ], [ -119.961718900953628, 38.904424561539052 ] ] ], [ [ [ -119.962769219637323, 38.904127596781478 ], [ -119.962760009245883, 38.904343568362975 ], [ -119.96257420704444, 38.90437476562284 ], [ -119.962592634948294, 38.904483351159193 ], [ -119.963077113942092, 38.905018476350996 ], [ -119.962240998154996, 38.905699392032226 ], [ -119.962113543601731, 38.905443826209066 ], [ -119.962168823622662, 38.905229054525961 ], [ -119.96192159562446, 38.905078474878856 ], [ -119.96173809464895, 38.905055677871289 ], [ -119.961761896560418, 38.904497751863168 ], [ -119.961873992559887, 38.904572741922081 ], [ -119.961924665953717, 38.904465956030343 ], [ -119.962433703867362, 38.904425159807559 ], [ -119.962769219637323, 38.904127596781478 ] ] ] ] } },
{ "type": "Feature", "properties": { "part": "upstream", "crossing_id": "X00691", "area_ac": 5.7, "n_upstream": 4.0 }, "geometry": { "type": "MultiPolygon", "coordinates": [ [ [ [ -119.962564203592066, 38.902446620069718 ], [ -119.962687817579933, 38.90279217353865 ], [ -119.962802981984382, 38.902795172110523 ], [ -119.962981105548138, 38.902943950707012 ], [ -119.962996464080462, 38.903124526768934 ], [ -119.963183030236394, 38.903075331049841 ], [ -119.963269790545766, 38.903203713045819 ], [ -119.963432556405778, 38.903171914955784 ], [ -119.963566918015815, 38.903265500618076 ], [ -119.963335820179324, 38.903277502451736 ], [ -119.962981115069624, 38.903484479537177 ], [ -119.962452888921518, 38.903434690513819 ], [ -119.962934281383383, 38.903501277811486 ], [ -119.962836776467711, 38.903624862476178 ], [ -119.962844459644415, 38.903985414872594 ], [ -119.962743883719284, 38.904180989947513 ], [ -119.962433703867362, 38.904425159807559 ], [ -119.961897931160422, 38.904463377290782 ], [ -119.961922362697663, 38.904519948881166 ], [ -119.961804892251763, 38.904570942174153 ], [ -119.961764967726737, 38.904425761405712 ], [ -119.961859404579172, 38.904374168236195 ], [ -119.96186681140415, 38.904391318901695 ], [ -119.961997604827133, 38.904377767611528 ], [ -119.962001443469362, 38.904287779518 ], [ -119.961870920976224, 38.904104203984943 ], [ -119.961950769090535, 38.903854037011328 ], [ -119.961805659643531, 38.903471887741198 ], [ -119.961944538689977, 38.902858901981858 ], [ -119.96192389441326, 38.902862368230977 ], [ -119.961930036049594, 38.902718387252953 ], [ -119.961840975593049, 38.90264399723511 ], [ -119.961956907360459, 38.902628999009501 ], [ -119.96187322095453, 38.902428625658949 ], [ -119.962081283336616, 38.902416026784856 ], [ -119.962133489955249, 38.902273245440568 ], [ -119.962289345669234, 38.902403427536406 ], [ -119.962564203592066, 38.902446620069718 ] ] ], [ [ [ -119.960657052839466, 38.904991480389157 ], [ -119.960498890530459, 38.904915288828761 ], [ -119.960782973302415, 38.904742514752911 ], [ -119.960968009073156, 38.904729318020273 ], [ -119.961532330340873, 38.904473754722673 ], [ -119.961695867568096, 38.904423961598923 ], [ -119.96173809464895, 38.905055677871289 ], [ -119.960657052839466, 38.904991480389157 ] ] ] ] } }
]
}
