{
"type": "FeatureCollection",
"name": "X00610",
"crs": { "type": "name", "properties": { "name": "urn:ogc:def:crs:OGC:1.3:CRS84" } },
"features": [
{ "type": "Feature", "properties": { "part": "direct", "crossing_id": "X00610", "area_ac": 0.1 }, "geometry": { "type": "Polygon", "coordinates": [ [ [ -119.96488962423409, 38.899822521054382 ], [ -119.965162173847617, 38.899919700192662 ], [ -119.965063144316787, 38.900079282503604 ], [ -119.964862757852913, 38.899911910200728 ], [ -119.964657003796759, 38.899870521326768 ], [ -119.96488962423409, 38.899822521054382 ] ] ] } }
]
}
