{
"type": "FeatureCollection",
"name": "X00631",
"crs": { "type": "name", "properties": { "name": "urn:ogc:def:crs:OGC:1.3:CRS84" } },
"features": [
{ "type": "Feature", "properties": { "part": "direct", "crossing_id": "X00631", "area_ac": 0.5 }, "geometry": { "type": "Polygon", "coordinates": [ [ [ -119.962237162075937, 38.906329908500965 ], [ -119.962385349479305, 38.906640066927231 ], [ -119.962564248878252, 38.906770848807263 ], [ -119.962705524329053, 38.906702457041114 ], [ -119.963047966434246, 38.906783443633998 ], [ -119.962801505187088, 38.907155396453255 ], [ -119.962224878418297, 38.906617870356378 ], [ -119.962095119214325, 38.906416297328661 ], [ -119.962237162075937, 38.906329908500965 ] ] ] } }
]
}
