{
"type": "FeatureCollection",
"name": "X00759",
"crs": { "type": "name", "properties": { "name": "urn:ogc:def:crs:OGC:1.3:CRS84" } },
"features": [
{ "type": "Feature", "properties": { "part": "direct", "crossing_id": "X00759", "area_ac": 0.5, "n_upstream": null }, "geometry": { "type": "Polygon", "coordinates": [ [ [ -119.981196579958791, 38.887182823339209 ], [ -119.981215033722293, 38.887291407161648 ], [ -119.981484511861197, 38.887460539267408 ], [ -119.981457671744977, 38.887549933417795 ], [ -119.981793187568613, 38.887792844327379 ], [ -119.981668897594488, 38.888005841412109 ], [ -119.98153301361468, 38.887948272593476 ], [ -119.981537587709653, 38.887840284624069 ], [ -119.980983226133702, 38.887321444184408 ], [ -119.981010829196961, 38.887214052172297 ], [ -119.98110141727544, 38.887252431762938 ], [ -119.981196579958791, 38.887182823339209 ] ] ] } },
{ "type": "Feature", "properties": { "part": "upstream", "crossing_id": "X00759", "area_ac": 2.3, "n_upstream": 1.0 }, "geometry": { "type": "Polygon", "coordinates": [ [ [ -119.981005491939214, 38.887340038088631 ], [ -119.981645106762087, 38.888023243613993 ], [ -119.981270551274349, 38.888157694199506 ], [ -119.980867628143969, 38.888417533449093 ], [ -119.980406293151873, 38.888423611407113 ], [ -119.980275748265072, 38.88824005532048 ], [ -119.980116073835319, 38.888199886779191 ], [ -119.98017357139544, 38.887931109397051 ], [ -119.980242656755166, 38.887932897635068 ], [ -119.9804406116411, 38.887613702484764 ], [ -119.980650154561204, 38.887565072622543 ], [ -119.980867322277035, 38.887336462519947 ], [ -119.981005491939214, 38.887340038088631 ] ] ] } }
]
}
