{
"type": "FeatureCollection",
"name": "X00722",
"crs": { "type": "name", "properties": { "name": "urn:ogc:def:crs:OGC:1.3:CRS84" } },
"features": [
{ "type": "Feature", "properties": { "part": "direct", "crossing_id": "X00722", "area_ac": 2.4 }, "geometry": { "type": "Polygon", "coordinates": [ [ [ -120.038916026172075, 38.876247710905695 ], [ -120.039586624344437, 38.876751212097986 ], [ -120.039262618010241, 38.877337583016072 ], [ -120.039023384523972, 38.877547727462712 ], [ -120.038232418318486, 38.877167293243971 ], [ -120.038752601962969, 38.876297617227799 ], [ -120.038916026172075, 38.876247710905695 ] ] ] } }
]
}
