{
"type": "FeatureCollection",
"name": "X00777",
"crs": { "type": "name", "properties": { "name": "urn:ogc:def:crs:OGC:1.3:CRS84" } },
"features": [
{ "type": "Feature", "properties": { "part": "direct", "crossing_id": "X00777", "area_ac": 1.1 }, "geometry": { "type": "MultiPolygon", "coordinates": [ [ [ [ -120.035334425866893, 38.88532788470107 ], [ -120.035381232108605, 38.885311056152823 ], [ -120.035402763502461, 38.885347639094718 ], [ -120.035334425866893, 38.88532788470107 ] ] ], [ [ [ -120.03529136318285, 38.885254718791749 ], [ -120.035313643223603, 38.885273302860043 ], [ -120.035290614468423, 38.885272717679435 ], [ -120.03529136318285, 38.885254718791749 ] ] ], [ [ [ -120.034298509569709, 38.8841844463618 ], [ -120.034825916140107, 38.884251905204017 ], [ -120.035018196721666, 38.884617150094009 ], [ -120.035286303518532, 38.88482216029081 ], [ -120.03529136318285, 38.885254718791749 ], [ -120.034417957138061, 38.884637930375234 ], [ -120.034298509569709, 38.8841844463618 ] ] ] ] } }
]
}
