{
"type": "FeatureCollection",
"name": "X00723",
"crs": { "type": "name", "properties": { "name": "urn:ogc:def:crs:OGC:1.3:CRS84" } },
"features": [
{ "type": "Feature", "properties": { "part": "direct", "crossing_id": "X00723", "area_ac": 5.4, "n_upstream": null }, "geometry": { "type": "Polygon", "coordinates": [ [ [ -120.038254696767993, 38.877185876703642 ], [ -120.038977331846723, 38.877546558754062 ], [ -120.039116984972651, 38.877514066877815 ], [ -120.03926560800889, 38.877265587107878 ], [ -120.039353975643294, 38.877357919158108 ], [ -120.039698622600369, 38.877384681865557 ], [ -120.040127902290365, 38.877593770021328 ], [ -120.040029818263903, 38.877735425362246 ], [ -120.040096655624311, 38.87779117477055 ], [ -120.03993248118087, 38.877859081616265 ], [ -120.039436820698697, 38.878693349146623 ], [ -120.038982267331207, 38.878537670840053 ], [ -120.038827809513506, 38.878371589439773 ], [ -120.038789980420361, 38.878172432004469 ], [ -120.03865256889317, 38.878150926536506 ], [ -120.038299693407112, 38.878322149154464 ], [ -120.03797732143498, 38.878313965679247 ], [ -120.037319275531857, 38.878063025115217 ], [ -120.037606812260933, 38.877800056876275 ], [ -120.037587525545661, 38.87770947750024 ], [ -120.037823772177433, 38.877571332003278 ], [ -120.037805233099633, 38.877462753698964 ], [ -120.038014713161431, 38.877414017946933 ], [ -120.038254696767993, 38.877185876703642 ] ] ] } },
{ "type": "Feature", "properties": { "part": "upstream", "crossing_id": "X00723", "area_ac": 2.4, "n_upstream": 1.0 }, "geometry": { "type": "Polygon", "coordinates": [ [ [ -120.038916026172075, 38.876247710905695 ], [ -120.039586624344437, 38.876751212097986 ], [ -120.039262618010241, 38.877337583016072 ], [ -120.039023384523972, 38.877547727462712 ], [ -120.038232418318486, 38.877167293243971 ], [ -120.038752601962969, 38.876297617227799 ], [ -120.038916026172075, 38.876247710905695 ] ] ] } }
]
}
