{
"type": "FeatureCollection",
"name": "X00712",
"crs": { "type": "name", "properties": { "name": "urn:ogc:def:crs:OGC:1.3:CRS84" } },
"features": [
{ "type": "Feature", "properties": { "part": "direct", "crossing_id": "X00712", "area_ac": 1.6 }, "geometry": { "type": "Polygon", "coordinates": [ [ [ -119.963497818866202, 38.903263701922512 ], [ -119.963606845761632, 38.903410680915194 ], [ -119.964137374375824, 38.903406471762821 ], [ -119.964361568631588, 38.90355644729933 ], [ -119.964637966623556, 38.903563639837095 ], [ -119.964480590499292, 38.904009985200005 ], [ -119.964119747170869, 38.904360946968389 ], [ -119.963940850524907, 38.904230167557394 ], [ -119.963642937186762, 38.903645849444366 ], [ -119.963239851050005, 38.903365092211885 ], [ -119.963497818866202, 38.903263701922512 ] ] ] } }
]
}
