{
"type": "FeatureCollection",
"name": "X00783",
"crs": { "type": "name", "properties": { "name": "urn:ogc:def:crs:OGC:1.3:CRS84" } },
"features": [
{ "type": "Feature", "properties": { "part": "direct", "crossing_id": "X00783", "area_ac": 0.6 }, "geometry": { "type": "Polygon", "coordinates": [ [ [ -120.041175863781987, 38.881223939354022 ], [ -120.041780428048241, 38.881653682054555 ], [ -120.041765488297784, 38.882013662132451 ], [ -120.041682341112548, 38.881795338610154 ], [ -120.041481814776176, 38.881628092522256 ], [ -120.041091091000638, 38.881600166297972 ], [ -120.040779164619494, 38.881340004110157 ], [ -120.040968615673862, 38.881218683427107 ], [ -120.041175863781987, 38.881223939354022 ] ] ] } }
]
}
