{
"type": "FeatureCollection",
"name": "X00760",
"crs": { "type": "name", "properties": { "name": "urn:ogc:def:crs:OGC:1.3:CRS84" } },
"features": [
{ "type": "Feature", "properties": { "part": "direct", "crossing_id": "X00760", "area_ac": 3.4, "n_upstream": null }, "geometry": { "type": "MultiPolygon", "coordinates": [ [ [ [ -119.983453350004268, 38.887241197300661 ], [ -119.983427274287095, 38.887312593980873 ], [ -119.98343032170547, 38.88724060186788 ], [ -119.983453350004268, 38.887241197300661 ] ] ], [ [ [ -119.982151245213913, 38.8864147423444 ], [ -119.98237466640704, 38.886582681003759 ], [ -119.982388549270894, 38.886799252790645 ], [ -119.982651170193733, 38.88713036437764 ], [ -119.982646597900484, 38.887238352471108 ], [ -119.98336123681311, 38.887238815542347 ], [ -119.983358189325202, 38.887310807650763 ], [ -119.983449540758585, 38.887331187443607 ], [ -119.983391294217611, 38.887617965003464 ], [ -119.982464226110125, 38.88827866349682 ], [ -119.981982750754554, 38.887671624282547 ], [ -119.982243684902073, 38.887498196919154 ], [ -119.982318867090783, 38.887355999841425 ], [ -119.981578753459999, 38.88686839278882 ], [ -119.981798202781761, 38.886585786719891 ], [ -119.982151245213913, 38.8864147423444 ] ] ] ] } },
{ "type": "Feature", "properties": { "part": "upstream", "crossing_id": "X00760", "area_ac": 2.5, "n_upstream": 1.0 }, "geometry": { "type": "Polygon", "coordinates": [ [ [ -119.983756937576715, 38.886059876439369 ], [ -119.983384092624945, 38.886698874694524 ], [ -119.983427274287095, 38.887312593980873 ], [ -119.98336123681311, 38.887238815542347 ], [ -119.982646597900484, 38.887238352471108 ], [ -119.982651170193733, 38.88713036437764 ], [ -119.982388549270894, 38.886799252790645 ], [ -119.98237466640704, 38.886582681003759 ], [ -119.982152007367105, 38.886396744334668 ], [ -119.982941055348391, 38.886273010526381 ], [ -119.983015472792971, 38.886148810891136 ], [ -119.983152878534582, 38.886170381854029 ], [ -119.983410756963906, 38.886068943627869 ], [ -119.983615722944108, 38.886128296364603 ], [ -119.983756937576715, 38.886059876439369 ] ] ] } }
]
}
