{
"type": "FeatureCollection",
"name": "X00789",
"crs": { "type": "name", "properties": { "name": "urn:ogc:def:crs:OGC:1.3:CRS84" } },
"features": [
{ "type": "Feature", "properties": { "part": "direct", "crossing_id": "X00789", "area_ac": 3.3, "n_upstream": null }, "geometry": { "type": "Polygon", "coordinates": [ [ [ -119.983762491380162, 38.891375248967698 ], [ -119.983691878662057, 38.89140945871992 ], [ -119.983779599105276, 38.892060364585724 ], [ -119.983678508557546, 38.892814494984243 ], [ -119.983515773883099, 38.89284632269684 ], [ -119.983366162875612, 38.893112719821509 ], [ -119.982901748415244, 38.893190798466335 ], [ -119.982898201521195, 38.891641183339615 ], [ -119.9828076069536, 38.891602804909333 ], [ -119.982814466086069, 38.891440822865363 ], [ -119.983163720956838, 38.891359766452979 ], [ -119.983762491380162, 38.891375248967698 ] ] ] } },
{ "type": "Feature", "properties": { "part": "upstream", "crossing_id": "X00789", "area_ac": 0.9, "n_upstream": 3.0 }, "geometry": { "type": "MultiPolygon", "coordinates": [ [ [ [ -119.983030877685906, 38.891230207065291 ], [ -119.98330647067958, 38.891255351530681 ], [ -119.983394779193134, 38.891347723613983 ], [ -119.983716432100493, 38.891374058113854 ], [ -119.982931138488638, 38.891407804845407 ], [ -119.98289498651782, 38.891172639572986 ], [ -119.982987866821603, 38.891157023891338 ], [ -119.983030877685906, 38.891230207065291 ] ] ], [ [ [ -119.982814466086069, 38.891440822865363 ], [ -119.982778314493331, 38.891205657572584 ], [ -119.982871194860195, 38.891190041986754 ], [ -119.982930376395842, 38.891425802852574 ], [ -119.982814466086069, 38.891440822865363 ] ] ], [ [ [ -119.984655316271969, 38.89152445324239 ], [ -119.984517138038271, 38.891520881671518 ], [ -119.984490299821303, 38.89161027655706 ], [ -119.984230878644595, 38.891747712406527 ], [ -119.983746491713518, 38.891753207396242 ], [ -119.983691878662057, 38.89140945871992 ], [ -119.98463837987299, 38.891379873708971 ], [ -119.984655316271969, 38.89152445324239 ] ] ] ] } }
]
}
