{
"type": "FeatureCollection",
"name": "X00744",
"crs": { "type": "name", "properties": { "name": "urn:ogc:def:crs:OGC:1.3:CRS84" } },
"features": [
{ "type": "Feature", "properties": { "part": "direct", "crossing_id": "X00744", "area_ac": 0.1 }, "geometry": { "type": "Polygon", "coordinates": [ [ [ -119.979818661780186, 38.889777746338083 ], [ -119.980339177449082, 38.89000743290044 ], [ -119.980288542865708, 38.89011422853654 ], [ -119.97974652325135, 38.889847949615579 ], [ -119.979818661780186, 38.889777746338083 ] ] ] } }
]
}
