{
"type": "FeatureCollection",
"name": "X00769",
"crs": { "type": "name", "properties": { "name": "urn:ogc:def:crs:OGC:1.3:CRS84" } },
"features": [
{ "type": "Feature", "properties": { "part": "direct", "crossing_id": "X00769", "area_ac": 2.5, "n_upstream": null }, "geometry": { "type": "Polygon", "coordinates": [ [ [ -119.964684032965167, 38.903564838529888 ], [ -119.964770029582795, 38.903711217198477 ], [ -119.965490989488032, 38.904108344579917 ], [ -119.965732088017262, 38.904402898293732 ], [ -119.965913288784662, 38.904479682050635 ], [ -119.9659086883063, 38.904587668151109 ], [ -119.965977788893809, 38.904589465470949 ], [ -119.966009256360636, 38.904392090032225 ], [ -119.965979353848482, 38.90509399971436 ], [ -119.96625115815543, 38.905209174782811 ], [ -119.966248091434039, 38.905281165530262 ], [ -119.966061521192785, 38.905330365992832 ], [ -119.966063821380175, 38.905276372942126 ], [ -119.965857284401963, 38.905252983253199 ], [ -119.965838851360445, 38.90514439803809 ], [ -119.96570294957877, 38.905086810115954 ], [ -119.965573949617593, 38.904867242955653 ], [ -119.965676819444923, 38.904617672148774 ], [ -119.96500424541145, 38.904708280622174 ], [ -119.964452187478798, 38.904135369433682 ], [ -119.964684032965167, 38.903564838529888 ] ] ] } },
{ "type": "Feature", "properties": { "part": "upstream", "crossing_id": "X00769", "area_ac": 3.9, "n_upstream": 2.0 }, "geometry": { "type": "Polygon", "coordinates": [ [ [ -119.964361568631588, 38.90355644729933 ], [ -119.964137374375824, 38.903406471762821 ], [ -119.963766542954019, 38.903450872972748 ], [ -119.963518549966949, 38.903318294434179 ], [ -119.963604814008747, 38.90323956184816 ], [ -119.963432556405778, 38.903171914955784 ], [ -119.963269790545766, 38.903203713045819 ], [ -119.963422568080688, 38.902865355380477 ], [ -119.963538499981553, 38.902850355583389 ], [ -119.963920836334765, 38.902535990137906 ], [ -119.964222564442011, 38.902489789999692 ], [ -119.964548113726821, 38.902966720101503 ], [ -119.964691703227601, 38.903384861867259 ], [ -119.965356596383344, 38.90347423147297 ], [ -119.965900191670642, 38.903704583393413 ], [ -119.965919391301767, 38.903795170924909 ], [ -119.966077557485235, 38.903871355275108 ], [ -119.965977788893809, 38.904589465470949 ], [ -119.965446456464178, 38.904071150837495 ], [ -119.96468096484098, 38.903636829193026 ], [ -119.964662354686425, 38.903564274441422 ], [ -119.964361568631588, 38.90355644729933 ] ], [ [ -119.963796481313153, 38.903289493627085 ], [ -119.963960781591851, 38.903221699490729 ], [ -119.963761262718478, 38.903278115093634 ], [ -119.963796481313153, 38.903289493627085 ] ] ] } }
]
}
