{
"type": "FeatureCollection",
"name": "X00734",
"crs": { "type": "name", "properties": { "name": "urn:ogc:def:crs:OGC:1.3:CRS84" } },
"features": [
{ "type": "Feature", "properties": { "part": "direct", "crossing_id": "X00734", "area_ac": 0.3, "n_upstream": null }, "geometry": { "type": "Polygon", "coordinates": [ [ [ -120.040749404315463, 38.875393326508707 ], [ -120.040787985017801, 38.875574484539804 ], [ -120.041053088866235, 38.875851477106153 ], [ -120.041047112766805, 38.875995469189171 ], [ -120.040955009249998, 38.875993133427706 ], [ -120.040825818823038, 38.875773641568124 ], [ -120.040377257677861, 38.875473977214284 ], [ -120.040582994752313, 38.87551523155043 ], [ -120.040749404315463, 38.875393326508707 ] ] ] } },
{ "type": "Feature", "properties": { "part": "upstream", "crossing_id": "X00734", "area_ac": 4.5, "n_upstream": 1.0 }, "geometry": { "type": "MultiPolygon", "coordinates": [ [ [ [ -120.041481760839886, 38.872186683424985 ], [ -120.041485494851671, 38.872096688279441 ], [ -120.041508519483727, 38.872097272073148 ], [ -120.041481760839886, 38.872186683424985 ] ] ], [ [ [ -120.041541126542114, 38.872422422183149 ], [ -120.041298182594232, 38.872722567488488 ], [ -120.041266942150202, 38.872919972904533 ], [ -120.041152564600992, 38.872899054579612 ], [ -120.041114601347871, 38.873258451112285 ], [ -120.040997235496761, 38.873309528690385 ], [ -120.041031334325552, 38.873598680780866 ], [ -120.040957777160344, 38.873704923142967 ], [ -120.041072155918712, 38.873725841704832 ], [ -120.041022370814673, 38.873814668983002 ], [ -120.041182053218776, 38.873854754271683 ], [ -120.041086964659527, 38.873924414793187 ], [ -120.041066665992531, 38.874968941590787 ], [ -120.040964852664715, 38.875200593047822 ], [ -120.040629793292908, 38.875498400570109 ], [ -120.040513917607583, 38.875513479479665 ], [ -120.039884891010402, 38.875119145995392 ], [ -120.039687376200334, 38.874879901584009 ], [ -120.039998663619329, 38.874599511662367 ], [ -120.040127240401929, 38.874278450211477 ], [ -120.040495645405045, 38.874287795089437 ], [ -120.040522406229641, 38.87419838407105 ], [ -120.040777925561827, 38.874150810897284 ], [ -120.040883472770233, 38.873829164462599 ], [ -120.040712718068292, 38.873500510614782 ], [ -120.04042534588045, 38.873204934545655 ], [ -120.040588014779956, 38.873173024544293 ], [ -120.040998859864018, 38.872714977175711 ], [ -120.041233589387801, 38.872612821805511 ], [ -120.041458736179592, 38.872186099624876 ], [ -120.041541126542114, 38.872422422183149 ] ] ] ] } }
]
}
