{
"type": "FeatureCollection",
"name": "X00747",
"crs": { "type": "name", "properties": { "name": "urn:ogc:def:crs:OGC:1.3:CRS84" } },
"features": [
{ "type": "Feature", "properties": { "part": "direct", "crossing_id": "X00747", "area_ac": 0.5, "n_upstream": null }, "geometry": { "type": "Polygon", "coordinates": [ [ [ -119.978576889604085, 38.890790619310174 ], [ -119.978874744902228, 38.890834368499625 ], [ -119.979085061375841, 38.890767743950221 ], [ -119.979151097295471, 38.890841524726511 ], [ -119.979676958493641, 38.890945228776893 ], [ -119.979673906883917, 38.891017220594826 ], [ -119.979372235306471, 38.891063463145265 ], [ -119.979215607315481, 38.890951301364005 ], [ -119.978963046960629, 38.890926743695978 ], [ -119.978652217482235, 38.891188959651259 ], [ -119.978540122907546, 38.891113985714966 ], [ -119.97859152404925, 38.890989193050508 ], [ -119.978476377027889, 38.890986210807398 ], [ -119.978478666640299, 38.890932217003503 ], [ -119.978576889604085, 38.890790619310174 ] ] ] } },
{ "type": "Feature", "properties": { "part": "upstream", "crossing_id": "X00747", "area_ac": 0.4, "n_upstream": 1.0 }, "geometry": { "type": "Polygon", "coordinates": [ [ [ -119.978800942231388, 38.890400032363402 ], [ -119.979198682074582, 38.890806721473439 ], [ -119.97917412666601, 38.890842121049275 ], [ -119.979085061375841, 38.890767743950221 ], [ -119.978874744902228, 38.890834368499625 ], [ -119.978739621278066, 38.890758798383409 ], [ -119.978504748809598, 38.890860821718995 ], [ -119.978561492031403, 38.890610043502555 ], [ -119.978701957154087, 38.890559628232573 ], [ -119.978683506727037, 38.89045104418372 ], [ -119.978800942231388, 38.890400032363402 ] ] ] } }
]
}
