{
"type": "FeatureCollection",
"name": "X00709",
"crs": { "type": "name", "properties": { "name": "urn:ogc:def:crs:OGC:1.3:CRS84" } },
"features": [
{ "type": "Feature", "properties": { "part": "direct", "crossing_id": "X00709", "area_ac": 3.3, "n_upstream": null }, "geometry": { "type": "Polygon", "coordinates": [ [ [ -119.961916215652508, 38.902501815905744 ], [ -119.961956907360459, 38.902628999009501 ], [ -119.961840975593049, 38.90264399723511 ], [ -119.961930036049594, 38.902718387252953 ], [ -119.961965353999148, 38.902971553711794 ], [ -119.961805659643531, 38.903471887741198 ], [ -119.961804892205208, 38.904030413788313 ], [ -119.961548455044891, 38.904095804887888 ], [ -119.961392597247865, 38.903965621739751 ], [ -119.961114667555037, 38.903453888445384 ], [ -119.960640190005961, 38.903225315321357 ], [ -119.960532705806671, 38.903042338610241 ], [ -119.960118113467843, 38.903031535102102 ], [ -119.960098921426081, 38.902940946908821 ], [ -119.961916215652508, 38.902501815905744 ] ] ] } },
{ "type": "Feature", "properties": { "part": "upstream", "crossing_id": "X00709", "area_ac": 4.7, "n_upstream": 4.0 }, "geometry": { "type": "MultiPolygon", "coordinates": [ [ [ [ -119.961764198239436, 38.901741116670834 ], [ -119.961800283053378, 38.901976285550809 ], [ -119.961933872556173, 38.902087870559406 ], [ -119.96188550419798, 38.902140663690567 ], [ -119.962153452119949, 38.90234583577692 ], [ -119.962081283336616, 38.902416026784856 ], [ -119.961897021401228, 38.902411227915501 ], [ -119.961845581914176, 38.90253601150625 ], [ -119.961221137097155, 38.902650588372524 ], [ -119.961239819060268, 38.902682391373169 ], [ -119.961193753436163, 38.9026811913442 ], [ -119.961214099286693, 38.90265187969063 ], [ -119.9609856902226, 38.902693788596167 ], [ -119.960983386400926, 38.902747781416302 ], [ -119.960098921426081, 38.902940946908821 ], [ -119.960083570279963, 38.902760370756319 ], [ -119.959944605209003, 38.902774766829594 ], [ -119.959768793431195, 38.902571991100118 ], [ -119.959762662002305, 38.902175443880353 ], [ -119.959835600932294, 38.902087256797905 ], [ -119.959773417212347, 38.901923477642079 ], [ -119.960058257358043, 38.901732707255917 ], [ -119.960614109118012, 38.901675121074355 ], [ -119.960732343396486, 38.901606131196509 ], [ -119.960771496619358, 38.901769309837412 ], [ -119.960908155809591, 38.901808905515892 ], [ -119.960881283574537, 38.901898293488017 ], [ -119.961179171066235, 38.901942089247171 ], [ -119.961274372742892, 38.901872498804202 ], [ -119.961312540830164, 38.901904380410357 ], [ -119.961460936569537, 38.90182330574865 ], [ -119.961622164365664, 38.901827505324398 ], [ -119.961764198239436, 38.901741116670834 ] ] ], [ [ [ -119.961170720625134, 38.902680591322913 ], [ -119.961192985549161, 38.902699188954479 ], [ -119.961169952732334, 38.902698588932815 ], [ -119.961170720625134, 38.902680591322913 ] ] ], [ [ [ -119.96114691991626, 38.902697988906603 ], [ -119.961169184838866, 38.90271658654266 ], [ -119.961146152016951, 38.902715986516064 ], [ -119.96114691991626, 38.902697988906603 ] ] ] ] } }
]
}
