{
"type": "FeatureCollection",
"name": "X00752",
"crs": { "type": "name", "properties": { "name": "urn:ogc:def:crs:OGC:1.3:CRS84" } },
"features": [
{ "type": "Feature", "properties": { "part": "direct", "crossing_id": "X00752", "area_ac": 3.1 }, "geometry": { "type": "Polygon", "coordinates": [ [ [ -119.98057173896467, 38.892680073028707 ], [ -119.98133722089409, 38.893114290186972 ], [ -119.981565234981687, 38.893174243127383 ], [ -119.981307481274072, 38.893816211179427 ], [ -119.980318701341247, 38.893754585748653 ], [ -119.979772840044376, 38.893578295743993 ], [ -119.979975391658428, 38.893151114651687 ], [ -119.98057173896467, 38.892680073028707 ] ] ] } }
]
}
