{
"type": "FeatureCollection",
"name": "X00798",
"crs": { "type": "name", "properties": { "name": "urn:ogc:def:crs:OGC:1.3:CRS84" } },
"features": [
{ "type": "Feature", "properties": { "part": "direct", "crossing_id": "X00798", "area_ac": 5.5, "n_upstream": null }, "geometry": { "type": "Polygon", "coordinates": [ [ [ -119.983253465528506, 38.888695464556761 ], [ -119.983701089889777, 38.889013339896074 ], [ -119.98378330181545, 38.889249695847212 ], [ -119.983668157050801, 38.88924671883494 ], [ -119.983665109654481, 38.889318710938944 ], [ -119.983962201050943, 38.889380445046918 ], [ -119.984654594582054, 38.889362307647659 ], [ -119.98463837987299, 38.891379873708971 ], [ -119.983760967615311, 38.891411245009778 ], [ -119.983765779804244, 38.889663650473906 ], [ -119.98333889441318, 38.889400364782091 ], [ -119.982904391828001, 38.8893170577782 ], [ -119.98268172325389, 38.889131121800595 ], [ -119.983253465528506, 38.888695464556761 ] ] ] } },
{ "type": "Feature", "properties": { "part": "upstream", "crossing_id": "X00798", "area_ac": 1.5, "n_upstream": 2.0 }, "geometry": { "type": "Polygon", "coordinates": [ [ [ -119.984638420014875, 38.88919973004608 ], [ -119.984567048287985, 38.889251938483547 ], [ -119.984798099604703, 38.889239892577798 ], [ -119.984897830860291, 38.889062292837352 ], [ -119.984887169339856, 38.889314265490064 ], [ -119.984816559226147, 38.889348476036815 ], [ -119.984927135074429, 38.889459440202522 ], [ -119.984858230254488, 38.889998191194358 ], [ -119.984945016307321, 38.890126558226669 ], [ -119.984985165389418, 38.890812269414702 ], [ -119.984813296568134, 38.891060075645306 ], [ -119.98487019971752, 38.891349829900236 ], [ -119.984659886222545, 38.891416465028335 ], [ -119.984671530800981, 38.889506887204071 ], [ -119.98461910869203, 38.889378971765254 ], [ -119.983665109654481, 38.889318710938944 ], [ -119.983668157050801, 38.88924671883494 ], [ -119.98438205486606, 38.889265174483761 ], [ -119.984638420014875, 38.88919973004608 ] ] ] } }
]
}
