{
"type": "FeatureCollection",
"name": "X00780",
"crs": { "type": "name", "properties": { "name": "urn:ogc:def:crs:OGC:1.3:CRS84" } },
"features": [
{ "type": "Feature", "properties": { "part": "direct", "crossing_id": "X00780", "area_ac": 4.6 }, "geometry": { "type": "Polygon", "coordinates": [ [ [ -120.039342786819802, 38.883177429426247 ], [ -120.039409628451438, 38.883233179361795 ], [ -120.039595349079562, 38.88320185604821 ], [ -120.039683724029871, 38.883294188071503 ], [ -120.038671670876212, 38.884349580681437 ], [ -120.038445872994174, 38.88423574175701 ], [ -120.037871657126587, 38.884185128783798 ], [ -120.03750170563535, 38.884211771494151 ], [ -120.037429627673887, 38.8842820129762 ], [ -120.037388059665133, 38.88417284991958 ], [ -120.03697354779014, 38.884162323587397 ], [ -120.036730711558079, 38.883903905297089 ], [ -120.036735201435221, 38.883795911803638 ], [ -120.036643836541373, 38.883775573335257 ], [ -120.036718159639079, 38.883651335596461 ], [ -120.037181717773194, 38.883591036615158 ], [ -120.037233011528883, 38.883466213710967 ], [ -120.038016719108768, 38.883468094575207 ], [ -120.038946073985343, 38.883293487369485 ], [ -120.039198636463055, 38.883317914861244 ], [ -120.039202374837544, 38.883227920073409 ], [ -120.039342786819802, 38.883177429426247 ] ] ] } }
]
}
