{
"type": "FeatureCollection",
"name": "X00796",
"crs": { "type": "name", "properties": { "name": "urn:ogc:def:crs:OGC:1.3:CRS84" } },
"features": [
{ "type": "Feature", "properties": { "part": "direct", "crossing_id": "X00796", "area_ac": 0.1 }, "geometry": { "type": "Polygon", "coordinates": [ [ [ -119.982562768176805, 38.889218133749885 ], [ -119.982763169780014, 38.889385476347996 ], [ -119.982781626300522, 38.8894940600049 ], [ -119.982645738574945, 38.889436492347137 ], [ -119.982515186064802, 38.889252938492078 ], [ -119.982562768176805, 38.889218133749885 ] ] ] } }
]
}
