{
"type": "FeatureCollection",
"name": "X00703",
"crs": { "type": "name", "properties": { "name": "urn:ogc:def:crs:OGC:1.3:CRS84" } },
"features": [
{ "type": "Feature", "properties": { "part": "direct", "crossing_id": "X00703", "area_ac": 3.9, "n_upstream": null }, "geometry": { "type": "Polygon", "coordinates": [ [ [ -120.035806036713524, 38.87620477957195 ], [ -120.036078605453568, 38.876301793495223 ], [ -120.036032382505127, 38.876859175308695 ], [ -120.03596031105694, 38.876929416193548 ], [ -120.036091732902108, 38.877094916124456 ], [ -120.036731976056402, 38.877219285785557 ], [ -120.036941456002367, 38.87717055196083 ], [ -120.037285352698518, 38.877215320674644 ], [ -120.037488100809497, 38.877328576375334 ], [ -120.037299402958112, 38.877431892701118 ], [ -120.037030404614057, 38.877803438591847 ], [ -120.036775618189921, 38.877833003981706 ], [ -120.036391652117103, 38.877643072496355 ], [ -120.036108772704509, 38.877239492453072 ], [ -120.035807935693583, 38.877267885943766 ], [ -120.035735863593672, 38.87733812666076 ], [ -120.034999774012775, 38.877301405580191 ], [ -120.035095621474056, 38.877213751558166 ], [ -120.035063970500644, 38.87631205068044 ], [ -120.035806036713524, 38.87620477957195 ] ] ] } },
{ "type": "Feature", "properties": { "part": "upstream", "crossing_id": "X00703", "area_ac": 11.2, "n_upstream": 3.0 }, "geometry": { "type": "MultiPolygon", "coordinates": [ [ [ [ -120.037962554146787, 38.875340630413824 ], [ -120.037912763993504, 38.875429456147117 ], [ -120.038117751495506, 38.875488713735464 ], [ -120.038157820956258, 38.875633874446983 ], [ -120.038249176064852, 38.875654211362104 ], [ -120.038651827391533, 38.875394162258047 ], [ -120.038854572829337, 38.875507415495413 ], [ -120.038873113199003, 38.875615993707143 ], [ -120.038797307900026, 38.875776231391235 ], [ -120.0386561628832, 38.875844720963897 ], [ -120.038675450615401, 38.875935300221663 ], [ -120.038463732341896, 38.876038034263239 ], [ -120.038773385102147, 38.876352198529261 ], [ -120.038181879300311, 38.877274117991099 ], [ -120.037920364540355, 38.877465676586908 ], [ -120.037419022102824, 38.877326822405642 ], [ -120.037285352698518, 38.877215320674644 ], [ -120.036250671078335, 38.877153007254044 ], [ -120.036091732902108, 38.877094916124456 ], [ -120.03596031105694, 38.876929416193548 ], [ -120.036032382505127, 38.876859175308695 ], [ -120.036079353729747, 38.876283794566994 ], [ -120.036349847042629, 38.875876252888339 ], [ -120.037721985705588, 38.875028218003649 ], [ -120.037962554146787, 38.875340630413824 ] ], [ [ -120.037462990954339, 38.876823436516474 ], [ -120.037728221350918, 38.87674821803305 ], [ -120.03767396507584, 38.876738703404754 ], [ -120.037462990954339, 38.876823436516474 ] ] ], [ [ [ -120.037823772177433, 38.877571332003278 ], [ -120.037273970614876, 38.878043856779279 ], [ -120.036913776508854, 38.877836512679622 ], [ -120.037101727932196, 38.877751195988438 ], [ -120.037371473679045, 38.877361650962037 ], [ -120.037782954690883, 38.877444170155314 ], [ -120.037823772177433, 38.877571332003278 ] ] ] ] } }
]
}
