{
"type": "FeatureCollection",
"name": "X00729",
"crs": { "type": "name", "properties": { "name": "urn:ogc:def:crs:OGC:1.3:CRS84" } },
"features": [
{ "type": "Feature", "properties": { "part": "direct", "crossing_id": "X00729", "area_ac": 2.6 }, "geometry": { "type": "Polygon", "coordinates": [ [ [ -120.034358600256667, 38.877753576456904 ], [ -120.0346779739628, 38.877833765426111 ], [ -120.035139249470603, 38.877827469815422 ], [ -120.035427364800128, 38.87810505966965 ], [ -120.035812078906574, 38.878276995396725 ], [ -120.035192430352893, 38.87876575346759 ], [ -120.035139639825601, 38.878926573363529 ], [ -120.034910870107666, 38.878884724005587 ], [ -120.034777202046342, 38.878773219464129 ], [ -120.034803223347382, 38.878701809064808 ], [ -120.034555920313636, 38.878551380460706 ], [ -120.034247775511602, 38.878201207665413 ], [ -120.034145373076385, 38.87789229996018 ], [ -120.034030241341043, 38.87788937332374 ], [ -120.034033985510575, 38.877799378873384 ], [ -120.034358600256667, 38.877753576456904 ] ] ] } }
]
}
