{
"type": "FeatureCollection",
"name": "X00873",
"crs": { "type": "name", "properties": { "name": "urn:ogc:def:crs:OGC:1.3:CRS84" } },
"features": [
{ "type": "Feature", "properties": { "part": "direct", "crossing_id": "X00873", "area_ac": 0.3, "n_upstream": null }, "geometry": { "type": "Polygon", "coordinates": [ [ [ -120.103911903424986, 38.998239478869017 ], [ -120.104461834417464, 38.998343228667601 ], [ -120.104454492242525, 38.998523225197864 ], [ -120.104065293202083, 38.998441486121351 ], [ -120.103977431986308, 38.998331196183074 ], [ -120.10383756260039, 38.998363757248399 ], [ -120.103472166475086, 38.998264589656223 ], [ -120.103911903424986, 38.998239478869017 ] ] ] } },
{ "type": "Feature", "properties": { "part": "upstream", "crossing_id": "X00873", "area_ac": 0.2, "n_upstream": 1.0 }, "geometry": { "type": "Polygon", "coordinates": [ [ [ -120.104286845459256, 38.998104649639352 ], [ -120.104539845101826, 38.99812895157168 ], [ -120.104505765386833, 38.998398373475759 ], [ -120.104073370652031, 38.998243490003119 ], [ -120.103911169073839, 38.998257478513885 ], [ -120.104286845459256, 38.998104649639352 ] ] ] } }
]
}
