{
"type": "FeatureCollection",
"name": "X00872",
"crs": { "type": "name", "properties": { "name": "urn:ogc:def:crs:OGC:1.3:CRS84" } },
"features": [
{ "type": "Feature", "properties": { "part": "direct", "crossing_id": "X00872", "area_ac": 0.5, "n_upstream": null }, "geometry": { "type": "Polygon", "coordinates": [ [ [ -120.103333766025358, 38.99826115084025 ], [ -120.10383756260039, 38.998363757248399 ], [ -120.103977431986308, 38.998331196183074 ], [ -120.104065293202083, 38.998441486121351 ], [ -120.10443069116829, 38.998540651916578 ], [ -120.104256740562718, 38.998842635286614 ], [ -120.104096006267469, 38.998820624708856 ], [ -120.103941881294517, 38.998636617118201 ], [ -120.103736482670641, 38.998577460704553 ], [ -120.103583093587005, 38.998375453047764 ], [ -120.103333766025358, 38.99826115084025 ] ] ] } },
{ "type": "Feature", "properties": { "part": "upstream", "crossing_id": "X00872", "area_ac": 0.5, "n_upstream": 2.0 }, "geometry": { "type": "Polygon", "coordinates": [ [ [ -120.104539845101826, 38.99812895157168 ], [ -120.104505765386833, 38.998398373475759 ], [ -120.104460250058963, 38.998382070024704 ], [ -120.104454492242525, 38.998523225197864 ], [ -120.104065293202083, 38.998441486121351 ], [ -120.103977431986308, 38.998331196183074 ], [ -120.10383756260039, 38.998363757248399 ], [ -120.103472166475086, 38.998264589656223 ], [ -120.103911903424986, 38.998239478869017 ], [ -120.103941629379534, 38.998245087031073 ], [ -120.104286845459256, 38.998104649639352 ], [ -120.104539845101826, 38.99812895157168 ] ], [ [ -120.104073370652031, 38.998243490003119 ], [ -120.103977149382828, 38.998251788299775 ], [ -120.10422938914391, 38.998299375969438 ], [ -120.104073370652031, 38.998243490003119 ] ] ] } }
]
}
