{
"type": "FeatureCollection",
"name": "X00846",
"crs": { "type": "name", "properties": { "name": "urn:ogc:def:crs:OGC:1.3:CRS84" } },
"features": [
{ "type": "Feature", "properties": { "part": "direct", "crossing_id": "X00846", "area_ac": 7.4 }, "geometry": { "type": "Polygon", "coordinates": [ [ [ -120.036489090186592, 38.886942796246814 ], [ -120.036625020843189, 38.887000302682722 ], [ -120.036721457464722, 38.887453199960895 ], [ -120.036858886031169, 38.887474708354183 ], [ -120.036848408676207, 38.887726693037706 ], [ -120.03734815849333, 38.888460101196259 ], [ -120.037466882847554, 38.888931581748409 ], [ -120.037665174127042, 38.889152831738997 ], [ -120.038401229141797, 38.889748092078968 ], [ -120.039063717635571, 38.890449588315938 ], [ -120.039224183326311, 38.890471678666721 ], [ -120.039693617133992, 38.890825931501951 ], [ -120.039943963452771, 38.890904355238973 ], [ -120.041266153265596, 38.891820772516525 ], [ -120.04286985638079, 38.893176741202844 ], [ -120.042797026829206, 38.893264984747915 ], [ -120.041041075422285, 38.891688938695161 ], [ -120.040232895540456, 38.891163936528436 ], [ -120.04007242790162, 38.89114184749517 ], [ -120.039601494580765, 38.890823593928786 ], [ -120.039125330286197, 38.890631331146373 ], [ -120.039016908714231, 38.890466418231782 ], [ -120.038834160577565, 38.890425744122318 ], [ -120.038634366241183, 38.890240493735305 ], [ -120.038416030888214, 38.889946664872376 ], [ -120.03807581297518, 38.88981190255295 ], [ -120.037161506413938, 38.889067970223863 ], [ -120.037165248125405, 38.888977975690764 ], [ -120.036698084487853, 38.88856971684401 ], [ -120.03632586428499, 38.888650351587742 ], [ -120.035703489151743, 38.888094002678393 ], [ -120.035427314719243, 38.887528430177397 ], [ -120.035437797020478, 38.887276445809739 ], [ -120.035555938856021, 38.887207376104584 ], [ -120.035658537803528, 38.886957732255858 ], [ -120.036116878411448, 38.887023430666048 ], [ -120.036489090186592, 38.886942796246814 ] ] ] } }
]
}
