{
"type": "FeatureCollection",
"name": "X00805",
"crs": { "type": "name", "properties": { "name": "urn:ogc:def:crs:OGC:1.3:CRS84" } },
"features": [
{ "type": "Feature", "properties": { "part": "direct", "crossing_id": "X00805", "area_ac": 1.3 }, "geometry": { "type": "Polygon", "coordinates": [ [ [ -119.984897830860291, 38.889062292837352 ], [ -119.984887169339856, 38.889314265490064 ], [ -119.984816559226147, 38.889348476036815 ], [ -119.984927135074429, 38.889459440202522 ], [ -119.984858230254488, 38.889998191194358 ], [ -119.984945016307321, 38.890126558226669 ], [ -119.984985165389418, 38.890812269414702 ], [ -119.984813296568134, 38.891060075645306 ], [ -119.98487019971752, 38.891349829900236 ], [ -119.984659886222545, 38.891416465028335 ], [ -119.984671530800981, 38.889506887204071 ], [ -119.984567048287985, 38.889251938483547 ], [ -119.984798099604703, 38.889239892577798 ], [ -119.984897830860291, 38.889062292837352 ] ] ] } }
]
}
