{
"type": "FeatureCollection",
"name": "X00848",
"crs": { "type": "name", "properties": { "name": "urn:ogc:def:crs:OGC:1.3:CRS84" } },
"features": [
{ "type": "Feature", "properties": { "part": "direct", "crossing_id": "X00848", "area_ac": 4.6, "n_upstream": null }, "geometry": { "type": "Polygon", "coordinates": [ [ [ -120.03218766826437, 38.881175834206431 ], [ -120.032639973713984, 38.881385535589779 ], [ -120.03241773996794, 38.881740241543227 ], [ -120.032449557618165, 38.882083391128361 ], [ -120.032337213737364, 38.882567017196003 ], [ -120.032400645500843, 38.8838118662635 ], [ -120.032613692606006, 38.884231696884598 ], [ -120.032609945785751, 38.884321691119766 ], [ -120.032426468084111, 38.884299006534313 ], [ -120.03214488118094, 38.884417969256901 ], [ -120.03196964823232, 38.884197296735323 ], [ -120.031975644402507, 38.884053306038801 ], [ -120.031797414586336, 38.883904628646668 ], [ -120.031785629751766, 38.883634060264562 ], [ -120.031596366791376, 38.883196815408375 ], [ -120.031626890621723, 38.88301741294638 ], [ -120.03178958536553, 38.882985516299364 ], [ -120.031863915819599, 38.882861281939867 ], [ -120.031864872234834, 38.882284733232396 ], [ -120.031962229431514, 38.882161084580559 ], [ -120.03178250510031, 38.882048404993547 ], [ -120.031720917458699, 38.881866659074838 ], [ -120.031864329366769, 38.881744182160354 ], [ -120.031798244740955, 38.881670429330768 ], [ -120.031813984086043, 38.88129245363811 ], [ -120.03218766826437, 38.881175834206431 ] ] ] } },
{ "type": "Feature", "properties": { "part": "upstream", "crossing_id": "X00848", "area_ac": 5.0, "n_upstream": 2.0 }, "geometry": { "type": "MultiPolygon", "coordinates": [ [ [ [ -120.032993429041426, 38.88175488275143 ], [ -120.032839330360844, 38.882687895322043 ], [ -120.032904269451834, 38.883896746736056 ], [ -120.032568385255217, 38.884212526633682 ], [ -120.032400645500843, 38.8838118662635 ], [ -120.032343208817096, 38.88242302641121 ], [ -120.032449557618165, 38.882083391128361 ], [ -120.03241773996794, 38.881740241543227 ], [ -120.032489070615213, 38.881688002079066 ], [ -120.032624987986139, 38.881745512704583 ], [ -120.032769147406981, 38.881605035747533 ], [ -120.032993429041426, 38.88175488275143 ] ] ], [ [ [ -120.032587666765423, 38.884303106571423 ], [ -120.032945631057828, 38.884564461179494 ], [ -120.033611764560376, 38.88517599066752 ], [ -120.033654076309503, 38.885267155989695 ], [ -120.033485383579304, 38.885443045920127 ], [ -120.033208289117226, 38.885454017954636 ], [ -120.032917906961174, 38.885230418642031 ], [ -120.032822794852649, 38.885300071394532 ], [ -120.032595505343849, 38.885222219094139 ], [ -120.032577722440095, 38.885095641472169 ], [ -120.032330403074155, 38.88494520760495 ], [ -120.032290341595498, 38.88480004535166 ], [ -120.032066801859784, 38.884632197908346 ], [ -120.032098074858268, 38.884434796501047 ], [ -120.032587666765423, 38.884303106571423 ] ] ] ] } }
]
}
