{
"type": "FeatureCollection",
"name": "X00896",
"crs": { "type": "name", "properties": { "name": "urn:ogc:def:crs:OGC:1.3:CRS84" } },
"features": [
{ "type": "Feature", "properties": { "part": "direct", "crossing_id": "X00896", "area_ac": 0.1 }, "geometry": { "type": "Polygon", "coordinates": [ [ [ -120.118248542601023, 39.01194603214347 ], [ -120.11846902321065, 39.012203733264172 ], [ -120.118583650103091, 39.012224584679039 ], [ -120.118445220602169, 39.012221162767197 ], [ -120.118286643836854, 39.012145171008413 ], [ -120.118155525554542, 39.011961750464522 ], [ -120.118248542601023, 39.01194603214347 ] ] ] } }
]
}
