{
"type": "FeatureCollection",
"name": "X00874",
"crs": { "type": "name", "properties": { "name": "urn:ogc:def:crs:OGC:1.3:CRS84" } },
"features": [
{ "type": "Feature", "properties": { "part": "direct", "crossing_id": "X00874", "area_ac": 0.2 }, "geometry": { "type": "Polygon", "coordinates": [ [ [ -120.104286845459256, 38.998104649639352 ], [ -120.104539845101826, 38.99812895157168 ], [ -120.104505765386833, 38.998398373475759 ], [ -120.104073370652031, 38.998243490003119 ], [ -120.103911169073839, 38.998257478513885 ], [ -120.104286845459256, 38.998104649639352 ] ] ] } }
]
}
