{
"type": "FeatureCollection",
"name": "X00884",
"crs": { "type": "name", "properties": { "name": "urn:ogc:def:crs:OGC:1.3:CRS84" } },
"features": [
{ "type": "Feature", "properties": { "part": "direct", "crossing_id": "X00884", "area_ac": 7.0 }, "geometry": { "type": "MultiPolygon", "coordinates": [ [ [ [ -120.104937930810308, 39.000823503567084 ], [ -120.104960264262061, 39.000842076082336 ], [ -120.104937196651491, 39.000841503220357 ], [ -120.104937930810308, 39.000823503567084 ] ] ], [ [ [ -120.104961732567318, 39.000806076775035 ], [ -120.104984066020393, 39.000824649285782 ], [ -120.104960998415024, 39.000824076428707 ], [ -120.104961732567318, 39.000806076775035 ] ] ], [ [ [ -120.107250063567861, 38.997349392586209 ], [ -120.1072657952989, 38.997529961956751 ], [ -120.107466060234145, 38.997715110077181 ], [ -120.10748179254, 38.997895679432567 ], [ -120.107617992575442, 38.997953112416148 ], [ -120.107522058525703, 38.998040821700052 ], [ -120.107583924621565, 38.998222535674124 ], [ -120.107455388368493, 38.998543668690679 ], [ -120.107498588398073, 38.998616812162169 ], [ -120.104984800166875, 39.000806649631741 ], [ -120.105231625972181, 39.00041638546184 ], [ -120.105445105448865, 39.000277543182847 ], [ -120.105453179581616, 39.000079546885296 ], [ -120.10561832104105, 38.999993557711598 ], [ -120.105557926732672, 38.999775843541592 ], [ -120.105727470911845, 38.999581856166955 ], [ -120.105626813803937, 38.999218999276309 ], [ -120.105864089737736, 38.999062729070694 ], [ -120.105867759118325, 38.998972730702476 ], [ -120.105629434477208, 38.998588438115185 ], [ -120.105817639023144, 38.998503021196505 ], [ -120.10589344432276, 38.998342742077995 ], [ -120.106149380723977, 38.998295041852387 ], [ -120.106152315860342, 38.998223043130281 ], [ -120.106316718332721, 38.998155052429126 ], [ -120.106479330828051, 38.997564498035068 ], [ -120.106986795695676, 38.997577092356806 ], [ -120.107151195905999, 38.997509100384327 ], [ -120.107250063567861, 38.997349392586209 ] ] ] ] } }
]
}
