{
"type": "FeatureCollection",
"name": "X00818",
"crs": { "type": "name", "properties": { "name": "urn:ogc:def:crs:OGC:1.3:CRS84" } },
"features": [
{ "type": "Feature", "properties": { "part": "direct", "crossing_id": "X00818", "area_ac": 0.9 }, "geometry": { "type": "Polygon", "coordinates": [ [ [ -119.986558198047561, 38.889051139023707 ], [ -119.986776310605762, 38.889345056456989 ], [ -119.986984333087307, 38.889332411411111 ], [ -119.987298369549464, 38.88953871656296 ], [ -119.986862338442108, 38.889491420257961 ], [ -119.986523752238114, 38.889320515286705 ], [ -119.986129213814337, 38.889382394421666 ], [ -119.98596268158694, 38.88950421624488 ], [ -119.985617245417572, 38.889495291266385 ], [ -119.985590409494435, 38.889584686517267 ], [ -119.985630188483839, 38.889189324275733 ], [ -119.985975623175449, 38.889198249157317 ], [ -119.986281089520674, 38.889061998671366 ], [ -119.986558198047561, 38.889051139023707 ] ] ] } }
]
}
