{
"type": "FeatureCollection",
"name": "X00851",
"crs": { "type": "name", "properties": { "name": "urn:ogc:def:crs:OGC:1.3:CRS84" } },
"features": [
{ "type": "Feature", "properties": { "part": "direct", "crossing_id": "X00851", "area_ac": 2.8 }, "geometry": { "type": "Polygon", "coordinates": [ [ [ -120.032769147406981, 38.881605035747533 ], [ -120.032993429041426, 38.88175488275143 ], [ -120.032839330360844, 38.882687895322043 ], [ -120.032904269451834, 38.883896746736056 ], [ -120.032568385255217, 38.884212526633682 ], [ -120.032400645500843, 38.8838118662635 ], [ -120.032343208817096, 38.88242302641121 ], [ -120.032449557618165, 38.882083391128361 ], [ -120.03241773996794, 38.881740241543227 ], [ -120.032489070615213, 38.881688002079066 ], [ -120.032624987986139, 38.881745512704583 ], [ -120.032769147406981, 38.881605035747533 ] ] ] } }
]
}
