{
"type": "FeatureCollection",
"name": "X00862",
"crs": { "type": "name", "properties": { "name": "urn:ogc:def:crs:OGC:1.3:CRS84" } },
"features": [
{ "type": "Feature", "properties": { "part": "direct", "crossing_id": "X00862", "area_ac": 0.0, "n_upstream": null }, "geometry": { "type": "Polygon", "coordinates": [ [ [ -120.112972468472918, 39.002554279464249 ], [ -120.112991143819499, 39.00266284941376 ], [ -120.11292120654123, 39.002679135285291 ], [ -120.112879462965907, 39.0025699940159 ], [ -120.112972468472918, 39.002554279464249 ] ] ] } },
{ "type": "Feature", "properties": { "part": "upstream", "crossing_id": "X00862", "area_ac": 364.1, "n_upstream": 2.0 }, "geometry": { "type": "Polygon", "coordinates": [ [ [ -120.133492324432225, 38.989042656861955 ], [ -120.133532640279256, 38.989187792145188 ], [ -120.133522280121795, 38.990016365708378 ], [ -120.133267652125795, 38.990604699120418 ], [ -120.132946828070843, 38.99511932714173 ], [ -120.132914116288902, 38.995929332241246 ], [ -120.132980408334817, 38.996003034491793 ], [ -120.132756088153513, 38.996411931455206 ], [ -120.132754966295039, 38.997583072981072 ], [ -120.131728170811584, 38.998422677979413 ], [ -120.130955822362679, 38.999250517825615 ], [ -120.130650850104487, 38.999369137790673 ], [ -120.13034005535448, 38.999631757397054 ], [ -120.129968060556934, 38.999694671795091 ], [ -120.129684696905841, 38.999849857091057 ], [ -120.129556983698905, 39.000153018025223 ], [ -120.129157549658629, 39.000323361958912 ], [ -120.129102677499432, 39.000538226264901 ], [ -120.128837279945515, 39.000819977604813 ], [ -120.128406761942401, 39.001187750898126 ], [ -120.128220031558214, 39.001237204990389 ], [ -120.127976967794979, 39.001537522395587 ], [ -120.127769112691752, 39.002108976111913 ], [ -120.127601805703321, 39.002248997510968 ], [ -120.127519487548881, 39.002571292410479 ], [ -120.12730531305769, 39.002728176464331 ], [ -120.127383017299735, 39.003090450347507 ], [ -120.127279085177435, 39.003376176501725 ], [ -120.126589431773255, 39.004440256596446 ], [ -120.126133623486965, 39.004861451329511 ], [ -120.126016089992532, 39.004912607586334 ], [ -120.125094045231535, 39.004871854132553 ], [ -120.125028483109148, 39.004780147529182 ], [ -120.124707700755962, 39.004718182059392 ], [ -120.124199447565672, 39.004723662847482 ], [ -120.123882313617571, 39.00457169541987 ], [ -120.123374791221181, 39.004559172709691 ], [ -120.122856605077715, 39.004240079675526 ], [ -120.122305866764449, 39.004154413982711 ], [ -120.121876314547137, 39.003927594271637 ], [ -120.121555539295358, 39.003865620363058 ], [ -120.119572344216721, 39.003798616714128 ], [ -120.119200319914867, 39.003861495505156 ], [ -120.118659505142432, 39.004100380498066 ], [ -120.11813111221332, 39.004033265342926 ], [ -120.117849899448785, 39.004134420570303 ], [ -120.117047605084537, 39.003988456630175 ], [ -120.116765659871632, 39.004107609022192 ], [ -120.116418894933304, 39.004117049853022 ], [ -120.115801886581394, 39.003957642541963 ], [ -120.115555835573559, 39.004329930822792 ], [ -120.114936286411194, 39.004801082913538 ], [ -120.114058550407734, 39.00423881935631 ], [ -120.113703356551042, 39.003887685266875 ], [ -120.113467169800487, 39.003449407420085 ], [ -120.113005426217086, 39.0028794180133 ], [ -120.112919009986001, 39.002733134608533 ], [ -120.112991143819499, 39.00266284941376 ], [ -120.112950132316413, 39.002535708390035 ], [ -120.113369022581281, 39.002455992154538 ], [ -120.113342293913931, 39.00254541984426 ], [ -120.113479239855579, 39.002584846669592 ], [ -120.113475579646234, 39.00267484558708 ], [ -120.113683195088953, 39.002679986189428 ], [ -120.113861154667632, 39.002846553407068 ], [ -120.113959283840373, 39.002704839543 ], [ -120.114373783314235, 39.0027331184614 ], [ -120.114634853438602, 39.002559401406479 ], [ -120.114866268816201, 39.00254711105211 ], [ -120.114938400594241, 39.002476824569513 ], [ -120.114849053978105, 39.002402541682152 ], [ -120.114942790588529, 39.002368825725291 ], [ -120.114903970691103, 39.002187685835054 ], [ -120.114659000724686, 39.001965407900791 ], [ -120.114850862884083, 39.001789977326524 ], [ -120.114898075630194, 39.001196554530736 ], [ -120.115234194718965, 39.000880549982334 ], [ -120.115408836643297, 39.00056054891413 ], [ -120.115837952291315, 39.000228825677986 ], [ -120.115820735733237, 39.000084256347719 ], [ -120.115964992014497, 38.999943681837067 ], [ -120.115998298193929, 38.999692254858125 ], [ -120.116292657759303, 38.999267106384018 ], [ -120.116355610520444, 38.998854251253086 ], [ -120.117199919019953, 38.998532792034581 ], [ -120.11769894573996, 38.998184772403981 ], [ -120.117954875235654, 38.998137045919684 ], [ -120.11878706009368, 38.997545006146865 ], [ -120.118789982344722, 38.997473006612509 ], [ -120.11916854723647, 38.997248128809815 ], [ -120.119470605972509, 38.997201538827539 ], [ -120.119781427962067, 38.996938949238604 ], [ -120.120037351793727, 38.99689121794794 ], [ -120.12082629207471, 38.996226022975641 ], [ -120.121126885722703, 38.996215428332142 ], [ -120.121292000274096, 38.996129415833195 ], [ -120.123077419827538, 38.994804124272981 ], [ -120.123311726781324, 38.99471981626958 ], [ -120.123787631266893, 38.994371199061746 ], [ -120.123902960740068, 38.994374044297814 ], [ -120.12506671914926, 38.993573921882003 ], [ -120.126137461202433, 38.992789512509454 ], [ -120.126355977889375, 38.992524629224448 ], [ -120.127213037619143, 38.992455661497864 ], [ -120.127796224676217, 38.99230786865197 ], [ -120.128948988728624, 38.991777705107921 ], [ -120.129711086255284, 38.991201876526169 ], [ -120.130408128259759, 38.991092909342413 ], [ -120.133380635869884, 38.988949820724756 ], [ -120.133400066997737, 38.989040388523598 ], [ -120.133492324432225, 38.989042656861955 ] ], [ [ -120.113144568980218, 39.002864845917763 ], [ -120.113174838810323, 39.002877607454103 ], [ -120.113214506401292, 39.002848559917567 ], [ -120.113144568980218, 39.002864845917763 ] ] ] } }
]
}
