{
"type": "FeatureCollection",
"name": "X00817",
"crs": { "type": "name", "properties": { "name": "urn:ogc:def:crs:OGC:1.3:CRS84" } },
"features": [
{ "type": "Feature", "properties": { "part": "direct", "crossing_id": "X00817", "area_ac": 4.2, "n_upstream": null }, "geometry": { "type": "Polygon", "coordinates": [ [ [ -119.987296847668958, 38.889574712733662 ], [ -119.987458051624486, 38.889578875538945 ], [ -119.98747803717994, 38.889651462560082 ], [ -119.987401340513898, 38.889829659402714 ], [ -119.987191794649505, 38.889878301302332 ], [ -119.986943998430576, 38.890286309601052 ], [ -119.986937346573484, 38.890988829355429 ], [ -119.986637962050466, 38.890981096685465 ], [ -119.986446874724862, 38.891138320338591 ], [ -119.985587926476057, 38.891278288775254 ], [ -119.985615910723624, 38.890071824120135 ], [ -119.986147867593161, 38.890031514651248 ], [ -119.98682941558333, 38.889724800476564 ], [ -119.987176375200747, 38.889697725747382 ], [ -119.987296847668958, 38.889574712733662 ] ] ] } },
{ "type": "Feature", "properties": { "part": "upstream", "crossing_id": "X00817", "area_ac": 4.2, "n_upstream": 2.0 }, "geometry": { "type": "MultiPolygon", "coordinates": [ [ [ [ -119.986862338442108, 38.889491420257961 ], [ -119.987273057588055, 38.889592116113953 ], [ -119.987176375200747, 38.889697725747382 ], [ -119.98682941558333, 38.889724800476564 ], [ -119.986147867593161, 38.890031514651248 ], [ -119.985592120080256, 38.890089227133188 ], [ -119.985617245417572, 38.889495291266385 ], [ -119.98596268158694, 38.88950421624488 ], [ -119.986129213814337, 38.889382394421666 ], [ -119.986569810310797, 38.889321704980752 ], [ -119.986862338442108, 38.889491420257961 ] ] ], [ [ [ -119.985578415038333, 38.890413192120135 ], [ -119.985579737634026, 38.892016803912213 ], [ -119.985377799117529, 38.891885461756253 ], [ -119.985274834111877, 38.891594517428096 ], [ -119.985182715143623, 38.891592136884142 ], [ -119.984849454880845, 38.891295240576461 ], [ -119.984812534959815, 38.891078073684767 ], [ -119.984985165389418, 38.890812269414702 ], [ -119.984941208551788, 38.890216548448805 ], [ -119.985176831947072, 38.890096513635157 ], [ -119.985615149344682, 38.890089822176037 ], [ -119.985578415038333, 38.890413192120135 ] ] ] ] } }
]
}
