{
"type": "FeatureCollection",
"name": "X00809",
"crs": { "type": "name", "properties": { "name": "urn:ogc:def:crs:OGC:1.3:CRS84" } },
"features": [
{ "type": "Feature", "properties": { "part": "direct", "crossing_id": "X00809", "area_ac": 2.5 }, "geometry": { "type": "Polygon", "coordinates": [ [ [ -119.985615149344682, 38.890089822176037 ], [ -119.985578415038333, 38.890413192120135 ], [ -119.985579737634026, 38.892016803912213 ], [ -119.985377799117529, 38.891885461756253 ], [ -119.985274834111877, 38.891594517428096 ], [ -119.985182715143623, 38.891592136884142 ], [ -119.984849454880845, 38.891295240576461 ], [ -119.984812534959815, 38.891078073684767 ], [ -119.984985165389418, 38.890812269414702 ], [ -119.984941208551788, 38.890216548448805 ], [ -119.985176831947072, 38.890096513635157 ], [ -119.985615149344682, 38.890089822176037 ] ] ] } }
]
}
