{
"type": "FeatureCollection",
"name": "X00892",
"crs": { "type": "name", "properties": { "name": "urn:ogc:def:crs:OGC:1.3:CRS84" } },
"features": [
{ "type": "Feature", "properties": { "part": "direct", "crossing_id": "X00892", "area_ac": 0.2 }, "geometry": { "type": "MultiPolygon", "coordinates": [ [ [ [ -120.11319693547199, 39.00328055458575 ], [ -120.113219271918538, 39.003299125621886 ], [ -120.113196203341772, 39.003298554362772 ], [ -120.11319693547199, 39.00328055458575 ] ] ], [ [ [ -120.1127070010849, 39.002835991265506 ], [ -120.112906562728313, 39.003039130762126 ], [ -120.112999568852288, 39.003023416212983 ], [ -120.11319693547199, 39.00328055458575 ], [ -120.11269894637816, 39.003033988738309 ], [ -120.112612530624773, 39.002887705126426 ], [ -120.1127070010849, 39.002835991265506 ] ] ] ] } }
]
}
