{
"type": "FeatureCollection",
"name": "X00852",
"crs": { "type": "name", "properties": { "name": "urn:ogc:def:crs:OGC:1.3:CRS84" } },
"features": [
{ "type": "Feature", "properties": { "part": "direct", "crossing_id": "X00852", "area_ac": 2.2 }, "geometry": { "type": "Polygon", "coordinates": [ [ [ -120.032098074858268, 38.884434796501047 ], [ -120.032587666765423, 38.884303106571423 ], [ -120.032945631057828, 38.884564461179494 ], [ -120.033611764560376, 38.88517599066752 ], [ -120.033654076309503, 38.885267155989695 ], [ -120.033485383579304, 38.885443045920127 ], [ -120.033208289117226, 38.885454017954636 ], [ -120.032917906961174, 38.885230418642031 ], [ -120.032822794852649, 38.885300071394532 ], [ -120.032595505343849, 38.885222219094139 ], [ -120.032577722440095, 38.885095641472169 ], [ -120.032330403074155, 38.88494520760495 ], [ -120.032290341595498, 38.88480004535166 ], [ -120.032066801859784, 38.884632197908346 ], [ -120.032098074858268, 38.884434796501047 ] ] ] } }
]
}
