{
"type": "FeatureCollection",
"name": "X00802",
"crs": { "type": "name", "properties": { "name": "urn:ogc:def:crs:OGC:1.3:CRS84" } },
"features": [
{ "type": "Feature", "properties": { "part": "direct", "crossing_id": "X00802", "area_ac": 0.1 }, "geometry": { "type": "Polygon", "coordinates": [ [ [ -120.138187191939437, 39.06840085108464 ], [ -120.138323551166351, 39.068458253568721 ], [ -120.138221732840179, 39.068689984828012 ], [ -120.138108463602137, 39.068633149341714 ], [ -120.138187191939437, 39.06840085108464 ] ] ] } }
]
}
