{
"type": "FeatureCollection",
"name": "X00858",
"crs": { "type": "name", "properties": { "name": "urn:ogc:def:crs:OGC:1.3:CRS84" } },
"features": [
{ "type": "Feature", "properties": { "part": "direct", "crossing_id": "X00858", "area_ac": 5.5 }, "geometry": { "type": "MultiPolygon", "coordinates": [ [ [ [ -120.044972134379606, 38.88695976781144 ], [ -120.044994417569754, 38.886978350144318 ], [ -120.04497138806245, 38.886977766851501 ], [ -120.044972134379606, 38.88695976781144 ] ] ], [ [ [ -120.04003857755859, 38.884186069907877 ], [ -120.040060858579636, 38.884204653107282 ], [ -120.04003783007046, 38.884204068876265 ], [ -120.04003857755859, 38.884186069907877 ] ] ], [ [ [ -120.040687250879031, 38.883553879274629 ], [ -120.040909314254066, 38.883757708845387 ], [ -120.041186402083682, 38.883746718200342 ], [ -120.041522862692759, 38.883971465629351 ], [ -120.041773057576563, 38.884608437430899 ], [ -120.043153793182441, 38.885778568305298 ], [ -120.043492509545175, 38.885949313548231 ], [ -120.044472203486833, 38.886784942940508 ], [ -120.044972134379606, 38.88695976781144 ], [ -120.044217386743995, 38.88681452342059 ], [ -120.043013378362545, 38.885829063428083 ], [ -120.042400556231854, 38.885597314745638 ], [ -120.042041803423885, 38.885353986648013 ], [ -120.041721639865131, 38.8852918152919 ], [ -120.040964065280747, 38.884659994217174 ], [ -120.040967801606925, 38.884569999306315 ], [ -120.040325242046165, 38.884499647087907 ], [ -120.040237612280521, 38.884389316505597 ], [ -120.040266620329817, 38.884245908926246 ], [ -120.040106168128574, 38.884223820525087 ], [ -120.040063101024629, 38.884150656200823 ], [ -120.040687250879031, 38.883553879274629 ] ] ] ] } }
]
}
