{
"type": "FeatureCollection",
"name": "X00825",
"crs": { "type": "name", "properties": { "name": "urn:ogc:def:crs:OGC:1.3:CRS84" } },
"features": [
{ "type": "Feature", "properties": { "part": "direct", "crossing_id": "X00825", "area_ac": 10.6, "n_upstream": null }, "geometry": { "type": "MultiPolygon", "coordinates": [ [ [ [ -119.988295101911177, 38.884501465470144 ], [ -119.988317368882946, 38.884520058026425 ], [ -119.988294341359406, 38.884519463587587 ], [ -119.988295101911177, 38.884501465470144 ] ] ], [ [ [ -119.990217950327619, 38.88100158773895 ], [ -119.990492747713162, 38.881044711944682 ], [ -119.990623307695529, 38.881228257307697 ], [ -119.99061798855162, 38.881354244469165 ], [ -119.990357857012398, 38.881509694278087 ], [ -119.990338098084948, 38.88197764643845 ], [ -119.990510153248437, 38.88227036892453 ], [ -119.990501034014216, 38.882486346852517 ], [ -119.989951653037849, 38.882940636029794 ], [ -119.988978107734567, 38.884158739760949 ], [ -119.988899900778549, 38.884372934375435 ], [ -119.988272834951005, 38.884482872909985 ], [ -119.98792285849035, 38.884581944394611 ], [ -119.988040278029032, 38.884530922574477 ], [ -119.988020292991649, 38.884458335629077 ], [ -119.987841397677016, 38.884327592757138 ], [ -119.987725499736641, 38.884342618169228 ], [ -119.987731585241548, 38.884198633298666 ], [ -119.988096011183558, 38.883757598117192 ], [ -119.987760490795424, 38.88351470510375 ], [ -119.987119533910572, 38.883408065881298 ], [ -119.987012767500801, 38.883207113433151 ], [ -119.987619632447874, 38.882484056386538 ], [ -119.988295228308374, 38.882861853256564 ], [ -119.988705912183832, 38.882962542724179 ], [ -119.989705734386433, 38.88221358071106 ], [ -119.988858088432863, 38.881543067520113 ], [ -119.989049903844432, 38.881367840317296 ], [ -119.989117462894683, 38.881405619334068 ], [ -119.989066087907034, 38.881530417824692 ], [ -119.989600482405578, 38.881976634083429 ], [ -119.990284444768534, 38.882156439998347 ], [ -119.99019613760062, 38.882064073106314 ], [ -119.990210577586979, 38.881722108120293 ], [ -119.989941858294728, 38.881534997927439 ], [ -119.989879619142215, 38.88137123229474 ], [ -119.98961318241841, 38.881130126967562 ], [ -119.989709088765608, 38.881042512725315 ], [ -119.990215670410237, 38.881055582219105 ], [ -119.990217950327619, 38.88100158773895 ] ] ] ] } },
{ "type": "Feature", "properties": { "part": "upstream", "crossing_id": "X00825", "area_ac": 7.0, "n_upstream": 7.0 }, "geometry": { "type": "MultiPolygon", "coordinates": [ [ [ [ -119.990079031762363, 38.881016021713783 ], [ -119.990215670410237, 38.881055582219105 ], [ -119.990077511747273, 38.88105201802928 ], [ -119.990079031762363, 38.881016021713783 ] ] ], [ [ [ -119.990262177957661, 38.882137847820204 ], [ -119.989600482405578, 38.881976634083429 ], [ -119.989066087907034, 38.881530417824692 ], [ -119.989095956889699, 38.881369028812017 ], [ -119.989282449749155, 38.881319788178843 ], [ -119.989308517096518, 38.881248389805258 ], [ -119.989421369010572, 38.881305355183827 ], [ -119.989589395827963, 38.881147530976804 ], [ -119.989681501682526, 38.88114990751135 ], [ -119.989941858294728, 38.881534997927439 ], [ -119.990210577586979, 38.881722108120293 ], [ -119.990262177957661, 38.882137847820204 ] ] ], [ [ [ -119.990262177957661, 38.882137847820204 ], [ -119.990284444768534, 38.882156439998347 ], [ -119.990261417966238, 38.882155845977557 ], [ -119.990262177957661, 38.882137847820204 ] ] ], [ [ [ -119.988705912183832, 38.882962542724179 ], [ -119.988295228308374, 38.882861853256564 ], [ -119.987642659300107, 38.88248465093244 ], [ -119.988535716457321, 38.881534746988592 ], [ -119.988949434429713, 38.881563442789108 ], [ -119.989706494519609, 38.882195582563128 ], [ -119.988705912183832, 38.882962542724179 ] ] ], [ [ [ -119.987707797142633, 38.88421603685709 ], [ -119.987692860303, 38.884296731067437 ], [ -119.987730824555825, 38.884216631407703 ], [ -119.987725499736641, 38.884342618169228 ], [ -119.987841397677016, 38.884327592757138 ], [ -119.988040278029032, 38.884530922574477 ], [ -119.987899070301509, 38.884599347987852 ], [ -119.987738638228038, 38.884577188128318 ], [ -119.987829987682716, 38.884597564407251 ], [ -119.987714849998312, 38.884594591682252 ], [ -119.987676823627751, 38.884512529991753 ], [ -119.987650331689977, 38.884484819352906 ], [ -119.987592660086989, 38.884213064035961 ], [ -119.987660220910058, 38.884250843957872 ], [ -119.986884697279038, 38.883510107653187 ], [ -119.986915333158734, 38.883330721378051 ], [ -119.987034272904111, 38.883243704309066 ], [ -119.987119533910572, 38.883408065881298 ], [ -119.987760490795424, 38.88351470510375 ], [ -119.988096011183558, 38.883757598117192 ], [ -119.987707797142633, 38.88421603685709 ] ], [ [ -119.987654895959693, 38.884376830710451 ], [ -119.987672612664497, 38.884339450879125 ], [ -119.987660220910058, 38.884250843957872 ], [ -119.987654895959693, 38.884376830710451 ] ] ], [ [ [ -119.988179203751827, 38.884516491325414 ], [ -119.988318889974238, 38.884484061790666 ], [ -119.988270553278298, 38.884536867261275 ], [ -119.988178443170412, 38.884534489440952 ], [ -119.988179203751827, 38.884516491325414 ] ] ] ] } }
]
}
