{
"type": "FeatureCollection",
"name": "X00804",
"crs": { "type": "name", "properties": { "name": "urn:ogc:def:crs:OGC:1.3:CRS84" } },
"features": [
{ "type": "Feature", "properties": { "part": "direct", "crossing_id": "X00804", "area_ac": 1.0 }, "geometry": { "type": "Polygon", "coordinates": [ [ [ -119.984655316271969, 38.89152445324239 ], [ -119.984677540708276, 38.893723189479111 ], [ -119.984378145329572, 38.893715450561004 ], [ -119.984411840650381, 38.893464073539974 ], [ -119.984504723722338, 38.893448456760758 ], [ -119.984478468662431, 38.892979317440471 ], [ -119.984560508451111, 38.892675136818987 ], [ -119.984428421981661, 38.892527580820989 ], [ -119.984485907960746, 38.892258800975171 ], [ -119.984419103358832, 38.892203020993676 ], [ -119.984512746480632, 38.892169406109161 ], [ -119.984542631739856, 38.892008019105219 ], [ -119.984374389436738, 38.89162529812171 ], [ -119.984490299821303, 38.89161027655706 ], [ -119.984517138038271, 38.891520881671518 ], [ -119.984655316271969, 38.89152445324239 ] ] ] } }
]
}
