{
"type": "FeatureCollection",
"name": "X00864",
"crs": { "type": "name", "properties": { "name": "urn:ogc:def:crs:OGC:1.3:CRS84" } },
"features": [
{ "type": "Feature", "properties": { "part": "direct", "crossing_id": "X00864", "area_ac": 4.0, "n_upstream": null }, "geometry": { "type": "Polygon", "coordinates": [ [ [ -120.120908469014097, 39.012984727043062 ], [ -120.121965395197705, 39.013118934844009 ], [ -120.122284021982651, 39.013234908800058 ], [ -120.122165449668998, 39.013880626378359 ], [ -120.122275699915889, 39.014009473621805 ], [ -120.122057097292426, 39.014274345328978 ], [ -120.122188959988662, 39.014439762073899 ], [ -120.121733354595932, 39.014284369758649 ], [ -120.121411072532794, 39.014258393538526 ], [ -120.121245914540424, 39.014344404386051 ], [ -120.121145160922481, 39.013981557920864 ], [ -120.120877790449299, 39.013740721496113 ], [ -120.120669410845238, 39.013753592347051 ], [ -120.120604577620981, 39.013643883419476 ], [ -120.120671175844151, 39.01314102705912 ], [ -120.120908469014097, 39.012984727043062 ] ] ] } },
{ "type": "Feature", "properties": { "part": "upstream", "crossing_id": "X00864", "area_ac": 2.0, "n_upstream": 2.0 }, "geometry": { "type": "Polygon", "coordinates": [ [ [ -120.122829720456579, 39.013446576425366 ], [ -120.12322531165745, 39.01394282373699 ], [ -120.12328650000228, 39.014142530881948 ], [ -120.122918803116718, 39.014097420131009 ], [ -120.122918803116775, 39.014097420131023 ], [ -120.122462908285343, 39.014518596730653 ], [ -120.122054906777478, 39.014328344979305 ], [ -120.122249707213811, 39.014080903572285 ], [ -120.122278120989478, 39.013913050376715 ], [ -120.122165449668998, 39.013880626378359 ], [ -120.122263140267037, 39.013180339542032 ], [ -120.122829720456579, 39.013446576425366 ] ], [ [ -120.122302422661093, 39.013920043774313 ], [ -120.122285301028285, 39.013915116608324 ], [ -120.122321844397902, 39.014010612805819 ], [ -120.122302422661093, 39.013920043774313 ] ] ] } }
]
}
