{
"type": "FeatureCollection",
"name": "X00854",
"crs": { "type": "name", "properties": { "name": "urn:ogc:def:crs:OGC:1.3:CRS84" } },
"features": [
{ "type": "Feature", "properties": { "part": "direct", "crossing_id": "X00854", "area_ac": 0.7 }, "geometry": { "type": "Polygon", "coordinates": [ [ [ -120.034879471362984, 38.886289290319162 ], [ -120.035236705270606, 38.886568637415778 ], [ -120.03522996637686, 38.886730627358062 ], [ -120.035594690660673, 38.886829984627951 ], [ -120.035659286470093, 38.886939733367342 ], [ -120.035654045790039, 38.887065725585408 ], [ -120.035412521402264, 38.887329857278672 ], [ -120.035491910829364, 38.887638179012853 ], [ -120.035291384138432, 38.887470922347923 ], [ -120.035252064247203, 38.887307761994165 ], [ -120.03539847686946, 38.887113285491665 ], [ -120.035359156875558, 38.886950125163487 ], [ -120.035067264203136, 38.886762528513955 ], [ -120.034737552517981, 38.886375772954239 ], [ -120.034879471362984, 38.886289290319162 ] ] ] } }
]
}
