{
"type": "FeatureCollection",
"name": "X00808",
"crs": { "type": "name", "properties": { "name": "urn:ogc:def:crs:OGC:1.3:CRS84" } },
"features": [
{ "type": "Feature", "properties": { "part": "direct", "crossing_id": "X00808", "area_ac": 3.6 }, "geometry": { "type": "Polygon", "coordinates": [ [ [ -119.985611922689927, 38.887441132252818 ], [ -119.985633045249173, 38.888576795219826 ], [ -119.985551777217836, 38.888862979091961 ], [ -119.985645792310777, 38.889910436648876 ], [ -119.985592120080256, 38.890089227133188 ], [ -119.985176831947072, 38.890096513635157 ], [ -119.984941208551788, 38.890216548448805 ], [ -119.984858230254488, 38.889998191194358 ], [ -119.984927135074429, 38.889459440202522 ], [ -119.984816559226147, 38.889348476036815 ], [ -119.984917813666485, 38.88913488019336 ], [ -119.984919915013805, 38.888540349442756 ], [ -119.985433974002405, 38.887832924421915 ], [ -119.985473752245056, 38.887437562126912 ], [ -119.985611922689927, 38.887441132252818 ] ] ] } }
]
}
