{
"type": "FeatureCollection",
"name": "X00822",
"crs": { "type": "name", "properties": { "name": "urn:ogc:def:crs:OGC:1.3:CRS84" } },
"features": [
{ "type": "Feature", "properties": { "part": "direct", "crossing_id": "X00822", "area_ac": 5.2, "n_upstream": null }, "geometry": { "type": "Polygon", "coordinates": [ [ [ -119.985580330825371, 38.887097979016119 ], [ -119.986110743034146, 38.887093664955962 ], [ -119.986129965498336, 38.887184250225786 ], [ -119.986315714467693, 38.88715301314334 ], [ -119.986506986844532, 38.887536326407357 ], [ -119.986817970206886, 38.887814624861782 ], [ -119.986930069048228, 38.887889591014833 ], [ -119.987069001506754, 38.887875161365471 ], [ -119.987315467909298, 38.888043685888228 ], [ -119.987331648522115, 38.888206263378713 ], [ -119.987763868301272, 38.888343548121945 ], [ -119.987608196691966, 38.888753936629961 ], [ -119.986829020487988, 38.888643726172518 ], [ -119.986644789920888, 38.888638967765694 ], [ -119.986549630235132, 38.888708580756308 ], [ -119.986551913550059, 38.888654586529285 ], [ -119.986071353351264, 38.88857010167014 ], [ -119.985588510386492, 38.888539609055115 ], [ -119.985580330825371, 38.887097979016119 ] ] ] } },
{ "type": "Feature", "properties": { "part": "upstream", "crossing_id": "X00822", "area_ac": 4.2, "n_upstream": 2.0 }, "geometry": { "type": "Polygon", "coordinates": [ [ [ -119.986551913550059, 38.888654586529285 ], [ -119.986548108021793, 38.888744576907349 ], [ -119.986450664696008, 38.888868184029299 ], [ -119.985592505484377, 38.888990155571285 ], [ -119.985631594040669, 38.888581905646951 ], [ -119.985551777217836, 38.888862979091961 ], [ -119.985645792310777, 38.889910436648876 ], [ -119.985592120080256, 38.890089227133188 ], [ -119.985176831947072, 38.890096513635157 ], [ -119.984941208551788, 38.890216548448805 ], [ -119.984858230254488, 38.889998191194358 ], [ -119.984927135074429, 38.889459440202522 ], [ -119.984816559226147, 38.889348476036815 ], [ -119.984917813666485, 38.88913488019336 ], [ -119.984919915013805, 38.888540349442756 ], [ -119.985433974002405, 38.887832924421915 ], [ -119.985473752245056, 38.887437562126912 ], [ -119.985611922689927, 38.887441132252818 ], [ -119.985632888787634, 38.888568382902157 ], [ -119.985633806582541, 38.888558797158993 ], [ -119.986551913550059, 38.888654586529285 ] ] ] } }
]
}
