{
"type": "FeatureCollection",
"name": "X00980",
"crs": { "type": "name", "properties": { "name": "urn:ogc:def:crs:OGC:1.3:CRS84" } },
"features": [
{ "type": "Feature", "properties": { "part": "direct", "crossing_id": "X00980", "area_ac": 0.0 }, "geometry": { "type": "MultiPolygon", "coordinates": [ [ [ [ -120.031154522883725, 38.894356665436739 ], [ -120.031176804489945, 38.894375250339721 ], [ -120.031153772882107, 38.894374664228813 ], [ -120.031154522883725, 38.894356665436739 ] ] ], [ [ [ -120.031156022884915, 38.894320667852362 ], [ -120.03113149128238, 38.894356079321661 ], [ -120.031132991295166, 38.894320081738044 ], [ -120.031156022884915, 38.894320667852362 ] ] ], [ [ [ -120.031110709717296, 38.894301496827651 ], [ -120.031132991295166, 38.894320081738044 ], [ -120.031109959706086, 38.894319495619165 ], [ -120.031110709717296, 38.894301496827651 ] ] ], [ [ [ -120.031088428150966, 38.894282911913358 ], [ -120.031110709717296, 38.894301496827651 ], [ -120.031087678134654, 38.894300910704615 ], [ -120.031088428150966, 38.894282911913358 ] ] ], [ [ [ -120.031066146596245, 38.894264326995255 ], [ -120.031088428150966, 38.894282911913358 ], [ -120.031065396574817, 38.894282325786179 ], [ -120.031066146596245, 38.894264326995255 ] ] ] ] } }
]
}
