{
"type": "FeatureCollection",
"name": "X00913",
"crs": { "type": "name", "properties": { "name": "urn:ogc:def:crs:OGC:1.3:CRS84" } },
"features": [
{ "type": "Feature", "properties": { "part": "direct", "crossing_id": "X00913", "area_ac": 1.4, "n_upstream": null }, "geometry": { "type": "Polygon", "coordinates": [ [ [ -120.123757400423315, 39.031577457371569 ], [ -120.124071000769391, 39.031819428367108 ], [ -120.124065889939047, 39.03194542739368 ], [ -120.123578769204357, 39.032564032097696 ], [ -120.123177673857512, 39.032770346975262 ], [ -120.123017586186307, 39.032730359655204 ], [ -120.122954194542459, 39.032584651874835 ], [ -120.123076889884501, 39.032407501826874 ], [ -120.123144663866086, 39.032445210481562 ], [ -120.123218280711157, 39.032338920332784 ], [ -120.123405097372057, 39.032289477704914 ], [ -120.12336697432292, 39.032090340167443 ], [ -120.123520048384037, 39.031733760648542 ], [ -120.123757400423315, 39.031577457371569 ] ] ] } },
{ "type": "Feature", "properties": { "part": "upstream", "crossing_id": "X00913", "area_ac": 0.2, "n_upstream": 1.0 }, "geometry": { "type": "Polygon", "coordinates": [ [ [ -120.123496240096927, 39.031751190932532 ], [ -120.12336697432292, 39.032090340167443 ], [ -120.123405097372057, 39.032289477704914 ], [ -120.123121585615266, 39.032444640830263 ], [ -120.12310508075204, 39.032282072576926 ], [ -120.123278313385569, 39.031998062488498 ], [ -120.123496240096927, 39.031751190932532 ] ] ] } }
]
}
