{
"type": "FeatureCollection",
"name": "X00924",
"crs": { "type": "name", "properties": { "name": "urn:ogc:def:crs:OGC:1.3:CRS84" } },
"features": [
{ "type": "Feature", "properties": { "part": "direct", "crossing_id": "X00924", "area_ac": 0.3, "n_upstream": null }, "geometry": { "type": "Polygon", "coordinates": [ [ [ -120.119002179077754, 39.011586284884224 ], [ -120.119108034966345, 39.01182313388238 ], [ -120.118650991598543, 39.011703730019704 ], [ -120.118484374619285, 39.011825736754204 ], [ -120.118748805993974, 39.012138577514385 ], [ -120.118955719166721, 39.012161709612251 ], [ -120.11870120094153, 39.012173436636623 ], [ -120.11834448381147, 39.011858314418276 ], [ -120.118794536625117, 39.011581152769878 ], [ -120.119002179077754, 39.011586284884224 ] ] ] } },
{ "type": "Feature", "properties": { "part": "upstream", "crossing_id": "X00924", "area_ac": 0.6, "n_upstream": 3.0 }, "geometry": { "type": "MultiPolygon", "coordinates": [ [ [ [ -120.118794536625117, 39.011581152769878 ], [ -120.118652453531595, 39.011667730344513 ], [ -120.11891500980974, 39.011458005094418 ], [ -120.119030366533522, 39.011460856187981 ], [ -120.119109496673914, 39.011787134193447 ], [ -120.119002179077754, 39.011586284884224 ], [ -120.118794536625117, 39.011581152769878 ] ] ], [ [ [ -120.119041013185139, 39.011767423742498 ], [ -120.119236963064182, 39.012060552978632 ], [ -120.119199886318015, 39.012044410284282 ], [ -120.119213891519067, 39.012059982802583 ], [ -120.119190819974648, 39.012059412621966 ], [ -120.119143215183868, 39.012094271935496 ], [ -120.119141753477393, 39.012130271623619 ], [ -120.118978790739618, 39.012162279840588 ], [ -120.118748805993974, 39.012138577514385 ], [ -120.118483643606368, 39.011843736588659 ], [ -120.118614587725261, 39.011789577012998 ], [ -120.118578853404742, 39.011774018488524 ], [ -120.11872020585426, 39.011705440855124 ], [ -120.119041013185139, 39.011767423742498 ] ], [ [ -120.119009171182455, 39.011982851644291 ], [ -120.11906146661947, 39.01198414412643 ], [ -120.118853759305068, 39.011893710540207 ], [ -120.119009171182455, 39.011982851644291 ] ] ], [ [ [ -120.119236963064182, 39.012060552978632 ], [ -120.119259303787501, 39.012079122996219 ], [ -120.11923623223592, 39.012078552824356 ], [ -120.119236963064182, 39.012060552978632 ] ] ], [ [ [ -120.11923623223592, 39.012078552824356 ], [ -120.119213160684978, 39.012077982647938 ], [ -120.119213891519067, 39.012059982802583 ], [ -120.11923623223592, 39.012078552824356 ] ] ], [ [ [ -120.119258572964441, 39.012097122842185 ], [ -120.119259303787501, 39.012079122996219 ], [ -120.119281644522474, 39.012097693009842 ], [ -120.119258572964441, 39.012097122842185 ] ] ], [ [ [ -120.11923623223592, 39.012078552824356 ], [ -120.119258572964441, 39.012097122842185 ], [ -120.119235501407005, 39.012096552669945 ], [ -120.11923623223592, 39.012078552824356 ] ] ], [ [ [ -120.119258572964441, 39.012097122842185 ], [ -120.119280913704571, 39.012115692856135 ], [ -120.119257842140669, 39.012115122688108 ], [ -120.119258572964441, 39.012097122842185 ] ] ], [ [ [ -120.119304716081231, 39.012098263172959 ], [ -120.119280182886001, 39.012133692702328 ], [ -120.119280913704571, 39.012115692856135 ], [ -120.119281644522474, 39.012097693009842 ], [ -120.119304716081231, 39.012098263172959 ] ] ], [ [ [ -120.119325595219934, 39.012152832872324 ], [ -120.119302523643029, 39.012152262712682 ], [ -120.119303254456412, 39.012134262866169 ], [ -120.119325595219934, 39.012152832872324 ] ] ] ] } }
]
}
