{
"type": "FeatureCollection",
"name": "X00997",
"crs": { "type": "name", "properties": { "name": "urn:ogc:def:crs:OGC:1.3:CRS84" } },
"features": [
{ "type": "Feature", "properties": { "part": "direct", "crossing_id": "X00997", "area_ac": 39.0 }, "geometry": { "type": "Polygon", "coordinates": [ [ [ -120.054052001038016, 38.883135345169379 ], [ -120.053910110516341, 38.883221852334678 ], [ -120.053734774998247, 38.883559766502486 ], [ -120.054112870435588, 38.88389363733107 ], [ -120.054147025076716, 38.884182787399645 ], [ -120.053710185602739, 38.884712296251251 ], [ -120.05335280526495, 38.885550115758186 ], [ -120.053008812840332, 38.886063948628973 ], [ -120.052299222792072, 38.887613586211202 ], [ -120.051850380264682, 38.88898962837807 ], [ -120.050702402484688, 38.890546194087847 ], [ -120.048975610073185, 38.892160179735995 ], [ -120.048618292928978, 38.891880871777872 ], [ -120.048412503620071, 38.891839629697948 ], [ -120.04799206258096, 38.891414579294988 ], [ -120.048063392555719, 38.891362330309271 ], [ -120.048053037686316, 38.891055763258926 ], [ -120.04824101281136, 38.890970429617234 ], [ -120.04841639435854, 38.890632525810076 ], [ -120.048653411338066, 38.890476360398409 ], [ -120.049232980535393, 38.889842374225502 ], [ -120.04910597764497, 38.889568892720796 ], [ -120.048487218157433, 38.888922612456234 ], [ -120.04985582559442, 38.887605881155807 ], [ -120.050235477719113, 38.887345211151263 ], [ -120.051402715292937, 38.885879225440213 ], [ -120.052166453632339, 38.885249877739113 ], [ -120.053745935155376, 38.883289778602297 ], [ -120.054052001038016, 38.883135345169379 ] ] ] } }
]
}
