{
"type": "FeatureCollection",
"name": "X00967",
"crs": { "type": "name", "properties": { "name": "urn:ogc:def:crs:OGC:1.3:CRS84" } },
"features": [
{ "type": "Feature", "properties": { "part": "direct", "crossing_id": "X00967", "area_ac": 5.8, "n_upstream": null }, "geometry": { "type": "Polygon", "coordinates": [ [ [ -120.035697018886026, 38.896562250643157 ], [ -120.036289871620269, 38.896721456418817 ], [ -120.036237067630466, 38.89688227595861 ], [ -120.036351481499523, 38.896903200481077 ], [ -120.036271152204989, 38.897171428112877 ], [ -120.036361036392748, 38.897227765237226 ], [ -120.035785785889118, 38.89775368675177 ], [ -120.035686165215978, 38.897931334301248 ], [ -120.035616881292981, 38.898488128214609 ], [ -120.035428122877221, 38.898591438887166 ], [ -120.034354561503704, 38.898347937713758 ], [ -120.034243892686504, 38.898237017016029 ], [ -120.034228353043574, 38.898056443156307 ], [ -120.034641639040089, 38.897544430593989 ], [ -120.034598570499227, 38.897471264300549 ], [ -120.035083195058192, 38.896907009733027 ], [ -120.035697018886026, 38.896562250643157 ] ] ] } },
{ "type": "Feature", "properties": { "part": "upstream", "crossing_id": "X00967", "area_ac": 1.3, "n_upstream": 3.0 }, "geometry": { "type": "MultiPolygon", "coordinates": [ [ [ [ -120.036781215389482, 38.895995204126891 ], [ -120.036801253156725, 38.896067784664588 ], [ -120.036521122473005, 38.896150758463534 ], [ -120.036160662384063, 38.896501959158385 ], [ -120.035838208861747, 38.896493766581457 ], [ -120.035696269972064, 38.896580249502591 ], [ -120.03570008344272, 38.896556176062411 ], [ -120.035154539761848, 38.896854769273695 ], [ -120.035373067235568, 38.896590054483532 ], [ -120.035701512355814, 38.896454257485352 ], [ -120.035709950783712, 38.896493886034527 ], [ -120.035758810500482, 38.896185445044388 ], [ -120.035852437388129, 38.896151788192178 ], [ -120.036077699209144, 38.895725082069006 ], [ -120.036170576572061, 38.895709423798635 ], [ -120.036371876114686, 38.895858680861693 ], [ -120.036781215389482, 38.895995204126891 ] ] ], [ [ [ -120.034864665492961, 38.897171723887155 ], [ -120.034865414632648, 38.897153725043111 ], [ -120.034887698081732, 38.897172309301261 ], [ -120.034864665492961, 38.897171723887155 ] ] ], [ [ [ -120.034370491552835, 38.897411412842239 ], [ -120.034841632904829, 38.897171138468515 ], [ -120.034644635859834, 38.897472435236722 ], [ -120.034370491552835, 38.897411412842239 ] ] ] ] } }
]
}
