{
"type": "FeatureCollection",
"name": "X00975",
"crs": { "type": "name", "properties": { "name": "urn:ogc:def:crs:OGC:1.3:CRS84" } },
"features": [
{ "type": "Feature", "properties": { "part": "direct", "crossing_id": "X00975", "area_ac": 1.1 }, "geometry": { "type": "Polygon", "coordinates": [ [ [ -120.036170576572061, 38.895709423798635 ], [ -120.036371876114686, 38.895858680861693 ], [ -120.036781215389482, 38.895995204126891 ], [ -120.036801253156725, 38.896067784664588 ], [ -120.036521122473005, 38.896150758463534 ], [ -120.036160662384063, 38.896501959158385 ], [ -120.035838208861747, 38.896493766581457 ], [ -120.035696269972064, 38.896580249502591 ], [ -120.035758810500482, 38.896185445044388 ], [ -120.035852437388129, 38.896151788192178 ], [ -120.036077699209144, 38.895725082069006 ], [ -120.036170576572061, 38.895709423798635 ] ] ] } }
]
}
