{
"type": "FeatureCollection",
"name": "X00925",
"crs": { "type": "name", "properties": { "name": "urn:ogc:def:crs:OGC:1.3:CRS84" } },
"features": [
{ "type": "Feature", "properties": { "part": "direct", "crossing_id": "X00925", "area_ac": 0.3, "n_upstream": null }, "geometry": { "type": "MultiPolygon", "coordinates": [ [ [ [ -120.119258572964441, 39.012097122842185 ], [ -120.119280913704571, 39.012115692856135 ], [ -120.119257842140669, 39.012115122688108 ], [ -120.119258572964441, 39.012097122842185 ] ] ], [ [ [ -120.11923623223592, 39.012078552824356 ], [ -120.119258572964441, 39.012097122842185 ], [ -120.119235501407005, 39.012096552669945 ], [ -120.11923623223592, 39.012078552824356 ] ] ], [ [ [ -120.119213891519067, 39.012059982802583 ], [ -120.11923623223592, 39.012078552824356 ], [ -120.119213160684978, 39.012077982647938 ], [ -120.119213891519067, 39.012059982802583 ] ] ], [ [ [ -120.118648067724607, 39.011775729369312 ], [ -120.119009171182455, 39.011982851644291 ], [ -120.119147600287576, 39.011986272869542 ], [ -120.119213891519067, 39.012059982802583 ], [ -120.119190819974648, 39.012059412621966 ], [ -120.119143215183868, 39.012094271935496 ], [ -120.119141753477393, 39.012130271623619 ], [ -120.118978790739618, 39.012162279840588 ], [ -120.118748805993974, 39.012138577514385 ], [ -120.118483643606368, 39.011843736588659 ], [ -120.118648067724607, 39.011775729369312 ] ] ] ] } },
{ "type": "Feature", "properties": { "part": "upstream", "crossing_id": "X00925", "area_ac": 0.2, "n_upstream": 1.0 }, "geometry": { "type": "MultiPolygon", "coordinates": [ [ [ [ -120.119236963064182, 39.012060552978632 ], [ -120.118578853404742, 39.011774018488524 ], [ -120.11872020585426, 39.011705440855124 ], [ -120.119041013185139, 39.011767423742498 ], [ -120.119236963064182, 39.012060552978632 ] ] ], [ [ [ -120.11923623223592, 39.012078552824356 ], [ -120.119236963064182, 39.012060552978632 ], [ -120.119259303787501, 39.012079122996219 ], [ -120.11923623223592, 39.012078552824356 ] ] ], [ [ [ -120.119258572964441, 39.012097122842185 ], [ -120.119259303787501, 39.012079122996219 ], [ -120.119281644522474, 39.012097693009842 ], [ -120.119258572964441, 39.012097122842185 ] ] ], [ [ [ -120.119304716081231, 39.012098263172959 ], [ -120.119280182886001, 39.012133692702328 ], [ -120.119281644522474, 39.012097693009842 ], [ -120.119304716081231, 39.012098263172959 ] ] ], [ [ [ -120.119303254456412, 39.012134262866169 ], [ -120.119325595219934, 39.012152832872324 ], [ -120.119302523643029, 39.012152262712682 ], [ -120.119303254456412, 39.012134262866169 ] ] ] ] } }
]
}
