{
"type": "FeatureCollection",
"name": "X00988",
"crs": { "type": "name", "properties": { "name": "urn:ogc:def:crs:OGC:1.3:CRS84" } },
"features": [
{ "type": "Feature", "properties": { "part": "direct", "crossing_id": "X00988", "area_ac": 2.8 }, "geometry": { "type": "Polygon", "coordinates": [ [ [ -120.034677914237704, 38.902211983061811 ], [ -120.035362008941448, 38.902950085318501 ], [ -120.035469689846295, 38.903133000573789 ], [ -120.03541687834354, 38.903293819330351 ], [ -120.035069111994943, 38.903339034539975 ], [ -120.034471711813211, 38.903287813577826 ], [ -120.033696236025165, 38.902529364737191 ], [ -120.033979393162056, 38.9023744036623 ], [ -120.034210485147199, 38.902362261182027 ], [ -120.034330152890831, 38.902257196262411 ], [ -120.034420041611099, 38.902313535031773 ], [ -120.034677914237704, 38.902211983061811 ] ] ] } }
]
}
