{
"type": "FeatureCollection",
"name": "X00966",
"crs": { "type": "name", "properties": { "name": "urn:ogc:def:crs:OGC:1.3:CRS84" } },
"features": [
{ "type": "Feature", "properties": { "part": "direct", "crossing_id": "X00966", "area_ac": 1.9, "n_upstream": null }, "geometry": { "type": "Polygon", "coordinates": [ [ [ -119.993482143929896, 38.877392103957362 ], [ -119.993898374782205, 38.87790732684104 ], [ -119.993989975165462, 38.878468238217984 ], [ -119.993893318548828, 38.878573854590343 ], [ -119.993620046110877, 38.878494742232718 ], [ -119.993111962715631, 38.878517684656622 ], [ -119.993168642302209, 38.878266896439484 ], [ -119.993041117226426, 38.878011360937698 ], [ -119.993051745655805, 38.877759385905563 ], [ -119.993174464239303, 38.877582370739994 ], [ -119.993482143929896, 38.877392103957362 ] ] ] } },
{ "type": "Feature", "properties": { "part": "upstream", "crossing_id": "X00966", "area_ac": 8.9, "n_upstream": 2.0 }, "geometry": { "type": "Polygon", "coordinates": [ [ [ -119.992748881352099, 38.876742584199775 ], [ -119.993372330812619, 38.877263149698749 ], [ -119.99345987765318, 38.877373512402819 ], [ -119.993410790728731, 38.877444318627361 ], [ -119.993269755210846, 38.877397336206215 ], [ -119.993362462787047, 38.877497126603629 ], [ -119.993174464239303, 38.877582370739994 ], [ -119.993051745655805, 38.877759385905563 ], [ -119.993041117226426, 38.878011360937698 ], [ -119.993168642302209, 38.878266896439484 ], [ -119.99308514111982, 38.878607082315582 ], [ -119.992921683446937, 38.878656922894066 ], [ -119.992079329990815, 38.879500062698867 ], [ -119.991684090565826, 38.879579961266415 ], [ -119.991063148512865, 38.87954593127435 ], [ -119.991202588130861, 38.878972958564084 ], [ -119.991504202293868, 38.878926682977301 ], [ -119.991375163046698, 38.878707142242973 ], [ -119.991425772095454, 38.878600340628729 ], [ -119.991335188632775, 38.878561969227739 ], [ -119.991386557230584, 38.87843716943943 ], [ -119.991271429110924, 38.878434200613903 ], [ -119.991402508831314, 38.878059207488704 ], [ -119.991496889558888, 38.878007587864303 ], [ -119.991479181067675, 38.877881006802497 ], [ -119.991691726727822, 38.877760362814556 ], [ -119.991674777433914, 38.877615783571699 ], [ -119.991768397882765, 38.877582161888725 ], [ -119.991847347015963, 38.877349966297722 ], [ -119.991985498735431, 38.87735352811049 ], [ -119.992013839954382, 38.877228134321044 ], [ -119.992245611191095, 38.877198073830435 ], [ -119.992248648613312, 38.8771260810081 ], [ -119.99236045836092, 38.877094421436517 ], [ -119.99229697708104, 38.877073273513396 ], [ -119.992423492711382, 38.876806268104666 ], [ -119.992731170792197, 38.876616003228605 ], [ -119.992748881352099, 38.876742584199775 ] ], [ [ -119.992456092571217, 38.877126280582715 ], [ -119.993000889604573, 38.877325648432958 ], [ -119.993059058788461, 38.877327147588105 ], [ -119.992456092571217, 38.877126280582715 ] ] ] } }
]
}
