{
"type": "FeatureCollection",
"name": "X00940",
"crs": { "type": "name", "properties": { "name": "urn:ogc:def:crs:OGC:1.3:CRS84" } },
"features": [
{ "type": "Feature", "properties": { "part": "direct", "crossing_id": "X00940", "area_ac": 0.1, "n_upstream": null }, "geometry": { "type": "MultiPolygon", "coordinates": [ [ [ [ -120.120151736476743, 39.045272075572676 ], [ -120.120174087385109, 39.045290645725608 ], [ -120.120151005015529, 39.045290075330172 ], [ -120.120151736476743, 39.045272075572676 ] ] ], [ [ [ -120.120140357497704, 39.044983509049629 ], [ -120.120325015673032, 39.04498807207235 ], [ -120.120321358617218, 39.045078070877324 ], [ -120.120174818840511, 39.045272645967735 ], [ -120.120227566533828, 39.045111788913758 ], [ -120.120140357497704, 39.044983509049629 ] ] ] ] } },
{ "type": "Feature", "properties": { "part": "upstream", "crossing_id": "X00940", "area_ac": 145.7, "n_upstream": 12.0 }, "geometry": { "type": "MultiPolygon", "coordinates": [ [ [ [ -120.136477556210153, 39.041512231772892 ], [ -120.136003562101493, 39.041806888769699 ], [ -120.135736571484216, 39.042124649346526 ], [ -120.135620435763769, 39.04213981292633 ], [ -120.134714225683027, 39.042838252165254 ], [ -120.134551924890047, 39.042852279644642 ], [ -120.134453047494389, 39.04301200945276 ], [ -120.133790011340366, 39.043410116083969 ], [ -120.133739479483154, 39.043516980590873 ], [ -120.133175316480632, 39.043755354347923 ], [ -120.133124783433942, 39.043862218538592 ], [ -120.132609693266517, 39.044029725137982 ], [ -120.131360836377397, 39.044629616966972 ], [ -120.130517481198225, 39.044915158539162 ], [ -120.130435808573125, 39.044926527152732 ], [ -120.130447504989817, 39.044931453415174 ], [ -120.130140872784281, 39.045086063653528 ], [ -120.130112687775167, 39.045211494641485 ], [ -120.129624309179675, 39.045289556241123 ], [ -120.128192462215921, 39.045272298937604 ], [ -120.12782678943411, 39.045173198060837 ], [ -120.127434387249821, 39.045163526488501 ], [ -120.126643744958031, 39.045288178273282 ], [ -120.126274425034879, 39.045279071885105 ], [ -120.126259357637849, 39.045267943413521 ], [ -120.126162741055722, 39.045309968831724 ], [ -120.126202987790563, 39.045331363867007 ], [ -120.123847845101011, 39.045291281502784 ], [ -120.123096054311617, 39.045597046319422 ], [ -120.122725272298965, 39.045623928232253 ], [ -120.122536957751606, 39.045709367918384 ], [ -120.122413850805259, 39.045706328223488 ], [ -120.122443896649401, 39.04572508795183 ], [ -120.12204418333188, 39.045895396014899 ], [ -120.121836439915768, 39.045890265556444 ], [ -120.121764267849045, 39.045960554445891 ], [ -120.12092598111164, 39.046120026047717 ], [ -120.120923374438405, 39.046085607647441 ], [ -120.120622249829751, 39.04620261116596 ], [ -120.120638339717431, 39.045806616383068 ], [ -120.12007663754099, 39.045414362409574 ], [ -120.120321358617218, 39.045078070877324 ], [ -120.120262351669354, 39.044824363129642 ], [ -120.120705301816344, 39.044727200729682 ], [ -120.120852570219157, 39.044514625087572 ], [ -120.121040152150556, 39.044447187840937 ], [ -120.121035350328228, 39.043996623261151 ], [ -120.12147056524276, 39.043520892108134 ], [ -120.121724465306102, 39.043527163097615 ], [ -120.121985674936653, 39.043353435613419 ], [ -120.122098891074486, 39.04341028499443 ], [ -120.122549868966729, 39.043115117341415 ], [ -120.123042351467674, 39.04302332676604 ], [ -120.123063512069749, 39.042983655477421 ], [ -120.123301634888037, 39.042809355035118 ], [ -120.123282206270531, 39.042718786214628 ], [ -120.12344304689988, 39.042740774147781 ], [ -120.123611192804901, 39.04258276365961 ], [ -120.123911253120966, 39.042590169114405 ], [ -120.124145720708711, 39.042505865947824 ], [ -120.124907412028051, 39.04252465938351 ], [ -120.125048091874788, 39.042474076307393 ], [ -120.125369043476979, 39.042536046927374 ], [ -120.12604862802587, 39.042300557591432 ], [ -120.126059528951487, 39.042323926229152 ], [ -120.126167684896103, 39.042213404195437 ], [ -120.126294902051825, 39.042200076594774 ], [ -120.126284552004776, 39.042180250258369 ], [ -120.127723890117423, 39.041440964512077 ], [ -120.128334213333176, 39.041203754542764 ], [ -120.129356348177765, 39.041066774945712 ], [ -120.130092759836799, 39.041138965184324 ], [ -120.132202117074073, 39.040398102589563 ], [ -120.13272446253491, 39.040050597027026 ], [ -120.133289324628848, 39.039794224290652 ], [ -120.133554860632643, 39.03951246926939 ], [ -120.134521546899549, 39.039031740030239 ], [ -120.134595154571969, 39.038925442412278 ], [ -120.135304303902728, 39.03852846383095 ], [ -120.135666512728648, 39.03814097254476 ], [ -120.135853337481961, 39.038091510240449 ], [ -120.136286046702779, 39.038246286550255 ], [ -120.136727482788018, 39.03818506082883 ], [ -120.13709022634076, 39.038356133165266 ], [ -120.137421348666237, 39.038166069608081 ], [ -120.13779354236361, 39.038103139090225 ], [ -120.138300584388588, 39.038133608076564 ], [ -120.139074421495948, 39.038422875067127 ], [ -120.139993125616499, 39.039130104051168 ], [ -120.139919525603247, 39.039236405372314 ], [ -120.139565323509856, 39.039425909582569 ], [ -120.138991766838799, 39.039898314596172 ], [ -120.136719278304341, 39.041247902286266 ], [ -120.136477556210153, 39.041512231772892 ] ], [ [ -120.120315453114785, 39.045223402277372 ], [ -120.120269342594213, 39.045220928224012 ], [ -120.120315117204186, 39.045231668833935 ], [ -120.120315453114785, 39.045223402277372 ] ], [ [ -120.122022141049598, 39.045300263008038 ], [ -120.122024495141162, 39.045307944074963 ], [ -120.122035140045384, 39.045272339841446 ], [ -120.121870801274184, 39.045315822049204 ], [ -120.121899821792056, 39.045334291615468 ], [ -120.122022141049598, 39.045300263008038 ] ], [ [ -120.121369567841555, 39.044869735413634 ], [ -120.121544721635118, 39.045108293626356 ], [ -120.121683956506729, 39.045196907794988 ], [ -120.121369567841555, 39.044869735413634 ] ], [ [ -120.121509523608069, 39.044837156679549 ], [ -120.121803013618788, 39.045006565960982 ], [ -120.121487172469429, 39.044818586773843 ], [ -120.121369567841555, 39.044869735413634 ], [ -120.121509523608069, 39.044837156679549 ] ], [ [ -120.122182273873477, 39.045219793997113 ], [ -120.122243796274361, 39.0452156474446 ], [ -120.122180270389336, 39.045214078757148 ], [ -120.122182273873477, 39.045219793997113 ] ], [ [ -120.123685504733899, 39.045118468154001 ], [ -120.123578161713709, 39.04510444706122 ], [ -120.122372762666302, 39.045200814151549 ], [ -120.12240284893349, 39.045204927290015 ], [ -120.123685504733899, 39.045118468154001 ] ], [ [ -120.12300213412226, 39.04449563934098 ], [ -120.122184756581532, 39.044709690009043 ], [ -120.12213106244738, 39.044687070271664 ], [ -120.122138592139422, 39.044708550023586 ], [ -120.121927928198744, 39.044775419012595 ], [ -120.121956387547286, 39.044802634880803 ], [ -120.12300213412226, 39.04449563934098 ] ], [ [ -120.122525752337609, 39.043709110776987 ], [ -120.122559796345755, 39.04343968367067 ], [ -120.122506232757459, 39.043731218359255 ], [ -120.122525752337609, 39.043709110776987 ] ], [ [ -120.122964609165223, 39.043143374548514 ], [ -120.122911155180248, 39.043269288644751 ], [ -120.122988718493929, 39.043123876092935 ], [ -120.122824657355309, 39.043175955190563 ], [ -120.122809942907182, 39.04319060679078 ], [ -120.122964609165223, 39.043143374548514 ] ], [ [ -120.125927424714007, 39.04519939166773 ], [ -120.125954190190285, 39.045199103439749 ], [ -120.12595419019064, 39.045199103439934 ], [ -120.12593159439453, 39.04518653428979 ], [ -120.125931107733152, 39.045198534189311 ], [ -120.125927424714007, 39.04519939166773 ] ], [ [ -120.125937677637296, 39.045036535543503 ], [ -120.125821083573882, 39.044493124504605 ], [ -120.125796177072601, 39.044438456684773 ], [ -120.125937677637296, 39.045036535543503 ] ], [ [ -120.12509991421993, 39.044215680385022 ], [ -120.125046997838794, 39.044209769205871 ], [ -120.125083135059768, 39.044220163760208 ], [ -120.12509991421993, 39.044215680385022 ] ], [ [ -120.125038799210316, 39.044232010241195 ], [ -120.12432494001267, 39.04435261358401 ], [ -120.12476587432414, 39.044304934947533 ], [ -120.125038799210316, 39.044232010241195 ] ], [ [ -120.124958563842696, 39.044111492375862 ], [ -120.124955642994124, 39.044183491724233 ], [ -120.12497521902624, 39.044189122618967 ], [ -120.124958563842696, 39.044111492375862 ] ], [ [ -120.125353846315534, 39.043822146910983 ], [ -120.125198876634641, 39.043883188530756 ], [ -120.124958563842696, 39.044111492375862 ], [ -120.125353846315534, 39.043822146910983 ] ], [ [ -120.126644926002768, 39.043106458144258 ], [ -120.126551771993547, 39.042997642803662 ], [ -120.126622044250226, 39.043116491499092 ], [ -120.126644926002768, 39.043106458144258 ] ], [ [ -120.126244684261195, 39.042593677959474 ], [ -120.126093642480143, 39.042397056313639 ], [ -120.126261197298206, 39.042756245876987 ], [ -120.126244684261195, 39.042593677959474 ] ], [ [ -120.125840793386303, 39.044007128538816 ], [ -120.126517838868068, 39.043738940306319 ], [ -120.126499498381833, 39.043717068264073 ], [ -120.125840793386303, 39.044007128538816 ] ], [ [ -120.126974734252244, 39.04396301713512 ], [ -120.127243693292982, 39.044167843789729 ], [ -120.126958078769931, 39.043930574786231 ], [ -120.126974734252244, 39.04396301713512 ] ], [ [ -120.126868708136726, 39.043756493856172 ], [ -120.126839874401455, 39.04366002699016 ], [ -120.126824835433084, 39.043671035924348 ], [ -120.126868708136726, 39.043756493856172 ] ], [ [ -120.127018247378047, 39.043459589780014 ], [ -120.126895809291753, 39.043060178451341 ], [ -120.126875577855785, 39.043022338320945 ], [ -120.12688632324199, 39.043294176769926 ], [ -120.127015328688017, 39.043531589266649 ], [ -120.127018247378047, 39.043459589780014 ] ], [ [ -120.12686820689764, 39.043008551942854 ], [ -120.12684289634889, 39.042961211950349 ], [ -120.126720003901085, 39.043073537396552 ], [ -120.12686820689764, 39.043008551942854 ] ], [ [ -120.126788427290123, 39.042859334649066 ], [ -120.12654182623632, 39.042673076108535 ], [ -120.126822408873494, 39.042922892823263 ], [ -120.126788427290123, 39.042859334649066 ] ], [ [ -120.122212842048057, 39.04437367513151 ], [ -120.122244077455647, 39.044386833705644 ], [ -120.122280908126243, 39.044353174053235 ], [ -120.122212842048057, 39.04437367513151 ] ], [ [ -120.122783004796702, 39.044201944043195 ], [ -120.122787958881247, 39.043559483036589 ], [ -120.122760225188856, 39.043624810615214 ], [ -120.122783004796702, 39.044201944043195 ] ] ], [ [ [ -120.12688632324199, 39.043294176769926 ], [ -120.126910864486547, 39.043258746066869 ], [ -120.126933946332258, 39.043259315099846 ], [ -120.12688632324199, 39.043294176769926 ] ] ], [ [ [ -120.126955568814239, 39.043295883871039 ], [ -120.126932486956164, 39.043295314841899 ], [ -120.126933216644545, 39.043277314970936 ], [ -120.126955568814239, 39.043295883871039 ] ] ] ] } }
]
}
