{
"type": "FeatureCollection",
"name": "X00944",
"crs": { "type": "name", "properties": { "name": "urn:ogc:def:crs:OGC:1.3:CRS84" } },
"features": [
{ "type": "Feature", "properties": { "part": "direct", "crossing_id": "X00944", "area_ac": 1.3 }, "geometry": { "type": "Polygon", "coordinates": [ [ [ -119.958715120985886, 38.909427247123034 ], [ -119.958918592223924, 38.909522640049985 ], [ -119.959057570690234, 38.909508245750672 ], [ -119.959090574311645, 38.909815405211589 ], [ -119.958486281314634, 38.909925772807362 ], [ -119.958155332668611, 38.910115336218631 ], [ -119.95757484013987, 38.910208302106383 ], [ -119.957580992170946, 38.910064321891696 ], [ -119.957817494926914, 38.909926349683673 ], [ -119.957845143586184, 38.909818965267306 ], [ -119.958146905798841, 38.909772782302348 ], [ -119.958312763925349, 38.90966900192911 ], [ -119.958323527135093, 38.90941703635432 ], [ -119.958715120985886, 38.909427247123034 ] ] ] } }
]
}
