{
"type": "FeatureCollection",
"name": "X00923",
"crs": { "type": "name", "properties": { "name": "urn:ogc:def:crs:OGC:1.3:CRS84" } },
"features": [
{ "type": "Feature", "properties": { "part": "direct", "crossing_id": "X00923", "area_ac": 0.1 }, "geometry": { "type": "Polygon", "coordinates": [ [ [ -120.118273076227538, 39.011910602847351 ], [ -120.11860818367154, 39.012189155311184 ], [ -120.118606721688892, 39.012225154981742 ], [ -120.118357320606407, 39.012110882413012 ], [ -120.118225471113234, 39.011945461773337 ], [ -120.118273076227538, 39.011910602847351 ] ] ] } }
]
}
