{
"type": "FeatureCollection",
"name": "X00927",
"crs": { "type": "name", "properties": { "name": "urn:ogc:def:crs:OGC:1.3:CRS84" } },
"features": [
{ "type": "Feature", "properties": { "part": "direct", "crossing_id": "X00927", "area_ac": 0.1 }, "geometry": { "type": "Polygon", "coordinates": [ [ [ -120.119030366533522, 39.011460856187981 ], [ -120.119109496673914, 39.011787134193447 ], [ -120.119002179077754, 39.011586284884224 ], [ -120.118794536625117, 39.011581152769878 ], [ -120.118652453531595, 39.011667730344513 ], [ -120.11891500980974, 39.011458005094418 ], [ -120.119030366533522, 39.011460856187981 ] ] ] } }
]
}
