{
"type": "FeatureCollection",
"name": "X00943",
"crs": { "type": "name", "properties": { "name": "urn:ogc:def:crs:OGC:1.3:CRS84" } },
"features": [
{ "type": "Feature", "properties": { "part": "direct", "crossing_id": "X00943", "area_ac": 3.2 }, "geometry": { "type": "MultiPolygon", "coordinates": [ [ [ [ -120.121791085979339, 39.032213595196119 ], [ -120.121813433428642, 39.032232164932019 ], [ -120.121790355274101, 39.032231595019937 ], [ -120.121791085979339, 39.032213595196119 ] ] ], [ [ [ -120.121788893861662, 39.032267594667424 ], [ -120.121596960987048, 39.032443033405166 ], [ -120.121419335689509, 39.03283503957686 ], [ -120.12122666944434, 39.033028477410831 ], [ -120.121086737234592, 39.033061056735569 ], [ -120.121083082698178, 39.033151055785254 ], [ -120.12089699329556, 39.03318249472909 ], [ -120.120277213763188, 39.033653665019976 ], [ -120.119806867208624, 39.033858256940448 ], [ -120.119529923540085, 39.033851412693068 ], [ -120.11928995479758, 39.03350314240987 ], [ -120.119949315193182, 39.033195116270605 ], [ -120.121043814818549, 39.032411353356039 ], [ -120.121788893861662, 39.032267594667424 ] ] ] ] } }
]
}
