{
"type": "FeatureCollection",
"name": "X00960",
"crs": { "type": "name", "properties": { "name": "urn:ogc:def:crs:OGC:1.3:CRS84" } },
"features": [
{ "type": "Feature", "properties": { "part": "direct", "crossing_id": "X00960", "area_ac": 1.8 }, "geometry": { "type": "Polygon", "coordinates": [ [ [ -119.95527615195104, 38.907878107396499 ], [ -119.955386706801733, 38.907989098588715 ], [ -119.95564085470113, 38.907977714376479 ], [ -119.955613973090863, 38.908067100694076 ], [ -119.955706110825247, 38.908069505414545 ], [ -119.955766750664566, 38.908269281436489 ], [ -119.955633111434139, 38.90869821556042 ], [ -119.95548874768221, 38.908838588286507 ], [ -119.95461573952764, 38.908761746060541 ], [ -119.954624206342004, 38.908563773760143 ], [ -119.954820797411458, 38.908280624968278 ], [ -119.95527615195104, 38.907878107396499 ] ] ] } }
]
}
