{
"type": "FeatureCollection",
"name": "X00930",
"crs": { "type": "name", "properties": { "name": "urn:ogc:def:crs:OGC:1.3:CRS84" } },
"features": [
{ "type": "Feature", "properties": { "part": "direct", "crossing_id": "X00930", "area_ac": 0.0 }, "geometry": { "type": "MultiPolygon", "coordinates": [ [ [ [ -120.118754241358275, 39.011436013532112 ], [ -120.118776581762774, 39.01145458363181 ], [ -120.1187535104239, 39.011454013372095 ], [ -120.118754241358275, 39.011436013532112 ] ] ], [ [ [ -120.118778043619187, 39.011418583951077 ], [ -120.118800384025008, 39.011437154046241 ], [ -120.118777312691307, 39.011436583791443 ], [ -120.118778043619187, 39.011418583951077 ] ] ], [ [ [ -120.118801845868447, 39.011401154364663 ], [ -120.11882418627556, 39.011419724455379 ], [ -120.118801114947047, 39.011419154205498 ], [ -120.118801845868447, 39.011401154364663 ] ] ], [ [ [ -120.118825648106025, 39.011383724772934 ], [ -120.11884798851446, 39.011402294859124 ], [ -120.11882491719112, 39.011401724614167 ], [ -120.118825648106025, 39.011383724772934 ] ] ], [ [ [ -120.11884945033195, 39.011366295175833 ], [ -120.118941004700062, 39.011386575950326 ], [ -120.118848719423539, 39.011384295017521 ], [ -120.11884945033195, 39.011366295175833 ] ] ] ] } }
]
}
