{
"type": "FeatureCollection",
"name": "X00995",
"crs": { "type": "name", "properties": { "name": "urn:ogc:def:crs:OGC:1.3:CRS84" } },
"features": [
{ "type": "Feature", "properties": { "part": "direct", "crossing_id": "X00995", "area_ac": 22.8, "n_upstream": null }, "geometry": { "type": "Polygon", "coordinates": [ [ [ -120.042579284162244, 38.89351171608002 ], [ -120.043228526504905, 38.89397862055911 ], [ -120.043416514855863, 38.89389329526 ], [ -120.043897075353783, 38.894536100321027 ], [ -120.044258865944741, 38.894707428410584 ], [ -120.044682288456244, 38.895060495917221 ], [ -120.04463323776136, 38.895131325039479 ], [ -120.044941614031686, 38.894922921511366 ], [ -120.044946839770603, 38.894796928404567 ], [ -120.04461031875087, 38.894572188803046 ], [ -120.044057669268426, 38.893999631774797 ], [ -120.044266448458828, 38.893968885646409 ], [ -120.044645296296864, 38.894284788076135 ], [ -120.044686133922639, 38.894411948057638 ], [ -120.044998875975068, 38.894654103059125 ], [ -120.045015189353251, 38.894816677594221 ], [ -120.045180146008519, 38.894730766078723 ], [ -120.045363655724344, 38.894753431763938 ], [ -120.046077547143256, 38.895330065555449 ], [ -120.044613597917021, 38.896716404585256 ], [ -120.041851519284535, 38.89826801166128 ], [ -120.041001681308913, 38.897633850406514 ], [ -120.041141373650547, 38.897601357704637 ], [ -120.041310826424422, 38.897407458451802 ], [ -120.041365862065959, 38.897192639345043 ], [ -120.041530828483786, 38.897106733410276 ], [ -120.04163118103061, 38.896911081275157 ], [ -120.042431477422483, 38.896516961041883 ], [ -120.042346072383395, 38.896352634630645 ], [ -120.042365500129549, 38.895884661429633 ], [ -120.042190955825077, 38.895646003340502 ], [ -120.042220713244674, 38.895484596571762 ], [ -120.042544528605589, 38.896015325459864 ], [ -120.042558594955068, 38.896231897016037 ], [ -120.042670768608957, 38.896306812289644 ], [ -120.042641011739661, 38.896468219179852 ], [ -120.042875072499427, 38.896384062805446 ], [ -120.042804608705481, 38.895859757148386 ], [ -120.042425761482178, 38.895543848802561 ], [ -120.042297282012925, 38.895306358679022 ], [ -120.04237534475125, 38.895092122770969 ], [ -120.04261238966717, 38.894935970840656 ], [ -120.042606541465076, 38.894521410495777 ], [ -120.043105151116123, 38.894173690736018 ], [ -120.042415821798713, 38.893561625962512 ], [ -120.042579284162244, 38.89351171608002 ] ] ] } },
{ "type": "Feature", "properties": { "part": "upstream", "crossing_id": "X00995", "area_ac": 83.1, "n_upstream": 5.0 }, "geometry": { "type": "MultiPolygon", "coordinates": [ [ [ [ -120.054147025076716, 38.884182787399645 ], [ -120.053710185602739, 38.884712296251251 ], [ -120.05335280526495, 38.885550115758186 ], [ -120.053008812840332, 38.886063948628973 ], [ -120.052299222792072, 38.887613586211202 ], [ -120.051850380264682, 38.88898962837807 ], [ -120.050702402484688, 38.890546194087847 ], [ -120.048975610073185, 38.892160179735995 ], [ -120.048618292928978, 38.891880871777872 ], [ -120.048974864628036, 38.892178178825056 ], [ -120.048721372878632, 38.892414178161083 ], [ -120.048734114853417, 38.892424340080126 ], [ -120.048708846951072, 38.892477754708359 ], [ -120.04832477007443, 38.892287858619937 ], [ -120.048683579008596, 38.892531169329231 ], [ -120.047876562254373, 38.893645881322691 ], [ -120.047372757172184, 38.894119615969828 ], [ -120.047268694845144, 38.894405269169702 ], [ -120.046078293403525, 38.895312066523168 ], [ -120.045363655724344, 38.894753431763938 ], [ -120.045180146008519, 38.894730766078723 ], [ -120.045015189353251, 38.894816677594221 ], [ -120.044998875975068, 38.894654103059125 ], [ -120.044266448458828, 38.893968885646409 ], [ -120.043802826399968, 38.894029210303415 ], [ -120.044056922533088, 38.894017630778251 ], [ -120.04461031875087, 38.894572188803046 ], [ -120.044946839770603, 38.894796928404567 ], [ -120.044941614031686, 38.894922921511366 ], [ -120.04468079524375, 38.895096493937807 ], [ -120.044258865944741, 38.894707428410584 ], [ -120.043897075353783, 38.894536100321027 ], [ -120.043416514855863, 38.89389329526 ], [ -120.043228526504905, 38.89397862055911 ], [ -120.04280437059009, 38.893643547231697 ], [ -120.042487157899174, 38.893509380648808 ], [ -120.042701912634215, 38.893334645435381 ], [ -120.043327375693551, 38.893818964502032 ], [ -120.042679628187031, 38.893316062627662 ], [ -120.043489586573941, 38.89268794621151 ], [ -120.043698362062244, 38.892657200954091 ], [ -120.04438045615521, 38.89233214269678 ], [ -120.045185163812803, 38.891830006551885 ], [ -120.045474970507229, 38.89151302338459 ], [ -120.04582938995209, 38.891305783180144 ], [ -120.047263455640547, 38.890080831246792 ], [ -120.047506439125598, 38.889780675614887 ], [ -120.047838559365744, 38.889554846776292 ], [ -120.04796265892179, 38.889341771557781 ], [ -120.048485727192102, 38.88895861063839 ], [ -120.04910597764497, 38.889568892720796 ], [ -120.048487218157433, 38.888922612456234 ], [ -120.04985582559442, 38.887605881155807 ], [ -120.050235477719113, 38.887345211151263 ], [ -120.051402715292937, 38.885879225440213 ], [ -120.052166453632339, 38.885249877739113 ], [ -120.053745935155376, 38.883289778602297 ], [ -120.054052001038016, 38.883135345169379 ], [ -120.053910110516341, 38.883221852334678 ], [ -120.053734774998247, 38.883559766502486 ], [ -120.054112870435588, 38.88389363733107 ], [ -120.054147025076716, 38.884182787399645 ] ], [ [ -120.04795776090738, 38.89224253669245 ], [ -120.047987503432665, 38.892081127805341 ], [ -120.047938443898602, 38.892245050892875 ], [ -120.047957015203153, 38.892260535764684 ], [ -120.047933983928615, 38.892259952990074 ], [ -120.04832477007443, 38.892287858619937 ], [ -120.04795776090738, 38.89224253669245 ] ] ], [ [ [ -120.044657763121378, 38.895095910481487 ], [ -120.044680048636479, 38.895114492948039 ], [ -120.044657016508339, 38.895113909491343 ], [ -120.044657763121378, 38.895095910481487 ] ] ], [ [ [ -120.044633984380866, 38.895113326030092 ], [ -120.044656269894617, 38.895131908501092 ], [ -120.04463323776136, 38.895131325039479 ], [ -120.044633984380866, 38.895113326030092 ] ] ], [ [ [ -120.042783070587546, 38.895823175358252 ], [ -120.042868476098661, 38.895987501476853 ], [ -120.042827513280258, 38.896418893095785 ], [ -120.042688571079722, 38.896433388970749 ], [ -120.042459123828124, 38.89585099913247 ], [ -120.04223926203538, 38.895593174328916 ], [ -120.042229680055058, 38.895268608938572 ], [ -120.042326291799384, 38.895162950831846 ], [ -120.042297282012925, 38.895306358679022 ], [ -120.042425761482178, 38.895543848802561 ], [ -120.042783070587546, 38.895823175358252 ] ] ], [ [ [ -120.042687823934017, 38.896451387944403 ], [ -120.042664791415504, 38.896450804077979 ], [ -120.042665538567036, 38.896432805104688 ], [ -120.042687823934017, 38.896451387944403 ] ] ], [ [ [ -120.042664044263304, 38.896468803051192 ], [ -120.042641011739661, 38.896468219179852 ], [ -120.042641758897645, 38.896450220207015 ], [ -120.042664044263304, 38.896468803051192 ] ] ] ] } }
]
}
