{
"type": "FeatureCollection",
"name": "X00908",
"crs": { "type": "name", "properties": { "name": "urn:ogc:def:crs:OGC:1.3:CRS84" } },
"features": [
{ "type": "Feature", "properties": { "part": "direct", "crossing_id": "X00908", "area_ac": 1.2, "n_upstream": null }, "geometry": { "type": "Polygon", "coordinates": [ [ [ -120.01126343311509, 38.850768074842044 ], [ -120.011584165353085, 38.850812324386816 ], [ -120.011895853719778, 38.851072556391905 ], [ -120.01197887851518, 38.851290897144203 ], [ -120.012115475063652, 38.851330430386966 ], [ -120.012269060206563, 38.851514541691792 ], [ -120.012592057180029, 38.851504792762462 ], [ -120.01256301145358, 38.851648192485797 ], [ -120.012966023667104, 38.851928777440627 ], [ -120.012708309755993, 38.85203028809574 ], [ -120.01224645143553, 38.852054500109844 ], [ -120.011896259890989, 38.851613104039167 ], [ -120.01182454087386, 38.851124784108542 ], [ -120.01126343311509, 38.850768074842044 ] ] ] } },
{ "type": "Feature", "properties": { "part": "upstream", "crossing_id": "X00908", "area_ac": 0.8, "n_upstream": 1.0 }, "geometry": { "type": "Polygon", "coordinates": [ [ [ -120.011044570454004, 38.850492200813122 ], [ -120.01108758896666, 38.850565374245832 ], [ -120.011476617594738, 38.850629391179972 ], [ -120.011787551073525, 38.850907622041476 ], [ -120.012106023426057, 38.851005866023243 ], [ -120.012530540499895, 38.851323038852371 ], [ -120.012736942982528, 38.851346340464652 ], [ -120.012710158140308, 38.851435744374463 ], [ -120.012521497916765, 38.851539022285607 ], [ -120.012269060206563, 38.851514541691792 ], [ -120.011584165353085, 38.850812324386816 ], [ -120.011080803949042, 38.850727361629204 ], [ -120.011044570454004, 38.850492200813122 ] ] ] } }
]
}
