{
"type": "FeatureCollection",
"name": "X00939",
"crs": { "type": "name", "properties": { "name": "urn:ogc:def:crs:OGC:1.3:CRS84" } },
"features": [
{ "type": "Feature", "properties": { "part": "direct", "crossing_id": "X00939", "area_ac": 0.7, "n_upstream": null }, "geometry": { "type": "Polygon", "coordinates": [ [ [ -120.128818503736213, 39.066314540043564 ], [ -120.128925193305321, 39.066533382646291 ], [ -120.128324598708886, 39.067095152495675 ], [ -120.128269659805596, 39.067310012215593 ], [ -120.12838072865776, 39.06742085636683 ], [ -120.128217640496644, 39.067452872624429 ], [ -120.128204040642714, 39.067218305935526 ], [ -120.127961004986915, 39.066942048683259 ], [ -120.128575202031755, 39.066614847470817 ], [ -120.128578851412328, 39.066524848345978 ], [ -120.128818503736213, 39.066314540043564 ] ] ] } },
{ "type": "Feature", "properties": { "part": "upstream", "crossing_id": "X00939", "area_ac": 54.0, "n_upstream": 15.0 }, "geometry": { "type": "MultiPolygon", "coordinates": [ [ [ [ -120.135748049783004, 39.062989621545405 ], [ -120.135770410274915, 39.063008189017964 ], [ -120.135747321820645, 39.063007621494528 ], [ -120.135748049783004, 39.062989621545405 ] ] ], [ [ [ -120.136452348020256, 39.062718645882974 ], [ -120.136042580423634, 39.062564432617272 ], [ -120.135707760371631, 39.06301683304568 ], [ -120.135747321820645, 39.063007621494528 ], [ -120.135718409597942, 39.063151053554378 ], [ -120.135552422013632, 39.063255080383136 ], [ -120.135537133479474, 39.063633079218974 ], [ -120.135278789740013, 39.063734835257002 ], [ -120.13512205406974, 39.064181427822732 ], [ -120.134795169425516, 39.064263479735338 ], [ -120.13474808784234, 39.064238053118331 ], [ -120.134836977750524, 39.064372614769532 ], [ -120.134228654852606, 39.064555851570802 ], [ -120.13425369937373, 39.064376289163427 ], [ -120.133150762579277, 39.06434915877157 ], [ -120.133196211611889, 39.0643682947792 ], [ -120.133100941552712, 39.064438022166051 ], [ -120.132108120902373, 39.06441359106671 ], [ -120.132037396507286, 39.064447886028915 ], [ -120.132045906498462, 39.064808452021239 ], [ -120.131974452700646, 39.064860746811689 ], [ -120.13179046988671, 39.064838200423651 ], [ -120.131647561764794, 39.06494278962596 ], [ -120.131443406304015, 39.064847674816697 ], [ -120.131304143379353, 39.064862264207285 ], [ -120.131193073545177, 39.064751422780823 ], [ -120.131220082970216, 39.064680016452336 ], [ -120.131149812386326, 39.064678286389466 ], [ -120.131146166510291, 39.064768285745835 ], [ -120.131067246678299, 39.064781618664746 ], [ -120.13107471212399, 39.064820579961086 ], [ -120.131049189852249, 39.065450575363485 ], [ -120.130883919476645, 39.06553659517725 ], [ -120.130948082280767, 39.065664299772465 ], [ -120.130802983362926, 39.065822887406441 ], [ -120.130822426198421, 39.065913455255995 ], [ -120.130659342447387, 39.065945475112109 ], [ -120.131054048469949, 39.065901140521348 ], [ -120.131091476411953, 39.06611827588975 ], [ -120.131062553165279, 39.066261706325804 ], [ -120.130946376810982, 39.066276863668811 ], [ -120.130984533810761, 39.066475999191397 ], [ -120.130705272008228, 39.066523176310888 ], [ -120.130489443263457, 39.06671605743297 ], [ -120.130352364798739, 39.066676645975811 ], [ -120.130117092500569, 39.066778958457725 ], [ -120.129932375972828, 39.066774408822738 ], [ -120.129912934116916, 39.066683840870105 ], [ -120.129430243043331, 39.066617897115997 ], [ -120.128647123794494, 39.067121118500623 ], [ -120.128661454996518, 39.067337685371655 ], [ -120.12843055781795, 39.067331995332424 ], [ -120.128312189398414, 39.067401149415048 ], [ -120.128324598708886, 39.067095152495675 ], [ -120.128731719561245, 39.066744829074537 ], [ -120.128735368759962, 39.066654829939331 ], [ -120.128925923091728, 39.066515382815645 ], [ -120.128940352269353, 39.066519531569917 ], [ -120.128797603784633, 39.066259971615771 ], [ -120.127922669749026, 39.065607785867854 ], [ -120.127838343592018, 39.06540751142407 ], [ -120.12732773947441, 39.064890425776554 ], [ -120.127420825192956, 39.064874702789922 ], [ -120.127400656820626, 39.064802134343957 ], [ -120.127788057474703, 39.064937808807997 ], [ -120.127907152106772, 39.064850655277723 ], [ -120.128184948832157, 39.06483948432804 ], [ -120.128478072424002, 39.064450316298014 ], [ -120.128615145472907, 39.064489729774152 ], [ -120.128664972054196, 39.064400868511946 ], [ -120.128875689934503, 39.064333989484091 ], [ -120.129128936512089, 39.064358246973043 ], [ -120.12926262134684, 39.063911095098419 ], [ -120.129449519059207, 39.063861645975265 ], [ -120.129538225671183, 39.063953920312358 ], [ -120.129722934784411, 39.063958470297891 ], [ -120.129773489090766, 39.063851608636256 ], [ -120.129959020424224, 39.063888580293884 ], [ -120.129988581046291, 39.06367672836037 ], [ -120.130341473616426, 39.063523259198206 ], [ -120.130689259898659, 39.063495787982234 ], [ -120.130695823210658, 39.06333378916905 ], [ -120.130788906278028, 39.063318063381629 ], [ -120.130841646126299, 39.063157201555931 ], [ -120.131074717651657, 39.063108886690074 ], [ -120.131074212854045, 39.063121348142047 ], [ -120.131353965649538, 39.063061708146897 ], [ -120.131496870213624, 39.062957119149424 ], [ -120.132215524856264, 39.062902736746267 ], [ -120.132565261667153, 39.06339782500384 ], [ -120.132281874541803, 39.062976440975518 ], [ -120.13242186240798, 39.062943850368207 ], [ -120.132546049513877, 39.062730692438592 ], [ -120.13280366435454, 39.062646942361702 ], [ -120.132830396098626, 39.062557510941822 ], [ -120.133137829506495, 39.06238489673121 ], [ -120.133811029721741, 39.062311368217998 ], [ -120.134234628813374, 39.062123590485868 ], [ -120.13419726430601, 39.063618152120675 ], [ -120.134241912019732, 39.061943591202535 ], [ -120.134638050503014, 39.061863243652702 ], [ -120.134604982356365, 39.061538109349883 ], [ -120.134771695237717, 39.06141608380765 ], [ -120.134757345375505, 39.061199516841484 ], [ -120.13559287594525, 39.061111951363202 ], [ -120.136050993555315, 39.061213300915227 ], [ -120.136413322134686, 39.060825812816546 ], [ -120.136448053506996, 39.0605383807058 ], [ -120.137095963461888, 39.06051826495959 ], [ -120.137058324430626, 39.060877697268985 ], [ -120.137126326598562, 39.060338832398436 ], [ -120.137614803699819, 39.060260743086438 ], [ -120.137782963255333, 39.060102712925278 ], [ -120.138269983665722, 39.060060620764155 ], [ -120.138347972995192, 39.059846321722276 ], [ -120.138441050104291, 39.059830589574887 ], [ -120.13877427422004, 39.060163093482423 ], [ -120.138654473376079, 39.060268258986532 ], [ -120.138695558609712, 39.060395392838402 ], [ -120.138291975095996, 39.061232321511035 ], [ -120.138183100090529, 39.061257675448203 ], [ -120.13824434467746, 39.061267187488731 ], [ -120.138048731170997, 39.061532651116501 ], [ -120.137956379096238, 39.061530382871013 ], [ -120.13780912217446, 39.06174298019662 ], [ -120.137692954328429, 39.061758144612085 ], [ -120.137638776190613, 39.061955010159927 ], [ -120.136969751769172, 39.062497127592898 ], [ -120.13673231937436, 39.062653454283648 ], [ -120.136452348020256, 39.062718645882974 ] ], [ [ -120.133133503022108, 39.064204591481811 ], [ -120.133148209820163, 39.064349220226759 ], [ -120.133150762579277, 39.06434915877157 ], [ -120.133133503022108, 39.064204591481811 ] ], [ [ -120.133297310421639, 39.064154568053333 ], [ -120.133355658863195, 39.064078448495451 ], [ -120.133133503022108, 39.064204591481811 ], [ -120.133297310421639, 39.064154568053333 ] ], [ [ -120.13251561561448, 39.063563911739266 ], [ -120.132536342836147, 39.063541256017928 ], [ -120.132565261667153, 39.06339782500384 ], [ -120.13251561561448, 39.063563911739266 ] ], [ [ -120.137817851003689, 39.061526980365869 ], [ -120.137672960212853, 39.061623352350772 ], [ -120.137956379096238, 39.061530382871013 ], [ -120.137817851003689, 39.061526980365869 ] ], [ [ -120.130191720812391, 39.066078101644358 ], [ -120.130590578363851, 39.065910963622116 ], [ -120.130546083993394, 39.065888632637616 ], [ -120.130191720812391, 39.066078101644358 ] ], [ [ -120.130007735598923, 39.066055552346505 ], [ -120.129868470091722, 39.066070139917322 ], [ -120.130191720812391, 39.066078101644358 ], [ -120.130007735598923, 39.066055552346505 ] ], [ [ -120.13001430106705, 39.065893553701365 ], [ -120.130001176704681, 39.065889780223365 ], [ -120.130007735598923, 39.066055552346505 ], [ -120.13001430106705, 39.065893553701365 ] ], [ [ -120.129282484990213, 39.066149726978701 ], [ -120.129284116352679, 39.066150123923045 ], [ -120.129282481423985, 39.066149214792112 ], [ -120.129282484990213, 39.066149726978701 ] ], [ [ -120.129978470530034, 39.065315893903282 ], [ -120.1300206451956, 39.06459642699631 ], [ -120.129973483670867, 39.065189853444437 ], [ -120.129978470530034, 39.065315893903282 ] ], [ [ -120.130133171760718, 39.064671269755152 ], [ -120.130191076322674, 39.064668191420211 ], [ -120.13011722279046, 39.064637093532312 ], [ -120.130133171760718, 39.064671269755152 ] ], [ [ -120.131028918835867, 39.064629791176891 ], [ -120.130981197423893, 39.064613529507298 ], [ -120.130939824584914, 39.064727169703303 ], [ -120.131028918835867, 39.064629791176891 ] ], [ [ -120.131046035030394, 39.06438744612894 ], [ -120.13102294622243, 39.064386877653462 ], [ -120.1310207586248, 39.06444087726419 ], [ -120.131046035030394, 39.06438744612894 ] ], [ [ -120.1310127830195, 39.064368956093602 ], [ -120.13101213101946, 39.06436859354379 ], [ -120.130792787434999, 39.064363192780924 ], [ -120.130792489779424, 39.064370539665326 ], [ -120.1310127830195, 39.064368956093602 ] ], [ [ -120.130376459864252, 39.064370958487125 ], [ -120.130376355669668, 39.064373529895711 ], [ -120.130457270630245, 39.064372948578587 ], [ -120.130376459864252, 39.064370958487125 ] ], [ [ -120.131038799978114, 39.064633158296715 ], [ -120.131055633776541, 39.064721012202995 ], [ -120.131058915163635, 39.064640012788153 ], [ -120.131038799978114, 39.064633158296715 ] ], [ [ -120.131037530056417, 39.064026880233278 ], [ -120.131067181334956, 39.063865449850368 ], [ -120.131059040735138, 39.063495883989383 ], [ -120.131037530056417, 39.064026880233278 ] ], [ [ -120.131302361320778, 39.064462491562423 ], [ -120.131247272047403, 39.064554561065762 ], [ -120.131252805849016, 39.064593504926819 ], [ -120.131302361320778, 39.064462491562423 ] ], [ [ -120.131456398808666, 39.064307459908406 ], [ -120.131396012743295, 39.06430597333177 ], [ -120.13138122570524, 39.064330686742899 ], [ -120.131456398808666, 39.064307459908406 ] ], [ [ -120.132022148130176, 39.064132653736415 ], [ -120.132004339876687, 39.064122751515818 ], [ -120.131889610541876, 39.06417360575206 ], [ -120.132022148130176, 39.064132653736415 ] ], [ [ -120.132040312270817, 39.064375886483731 ], [ -120.132065751233711, 39.064156899075613 ], [ -120.132049545453086, 39.064147887916938 ], [ -120.132040312270817, 39.064375886483731 ] ], [ [ -120.132404865806265, 39.063934412795668 ], [ -120.132147974670573, 39.064000161891812 ], [ -120.132124186029785, 39.06405045028152 ], [ -120.132404865806265, 39.063934412795668 ] ], [ [ -120.132109715420583, 39.064374216312885 ], [ -120.13258319911165, 39.064362820929219 ], [ -120.132110323515548, 39.064359200102359 ], [ -120.132109715420583, 39.064374216312885 ] ], [ [ -120.133144703393484, 39.063894324414029 ], [ -120.13319160218974, 39.063886400218728 ], [ -120.133146618751596, 39.063880593195314 ], [ -120.133144703393484, 39.063894324414029 ] ], [ [ -120.133553974794168, 39.06396076921056 ], [ -120.133620785553219, 39.063830482729699 ], [ -120.133491491993055, 39.063925113270976 ], [ -120.133445942668743, 39.063919233318622 ], [ -120.133553974794168, 39.06396076921056 ] ], [ [ -120.133678365570333, 39.063788339522816 ], [ -120.133788435197758, 39.06375223936621 ], [ -120.133729664073357, 39.063750793730392 ], [ -120.133678365570333, 39.063788339522816 ] ], [ [ -120.133534755212906, 39.063998248873872 ], [ -120.133550305329607, 39.06396792495255 ], [ -120.133498472920763, 39.063997356334909 ], [ -120.133534755212906, 39.063998248873872 ] ], [ [ -120.134627993659564, 39.064218265756935 ], [ -120.134697886433187, 39.06421094158533 ], [ -120.134410670837539, 39.064055828506838 ], [ -120.134627993659564, 39.064218265756935 ] ], [ [ -120.134272138239197, 39.064052421606462 ], [ -120.134267798594465, 39.064079970162332 ], [ -120.134410670837539, 39.064055828506838 ], [ -120.134272138239197, 39.064052421606462 ] ], [ [ -120.134179291076848, 39.064276487197411 ], [ -120.134182393008786, 39.064263506643812 ], [ -120.134171042486216, 39.064266149297566 ], [ -120.134179291076848, 39.064276487197411 ] ], [ [ -120.134261212699883, 39.064322420438295 ], [ -120.134215034996842, 39.064321284757455 ], [ -120.134254476615013, 39.06437071653675 ], [ -120.134261212699883, 39.064322420438295 ] ], [ [ -120.134911811676986, 39.062265688963251 ], [ -120.135236903710947, 39.062256342520911 ], [ -120.134899816076256, 39.062248054816536 ], [ -120.134911811676986, 39.062265688963251 ] ], [ [ -120.136588166556947, 39.062217483751134 ], [ -120.136643759867397, 39.06218281414435 ], [ -120.136197122675711, 39.062171838229631 ], [ -120.136588166556947, 39.062217483751134 ] ], [ [ -120.135937037128016, 39.061955869957103 ], [ -120.135949703610336, 39.062003596665647 ], [ -120.136197122675711, 39.062171838229631 ], [ -120.135937037128016, 39.061955869957103 ] ], [ [ -120.136405844608475, 39.061582378724189 ], [ -120.136586182371161, 39.061694917402342 ], [ -120.136655199975635, 39.061679645874293 ], [ -120.136405844608475, 39.061582378724189 ] ], [ [ -120.137184588863022, 39.061652291014973 ], [ -120.137188654404838, 39.061655666869576 ], [ -120.137374813795532, 39.061624204557681 ], [ -120.137184588863022, 39.061652291014973 ] ], [ [ -120.137786097497411, 39.061280542371279 ], [ -120.13773568279808, 39.061272712143371 ], [ -120.137547342080794, 39.061358175022377 ], [ -120.137786097497411, 39.061280542371279 ] ], [ [ -120.137150636517987, 39.061331199809977 ], [ -120.137075591646976, 39.061022264318645 ], [ -120.137132486599469, 39.061329965617851 ], [ -120.137150636517987, 39.061331199809977 ] ], [ [ -120.13791766521895, 39.061240600349812 ], [ -120.137968744180682, 39.061224383057407 ], [ -120.137984055309715, 39.061226761098176 ], [ -120.137946383620957, 39.061205816001461 ], [ -120.13791766521895, 39.061240600349812 ] ] ] ] } }
]
}
