{
"type": "FeatureCollection",
"name": "X00949",
"crs": { "type": "name", "properties": { "name": "urn:ogc:def:crs:OGC:1.3:CRS84" } },
"features": [
{ "type": "Feature", "properties": { "part": "direct", "crossing_id": "X00949", "area_ac": 1.2, "n_upstream": null }, "geometry": { "type": "MultiPolygon", "coordinates": [ [ [ [ -119.959819957798544, 38.911636177149866 ], [ -119.959842225001367, 38.911654775112986 ], [ -119.959819189319404, 38.911654174709525 ], [ -119.959819957798544, 38.911636177149866 ] ] ], [ [ [ -119.959843761947383, 38.911618779992793 ], [ -119.959866029151613, 38.911637377951493 ], [ -119.959842993474737, 38.91163677755295 ], [ -119.959843761947383, 38.911618779992793 ] ] ], [ [ [ -119.95986756608464, 38.911601382830405 ], [ -119.959889833290248, 38.911619980784593 ], [ -119.959866797618488, 38.911619380390967 ], [ -119.95986756608464, 38.911601382830405 ] ] ], [ [ [ -119.9598913702103, 38.911583985662624 ], [ -119.959913637417287, 38.91160258361235 ], [ -119.959890601750629, 38.911601983223647 ], [ -119.9598913702103, 38.911583985662624 ] ] ], [ [ [ -119.959267124522484, 38.911081239063321 ], [ -119.959289391409726, 38.911099837120865 ], [ -119.959266355918913, 38.911099236615456 ], [ -119.959267124522484, 38.911081239063321 ] ] ], [ [ [ -119.959244857646837, 38.911062641001941 ], [ -119.959267124522484, 38.911081239063321 ], [ -119.959244089038179, 38.91108063855377 ], [ -119.959244857646837, 38.911062641001941 ] ] ], [ [ [ -119.959222590782787, 38.911044042936695 ], [ -119.959244857646837, 38.911062641001941 ], [ -119.959221822168999, 38.911062040488233 ], [ -119.959222590782787, 38.911044042936695 ] ] ], [ [ [ -119.960105623098244, 38.910886883588717 ], [ -119.960238457273121, 38.91101646852519 ], [ -119.960514883136639, 38.91102367197616 ], [ -119.960670753864434, 38.911153856717213 ], [ -119.960153214826818, 38.911392616462301 ], [ -119.959914405871174, 38.911584586050949 ], [ -119.959755461738922, 38.911526390560738 ], [ -119.959289391409726, 38.911099837120865 ], [ -119.960105623098244, 38.910886883588717 ] ] ] ] } },
{ "type": "Feature", "properties": { "part": "upstream", "crossing_id": "X00949", "area_ac": 3.0, "n_upstream": 1.0 }, "geometry": { "type": "MultiPolygon", "coordinates": [ [ [ [ -119.957722244820616, 38.910536463320113 ], [ -119.957699209545453, 38.910535862512766 ], [ -119.957699978529334, 38.910517864985117 ], [ -119.957722244820616, 38.910536463320113 ] ] ], [ [ [ -119.957721475841865, 38.910554460848097 ], [ -119.957722244820616, 38.910536463320113 ], [ -119.957744511123494, 38.91055506165128 ], [ -119.957721475841865, 38.910554460848097 ] ] ], [ [ [ -119.959915174324365, 38.911566588489428 ], [ -119.959485929926316, 38.911897734337749 ], [ -119.959276302304218, 38.911946322531584 ], [ -119.959327754108656, 38.91182154070102 ], [ -119.959121969928802, 38.911780140878477 ], [ -119.959034439185487, 38.911669753384878 ], [ -119.958780278116024, 38.911681144484028 ], [ -119.958693516792749, 38.91155275921723 ], [ -119.958511538235641, 38.911493961445224 ], [ -119.958244337512497, 38.911270782769449 ], [ -119.958163728693023, 38.910998416885064 ], [ -119.957716861954921, 38.910662446014577 ], [ -119.957744511123494, 38.91055506165128 ], [ -119.95787657129776, 38.910702646618063 ], [ -119.958129959996867, 38.910709254888019 ], [ -119.958366463987332, 38.910571281622396 ], [ -119.958598354543014, 38.910541293094553 ], [ -119.959755461738922, 38.911526390560738 ], [ -119.959915174324365, 38.911566588489428 ] ] ] ] } }
]
}
