{
"type": "FeatureCollection",
"name": "X00973",
"crs": { "type": "name", "properties": { "name": "urn:ogc:def:crs:OGC:1.3:CRS84" } },
"features": [
{ "type": "Feature", "properties": { "part": "direct", "crossing_id": "X00973", "area_ac": 4.5 }, "geometry": { "type": "Polygon", "coordinates": [ [ [ -120.037771021550682, 38.895479804248083 ], [ -120.037903227545172, 38.895627304285874 ], [ -120.038201149076116, 38.895670904077591 ], [ -120.038349654516651, 38.895980978527959 ], [ -120.038313153913819, 38.896304374074411 ], [ -120.038148185825449, 38.896390275387034 ], [ -120.038257361744328, 38.896537190336787 ], [ -120.038066367287001, 38.896694502359864 ], [ -120.037350863076028, 38.896712369808938 ], [ -120.037020922407535, 38.896884169285464 ], [ -120.036743034652616, 38.896913146860747 ], [ -120.036699964242644, 38.89683998126732 ], [ -120.036153923201965, 38.896663948960253 ], [ -120.03569552105742, 38.896598248361919 ], [ -120.035838208861747, 38.896493766581457 ], [ -120.036160662384063, 38.896501959158385 ], [ -120.036521122473005, 38.896150758463534 ], [ -120.037056105306618, 38.896038221849409 ], [ -120.037395023421809, 38.895650435420833 ], [ -120.037771021550682, 38.895479804248083 ] ] ] } }
]
}
