{
"type": "FeatureCollection",
"name": "X00905",
"crs": { "type": "name", "properties": { "name": "urn:ogc:def:crs:OGC:1.3:CRS84" } },
"features": [
{ "type": "Feature", "properties": { "part": "direct", "crossing_id": "X00905", "area_ac": 8.0 }, "geometry": { "type": "Polygon", "coordinates": [ [ [ -119.992365293374931, 38.877093052371457 ], [ -119.993000889604573, 38.877325648432958 ], [ -119.993208117342093, 38.877330989041184 ], [ -119.993362462787047, 38.877497126603629 ], [ -119.993174464239303, 38.877582370739994 ], [ -119.993051745655805, 38.877759385905563 ], [ -119.993041117226426, 38.878011360937698 ], [ -119.993168642302209, 38.878266896439484 ], [ -119.99308514111982, 38.878607082315582 ], [ -119.992921683446937, 38.878656922894066 ], [ -119.992079329990815, 38.879500062698867 ], [ -119.991684090565826, 38.879579961266415 ], [ -119.991063148512865, 38.87954593127435 ], [ -119.991202588130861, 38.878972958564084 ], [ -119.991504202293868, 38.878926682977301 ], [ -119.991375163046698, 38.878707142242973 ], [ -119.991425772095454, 38.878600340628729 ], [ -119.991335188632775, 38.878561969227739 ], [ -119.991386557230584, 38.87843716943943 ], [ -119.991271429110924, 38.878434200613903 ], [ -119.991402508831314, 38.878059207488704 ], [ -119.991496889558888, 38.878007587864303 ], [ -119.991479181067675, 38.877881006802497 ], [ -119.991691726727822, 38.877760362814556 ], [ -119.991674777433914, 38.877615783571699 ], [ -119.991768397882765, 38.877582161888725 ], [ -119.991847347015963, 38.877349966297722 ], [ -119.991985498735431, 38.87735352811049 ], [ -119.992013839954382, 38.877228134321044 ], [ -119.992245611191095, 38.877198073830435 ], [ -119.992248648613312, 38.8771260810081 ], [ -119.992365293374931, 38.877093052371457 ] ] ] } }
]
}
