{
"type": "FeatureCollection",
"name": "X00906",
"crs": { "type": "name", "properties": { "name": "urn:ogc:def:crs:OGC:1.3:CRS84" } },
"features": [
{ "type": "Feature", "properties": { "part": "direct", "crossing_id": "X00906", "area_ac": 0.9 }, "geometry": { "type": "Polygon", "coordinates": [ [ [ -119.992731170792197, 38.876616003228605 ], [ -119.992748881352099, 38.876742584199775 ], [ -119.993372330812619, 38.877263149698749 ], [ -119.99345987765318, 38.877373512402819 ], [ -119.993410790728731, 38.877444318627361 ], [ -119.99229697708104, 38.877073273513396 ], [ -119.992423492711382, 38.876806268104666 ], [ -119.992731170792197, 38.876616003228605 ] ] ] } }
]
}
