{
"type": "FeatureCollection",
"name": "X00977",
"crs": { "type": "name", "properties": { "name": "urn:ogc:def:crs:OGC:1.3:CRS84" } },
"features": [
{ "type": "Feature", "properties": { "part": "direct", "crossing_id": "X00977", "area_ac": 4.9 }, "geometry": { "type": "Polygon", "coordinates": [ [ [ -120.040847148750686, 38.894693011734503 ], [ -120.041376744358786, 38.895264999020647 ], [ -120.041275646259791, 38.895478650001657 ], [ -120.041159737886076, 38.895493728244091 ], [ -120.041244391738175, 38.895676054350993 ], [ -120.041033363902116, 38.895760791659924 ], [ -120.040674422568884, 38.896076009389482 ], [ -120.040228582592761, 38.896262895975504 ], [ -120.03999003250081, 38.896455040510837 ], [ -120.039757464237596, 38.896503193098077 ], [ -120.039446822612391, 38.896765578764267 ], [ -120.039267050312759, 38.896652909057018 ], [ -120.039368904204551, 38.896421261236028 ], [ -120.039126768032048, 38.896144847516872 ], [ -120.039132752304752, 38.896000856181736 ], [ -120.039343782912965, 38.895916122432453 ], [ -120.039967300187882, 38.895337353597675 ], [ -120.040749040388405, 38.894834666456291 ], [ -120.040847148750686, 38.894693011734503 ] ] ] } }
]
}
