{
"type": "FeatureCollection",
"name": "X00984",
"crs": { "type": "name", "properties": { "name": "urn:ogc:def:crs:OGC:1.3:CRS84" } },
"features": [
{ "type": "Feature", "properties": { "part": "direct", "crossing_id": "X00984", "area_ac": 2.6 }, "geometry": { "type": "MultiPolygon", "coordinates": [ [ [ [ -120.03250379827702, 38.900156714691533 ], [ -120.032526081970474, 38.900175299405426 ], [ -120.032503048460924, 38.900174713487715 ], [ -120.03250379827702, 38.900156714691533 ] ] ], [ [ [ -120.033212794891298, 38.899742318839664 ], [ -120.033494989110054, 38.900163906228151 ], [ -120.034446466010223, 38.901125027161967 ], [ -120.034213129833219, 38.901191166734016 ], [ -120.033822303593581, 38.90116321214208 ], [ -120.033641030985351, 38.901086531372599 ], [ -120.033287482622029, 38.900717183348412 ], [ -120.032851341911424, 38.900670055260115 ], [ -120.032526081970474, 38.900175299405426 ], [ -120.032641999309618, 38.900160230127497 ], [ -120.033212794891298, 38.899742318839664 ] ] ] ] } }
]
}
