{
"type": "FeatureCollection",
"name": "X00992",
"crs": { "type": "name", "properties": { "name": "urn:ogc:def:crs:OGC:1.3:CRS84" } },
"features": [
{ "type": "Feature", "properties": { "part": "direct", "crossing_id": "X00992", "area_ac": 0.7 }, "geometry": { "type": "Polygon", "coordinates": [ [ [ -120.035954164084814, 38.903127293539988 ], [ -120.035962967152884, 38.903469856832565 ], [ -120.03618207897766, 38.903745692078914 ], [ -120.036086194984321, 38.903833345303894 ], [ -120.035651531022353, 38.903750229217195 ], [ -120.035457703416327, 38.903420981932086 ], [ -120.035509765800839, 38.903278161995807 ], [ -120.035954164084814, 38.903127293539988 ] ] ] } }
]
}
