{
"type": "FeatureCollection",
"name": "X00978",
"crs": { "type": "name", "properties": { "name": "urn:ogc:def:crs:OGC:1.3:CRS84" } },
"features": [
{ "type": "Feature", "properties": { "part": "direct", "crossing_id": "X00978", "area_ac": 0.2, "n_upstream": null }, "geometry": { "type": "Polygon", "coordinates": [ [ [ -120.038990818181887, 38.896087343315259 ], [ -120.03880281902137, 38.896172661016479 ], [ -120.038776046040084, 38.8962620709408 ], [ -120.038888215526384, 38.896336989700245 ], [ -120.038786360235349, 38.896568637047785 ], [ -120.038489182736342, 38.896507039691592 ], [ -120.03844536249288, 38.896451873582983 ], [ -120.038568754681435, 38.896256809056446 ], [ -120.038705452621542, 38.896296314838885 ], [ -120.038781282922656, 38.896136078565291 ], [ -120.038990818181887, 38.896087343315259 ] ] ] } },
{ "type": "Feature", "properties": { "part": "upstream", "crossing_id": "X00978", "area_ac": 6.2, "n_upstream": 1.0 }, "geometry": { "type": "Polygon", "coordinates": [ [ [ -120.041166745614632, 38.89421463423691 ], [ -120.041209819304811, 38.894287798325813 ], [ -120.041084195435062, 38.894536862981276 ], [ -120.039967300187882, 38.895337353597675 ], [ -120.039343782912965, 38.895916122432453 ], [ -120.039059915157594, 38.896089097061392 ], [ -120.038781282922656, 38.896136078565291 ], [ -120.038705452621542, 38.896296314838885 ], [ -120.038568754681435, 38.896256809056446 ], [ -120.038468394923811, 38.896452458281722 ], [ -120.038145940951466, 38.896444272086491 ], [ -120.038221024398311, 38.896302035137154 ], [ -120.038313153913819, 38.896304374074411 ], [ -120.038349654516651, 38.895980978527959 ], [ -120.038201149076116, 38.895670904077591 ], [ -120.037903227545172, 38.895627304285874 ], [ -120.037748737815164, 38.895461220527693 ], [ -120.038361040312665, 38.895152444151655 ], [ -120.039131569084248, 38.894919751946162 ], [ -120.039766145270264, 38.894629551217335 ], [ -120.041166745614632, 38.89421463423691 ] ] ] } }
]
}
