{
"type": "FeatureCollection",
"name": "X01052",
"crs": { "type": "name", "properties": { "name": "urn:ogc:def:crs:OGC:1.3:CRS84" } },
"features": [
{ "type": "Feature", "properties": { "part": "direct", "crossing_id": "X01052", "area_ac": 12.6 }, "geometry": { "type": "Polygon", "coordinates": [ [ [ -120.035577335702996, 38.8922349150305 ], [ -120.035643433483486, 38.892308666138781 ], [ -120.03591980593977, 38.892315688232308 ], [ -120.036222952877779, 38.892233300357276 ], [ -120.036973074755309, 38.893045141948242 ], [ -120.039061725216513, 38.894935997205756 ], [ -120.038361040312665, 38.895152444151655 ], [ -120.03772570571941, 38.895460635699429 ], [ -120.036658346212548, 38.894514615743866 ], [ -120.036566219147417, 38.894512275590813 ], [ -120.035561992501243, 38.893711992691706 ], [ -120.035367440766294, 38.893400744714597 ], [ -120.035089566278003, 38.893429718868681 ], [ -120.035056985310092, 38.89310456874648 ], [ -120.035224944731411, 38.892946676163362 ], [ -120.035577335702996, 38.8922349150305 ] ] ] } }
]
}
