{
"type": "FeatureCollection",
"name": "X01012",
"crs": { "type": "name", "properties": { "name": "urn:ogc:def:crs:OGC:1.3:CRS84" } },
"features": [
{ "type": "Feature", "properties": { "part": "direct", "crossing_id": "X01012", "area_ac": 1.8, "n_upstream": null }, "geometry": { "type": "Polygon", "coordinates": [ [ [ -120.019568403750256, 38.80858415886194 ], [ -120.019676666941379, 38.808749085196354 ], [ -120.019649159506955, 38.80885649110688 ], [ -120.019810186161024, 38.808860602108723 ], [ -120.020069982663216, 38.808705071933439 ], [ -120.020278517479852, 38.808674358946483 ], [ -120.020383780765471, 38.808911280208925 ], [ -120.020589314582338, 38.808952562212461 ], [ -120.01993770144243, 38.809116109858572 ], [ -120.019929445385728, 38.80931409744305 ], [ -120.019306086619522, 38.809352236562034 ], [ -120.019300080900663, 38.809496227444747 ], [ -120.019138302132149, 38.80951011454102 ], [ -120.019078299383565, 38.809292366008918 ], [ -120.018921776702598, 38.809180260832406 ], [ -120.018907782480923, 38.808963687122628 ], [ -120.019195089336321, 38.808700753282245 ], [ -120.019568403750256, 38.80858415886194 ] ] ] } },
{ "type": "Feature", "properties": { "part": "upstream", "crossing_id": "X01012", "area_ac": 7.6, "n_upstream": 1.0 }, "geometry": { "type": "Polygon", "coordinates": [ [ [ -120.024141369683051, 38.807709830165301 ], [ -120.024755721567445, 38.807887651987741 ], [ -120.02465246722258, 38.808155291100832 ], [ -120.024389684497066, 38.808382827755707 ], [ -120.022719169315536, 38.808682577401505 ], [ -120.02223608937463, 38.80867025580573 ], [ -120.021955543659317, 38.808771207434773 ], [ -120.021539974626194, 38.808796641260734 ], [ -120.021211919382068, 38.808932414962001 ], [ -120.020406034180439, 38.808929866244519 ], [ -120.020278517479852, 38.808674358946483 ], [ -120.020069982663216, 38.808705071933439 ], [ -120.019810186161024, 38.808860602108723 ], [ -120.019603902521325, 38.808837317627152 ], [ -120.019676666941379, 38.808749085196354 ], [ -120.019551405063964, 38.808439580608045 ], [ -120.019832703023965, 38.80832063596651 ], [ -120.020133251312956, 38.80829227219531 ], [ -120.020449299075509, 38.808444483602635 ], [ -120.021578731022117, 38.808419251286736 ], [ -120.022266837033541, 38.807932300408702 ], [ -120.022641642631299, 38.80777969794768 ], [ -120.023036451252963, 38.807699676544637 ], [ -120.024141369683051, 38.807709830165301 ] ] ] } }
]
}
