{
"type": "FeatureCollection",
"name": "X01045",
"crs": { "type": "name", "properties": { "name": "urn:ogc:def:crs:OGC:1.3:CRS84" } },
"features": [
{ "type": "Feature", "properties": { "part": "direct", "crossing_id": "X01045", "area_ac": 2.8 }, "geometry": { "type": "Polygon", "coordinates": [ [ [ -120.026941429331274, 38.837817223886979 ], [ -120.027445473344258, 38.837884116597834 ], [ -120.02732366167389, 38.838043176010046 ], [ -120.027318415427402, 38.838169168331838 ], [ -120.027500274384167, 38.838227854196028 ], [ -120.027351701403873, 38.838476321997625 ], [ -120.027363252793222, 38.839305443782777 ], [ -120.026513243282551, 38.839247754734551 ], [ -120.026483936055314, 38.838292054699224 ], [ -120.026941429331274, 38.837817223886979 ] ] ] } }
]
}
