{
"type": "FeatureCollection",
"name": "X01053",
"crs": { "type": "name", "properties": { "name": "urn:ogc:def:crs:OGC:1.3:CRS84" } },
"features": [
{ "type": "Feature", "properties": { "part": "direct", "crossing_id": "X01053", "area_ac": 0.2 }, "geometry": { "type": "Polygon", "coordinates": [ [ [ -120.134269215060527, 39.058412765137284 ], [ -120.134753312585701, 39.058442687095074 ], [ -120.134772030976052, 39.0585512544463 ], [ -120.134213574154444, 39.05864562880798 ], [ -120.134269215060527, 39.058412765137284 ] ] ] } }
]
}
