{
"type": "FeatureCollection",
"name": "X01070",
"crs": { "type": "name", "properties": { "name": "urn:ogc:def:crs:OGC:1.3:CRS84" } },
"features": [
{ "type": "Feature", "properties": { "part": "direct", "crossing_id": "X01070", "area_ac": 0.1 }, "geometry": { "type": "Polygon", "coordinates": [ [ [ -120.082083776108021, 38.925353302142646 ], [ -120.082089107656742, 38.925785867085011 ], [ -120.082058685033829, 38.925965285819188 ], [ -120.081989556415593, 38.925963556410721 ], [ -120.081988653463796, 38.925422994383403 ], [ -120.082083776108021, 38.925353302142646 ] ] ] } }
]
}
