{
"type": "FeatureCollection",
"name": "X01001",
"crs": { "type": "name", "properties": { "name": "urn:ogc:def:crs:OGC:1.3:CRS84" } },
"features": [
{ "type": "Feature", "properties": { "part": "direct", "crossing_id": "X01001", "area_ac": 7.2 }, "geometry": { "type": "Polygon", "coordinates": [ [ [ -120.026536739963859, 38.797734803321902 ], [ -120.025824266087639, 38.798257197203128 ], [ -120.025686262938834, 38.798253681408049 ], [ -120.025474016210154, 38.798374400380624 ], [ -120.024364746215653, 38.798472258924697 ], [ -120.023988495566812, 38.798660867147063 ], [ -120.023389730322464, 38.798663620292778 ], [ -120.023003217077246, 38.798545656490965 ], [ -120.02206094438823, 38.798503606792757 ], [ -120.021835437855231, 38.798389745990974 ], [ -120.021446679329159, 38.798325773984104 ], [ -120.020749915422286, 38.798470157768811 ], [ -120.020105151771645, 38.798471720197895 ], [ -120.019327638456602, 38.798343763472097 ], [ -120.019863400748804, 38.798195278481415 ], [ -120.020323408525854, 38.79820702007391 ], [ -120.020838417712525, 38.79800394669342 ], [ -120.022466196309225, 38.798171599995548 ], [ -120.023030947852178, 38.797879695126554 ], [ -120.023603708763119, 38.797948353046777 ], [ -120.023651957466313, 38.797895528907453 ], [ -120.024482967457359, 38.797844639566598 ], [ -120.025375488973339, 38.79797549233399 ], [ -120.026233991866107, 38.797817182518273 ], [ -120.026518979690692, 38.797608224411043 ], [ -120.026536739963859, 38.797734803321902 ] ] ] } }
]
}
