{
"type": "FeatureCollection",
"name": "X01026",
"crs": { "type": "name", "properties": { "name": "urn:ogc:def:crs:OGC:1.3:CRS84" } },
"features": [
{ "type": "Feature", "properties": { "part": "direct", "crossing_id": "X01026", "area_ac": 45.7, "n_upstream": null }, "geometry": { "type": "Polygon", "coordinates": [ [ [ -120.028486215884783, 38.809550241481404 ], [ -120.028547744593396, 38.80973198828395 ], [ -120.028820054273226, 38.809829009764115 ], [ -120.028828091947858, 38.810189575562134 ], [ -120.029309498142837, 38.810796423413372 ], [ -120.029295281584936, 38.811138404779427 ], [ -120.02920026954321, 38.811208059085551 ], [ -120.029257311670094, 38.811497799697172 ], [ -120.029138545919295, 38.811584867497828 ], [ -120.029169589828555, 38.811946018719617 ], [ -120.029067841591555, 38.812177663975874 ], [ -120.029179125432861, 38.81227058643281 ], [ -120.029147140544509, 38.812485989111373 ], [ -120.029305931920774, 38.812544084387198 ], [ -120.029404496185691, 38.81294298990867 ], [ -120.029495020997317, 38.812981329635619 ], [ -120.02946902265046, 38.813052740280789 ], [ -120.029307236849135, 38.81306664123364 ], [ -120.02934875786255, 38.81317580621176 ], [ -120.029161721364744, 38.813243118534864 ], [ -120.028778666103179, 38.813593730273844 ], [ -120.028771181651592, 38.813773720296467 ], [ -120.028610142623265, 38.813769621210923 ], [ -120.028388121540473, 38.814124330537602 ], [ -120.028253081807222, 38.81404882060032 ], [ -120.027815225777474, 38.814055690976716 ], [ -120.027704689884033, 38.813944768219635 ], [ -120.026970008500143, 38.813890023000852 ], [ -120.026903238534075, 38.813834268295423 ], [ -120.026233830360084, 38.813871271119112 ], [ -120.023891765175364, 38.813703475056691 ], [ -120.023750733625732, 38.813771951488796 ], [ -120.023312879951533, 38.813778805014628 ], [ -120.022881775666605, 38.813623666742089 ], [ -120.022559700042947, 38.813615452140937 ], [ -120.022347401064181, 38.813736163137975 ], [ -120.022118096905487, 38.813712295696561 ], [ -120.022069835667565, 38.813765118610547 ], [ -120.021931803070302, 38.813761597205776 ], [ -120.021707750591489, 38.813611736743567 ], [ -120.021702499022112, 38.81373772894969 ], [ -120.021488697750087, 38.813894436077682 ], [ -120.020987080154867, 38.813773527664978 ], [ -120.021159373507231, 38.813507654093065 ], [ -120.021432192843136, 38.812487588120021 ], [ -120.021469452584299, 38.812146196265175 ], [ -120.021312169696444, 38.812052092834499 ], [ -120.021293666529246, 38.811943512507547 ], [ -120.021614233850087, 38.811987728083679 ], [ -120.021663994502148, 38.811898907527436 ], [ -120.022078831563235, 38.811891472880788 ], [ -120.022617692174052, 38.811670983711146 ], [ -120.023401354322985, 38.811654932855021 ], [ -120.023520126814944, 38.81156787117726 ], [ -120.024330540318545, 38.811462405941406 ], [ -120.026196922719706, 38.81143789469381 ], [ -120.026615502304324, 38.811340448931574 ], [ -120.026711265816218, 38.81125279786248 ], [ -120.028021039022889, 38.81132218718372 ], [ -120.028186563630712, 38.811218292864964 ], [ -120.028369104637378, 38.811258975932368 ], [ -120.028561375502363, 38.811065671638737 ], [ -120.028476841185622, 38.810883339245635 ], [ -120.028540812690466, 38.810452534233015 ], [ -120.028477786638746, 38.810306785438279 ], [ -120.028551290473956, 38.810200548108696 ], [ -120.028418503027595, 38.810071041579398 ], [ -120.028486215884783, 38.809550241481404 ] ] ] } },
{ "type": "Feature", "properties": { "part": "upstream", "crossing_id": "X01026", "area_ac": 73.8, "n_upstream": 2.0 }, "geometry": { "type": "Polygon", "coordinates": [ [ [ -120.040368136777758, 38.802897099108094 ], [ -120.040569196170324, 38.803046341076886 ], [ -120.040455674753289, 38.803007427018734 ], [ -120.040077947957926, 38.803232086181261 ], [ -120.038961045526179, 38.804068631949953 ], [ -120.038569254522926, 38.804076712017412 ], [ -120.038265745143448, 38.804177121038414 ], [ -120.038167021923968, 38.804336779353577 ], [ -120.037358817770581, 38.804946905337196 ], [ -120.037330592430564, 38.805072315750039 ], [ -120.036790331569051, 38.805328875164619 ], [ -120.03562361912816, 38.806254213843467 ], [ -120.035416589433737, 38.806248956544543 ], [ -120.035111573411186, 38.806385355049947 ], [ -120.034327219885483, 38.806419486084138 ], [ -120.033852960905449, 38.806749780591673 ], [ -120.033578413957471, 38.806706768316026 ], [ -120.03312267017111, 38.807145638743357 ], [ -120.033084722853104, 38.807505035961583 ], [ -120.032894715704273, 38.807644351408101 ], [ -120.032710686185581, 38.80763967383362 ], [ -120.032614187530967, 38.807745329438873 ], [ -120.032475417872675, 38.807759820027165 ], [ -120.031999646543568, 38.808126104397182 ], [ -120.031898661084583, 38.808339753759284 ], [ -120.03178364161613, 38.808336829284855 ], [ -120.031756152405876, 38.808444238780424 ], [ -120.03147412432584, 38.808581211998415 ], [ -120.031491894906338, 38.808707790402082 ], [ -120.031301133785604, 38.808865102039363 ], [ -120.031362669275708, 38.809046847634448 ], [ -120.031249144122938, 38.80900792447374 ], [ -120.03124465792466, 38.809115918815245 ], [ -120.031335179096672, 38.809154256983845 ], [ -120.031225217453994, 38.809583894266837 ], [ -120.031339316909694, 38.81016337417195 ], [ -120.031221303622985, 38.810232445244154 ], [ -120.031255348905162, 38.810521600166084 ], [ -120.031033351775946, 38.810876315613577 ], [ -120.031148375249757, 38.810879240986537 ], [ -120.031301930781964, 38.811063326838529 ], [ -120.031425752838615, 38.811408818980837 ], [ -120.031166717012923, 38.811546375924181 ], [ -120.031291286857382, 38.811873869143533 ], [ -120.031451574285555, 38.811895963417989 ], [ -120.031355815428853, 38.811983618565478 ], [ -120.031420344190167, 38.812093367957736 ], [ -120.031368351996932, 38.812236190293618 ], [ -120.031458129356949, 38.812292527557226 ], [ -120.031713429134328, 38.812244965340817 ], [ -120.031821726107907, 38.812409881636917 ], [ -120.031633946045588, 38.812495197156402 ], [ -120.03152340624689, 38.812384277853887 ], [ -120.031445417803639, 38.812598511404104 ], [ -120.031167111340935, 38.812645487895033 ], [ -120.031323661549933, 38.812757577638962 ], [ -120.031272416392554, 38.812882400845467 ], [ -120.030536993727594, 38.812845677445495 ], [ -120.030260863426733, 38.812900549161618 ], [ -120.030318725364523, 38.813110395832965 ], [ -120.029901635744665, 38.813171856604491 ], [ -120.029804376905119, 38.813295508361335 ], [ -120.029572077779505, 38.813343651601009 ], [ -120.029209036089341, 38.813766846259682 ], [ -120.0295339169014, 38.814261601346217 ], [ -120.029077349671482, 38.814718451605295 ], [ -120.029204907878338, 38.814973950721473 ], [ -120.029086136012083, 38.81506101819356 ], [ -120.028912566277185, 38.814804347864523 ], [ -120.02885627222858, 38.814496608176611 ], [ -120.029073053635869, 38.814267890971436 ], [ -120.02885422281517, 38.813992050567748 ], [ -120.028754163686912, 38.813629142711825 ], [ -120.029114213838966, 38.813277945575621 ], [ -120.02934875786255, 38.81317580621176 ], [ -120.029330990499645, 38.813049227671421 ], [ -120.029492028011262, 38.813053325699848 ], [ -120.029305931920774, 38.812544084387198 ], [ -120.029147140544509, 38.812485989111373 ], [ -120.029179125432861, 38.81227058643281 ], [ -120.029067841591555, 38.812177663975874 ], [ -120.029169589828555, 38.811946018719617 ], [ -120.029138545919295, 38.811584867497828 ], [ -120.029257311670094, 38.811497799697172 ], [ -120.02920026954321, 38.811208059085551 ], [ -120.029322775757109, 38.811030996093379 ], [ -120.02926872658054, 38.81066925941996 ], [ -120.028828091947858, 38.810189575562134 ], [ -120.028820054273226, 38.809829009764115 ], [ -120.028525488722849, 38.809713403710397 ], [ -120.028552983354643, 38.809605995207086 ], [ -120.028332670852393, 38.80936615229561 ], [ -120.028360165603971, 38.809258743838335 ], [ -120.028133118418268, 38.809180891671808 ], [ -120.028099086127014, 38.808891736304318 ], [ -120.027987060226849, 38.808816812037676 ], [ -120.028105822485287, 38.808729745247547 ], [ -120.028042798630651, 38.808583996275416 ], [ -120.028182318918795, 38.808551512052176 ], [ -120.028341297816453, 38.808051053353388 ], [ -120.028607060557079, 38.807751511170174 ], [ -120.028593785215421, 38.807516938411119 ], [ -120.028920324604911, 38.807417141159647 ], [ -120.028806803469763, 38.807378215767116 ], [ -120.028841030861415, 38.807108815898218 ], [ -120.028680755121144, 38.807086718475972 ], [ -120.028392187732763, 38.806827120342923 ], [ -120.028450167869238, 38.806540307148332 ], [ -120.028630452390004, 38.806634986431497 ], [ -120.029046007896, 38.806609526741909 ], [ -120.02966335651395, 38.806715326718198 ], [ -120.03008713955083, 38.806491873852366 ], [ -120.0303156764855, 38.806533723895015 ], [ -120.03050493748556, 38.806412411761087 ], [ -120.030685224622701, 38.806507087964988 ], [ -120.030783219727766, 38.806365435867306 ], [ -120.030992491963943, 38.806316704205706 ], [ -120.031707087309044, 38.80629884001921 ], [ -120.032172383890682, 38.806184543462258 ], [ -120.032222127192469, 38.8060957176492 ], [ -120.032452906347842, 38.806083566253811 ], [ -120.033044423725116, 38.805702203382879 ], [ -120.033120157178971, 38.805541965354415 ], [ -120.033805172091689, 38.805126938441482 ], [ -120.034050885758546, 38.804754801472761 ], [ -120.034335880929149, 38.804545824673696 ], [ -120.03459264464243, 38.804462256688446 ], [ -120.034879130405287, 38.804217280186307 ], [ -120.035040148844914, 38.80422136979 ], [ -120.03520937961116, 38.804027468667918 ], [ -120.035586378606453, 38.803820825207531 ], [ -120.035840899165692, 38.803791251745615 ], [ -120.036122900044532, 38.803654266799647 ], [ -120.038055110448639, 38.803703306260701 ], [ -120.038413572040156, 38.803388074517457 ], [ -120.039228349818103, 38.803174505940092 ], [ -120.039420569270547, 38.802981181505558 ], [ -120.039842065041398, 38.802811688649022 ], [ -120.040368136777758, 38.802897099108094 ] ], [ [ -120.029699076288651, 38.813058594267936 ], [ -120.030173528016974, 38.812917904014895 ], [ -120.029492028011262, 38.813053325699848 ], [ -120.029699076288651, 38.813058594267936 ] ] ] } }
]
}
