{
"type": "FeatureCollection",
"name": "X01006",
"crs": { "type": "name", "properties": { "name": "urn:ogc:def:crs:OGC:1.3:CRS84" } },
"features": [
{ "type": "Feature", "properties": { "part": "direct", "crossing_id": "X01006", "area_ac": 6.8 }, "geometry": { "type": "Polygon", "coordinates": [ [ [ -120.021907479920969, 38.801634834429279 ], [ -120.022878555694035, 38.802092035802218 ], [ -120.023426849226524, 38.802196107185509 ], [ -120.024302414466888, 38.802182392002116 ], [ -120.024676213454001, 38.802606334786915 ], [ -120.023300597754499, 38.802463158976785 ], [ -120.020449876947836, 38.802354400152694 ], [ -120.020143351342085, 38.802526756922532 ], [ -120.019772321291569, 38.802589357909156 ], [ -120.019340540997334, 38.80245220814966 ], [ -120.018858255252596, 38.802421875365098 ], [ -120.018894768266108, 38.80209848297757 ], [ -120.018991278315426, 38.801992839133142 ], [ -120.019196791518254, 38.802034122813687 ], [ -120.019683577416529, 38.801956460766036 ], [ -120.019957345461464, 38.802017503615986 ], [ -120.020706900315986, 38.801712309933002 ], [ -120.021209934028576, 38.801797218571608 ], [ -120.021352443415466, 38.801692746416563 ], [ -120.021696716649117, 38.80171954797035 ], [ -120.021907479920969, 38.801634834429279 ] ] ] } }
]
}
