{
"type": "FeatureCollection",
"name": "X01011",
"crs": { "type": "name", "properties": { "name": "urn:ogc:def:crs:OGC:1.3:CRS84" } },
"features": [
{ "type": "Feature", "properties": { "part": "direct", "crossing_id": "X01011", "area_ac": 0.0 }, "geometry": { "type": "Polygon", "coordinates": [ [ [ -120.020042248951967, 38.807713372089253 ], [ -120.020016994036823, 38.807766781508782 ], [ -120.019924980191604, 38.807764432610185 ], [ -120.019926481218107, 38.807728434858745 ], [ -120.020042248951967, 38.807713372089253 ] ] ] } }
]
}
