{
"type": "FeatureCollection",
"name": "X01095",
"crs": { "type": "name", "properties": { "name": "urn:ogc:def:crs:OGC:1.3:CRS84" } },
"features": [
{ "type": "Feature", "properties": { "part": "direct", "crossing_id": "X01095", "area_ac": 2.8, "n_upstream": null }, "geometry": { "type": "Polygon", "coordinates": [ [ [ -120.120687000841471, 39.017303553856834 ], [ -120.120728763877167, 39.017412692867495 ], [ -120.120538332272034, 39.017552131967207 ], [ -120.120316788796856, 39.01788899899644 ], [ -120.120325248125781, 39.018249565915404 ], [ -120.11989676898213, 39.01856330162645 ], [ -120.119567890324944, 39.018699318110414 ], [ -120.119445212292362, 39.018876465390214 ], [ -120.119214474679694, 39.018870763006007 ], [ -120.118955135386287, 39.018431923845498 ], [ -120.119215524120492, 39.018276198515721 ], [ -120.119325361521632, 39.017846483612075 ], [ -120.119611013283858, 39.01763732799747 ], [ -120.11991315949092, 39.017590740275452 ], [ -120.120234725102563, 39.017634721021551 ], [ -120.120687000841471, 39.017303553856834 ] ] ] } },
{ "type": "Feature", "properties": { "part": "upstream", "crossing_id": "X01095", "area_ac": 4.4, "n_upstream": 1.0 }, "geometry": { "type": "Polygon", "coordinates": [ [ [ -120.121807822638232, 39.015295211423648 ], [ -120.122287237422853, 39.015433173405519 ], [ -120.122087321701756, 39.015806613846685 ], [ -120.12198991882542, 39.015930334330662 ], [ -120.121687780794133, 39.015976927769223 ], [ -120.121255669594433, 39.016380668666649 ], [ -120.121048743190045, 39.016357540176578 ], [ -120.12098798726025, 39.016716397626631 ], [ -120.120870430192937, 39.016767547720136 ], [ -120.120930152719552, 39.017003255573933 ], [ -120.12075768183746, 39.017269263981639 ], [ -120.120234725102563, 39.017634721021551 ], [ -120.120004722143392, 39.017611020509477 ], [ -120.120084172820484, 39.017360732965599 ], [ -120.120247877958775, 39.017310723813338 ], [ -120.120252262197127, 39.017202724739107 ], [ -120.120139818949625, 39.017127875127095 ], [ -120.120204233150261, 39.016679019083718 ], [ -120.120373781870725, 39.016485010896822 ], [ -120.120355092817704, 39.01637644179236 ], [ -120.120544060252115, 39.016273002569108 ], [ -120.120674766938521, 39.015897855370596 ], [ -120.121005821762296, 39.015707835547417 ], [ -120.12100947412651, 39.015617836234242 ], [ -120.121199169001486, 39.015496395959339 ], [ -120.121383750635843, 39.015500954434096 ], [ -120.121504226571346, 39.01537780423471 ], [ -120.121807822638232, 39.015295211423648 ] ] ] } }
]
}
