{
"type": "FeatureCollection",
"name": "X01020",
"crs": { "type": "name", "properties": { "name": "urn:ogc:def:crs:OGC:1.3:CRS84" } },
"features": [
{ "type": "Feature", "properties": { "part": "direct", "crossing_id": "X01020", "area_ac": 3.3, "n_upstream": null }, "geometry": { "type": "Polygon", "coordinates": [ [ [ -120.020407996616456, 38.811092080108068 ], [ -120.020843582257882, 38.81113923348515 ], [ -120.020508240487345, 38.812554098989672 ], [ -120.020321948779937, 38.812603398011696 ], [ -120.020271435389077, 38.812710216766916 ], [ -120.019991621592013, 38.812793164012255 ], [ -120.019871341565576, 38.812916219548811 ], [ -120.019782323856461, 38.81284187484502 ], [ -120.01955227299014, 38.812836001359173 ], [ -120.019838623404397, 38.811491960330706 ], [ -120.019978152558622, 38.811459486306127 ], [ -120.020029415958064, 38.811334668774165 ], [ -120.020168194180641, 38.811320193373767 ], [ -120.020407996616456, 38.811092080108068 ] ] ] } },
{ "type": "Feature", "properties": { "part": "upstream", "crossing_id": "X01020", "area_ac": 10.6, "n_upstream": 1.0 }, "geometry": { "type": "Polygon", "coordinates": [ [ [ -120.024106720836855, 38.810753996713544 ], [ -120.024264754405763, 38.810830097489507 ], [ -120.026423439006251, 38.810975195664305 ], [ -120.026780279990874, 38.811254555667027 ], [ -120.026196922719706, 38.81143789469381 ], [ -120.024330540318545, 38.811462405941406 ], [ -120.023520126814944, 38.81156787117726 ], [ -120.023401354322985, 38.811654932855021 ], [ -120.022617692174052, 38.811670983711146 ], [ -120.022078831563235, 38.811891472880788 ], [ -120.021663994502148, 38.811898907527436 ], [ -120.021614233850087, 38.811987728083679 ], [ -120.021293666529246, 38.811943512507547 ], [ -120.021327671792449, 38.812232668698968 ], [ -120.021046360258353, 38.8123516163662 ], [ -120.020736039331169, 38.812613967179843 ], [ -120.020508990982407, 38.81253610011921 ], [ -120.020825079955017, 38.811030653106627 ], [ -120.020966858835479, 38.810944181198082 ], [ -120.021222159241759, 38.810896642019408 ], [ -120.021310425975258, 38.810988984497712 ], [ -120.021587980699181, 38.810960030406292 ], [ -120.021676998157602, 38.811034373734451 ], [ -120.022432398757786, 38.811143734497229 ], [ -120.02273295840061, 38.811115364468051 ], [ -120.023253305194302, 38.810786291799737 ], [ -120.024106720836855, 38.810753996713544 ] ] ] } }
]
}
