{
"type": "FeatureCollection",
"name": "X01005",
"crs": { "type": "name", "properties": { "name": "urn:ogc:def:crs:OGC:1.3:CRS84" } },
"features": [
{ "type": "Feature", "properties": { "part": "direct", "crossing_id": "X01005", "area_ac": 1.8 }, "geometry": { "type": "Polygon", "coordinates": [ [ [ -120.019574084662437, 38.801268979669118 ], [ -120.01998360736701, 38.801387542287316 ], [ -120.020184617858277, 38.801536817573151 ], [ -120.020706150160507, 38.801730308840099 ], [ -120.019957345461464, 38.802017503615986 ], [ -120.01975258218188, 38.801958222369045 ], [ -120.019196791518254, 38.802034122813687 ], [ -120.018899271982278, 38.801990489718889 ], [ -120.019210301195642, 38.801710142937587 ], [ -120.019177807868076, 38.801384988448284 ], [ -120.019385570912164, 38.801372275079743 ], [ -120.019411574191267, 38.801300866788381 ], [ -120.019574084662437, 38.801268979669118 ] ] ] } }
]
}
