{
"type": "FeatureCollection",
"name": "X01050",
"crs": { "type": "name", "properties": { "name": "urn:ogc:def:crs:OGC:1.3:CRS84" } },
"features": [
{ "type": "Feature", "properties": { "part": "direct", "crossing_id": "X01050", "area_ac": 0.1 }, "geometry": { "type": "Polygon", "coordinates": [ [ [ -119.985385454674471, 38.885165045776752 ], [ -119.985740195574763, 38.885498530872333 ], [ -119.985923656700294, 38.885521288460509 ], [ -119.985800905629048, 38.885698294524957 ], [ -119.98568576638317, 38.885695319729024 ], [ -119.985628862909635, 38.88540556567758 ], [ -119.985314087701894, 38.88521725488539 ], [ -119.985293344000226, 38.885162665648615 ], [ -119.985385454674471, 38.885165045776752 ] ] ] } }
]
}
