{
"type": "FeatureCollection",
"name": "X01033",
"crs": { "type": "name", "properties": { "name": "urn:ogc:def:crs:OGC:1.3:CRS84" } },
"features": [
{ "type": "Feature", "properties": { "part": "direct", "crossing_id": "X01033", "area_ac": 10.0, "n_upstream": null }, "geometry": { "type": "Polygon", "coordinates": [ [ [ -120.020983328108727, 38.813863522036677 ], [ -120.020846020034284, 38.815499657876217 ], [ -120.020353887495432, 38.81570331302953 ], [ -120.020320372666461, 38.815954709780364 ], [ -120.020558428297008, 38.816321146566118 ], [ -120.020551673016953, 38.8164831363001 ], [ -120.020239079392056, 38.816799481414847 ], [ -120.020911518031582, 38.816690518760538 ], [ -120.020764473413109, 38.816902982104956 ], [ -120.021065808304712, 38.81685661851504 ], [ -120.021093059444851, 38.817307764408923 ], [ -120.021410887223155, 38.818523082047591 ], [ -120.021383377656704, 38.818630488165624 ], [ -120.021025513932415, 38.818927662015675 ], [ -120.020744925450686, 38.819028608920085 ], [ -120.020514854479202, 38.819022736547666 ], [ -120.020496614938992, 38.818355604528705 ], [ -120.020350580552403, 38.817991516624907 ], [ -120.020035290998337, 38.816163648565592 ], [ -120.019720712655953, 38.815975437201899 ], [ -120.019478908288548, 38.815698993123128 ], [ -120.019562942592941, 38.815340778455109 ], [ -120.019473171531459, 38.815284432281054 ], [ -120.019479178142248, 38.815140441518579 ], [ -120.019855529400218, 38.814951852203706 ], [ -120.019929801643556, 38.814827622222175 ], [ -120.01989955501503, 38.814448471637171 ], [ -120.019974577280379, 38.814306242738361 ], [ -120.020203882345342, 38.814330114438555 ], [ -120.020350172216268, 38.814135650439347 ], [ -120.02055797243122, 38.814122936464472 ], [ -120.020560974525452, 38.8140509409983 ], [ -120.020722763489928, 38.814037052333738 ], [ -120.020983328108727, 38.813863522036677 ] ] ] } },
{ "type": "Feature", "properties": { "part": "upstream", "crossing_id": "X01033", "area_ac": 83.6, "n_upstream": 10.0 }, "geometry": { "type": "MultiPolygon", "coordinates": [ [ [ [ -120.029253719996603, 38.815461680342686 ], [ -120.02920920450218, 38.81542451133766 ], [ -120.029204714196069, 38.815532505360324 ], [ -120.028944910481215, 38.815688055528334 ], [ -120.028984186850892, 38.815851217628442 ], [ -120.028865413201714, 38.815938284796374 ], [ -120.028681363014144, 38.815933600039266 ], [ -120.028541371360461, 38.816151943007064 ], [ -120.028556600362492, 38.816164658808283 ], [ -120.028533594020331, 38.816164073165808 ], [ -120.028098719688941, 38.81609894814855 ], [ -120.028532845447856, 38.816182072156451 ], [ -120.028222533192064, 38.816444443166169 ], [ -120.028627865037095, 38.81611241873177 ], [ -120.028641888821383, 38.816328992263024 ], [ -120.028909732315029, 38.816534008399664 ], [ -120.028926002422835, 38.816696584934412 ], [ -120.029088281380083, 38.816781796442122 ], [ -120.029155319239607, 38.816720439449114 ], [ -120.029243603334805, 38.816812776532394 ], [ -120.028920014500699, 38.8168405768957 ], [ -120.029266609900532, 38.816813362043227 ], [ -120.029362933127473, 38.81726626457116 ], [ -120.02922339600066, 38.817298749514833 ], [ -120.029158842338532, 38.817406748325013 ], [ -120.029172891905162, 38.817405572444329 ], [ -120.029273705671258, 38.817750481031901 ], [ -120.029223201286584, 38.817857303966392 ], [ -120.029160704160105, 38.817837132276708 ], [ -120.029289228281442, 38.81793105652762 ], [ -120.029171948282226, 38.817982125866827 ], [ -120.02911994660947, 38.818124946729611 ], [ -120.028982653222997, 38.818103434332322 ], [ -120.028976665114371, 38.818247426266311 ], [ -120.028867552419257, 38.818286691135448 ], [ -120.028928405486525, 38.818300252061654 ], [ -120.028740606320611, 38.818385562102421 ], [ -120.028302723595118, 38.818392433258637 ], [ -120.027876821608146, 38.818111319193676 ], [ -120.027567995959288, 38.818337690021451 ], [ -120.027234873992327, 38.818040918168897 ], [ -120.026754725127319, 38.817956616941032 ], [ -120.026568422752874, 38.818005925514129 ], [ -120.025488598279267, 38.817942378065851 ], [ -120.025376561690607, 38.817867450940888 ], [ -120.024711612816773, 38.817796449921119 ], [ -120.024203214545224, 38.817837544376225 ], [ -120.02408443191824, 38.817924606289914 ], [ -120.023207923545499, 38.817956311082312 ], [ -120.022902834803872, 38.818092674534107 ], [ -120.022780299857388, 38.818269729491895 ], [ -120.022388432496911, 38.818277752050093 ], [ -120.021706225880038, 38.818620708025207 ], [ -120.021382627218543, 38.818648487031616 ], [ -120.021376129839382, 38.818251924885892 ], [ -120.021093059444851, 38.817307764408923 ], [ -120.021090315641118, 38.816821207903317 ], [ -120.020988090832034, 38.81634905169372 ], [ -120.021048805683691, 38.816712040459251 ], [ -120.021014385474658, 38.816713762584449 ], [ -120.021088814713451, 38.816857205636772 ], [ -120.020764473413109, 38.816902982104956 ], [ -120.020840997934044, 38.816724755009538 ], [ -120.020856856038478, 38.816721644026956 ], [ -120.020333356846436, 38.816747833959312 ], [ -120.020361617710066, 38.816622429237235 ], [ -120.020551673016953, 38.8164831363001 ], [ -120.020558428297008, 38.816321146566118 ], [ -120.020320372666461, 38.815954709780364 ], [ -120.020353887495432, 38.81570331302953 ], [ -120.020846020034284, 38.815499657876217 ], [ -120.020851356427229, 38.815531562684868 ], [ -120.021006333552833, 38.813864109136816 ], [ -120.021078351435094, 38.813793874906892 ], [ -120.021488697750087, 38.813894436077682 ], [ -120.021702499022112, 38.81373772894969 ], [ -120.021707750591489, 38.813611736743567 ], [ -120.021931803070302, 38.813761597205776 ], [ -120.022069835667565, 38.813765118610547 ], [ -120.022118096905487, 38.813712295696561 ], [ -120.022347401064181, 38.813736163137975 ], [ -120.022559700042947, 38.813615452140937 ], [ -120.022881775666605, 38.813623666742089 ], [ -120.023312879951533, 38.813778805014628 ], [ -120.023750733625732, 38.813771951488796 ], [ -120.023891765175364, 38.813703475056691 ], [ -120.026233830360084, 38.813871271119112 ], [ -120.026903238534075, 38.813834268295423 ], [ -120.026970008500143, 38.813890023000852 ], [ -120.027704689884033, 38.813944768219635 ], [ -120.027815225777474, 38.814055690976716 ], [ -120.028321350207477, 38.814068576593606 ], [ -120.028358464032664, 38.814148625037305 ], [ -120.028561885973915, 38.813822446998273 ], [ -120.028703661851452, 38.81373596557092 ], [ -120.029073053635869, 38.814267890971436 ], [ -120.02885627222858, 38.814496608176611 ], [ -120.028912566277185, 38.814804347864523 ], [ -120.029217436667466, 38.815226522289684 ], [ -120.029253719996603, 38.815461680342686 ] ], [ [ -120.029072319967824, 38.816796405243529 ], [ -120.028596425471662, 38.816868376351245 ], [ -120.029059550833296, 38.816808092282876 ], [ -120.029072319967824, 38.816796405243529 ] ], [ [ -120.028022350862443, 38.817934844138911 ], [ -120.029064437852028, 38.817806061096334 ], [ -120.029041391566906, 38.817798622597948 ], [ -120.028022350862443, 38.817934844138911 ] ], [ [ -120.027960330262502, 38.815163422830949 ], [ -120.028057604700706, 38.814872674243986 ], [ -120.0279863409271, 38.814924914014036 ], [ -120.027960330262502, 38.815163422830949 ] ], [ [ -120.028114615644768, 38.814830882393352 ], [ -120.028057604700734, 38.814872674243965 ], [ -120.028516226077869, 38.814920385771629 ], [ -120.028103616534921, 38.81487384567928 ], [ -120.028114615644768, 38.814830882393352 ] ], [ [ -120.028121948376409, 38.814802240201743 ], [ -120.0282057505556, 38.81447490081085 ], [ -120.028087348455415, 38.814711269076007 ], [ -120.028121948376409, 38.814802240201743 ] ], [ [ -120.021141581582413, 38.816696390057139 ], [ -120.021186843864925, 38.816715563130913 ], [ -120.021189095170044, 38.816661566524473 ], [ -120.021141581582413, 38.816696390057139 ] ] ], [ [ [ -120.020308849172395, 38.816783244398572 ], [ -120.020262836435833, 38.816782069845281 ], [ -120.020287344131674, 38.81674665941658 ], [ -120.020308849172395, 38.816783244398572 ] ] ], [ [ [ -120.020262085765111, 38.816800068698647 ], [ -120.020239079392056, 38.816799481414847 ], [ -120.020239830068562, 38.816781482561851 ], [ -120.020262085765111, 38.816800068698647 ] ] ], [ [ [ -120.020213070283859, 38.816870889536133 ], [ -120.02021231959823, 38.816888888388412 ], [ -120.020145552505397, 38.816833129937066 ], [ -120.020213070283859, 38.816870889536133 ] ] ] ] } }
]
}
