{
"type": "FeatureCollection",
"name": "X01036",
"crs": { "type": "name", "properties": { "name": "urn:ogc:def:crs:OGC:1.3:CRS84" } },
"features": [
{ "type": "Feature", "properties": { "part": "direct", "crossing_id": "X01036", "area_ac": 40.4, "n_upstream": null }, "geometry": { "type": "MultiPolygon", "coordinates": [ [ [ [ -120.028858888296512, 38.823848037781538 ], [ -120.028832135960982, 38.823937446960365 ], [ -120.028740100568797, 38.823935104188521 ], [ -120.028858888296512, 38.823848037781538 ] ] ], [ [ [ -120.029051239676704, 38.821438517362459 ], [ -120.029231561405311, 38.821533197020223 ], [ -120.029201816384017, 38.82169460230643 ], [ -120.029083032804934, 38.821781669248047 ], [ -120.029098555151734, 38.821962244676548 ], [ -120.029297395251206, 38.822165503787282 ], [ -120.029547492557214, 38.822243940737529 ], [ -120.029374457937237, 38.822527825739826 ], [ -120.02969058808381, 38.822680015045172 ], [ -120.029793655503454, 38.822970926336289 ], [ -120.029930958463581, 38.822992438141547 ], [ -120.029925719628082, 38.823118431086854 ], [ -120.030036272396472, 38.823229352283136 ], [ -120.029411296479807, 38.823303538728119 ], [ -120.02869932403523, 38.82380793998864 ], [ -120.028351196746243, 38.823871149709255 ], [ -120.028324443771709, 38.823960558745966 ], [ -120.028694082876726, 38.823933932775454 ], [ -120.028739351840755, 38.82395310315853 ], [ -120.028547044481144, 38.824146406027509 ], [ -120.028339964312124, 38.82414113416003 ], [ -120.028215933394819, 38.824354192713642 ], [ -120.02776024802246, 38.824234481880858 ], [ -120.026701089043499, 38.824225524687037 ], [ -120.026146627529542, 38.8242654535903 ], [ -120.026027835943538, 38.824352517071901 ], [ -120.024625042578506, 38.824298749024862 ], [ -120.024346686562936, 38.82434570718565 ], [ -120.024164865158525, 38.824287017779127 ], [ -120.023094455548161, 38.824548011067655 ], [ -120.022871118305048, 38.824380152773941 ], [ -120.022572753380288, 38.824354524298258 ], [ -120.022354921995486, 38.823502121213387 ], [ -120.022149345608554, 38.823460840716251 ], [ -120.021984533649288, 38.823546725951452 ], [ -120.021804967801643, 38.823434036438549 ], [ -120.021524362175626, 38.823534984494877 ], [ -120.021387061353849, 38.823513462854081 ], [ -120.021360559073699, 38.823044318425531 ], [ -120.021434838088283, 38.822920087863785 ], [ -120.021394825744139, 38.822774922773668 ], [ -120.021325800788219, 38.822773161351371 ], [ -120.02138607778619, 38.822432357417242 ], [ -120.021623664690409, 38.822258239920494 ], [ -120.021805478689387, 38.822316933019778 ], [ -120.021778718320135, 38.822406340275315 ], [ -120.022103834741756, 38.822342563119072 ], [ -120.022274646169606, 38.82211268662769 ], [ -120.022532987270438, 38.821993150710028 ], [ -120.023523085831897, 38.822000384335169 ], [ -120.023819191720406, 38.822080006700304 ], [ -120.023914223883054, 38.822010357667466 ], [ -120.024649734562871, 38.822047126361177 ], [ -120.02525094500443, 38.821990377734643 ], [ -120.025524044882658, 38.822069409478139 ], [ -120.027065594381838, 38.822108682219266 ], [ -120.027744815998702, 38.821837691215805 ], [ -120.027750058438087, 38.821711698492322 ], [ -120.028031397733287, 38.821592735835956 ], [ -120.029051239676704, 38.821438517362459 ] ], [ [ -120.028511370126111, 38.822235586652724 ], [ -120.02807196609038, 38.822278453942097 ], [ -120.02788170070842, 38.822976312594129 ], [ -120.028034522670197, 38.823178402069701 ], [ -120.028286868361505, 38.823202844906675 ], [ -120.028425668770211, 38.823188360550333 ], [ -120.028593467676615, 38.823030469989824 ], [ -120.028488158867503, 38.822793554738567 ], [ -120.028878754283554, 38.822262956661362 ], [ -120.028714701360059, 38.822330852874053 ], [ -120.028511370126111, 38.822235586652724 ] ] ] ] } },
{ "type": "Feature", "properties": { "part": "upstream", "crossing_id": "X01036", "area_ac": 2.0, "n_upstream": 3.0 }, "geometry": { "type": "MultiPolygon", "coordinates": [ [ [ [ -120.028878754283554, 38.822262956661362 ], [ -120.028689739044822, 38.822456343673366 ], [ -120.028732468875504, 38.822457431381686 ], [ -120.028659700219677, 38.822545669172655 ], [ -120.028636691822129, 38.822545083470061 ], [ -120.028651554022019, 38.822495411713859 ], [ -120.028546208063119, 38.822603193468559 ], [ -120.028612934702579, 38.822562496735173 ], [ -120.028488158867503, 38.822793554738567 ], [ -120.028596462633132, 38.822958474107494 ], [ -120.028496940878455, 38.823136120888222 ], [ -120.028286868361505, 38.823202844906675 ], [ -120.028034522670197, 38.823178402069701 ], [ -120.02788170070842, 38.822976312594129 ], [ -120.027967950815281, 38.822564094050357 ], [ -120.028471140503783, 38.822648977244228 ], [ -120.028502158013723, 38.822630059648858 ], [ -120.028013967595285, 38.822565265714907 ], [ -120.028096472080748, 38.822243041823171 ], [ -120.028511370126111, 38.822235586652724 ], [ -120.028622668045884, 38.822328510090692 ], [ -120.028878754283554, 38.822262956661362 ] ] ], [ [ [ -120.028612934702579, 38.822562496735173 ], [ -120.028613683425306, 38.822544497762948 ], [ -120.028635943105186, 38.822563082442656 ], [ -120.028612934702579, 38.822562496735173 ] ] ], [ [ [ -120.028324443771709, 38.823960558745966 ], [ -120.028468487226689, 38.823820081644051 ], [ -120.02869932403523, 38.82380793998864 ], [ -120.029411296479807, 38.823303538728119 ], [ -120.029757923326216, 38.823276323669781 ], [ -120.029706666741276, 38.823401145588392 ], [ -120.028786866979388, 38.823918276612638 ], [ -120.028324443771709, 38.823960558745966 ] ] ] ] } }
]
}
