{
"type": "FeatureCollection",
"name": "X01044",
"crs": { "type": "name", "properties": { "name": "urn:ogc:def:crs:OGC:1.3:CRS84" } },
"features": [
{ "type": "Feature", "properties": { "part": "direct", "crossing_id": "X01044", "area_ac": 3.4 }, "geometry": { "type": "Polygon", "coordinates": [ [ [ -120.023014930674009, 38.83640182315294 ], [ -120.02320203444053, 38.83633452353962 ], [ -120.023221294914677, 38.836425104693539 ], [ -120.023775101787962, 38.836403192407936 ], [ -120.023999977598677, 38.836535052530969 ], [ -120.023943952527077, 38.837326415211443 ], [ -120.024053015685311, 38.8374733400479 ], [ -120.02393419865399, 38.837560400259157 ], [ -120.023727830839221, 38.837537119845415 ], [ -120.023722578347261, 38.837663111766254 ], [ -120.023587500956907, 38.837587595130003 ], [ -120.023447921311302, 38.837620071396337 ], [ -120.023421156000538, 38.837709478680488 ], [ -120.023101973744588, 38.83762926596706 ], [ -120.022565678837012, 38.836678650867469 ], [ -120.022527910141733, 38.836479489577975 ], [ -120.023014930674009, 38.83640182315294 ] ] ] } }
]
}
