{
"type": "FeatureCollection",
"name": "X01079",
"crs": { "type": "name", "properties": { "name": "urn:ogc:def:crs:OGC:1.3:CRS84" } },
"features": [
{ "type": "Feature", "properties": { "part": "direct", "crossing_id": "X01079", "area_ac": 1.1 }, "geometry": { "type": "Polygon", "coordinates": [ [ [ -120.08019576921636, 38.928080823092621 ], [ -120.080204781029423, 38.928423390105486 ], [ -120.080757982159284, 38.928995794337666 ], [ -120.080705987252159, 38.929138636714853 ], [ -120.080252495154525, 38.928947105626101 ], [ -120.07986148924526, 38.928919298942319 ], [ -120.079844207691266, 38.928216165545429 ], [ -120.080075381832842, 38.928203935114652 ], [ -120.08019576921636, 38.928080823092621 ] ] ] } }
]
}
