{
"type": "FeatureCollection",
"name": "X01032",
"crs": { "type": "name", "properties": { "name": "urn:ogc:def:crs:OGC:1.3:CRS84" } },
"features": [
{ "type": "Feature", "properties": { "part": "direct", "crossing_id": "X01032", "area_ac": 74.1, "n_upstream": null }, "geometry": { "type": "MultiPolygon", "coordinates": [ [ [ [ -120.028534342592124, 38.81614607417513 ], [ -120.028556600362492, 38.816164658808283 ], [ -120.028533594020331, 38.816164073165808 ], [ -120.028534342592124, 38.81614607417513 ] ] ], [ [ [ -120.022881775666605, 38.813623666742089 ], [ -120.023312879951533, 38.813778805014628 ], [ -120.023750733625732, 38.813771951488796 ], [ -120.023891765175364, 38.813703475056691 ], [ -120.026233830360084, 38.813871271119112 ], [ -120.026903238534075, 38.813834268295423 ], [ -120.026970008500143, 38.813890023000852 ], [ -120.027704689884033, 38.813944768219635 ], [ -120.027815225777474, 38.814055690976716 ], [ -120.028321350207477, 38.814068576593606 ], [ -120.028363618736762, 38.814159742875987 ], [ -120.028087348455415, 38.814711269076007 ], [ -120.028128868370345, 38.814820434425897 ], [ -120.0279863409271, 38.814924914014036 ], [ -120.027874646483895, 38.815949098784728 ], [ -120.028098719688941, 38.81609894814855 ], [ -120.028532845447856, 38.816182072156451 ], [ -120.028222533192064, 38.816444443166169 ], [ -120.027968713829921, 38.816455999068403 ], [ -120.02796272403161, 38.816599990910461 ], [ -120.028147524495083, 38.816586677883855 ], [ -120.028596425471662, 38.816868376351245 ], [ -120.029059550833296, 38.816808092282876 ], [ -120.029155319239607, 38.816720439449114 ], [ -120.029243603334805, 38.816812776532394 ], [ -120.028920014500699, 38.8168405768957 ], [ -120.028591185429335, 38.816994369276209 ], [ -120.028013774208915, 38.817033723705087 ], [ -120.028017313862591, 38.817502282914226 ], [ -120.029172891905162, 38.817405572444329 ], [ -120.029273705671258, 38.817750481031901 ], [ -120.029223201286584, 38.817857303966392 ], [ -120.029041391566906, 38.817798622597948 ], [ -120.028022350862443, 38.817934844138911 ], [ -120.028318445932655, 38.818014454663462 ], [ -120.028652321086355, 38.818293224609043 ], [ -120.028837125894995, 38.818279910660785 ], [ -120.028928405486525, 38.818300252061654 ], [ -120.028740606320611, 38.818385562102421 ], [ -120.028302723595118, 38.818392433258637 ], [ -120.027876821608146, 38.818111319193676 ], [ -120.027567995959288, 38.818337690021451 ], [ -120.027234873992327, 38.818040918168897 ], [ -120.026754725127319, 38.817956616941032 ], [ -120.026568422752874, 38.818005925514129 ], [ -120.025488598279267, 38.817942378065851 ], [ -120.025376561690607, 38.817867450940888 ], [ -120.024711612816773, 38.817796449921119 ], [ -120.024203214545224, 38.817837544376225 ], [ -120.02408443191824, 38.817924606289914 ], [ -120.023207923545499, 38.817956311082312 ], [ -120.022902834803872, 38.818092674534107 ], [ -120.022780299857388, 38.818269729491895 ], [ -120.022388432496911, 38.818277752050093 ], [ -120.021706225880038, 38.818620708025207 ], [ -120.021382627218543, 38.818648487031616 ], [ -120.021376129839382, 38.818251924885892 ], [ -120.021093059444851, 38.817307764408923 ], [ -120.021090315641118, 38.816821207903317 ], [ -120.020839265603669, 38.815661647675427 ], [ -120.021006333552833, 38.813864109136816 ], [ -120.021078351435094, 38.813793874906892 ], [ -120.021488697750087, 38.813894436077682 ], [ -120.021702499022112, 38.81373772894969 ], [ -120.021707750591489, 38.813611736743567 ], [ -120.021931803070302, 38.813761597205776 ], [ -120.022069835667565, 38.813765118610547 ], [ -120.022118096905487, 38.813712295696561 ], [ -120.022347401064181, 38.813736163137975 ], [ -120.022559700042947, 38.813615452140937 ], [ -120.022881775666605, 38.813623666742089 ] ], [ [ -120.021189095170044, 38.816661566524473 ], [ -120.021141581582413, 38.816696390057139 ], [ -120.021186843864925, 38.816715563130913 ], [ -120.021189095170044, 38.816661566524473 ] ] ] ] } },
{ "type": "Feature", "properties": { "part": "upstream", "crossing_id": "X01032", "area_ac": 8.2, "n_upstream": 7.0 }, "geometry": { "type": "MultiPolygon", "coordinates": [ [ [ [ -120.02885627222858, 38.814496608176611 ], [ -120.028912566277185, 38.814804347864523 ], [ -120.029217436667466, 38.815226522289684 ], [ -120.029253719996603, 38.815461680342686 ], [ -120.02920920450218, 38.81542451133766 ], [ -120.029204714196069, 38.815532505360324 ], [ -120.028944910481215, 38.815688055528334 ], [ -120.028984186850892, 38.815851217628442 ], [ -120.028865413201714, 38.815938284796374 ], [ -120.028681363014144, 38.815933600039266 ], [ -120.028533594020331, 38.816164073165808 ], [ -120.028098719688941, 38.81609894814855 ], [ -120.027874646483895, 38.815949098784728 ], [ -120.027926103865951, 38.815265723230034 ], [ -120.028057604700706, 38.814872674243965 ], [ -120.028516226077869, 38.814920385771629 ], [ -120.028103616534921, 38.81487384567928 ], [ -120.028241104341689, 38.814336804473356 ], [ -120.028561885973915, 38.813822446998273 ], [ -120.028703661851452, 38.81373596557092 ], [ -120.029073053635869, 38.814267890971436 ], [ -120.02885627222858, 38.814496608176611 ] ] ], [ [ [ -120.028926002422835, 38.816696584934412 ], [ -120.029106312399719, 38.816791264374359 ], [ -120.028596425471662, 38.816868376351245 ], [ -120.028147524495083, 38.816586677883855 ], [ -120.02796272403161, 38.816599990910461 ], [ -120.027968713829921, 38.816455999068403 ], [ -120.028222533192064, 38.816444443166169 ], [ -120.028627865037095, 38.81611241873177 ], [ -120.028641888821383, 38.816328992263024 ], [ -120.028909732315029, 38.816534008399664 ], [ -120.028926002422835, 38.816696584934412 ] ] ], [ [ [ -120.021189095170044, 38.816661566524473 ], [ -120.021141581582413, 38.816696390057139 ], [ -120.021166088822127, 38.81666097942496 ], [ -120.021189095170044, 38.816661566524473 ] ] ], [ [ [ -120.020840997934044, 38.816724755009538 ], [ -120.021003543443854, 38.816692867333458 ], [ -120.021088814713451, 38.816857205636772 ], [ -120.020764473413109, 38.816902982104956 ], [ -120.020840997934044, 38.816724755009538 ] ] ], [ [ [ -120.029149136700397, 38.817422985904443 ], [ -120.028017313862591, 38.817502282914226 ], [ -120.028013774208915, 38.817033723705087 ], [ -120.028591185429335, 38.816994369276209 ], [ -120.028920014500699, 38.8168405768957 ], [ -120.029266609900532, 38.816813362043227 ], [ -120.029362933127473, 38.81726626457116 ], [ -120.02922339600066, 38.817298749514833 ], [ -120.029149136700397, 38.817422985904443 ] ] ], [ [ [ -120.02911994660947, 38.818124946729611 ], [ -120.028982653222997, 38.818103434332322 ], [ -120.028976665114371, 38.818247426266311 ], [ -120.028836377342429, 38.818297909649814 ], [ -120.028652321086355, 38.818293224609043 ], [ -120.028318445932655, 38.818014454663462 ], [ -120.028022350862443, 38.817934844138911 ], [ -120.029110412204901, 38.817800379273606 ], [ -120.029289228281442, 38.81793105652762 ], [ -120.029171948282226, 38.817982125866827 ], [ -120.02911994660947, 38.818124946729611 ] ] ] ] } }
]
}
