{
"type": "FeatureCollection",
"name": "X01073",
"crs": { "type": "name", "properties": { "name": "urn:ogc:def:crs:OGC:1.3:CRS84" } },
"features": [
{ "type": "Feature", "properties": { "part": "direct", "crossing_id": "X01073", "area_ac": 2.7 }, "geometry": { "type": "Polygon", "coordinates": [ [ [ -120.080353642354453, 38.923670371135032 ], [ -120.080372992699694, 38.923760945396928 ], [ -120.080208005862545, 38.923846905387329 ], [ -120.080269748499177, 38.924028630735712 ], [ -120.079930911197181, 38.92441654398732 ], [ -120.079945091777901, 38.924633114720507 ], [ -120.07987374907853, 38.924685382573031 ], [ -120.080050703825336, 38.924869992355035 ], [ -120.079950410534394, 38.925065679305312 ], [ -120.079276267857153, 38.925192944046238 ], [ -120.078854114017929, 38.925362551963289 ], [ -120.078979669509778, 38.925113444744895 ], [ -120.079236092130913, 38.925047794224618 ], [ -120.079500638942619, 38.924784148830867 ], [ -120.079312461735157, 38.924310969619121 ], [ -120.079021776594232, 38.924087474735217 ], [ -120.079075247873618, 38.923908634035406 ], [ -120.079565780137827, 38.923758755215772 ], [ -120.080353642354453, 38.923670371135032 ] ] ] } }
]
}
