{
"type": "FeatureCollection",
"name": "X01048",
"crs": { "type": "name", "properties": { "name": "urn:ogc:def:crs:OGC:1.3:CRS84" } },
"features": [
{ "type": "Feature", "properties": { "part": "direct", "crossing_id": "X01048", "area_ac": 0.0 }, "geometry": { "type": "MultiPolygon", "coordinates": [ [ [ [ -120.028675667362393, 38.837663190314593 ], [ -120.02867491825134, 38.837681189241174 ], [ -120.028651904980734, 38.837680603350833 ], [ -120.028652654097584, 38.837662604424636 ], [ -120.028675667362393, 38.837663190314593 ] ] ], [ [ [ -120.028700178836445, 38.837627778345869 ], [ -120.028675667362393, 38.837663190314593 ], [ -120.028677165582494, 38.837627192461184 ], [ -120.028700178836445, 38.837627778345869 ] ] ] ] } }
]
}
