{
"type": "FeatureCollection",
"name": "X01164",
"crs": { "type": "name", "properties": { "name": "urn:ogc:def:crs:OGC:1.3:CRS84" } },
"features": [
{ "type": "Feature", "properties": { "part": "direct", "crossing_id": "X01164", "area_ac": 0.1 }, "geometry": { "type": "MultiPolygon", "coordinates": [ [ [ [ -119.987190186528309, 38.885554002279818 ], [ -119.987212453509116, 38.8855725950459 ], [ -119.9871894256692, 38.885572000375738 ], [ -119.987190186528309, 38.885554002279818 ] ] ], [ [ [ -119.987519423238936, 38.885400344330087 ], [ -119.987513337044987, 38.885544329142867 ], [ -119.987213214362427, 38.885554596949596 ], [ -119.987309129846082, 38.885466985093316 ], [ -119.987519423238936, 38.885400344330087 ] ] ] ] } }
]
}
