{
"type": "FeatureCollection",
"name": "X01121",
"crs": { "type": "name", "properties": { "name": "urn:ogc:def:crs:OGC:1.3:CRS84" } },
"features": [
{ "type": "Feature", "properties": { "part": "direct", "crossing_id": "X01121", "area_ac": 1.2 }, "geometry": { "type": "Polygon", "coordinates": [ [ [ -119.959329704140544, 38.900434468346084 ], [ -119.959396495442462, 38.900490262160488 ], [ -119.959338138554273, 38.9007770228325 ], [ -119.959778040521385, 38.901274964118414 ], [ -119.959722757214109, 38.901489734626963 ], [ -119.960035224877785, 38.901732107022852 ], [ -119.96000835159488, 38.90182149475195 ], [ -119.959844819442068, 38.901871285719466 ], [ -119.959457876496501, 38.901753094890488 ], [ -119.959424872737998, 38.901445935254586 ], [ -119.959048690293869, 38.901075777039516 ], [ -119.959239863302727, 38.900918602021072 ], [ -119.959247546584848, 38.900738626186637 ], [ -119.959139301038917, 38.900573646000701 ], [ -119.959329704140544, 38.900434468346084 ] ] ] } }
]
}
