{
"type": "FeatureCollection",
"name": "X01168",
"crs": { "type": "name", "properties": { "name": "urn:ogc:def:crs:OGC:1.3:CRS84" } },
"features": [
{ "type": "Feature", "properties": { "part": "direct", "crossing_id": "X01168", "area_ac": 1.8 }, "geometry": { "type": "MultiPolygon", "coordinates": [ [ [ [ -119.986575875658602, 38.886997573654142 ], [ -119.986598142898202, 38.887016166545116 ], [ -119.986575114605316, 38.887015571735382 ], [ -119.986575875658602, 38.886997573654142 ] ] ], [ [ [ -119.987420464899998, 38.885559948773576 ], [ -119.987530278691722, 38.885688908560255 ], [ -119.987646939616795, 38.885655885330813 ], [ -119.987680062782786, 38.885963042245685 ], [ -119.986747529532082, 38.886209226698753 ], [ -119.986719372501923, 38.886875155855513 ], [ -119.986691778124566, 38.886982549572345 ], [ -119.986598903945676, 38.886998168463492 ], [ -119.98662573743168, 38.886908772857161 ], [ -119.986466822866703, 38.886850614901988 ], [ -119.986511921867219, 38.886329265372822 ], [ -119.986377558881543, 38.8862357059961 ], [ -119.986544843466532, 38.886095885105611 ], [ -119.986161740091191, 38.88588779389233 ], [ -119.986485653124831, 38.885860125589176 ], [ -119.986933836702647, 38.885619452979576 ], [ -119.987420464899998, 38.885559948773576 ] ] ] ] } }
]
}
