{
"type": "FeatureCollection",
"name": "X01114",
"crs": { "type": "name", "properties": { "name": "urn:ogc:def:crs:OGC:1.3:CRS84" } },
"features": [
{ "type": "Feature", "properties": { "part": "direct", "crossing_id": "X01114", "area_ac": 0.4, "n_upstream": null }, "geometry": { "type": "Polygon", "coordinates": [ [ [ -120.031258016673277, 38.891872831479361 ], [ -120.03162575976971, 38.891900206684795 ], [ -120.031642042263428, 38.892062781938684 ], [ -120.032240845137267, 38.892078016088689 ], [ -120.032237846467211, 38.892150011355682 ], [ -120.031476327025644, 38.892166672738931 ], [ -120.031318860236084, 38.892072576466859 ], [ -120.031194706726552, 38.892285631746688 ], [ -120.031258016673277, 38.891872831479361 ] ] ] } },
{ "type": "Feature", "properties": { "part": "upstream", "crossing_id": "X01114", "area_ac": 37.5, "n_upstream": 3.0 }, "geometry": { "type": "MultiPolygon", "coordinates": [ [ [ [ -120.031476327025644, 38.892166672738931 ], [ -120.032237846467211, 38.892150011355682 ], [ -120.032224352319332, 38.892473990043783 ], [ -120.03229194604198, 38.892511745290648 ], [ -120.032225642475368, 38.892996541548463 ], [ -120.032309520794257, 38.893196872014144 ], [ -120.032469989930888, 38.893218971813049 ], [ -120.03278343292051, 38.893443158978393 ], [ -120.032795220787364, 38.893713727077092 ], [ -120.032980971281162, 38.89368241553295 ], [ -120.033070098973255, 38.893756753774525 ], [ -120.033242818891949, 38.893770820230074 ], [ -120.033991357427425, 38.893780179243542 ], [ -120.034524827198197, 38.893703651357441 ], [ -120.034680054680749, 38.893851740137066 ], [ -120.034885840225243, 38.893893006362077 ], [ -120.035107167639666, 38.89411484613867 ], [ -120.035314452121995, 38.894120113926199 ], [ -120.035512749896682, 38.894341367710673 ], [ -120.035720035113641, 38.894346634803803 ], [ -120.036075813352838, 38.894661978442777 ], [ -120.036094352575233, 38.89477055681634 ], [ -120.037298403912445, 38.895756089121427 ], [ -120.037246351532474, 38.895898910371415 ], [ -120.036869601371876, 38.896087538585725 ], [ -120.036170576572061, 38.895709423798635 ], [ -120.036077699209144, 38.895725082069006 ], [ -120.035852437388129, 38.896151788192178 ], [ -120.035758810500482, 38.896185445044388 ], [ -120.03567847998201, 38.896453672240803 ], [ -120.035182066557738, 38.896747361525087 ], [ -120.035153041643753, 38.896890766972938 ], [ -120.034745756705718, 38.897258790958297 ], [ -120.03437273936332, 38.897357416336412 ], [ -120.034507189024055, 38.897450923536475 ], [ -120.034459625183118, 38.897485750219566 ], [ -120.034298396429591, 38.897481651606931 ], [ -120.033938116871354, 38.897274295404955 ], [ -120.031796731042263, 38.89554416885418 ], [ -120.031567910945753, 38.895502311026071 ], [ -120.031608940855691, 38.895070925953178 ], [ -120.030896145218748, 38.893917660833957 ], [ -120.030950458563169, 38.89372084644733 ], [ -120.030873863824809, 38.893899075884512 ], [ -120.030769207771286, 38.893644161990153 ], [ -120.030845052396359, 38.893483931404241 ], [ -120.0307767085324, 38.893464174106555 ], [ -120.031144145164447, 38.892392452369187 ], [ -120.031318860236084, 38.892072576466859 ], [ -120.031476327025644, 38.892166672738931 ] ] ], [ [ [ -120.030775208385535, 38.893500171683769 ], [ -120.030820520958315, 38.893519342817733 ], [ -120.030773708236012, 38.893536169260777 ], [ -120.030775208385535, 38.893500171683769 ] ] ] ] } }
]
}
