{
"type": "FeatureCollection",
"name": "X01120",
"crs": { "type": "name", "properties": { "name": "urn:ogc:def:crs:OGC:1.3:CRS84" } },
"features": [
{ "type": "Feature", "properties": { "part": "direct", "crossing_id": "X01120", "area_ac": 0.8 }, "geometry": { "type": "Polygon", "coordinates": [ [ [ -119.958107546595457, 38.898817055245551 ], [ -119.95831559860332, 38.898804462690016 ], [ -119.958516734446391, 38.898953847956605 ], [ -119.958733218625625, 38.899283809165944 ], [ -119.958983493530198, 38.899362404293527 ], [ -119.958978115037283, 38.899488387377232 ], [ -119.95886218799572, 38.899503382826914 ], [ -119.958904409575027, 38.899594571602655 ], [ -119.958809208901314, 38.899664160162537 ], [ -119.95864644952421, 38.899695952051694 ], [ -119.958556627770392, 38.899639557356608 ], [ -119.958519017473037, 38.899440383019879 ], [ -119.958254933631935, 38.899145215489654 ], [ -119.958107546595457, 38.898817055245551 ] ] ] } }
]
}
