{
"type": "FeatureCollection",
"name": "X01111",
"crs": { "type": "name", "properties": { "name": "urn:ogc:def:crs:OGC:1.3:CRS84" } },
"features": [
{ "type": "Feature", "properties": { "part": "direct", "crossing_id": "X01111", "area_ac": 0.5 }, "geometry": { "type": "Polygon", "coordinates": [ [ [ -120.122007557122274, 39.0320027263068 ], [ -120.121884859939797, 39.032179875164807 ], [ -120.12164823264952, 39.03231817455903 ], [ -120.120952232956455, 39.03239107325259 ], [ -120.121475299800423, 39.032025617762173 ], [ -120.122007557122274, 39.0320027263068 ] ] ] } }
]
}
