{
"type": "FeatureCollection",
"name": "X01154",
"crs": { "type": "name", "properties": { "name": "urn:ogc:def:crs:OGC:1.3:CRS84" } },
"features": [
{ "type": "Feature", "properties": { "part": "direct", "crossing_id": "X01154", "area_ac": 7.3 }, "geometry": { "type": "Polygon", "coordinates": [ [ [ -119.961153705986391, 38.912806040879261 ], [ -119.961449334615978, 38.912903830456287 ], [ -119.961796412529139, 38.912876836270918 ], [ -119.961791036416813, 38.913002819391707 ], [ -119.961952289552201, 38.913007019518822 ], [ -119.961967639136006, 38.914268650797339 ], [ -119.961868580537185, 38.914428228969953 ], [ -119.961828646787694, 38.914823575783231 ], [ -119.961506900505995, 38.914797177059661 ], [ -119.961130640753282, 38.914427023033035 ], [ -119.960927152700236, 38.914331633356483 ], [ -119.960381959285513, 38.914137251120728 ], [ -119.960105521378637, 38.914130046873922 ], [ -119.959593360146286, 38.913702293286327 ], [ -119.959657110007541, 38.913289550555312 ], [ -119.960213052867502, 38.913231970014309 ], [ -119.960570889238056, 38.912953013646451 ], [ -119.961153705986391, 38.912806040879261 ] ] ] } }
]
}
