{
"type": "FeatureCollection",
"name": "X01153",
"crs": { "type": "name", "properties": { "name": "urn:ogc:def:crs:OGC:1.3:CRS84" } },
"features": [
{ "type": "Feature", "properties": { "part": "direct", "crossing_id": "X01153", "area_ac": 0.8 }, "geometry": { "type": "Polygon", "coordinates": [ [ [ -119.962079764991941, 38.909478890413489 ], [ -119.962168833796298, 38.909553280526268 ], [ -119.962075157885252, 38.909586876037203 ], [ -119.962037533379387, 38.909928230552453 ], [ -119.961598329283433, 38.909952825952068 ], [ -119.961169102541731, 38.910283978781436 ], [ -119.96098866115112, 38.910189189744429 ], [ -119.961778773849431, 38.909507086115951 ], [ -119.962079764991941, 38.909478890413489 ] ] ] } }
]
}
