{
"type": "FeatureCollection",
"name": "X01131",
"crs": { "type": "name", "properties": { "name": "urn:ogc:def:crs:OGC:1.3:CRS84" } },
"features": [
{ "type": "Feature", "properties": { "part": "direct", "crossing_id": "X01131", "area_ac": 1.6, "n_upstream": null }, "geometry": { "type": "Polygon", "coordinates": [ [ [ -119.968019300275373, 38.90430021203472 ], [ -119.968334107767518, 38.904488570540231 ], [ -119.967880379215018, 38.904855147717846 ], [ -119.967693811067477, 38.904904350885978 ], [ -119.967571022666519, 38.905621864153247 ], [ -119.967482718973201, 38.905529480389944 ], [ -119.96708731096345, 38.905609288378997 ], [ -119.967043503317385, 38.905013567586309 ], [ -119.967186304090049, 38.904909174654776 ], [ -119.967556375409117, 38.904882760502666 ], [ -119.96759626826595, 38.904487409652177 ], [ -119.96778743297358, 38.904330220305283 ], [ -119.968019300275373, 38.90430021203472 ] ] ] } },
{ "type": "Feature", "properties": { "part": "upstream", "crossing_id": "X01131", "area_ac": 1.3, "n_upstream": 1.0 }, "geometry": { "type": "Polygon", "coordinates": [ [ [ -119.966218823899609, 38.903802958856119 ], [ -119.966535923914378, 38.90393732887312 ], [ -119.96688065747685, 38.903964310783927 ], [ -119.967117929322754, 38.904348850361394 ], [ -119.967465730597624, 38.904303839798047 ], [ -119.967669200367013, 38.904399217404411 ], [ -119.967580175402517, 38.904865361582338 ], [ -119.967185537655013, 38.904927172358263 ], [ -119.966912199737322, 38.904847994844971 ], [ -119.966948263711146, 38.90454263285956 ], [ -119.966837695110897, 38.904431652070144 ], [ -119.96686762711559, 38.904270271697079 ], [ -119.966690258437765, 38.904103500913671 ], [ -119.966213457341937, 38.903928942690115 ], [ -119.966148190725505, 38.903837157088475 ], [ -119.966218823899609, 38.903802958856119 ] ] ] } }
]
}
