{
"type": "FeatureCollection",
"name": "X01122",
"crs": { "type": "name", "properties": { "name": "urn:ogc:def:crs:OGC:1.3:CRS84" } },
"features": [
{ "type": "Feature", "properties": { "part": "direct", "crossing_id": "X01122", "area_ac": 1.6 }, "geometry": { "type": "Polygon", "coordinates": [ [ [ -119.959647543546893, 38.900550858458296 ], [ -119.960312392638926, 38.901180783762747 ], [ -119.960639445588129, 38.901621728379794 ], [ -119.960591076644462, 38.901674520951673 ], [ -119.960034456724301, 38.901750104616688 ], [ -119.959722757214109, 38.901489734626963 ], [ -119.959778040521385, 38.901274964118414 ], [ -119.959318179627701, 38.900704432129949 ], [ -119.959344284955932, 38.900633042148812 ], [ -119.959458677246104, 38.900654041467142 ], [ -119.959532383105397, 38.900547856918614 ], [ -119.959647543546893, 38.900550858458296 ] ] ] } }
]
}
