{
"type": "FeatureCollection",
"name": "X01100",
"crs": { "type": "name", "properties": { "name": "urn:ogc:def:crs:OGC:1.3:CRS84" } },
"features": [
{ "type": "Feature", "properties": { "part": "direct", "crossing_id": "X01100", "area_ac": 3.1 }, "geometry": { "type": "Polygon", "coordinates": [ [ [ -120.124376090870641, 39.016890120934299 ], [ -120.124464005975582, 39.01700039724313 ], [ -120.124359308729595, 39.01730411889617 ], [ -120.124582746187556, 39.017489810053021 ], [ -120.124688628628618, 39.017726654803653 ], [ -120.123032604297535, 39.018694795803469 ], [ -120.122858965293702, 39.018420241382834 ], [ -120.122933296741351, 39.018295950773741 ], [ -120.122900290510103, 39.017970813799785 ], [ -120.124201443797887, 39.017210134671409 ], [ -120.124391867607727, 39.017070689270035 ], [ -120.124237651568038, 39.016886705555038 ], [ -120.124376090870641, 39.016890120934299 ] ] ] } }
]
}
