{
"type": "FeatureCollection",
"name": "X01152",
"crs": { "type": "name", "properties": { "name": "urn:ogc:def:crs:OGC:1.3:CRS84" } },
"features": [
{ "type": "Feature", "properties": { "part": "direct", "crossing_id": "X01152", "area_ac": 6.6, "n_upstream": null }, "geometry": { "type": "MultiPolygon", "coordinates": [ [ [ [ -119.959794616666116, 38.91168956941992 ], [ -119.959816883877835, 38.911708167388163 ], [ -119.959793848179118, 38.911707566979004 ], [ -119.959794616666116, 38.91168956941992 ] ] ], [ [ [ -119.958665922952378, 38.910579090058455 ], [ -119.95868818952637, 38.91059768821966 ], [ -119.958665154210749, 38.910597087602106 ], [ -119.958665922952378, 38.910579090058455 ] ] ], [ [ [ -119.958643656389953, 38.910560491893428 ], [ -119.958665922952378, 38.910579090058455 ], [ -119.958642887643236, 38.910578489436752 ], [ -119.958643656389953, 38.910560491893428 ] ] ], [ [ [ -119.961146067274399, 38.910283378657425 ], [ -119.961168334440316, 38.910301976367862 ], [ -119.961145299167214, 38.910301376243446 ], [ -119.961146067274399, 38.910283378657425 ] ] ], [ [ [ -119.961738844158035, 38.909902433276123 ], [ -119.962083603723286, 38.909929430435056 ], [ -119.962081300138948, 38.909983423243276 ], [ -119.96198224838534, 38.910143001862359 ], [ -119.961761868890065, 38.911524616862039 ], [ -119.961691993846031, 38.911540814370682 ], [ -119.961583727693267, 38.9113758358328 ], [ -119.961142210166756, 38.911454421900537 ], [ -119.961005532654738, 38.911414825805771 ], [ -119.960899562492486, 38.911736381500489 ], [ -119.96073908063903, 38.911714182459086 ], [ -119.960403533213082, 38.911471210169438 ], [ -119.959817652359021, 38.911690169828702 ], [ -119.960153214826818, 38.911392616462301 ], [ -119.960670753864434, 38.911153856717213 ], [ -119.960514883136639, 38.91102367197616 ], [ -119.960238457273121, 38.91101646852519 ], [ -119.960059552220059, 38.910885682900961 ], [ -119.959334693806539, 38.911119035671305 ], [ -119.958687420789872, 38.910615685763595 ], [ -119.959181154635701, 38.910394329510673 ], [ -119.959353161327613, 38.910146567222917 ], [ -119.959537442824711, 38.910151370903911 ], [ -119.960137879052922, 38.9106715131146 ], [ -119.960368232795844, 38.9106775161898 ], [ -119.960418913355198, 38.910570731313477 ], [ -119.961067743935928, 38.910497549272186 ], [ -119.961213636898137, 38.910321174190166 ], [ -119.961169870642451, 38.910265981194939 ], [ -119.961384868474426, 38.910091406200458 ], [ -119.961738844158035, 38.909902433276123 ] ] ] ] } },
{ "type": "Feature", "properties": { "part": "upstream", "crossing_id": "X01152", "area_ac": 6.2, "n_upstream": 3.0 }, "geometry": { "type": "MultiPolygon", "coordinates": [ [ [ [ -119.961067743935928, 38.910497549272186 ], [ -119.960628536217044, 38.910522140861154 ], [ -119.960418913355198, 38.910570731313477 ], [ -119.960368232795844, 38.9106775161898 ], [ -119.960137879052922, 38.9106715131146 ], [ -119.959605011411938, 38.910189167330699 ], [ -119.959376196512324, 38.910147167698923 ], [ -119.95947294840694, 38.91004158420575 ], [ -119.960237718806468, 38.909953411263594 ], [ -119.960404342798981, 38.909831630237512 ], [ -119.960659265431232, 38.909802237739321 ], [ -119.96098866115112, 38.910189189744429 ], [ -119.961214404988638, 38.910303176603065 ], [ -119.961067743935928, 38.910497549272186 ] ] ], [ [ [ -119.960153214826818, 38.911392616462301 ], [ -119.959914405871174, 38.911584586050949 ], [ -119.95989910642416, 38.911578984354982 ], [ -119.95989197202654, 38.911584488309948 ], [ -119.959913637417287, 38.91160258361235 ], [ -119.959890601750629, 38.911601983223647 ], [ -119.959891327518122, 38.911584985527092 ], [ -119.95986876971709, 38.911602388125317 ], [ -119.959889833290248, 38.911619980784593 ], [ -119.959866797618488, 38.911619380390967 ], [ -119.959867480699543, 38.911603382559349 ], [ -119.959845567395959, 38.911620287935548 ], [ -119.959866029151613, 38.911637377951493 ], [ -119.959842993474737, 38.91163677755295 ], [ -119.959843633868658, 38.91162177958617 ], [ -119.959822365063147, 38.911638187740657 ], [ -119.959842225001367, 38.911654775112986 ], [ -119.959819189319404, 38.911654174709525 ], [ -119.959819787025452, 38.911640176607563 ], [ -119.959485929926316, 38.911897734337749 ], [ -119.959276302304218, 38.911946322531584 ], [ -119.959327754108656, 38.91182154070102 ], [ -119.959121969928802, 38.911780140878477 ], [ -119.959034439185487, 38.911669753384878 ], [ -119.958780278116024, 38.911681144484028 ], [ -119.958693516792749, 38.91155275921723 ], [ -119.958511538235641, 38.911493961445224 ], [ -119.958244337512497, 38.911270782769449 ], [ -119.958163728693023, 38.910998416885064 ], [ -119.957716861954921, 38.910662446014577 ], [ -119.957744511123494, 38.91055506165128 ], [ -119.95787657129776, 38.910702646618063 ], [ -119.958129959996867, 38.910709254888019 ], [ -119.958366463987332, 38.910571281622396 ], [ -119.958598354543014, 38.910541293094553 ], [ -119.959755461738922, 38.911526390560738 ], [ -119.959289391409726, 38.911099837120865 ], [ -119.960105623098244, 38.910886883588717 ], [ -119.960238457273121, 38.91101646852519 ], [ -119.960514883136639, 38.91102367197616 ], [ -119.960670753864434, 38.911153856717213 ], [ -119.960153214826818, 38.911392616462301 ] ] ], [ [ [ -119.957722244820616, 38.910536463320113 ], [ -119.957699209545453, 38.910535862512766 ], [ -119.957699978529334, 38.910517864985117 ], [ -119.957722244820616, 38.910536463320113 ] ] ], [ [ [ -119.957722244820616, 38.910536463320113 ], [ -119.957744511123494, 38.91055506165128 ], [ -119.957721475841865, 38.910554460848097 ], [ -119.957722244820616, 38.910536463320113 ] ] ], [ [ [ -119.959244857646837, 38.911062641001941 ], [ -119.959221822168999, 38.911062040488233 ], [ -119.959222590782787, 38.911044042936695 ], [ -119.959244857646837, 38.911062641001941 ] ] ], [ [ [ -119.959244857646837, 38.911062641001941 ], [ -119.959267124522484, 38.911081239063321 ], [ -119.959244089038179, 38.91108063855377 ], [ -119.959244857646837, 38.911062641001941 ] ] ], [ [ [ -119.959289391409726, 38.911099837120865 ], [ -119.959266355918913, 38.911099236615456 ], [ -119.959267124522484, 38.911081239063321 ], [ -119.959289391409726, 38.911099837120865 ] ] ] ] } }
]
}
