{
"type": "FeatureCollection",
"name": "X01194",
"crs": { "type": "name", "properties": { "name": "urn:ogc:def:crs:OGC:1.3:CRS84" } },
"features": [
{ "type": "Feature", "properties": { "part": "direct", "crossing_id": "X01194", "area_ac": 2.5 }, "geometry": { "type": "Polygon", "coordinates": [ [ [ -119.993156495766854, 38.878554867909592 ], [ -119.993316916567338, 38.878577019861531 ], [ -119.993472023875768, 38.878725159145553 ], [ -119.993812097361925, 38.878860046414687 ], [ -119.99387586186289, 38.878987813827003 ], [ -119.993752383296012, 38.879182827891391 ], [ -119.993784013646703, 38.879525980738869 ], [ -119.992816921079836, 38.879501058353753 ], [ -119.992474568610362, 38.879420162755231 ], [ -119.992409287590817, 38.87932839107242 ], [ -119.992103115429515, 38.879482658131337 ], [ -119.992921683446937, 38.878656922894066 ], [ -119.993156495766854, 38.878554867909592 ] ] ] } }
]
}
