{
"type": "FeatureCollection",
"name": "X01197",
"crs": { "type": "name", "properties": { "name": "urn:ogc:def:crs:OGC:1.3:CRS84" } },
"features": [
{ "type": "Feature", "properties": { "part": "direct", "crossing_id": "X01197", "area_ac": 4.0, "n_upstream": null }, "geometry": { "type": "Polygon", "coordinates": [ [ [ -119.99326731443675, 38.880845981741253 ], [ -119.993397881439932, 38.881029524271803 ], [ -119.99377946413307, 38.881273588093656 ], [ -119.993763523296337, 38.881651550661815 ], [ -119.993393828517625, 38.882218592982298 ], [ -119.993066896426669, 38.882318274072183 ], [ -119.992838146014066, 38.88227634272733 ], [ -119.99213950293786, 38.881897977767814 ], [ -119.991786266826153, 38.881528515120614 ], [ -119.992334865745164, 38.881092214500832 ], [ -119.992849289215499, 38.881465830175507 ], [ -119.992929758586641, 38.881197637608238 ], [ -119.99326731443675, 38.880845981741253 ] ] ] } },
{ "type": "Feature", "properties": { "part": "upstream", "crossing_id": "X01197", "area_ac": 6.7, "n_upstream": 2.0 }, "geometry": { "type": "Polygon", "coordinates": [ [ [ -119.990941940634698, 38.87968694747105 ], [ -119.990907518154486, 38.879956326240993 ], [ -119.990997343341888, 38.880012696203764 ], [ -119.991529982869665, 38.879954360828968 ], [ -119.991893843720646, 38.880071849312024 ], [ -119.992262262430188, 38.880081347525326 ], [ -119.992291596542586, 38.880253802530596 ], [ -119.992301479980696, 38.880244518495907 ], [ -119.992759726750421, 38.880310384131043 ], [ -119.993181282418192, 38.880699622371637 ], [ -119.99334170801572, 38.880721774474452 ], [ -119.992929758586641, 38.881197637608238 ], [ -119.992849289215499, 38.881465830175507 ], [ -119.992403945255887, 38.881093995282349 ], [ -119.991909755124581, 38.881333503581516 ], [ -119.991350804252519, 38.880922700051734 ], [ -119.991797421321053, 38.880718003050212 ], [ -119.991421402867545, 38.880888485048189 ], [ -119.989685302227983, 38.881059916756449 ], [ -119.989783488629556, 38.880918307987336 ], [ -119.989897860549931, 38.880939276593324 ], [ -119.990041339065272, 38.880816853884127 ], [ -119.990177217336523, 38.880874412578663 ], [ -119.99027388260663, 38.880768799666093 ], [ -119.990381946365261, 38.880393214196793 ], [ -119.990544649775927, 38.88036137558845 ], [ -119.990526942673085, 38.880234794470091 ], [ -119.990666619485211, 38.880202361725686 ], [ -119.99060361975819, 38.880056594597129 ], [ -119.990741776560441, 38.880060158088348 ], [ -119.990815413736939, 38.879953950734333 ], [ -119.990702562691112, 38.879896986734593 ], [ -119.99082301162629, 38.879773968998137 ], [ -119.990737745702162, 38.879609609879395 ], [ -119.990832129003834, 38.879557990905717 ], [ -119.990941940634698, 38.87968694747105 ] ] ] } }
]
}
