{
"type": "FeatureCollection",
"name": "X01195",
"crs": { "type": "name", "properties": { "name": "urn:ogc:def:crs:OGC:1.3:CRS84" } },
"features": [
{ "type": "Feature", "properties": { "part": "direct", "crossing_id": "X01195", "area_ac": 6.0 }, "geometry": { "type": "Polygon", "coordinates": [ [ [ -119.991110249771921, 38.878430044067798 ], [ -119.991386557230584, 38.87843716943943 ], [ -119.991335188632775, 38.878561969227739 ], [ -119.991425772095454, 38.878600340628729 ], [ -119.991375163046698, 38.878707142242973 ], [ -119.991504202293868, 38.878926682977301 ], [ -119.991202588130861, 38.878972958564084 ], [ -119.991063148512865, 38.87954593127435 ], [ -119.991962681101072, 38.879533090875846 ], [ -119.992363235722379, 38.879327203936384 ], [ -119.992474568610362, 38.879420162755231 ], [ -119.992816921079836, 38.879501058353753 ], [ -119.993647375624377, 38.879486424444636 ], [ -119.993806280648386, 38.879544572255575 ], [ -119.993756688059094, 38.880173916748532 ], [ -119.993586395210514, 38.880385742095839 ], [ -119.993605626007323, 38.880476326528459 ], [ -119.993465190620284, 38.880526761039945 ], [ -119.99334170801572, 38.880721774474452 ], [ -119.993181282418192, 38.880699622371637 ], [ -119.992759726750421, 38.880310384131043 ], [ -119.992346013609748, 38.880281702075024 ], [ -119.992262262430188, 38.880081347525326 ], [ -119.991893843720646, 38.880071849312024 ], [ -119.991529982869665, 38.879954360828968 ], [ -119.991020369468046, 38.880013290052105 ], [ -119.990907518154486, 38.879956326240993 ], [ -119.990941940634698, 38.87968694747105 ], [ -119.990789875990387, 38.879466812270934 ], [ -119.990756740554701, 38.879159655531694 ], [ -119.990947784965954, 38.879002422881143 ], [ -119.990981446881619, 38.878751042216678 ], [ -119.991122639930879, 38.878682612432428 ], [ -119.991110249771921, 38.878430044067798 ] ] ] } }
]
}
