{
"type": "FeatureCollection",
"name": "X01166",
"crs": { "type": "name", "properties": { "name": "urn:ogc:def:crs:OGC:1.3:CRS84" } },
"features": [
{ "type": "Feature", "properties": { "part": "direct", "crossing_id": "X01166", "area_ac": 8.1, "n_upstream": null }, "geometry": { "type": "Polygon", "coordinates": [ [ [ -119.986959865666833, 38.88336790696259 ], [ -119.986884697279038, 38.883510107653187 ], [ -119.987571914854698, 38.884158475138719 ], [ -119.987654135249784, 38.884394828817726 ], [ -119.987649016188882, 38.885061353315251 ], [ -119.987866361550473, 38.885373266682144 ], [ -119.987450339868559, 38.885398560494217 ], [ -119.98716563696442, 38.885589403796502 ], [ -119.986723542170182, 38.885686092636817 ], [ -119.98660307576607, 38.885809105350994 ], [ -119.98634596347064, 38.885892552780199 ], [ -119.986357379608407, 38.885622581559012 ], [ -119.986078762174614, 38.885669437418599 ], [ -119.986105595696529, 38.885580041920477 ], [ -119.985945162152348, 38.88555787953036 ], [ -119.985826978304473, 38.88562689717866 ], [ -119.985923656700294, 38.885521288460509 ], [ -119.985740195574763, 38.885498530872333 ], [ -119.985182773794676, 38.885051702002386 ], [ -119.986184183997551, 38.884266776909811 ], [ -119.986866996298417, 38.883383526265419 ], [ -119.986959865666833, 38.88336790696259 ] ] ] } },
{ "type": "Feature", "properties": { "part": "upstream", "crossing_id": "X01166", "area_ac": 0.5, "n_upstream": 3.0 }, "geometry": { "type": "MultiPolygon", "coordinates": [ [ [ [ -119.985740195574763, 38.885498530872333 ], [ -119.985923656700294, 38.885521288460509 ], [ -119.985850006133191, 38.885627492118168 ], [ -119.985945162152348, 38.88555787953036 ], [ -119.986083329016267, 38.885561448954434 ], [ -119.986051167426567, 38.885776830983112 ], [ -119.985817843799211, 38.8858428740511 ], [ -119.985751805024051, 38.885769096906465 ], [ -119.985785553728633, 38.885697897892051 ], [ -119.98568576638317, 38.885695319729024 ], [ -119.985628862909635, 38.88540556567758 ], [ -119.985314087701894, 38.88521725488539 ], [ -119.985293344000226, 38.885162665648615 ], [ -119.985385454674471, 38.885165045776752 ], [ -119.985740195574763, 38.885498530872333 ] ] ], [ [ [ -119.98588616630019, 38.885862656943196 ], [ -119.986051167426567, 38.885776830983112 ], [ -119.986078762174614, 38.885669437418599 ], [ -119.986357379608407, 38.885622581559012 ], [ -119.98634672455124, 38.885874554699278 ], [ -119.98588616630019, 38.885862656943196 ] ] ] ] } }
]
}
