{
"type": "FeatureCollection",
"name": "X01127",
"crs": { "type": "name", "properties": { "name": "urn:ogc:def:crs:OGC:1.3:CRS84" } },
"features": [
{ "type": "Feature", "properties": { "part": "direct", "crossing_id": "X01127", "area_ac": 0.3 }, "geometry": { "type": "Polygon", "coordinates": [ [ [ -119.9619223502945, 38.900736248996139 ], [ -119.961847880016904, 38.900860432814895 ], [ -119.961661318984724, 38.900909626608566 ], [ -119.961393376269143, 38.901244982146807 ], [ -119.961245202963411, 38.900934822835495 ], [ -119.96162139631987, 38.900764445806502 ], [ -119.9619223502945, 38.900736248996139 ] ] ] } }
]
}
