{
"type": "FeatureCollection",
"name": "X01147",
"crs": { "type": "name", "properties": { "name": "urn:ogc:def:crs:OGC:1.3:CRS84" } },
"features": [
{ "type": "Feature", "properties": { "part": "direct", "crossing_id": "X01147", "area_ac": 1.3, "n_upstream": null }, "geometry": { "type": "Polygon", "coordinates": [ [ [ -119.957821092461401, 38.900665398918122 ], [ -119.957818786409717, 38.900719391598265 ], [ -119.958005349186735, 38.900670204039841 ], [ -119.958602646874908, 38.900721813826962 ], [ -119.958783830111528, 38.900798608025049 ], [ -119.959004162591938, 38.901038581030015 ], [ -119.958627962032594, 38.901208949295913 ], [ -119.958246379552307, 38.901505299225548 ], [ -119.958229495996832, 38.901360718121474 ], [ -119.957853320444428, 38.900990556311193 ], [ -119.957768878709274, 38.900808178065219 ], [ -119.957821092461401, 38.900665398918122 ] ] ] } },
{ "type": "Feature", "properties": { "part": "upstream", "crossing_id": "X01147", "area_ac": 4.7, "n_upstream": 2.0 }, "geometry": { "type": "Polygon", "coordinates": [ [ [ -119.95831559860332, 38.898804462690016 ], [ -119.958516734446391, 38.898953847956605 ], [ -119.958733218625625, 38.899283809165944 ], [ -119.958983493530198, 38.899362404293527 ], [ -119.958978115037283, 38.899488387377232 ], [ -119.95886218799572, 38.899503382826914 ], [ -119.958904409575027, 38.899594571602655 ], [ -119.958809208901314, 38.899664160162537 ], [ -119.958784381208204, 38.899669009787814 ], [ -119.958733197709236, 38.89982433699538 ], [ -119.95879460906346, 38.900006114165954 ], [ -119.958909000160531, 38.900027113978744 ], [ -119.958846799751228, 38.900403862254244 ], [ -119.958955812762539, 38.900550845098927 ], [ -119.95892509666254, 38.90073022045128 ], [ -119.958783830111528, 38.900798608025049 ], [ -119.958465991192469, 38.900682215574186 ], [ -119.957887882728741, 38.900721193556372 ], [ -119.957705932030407, 38.900662395569654 ], [ -119.95767145689311, 38.899310175864386 ], [ -119.957973174182357, 38.899263991495665 ], [ -119.957913302702096, 38.899046218849008 ], [ -119.958083746532793, 38.898834452235519 ], [ -119.958168100805366, 38.898951880790122 ], [ -119.958107546595457, 38.898817055245551 ], [ -119.95831559860332, 38.898804462690016 ] ] ] } }
]
}
