{
"type": "FeatureCollection",
"name": "X01262",
"crs": { "type": "name", "properties": { "name": "urn:ogc:def:crs:OGC:1.3:CRS84" } },
"features": [
{ "type": "Feature", "properties": { "part": "direct", "crossing_id": "X01262", "area_ac": 4.0 }, "geometry": { "type": "Polygon", "coordinates": [ [ [ -120.002916883989315, 38.845959454913704 ], [ -120.003581653737925, 38.846589133509745 ], [ -120.003663137046303, 38.846843476087066 ], [ -120.004244924066683, 38.847254805714861 ], [ -120.004483744523, 38.84760327597948 ], [ -120.004885190549729, 38.847919883869999 ], [ -120.004945929737943, 38.84811963952211 ], [ -120.005410387320993, 38.848582005925408 ], [ -120.005494503553308, 38.849322897894339 ], [ -120.006967916375672, 38.851000324550085 ], [ -120.006719625256792, 38.851426385582997 ], [ -120.006626801272461, 38.851442022518 ], [ -120.006470211041048, 38.851329898443595 ], [ -120.006332498804014, 38.850767811208136 ], [ -120.006148362679696, 38.850763087417484 ], [ -120.006009143493685, 38.850236996930406 ], [ -120.005567688470947, 38.849775223040695 ], [ -120.00538093147108, 38.84928394780836 ], [ -120.005313035114881, 38.848705633016266 ], [ -120.004958370714164, 38.848372209282651 ], [ -120.004789349253244, 38.848007513529041 ], [ -120.003744620880852, 38.847097818620874 ], [ -120.003359398622777, 38.846943784485696 ], [ -120.003119074231222, 38.846631309148748 ], [ -120.00262709310924, 38.84627633428952 ], [ -120.00259088897279, 38.846041171885865 ], [ -120.002916883989315, 38.845959454913704 ] ] ] } }
]
}
