{
"type": "FeatureCollection",
"name": "X01266",
"crs": { "type": "name", "properties": { "name": "urn:ogc:def:crs:OGC:1.3:CRS84" } },
"features": [
{ "type": "Feature", "properties": { "part": "direct", "crossing_id": "X01266", "area_ac": 37.5 }, "geometry": { "type": "Polygon", "coordinates": [ [ [ -120.004927577252644, 38.844713786398813 ], [ -120.006907986465521, 38.846386205933321 ], [ -120.007148327208128, 38.846698674097937 ], [ -120.007601095186061, 38.846890463586647 ], [ -120.009472579225744, 38.848415904430908 ], [ -120.010104971343679, 38.848720394672071 ], [ -120.010237037552571, 38.848867921428671 ], [ -120.010421169479528, 38.848872638581526 ], [ -120.010510219505449, 38.848946991425692 ], [ -120.010607206855994, 38.849381905696752 ], [ -120.010739275277402, 38.84952943195961 ], [ -120.01080872408933, 38.850071748102501 ], [ -120.010919285030937, 38.850182687452481 ], [ -120.010872142136961, 38.85075805295893 ], [ -120.010752532722819, 38.850863096650599 ], [ -120.010617445937626, 38.850787564693924 ], [ -120.010226155083657, 38.850777540642561 ], [ -120.009969950285566, 38.850843048111734 ], [ -120.00973223674734, 38.851017136237601 ], [ -120.009453767818286, 38.851064054154776 ], [ -120.00786558404441, 38.851023344111169 ], [ -120.00746712675371, 38.850634751256905 ], [ -120.006595523069691, 38.849441234239393 ], [ -120.006493275313048, 38.849132307293559 ], [ -120.006051823412221, 38.848670535307683 ], [ -120.006015607209221, 38.848435373555191 ], [ -120.005684711975633, 38.848084543902971 ], [ -120.005672662747116, 38.847273429486428 ], [ -120.005497238335622, 38.846512176694112 ], [ -120.005533091955115, 38.846206792419494 ], [ -120.005603648857459, 38.846172567021725 ], [ -120.005521403986563, 38.845936224052416 ], [ -120.005571965789642, 38.845829414019192 ], [ -120.005491231674938, 38.84555707399187 ], [ -120.00537993102796, 38.845464128558113 ], [ -120.005366733210593, 38.845229557215433 ], [ -120.004967565140973, 38.844858955826027 ], [ -120.004927577252644, 38.844713786398813 ] ] ] } }
]
}
