{
"type": "FeatureCollection",
"name": "X01219",
"crs": { "type": "name", "properties": { "name": "urn:ogc:def:crs:OGC:1.3:CRS84" } },
"features": [
{ "type": "Feature", "properties": { "part": "direct", "crossing_id": "X01219", "area_ac": 2.3 }, "geometry": { "type": "Polygon", "coordinates": [ [ [ -119.982787554721455, 38.904052517968289 ], [ -119.982782979875083, 38.904160505761901 ], [ -119.982991046072684, 38.904147869620409 ], [ -119.982994858181996, 38.904057879775138 ], [ -119.983152282338693, 38.904152039673889 ], [ -119.983080893873577, 38.904204246446248 ], [ -119.983145420864332, 38.904314021415068 ], [ -119.983001881051379, 38.904436432855434 ], [ -119.983158543630978, 38.904548590743588 ], [ -119.983174716009316, 38.904711168185685 ], [ -119.982387749628614, 38.904780901250803 ], [ -119.98226876680998, 38.904867911643727 ], [ -119.982131325678878, 38.904846338272662 ], [ -119.982129037696964, 38.904900332129721 ], [ -119.981967799890583, 38.904896160596209 ], [ -119.981972376091861, 38.904788172897462 ], [ -119.981558528171732, 38.904759447174186 ], [ -119.981523139660709, 38.904506283907637 ], [ -119.98176186820406, 38.904314266577039 ], [ -119.981862393146031, 38.904118673021955 ], [ -119.982253203815404, 38.9041468016447 ], [ -119.982279287960267, 38.904075405697128 ], [ -119.982716166107892, 38.904104724511356 ], [ -119.982787554721455, 38.904052517968289 ] ] ] } }
]
}
