{
"type": "FeatureCollection",
"name": "X01287",
"crs": { "type": "name", "properties": { "name": "urn:ogc:def:crs:OGC:1.3:CRS84" } },
"features": [
{ "type": "Feature", "properties": { "part": "direct", "crossing_id": "X01287", "area_ac": 2.8, "n_upstream": null }, "geometry": { "type": "Polygon", "coordinates": [ [ [ -120.125063484087732, 39.010186391741072 ], [ -120.125310702559702, 39.010354649978531 ], [ -120.125459803827937, 39.010664631665101 ], [ -120.125521462109646, 39.011422905173859 ], [ -120.125401000040142, 39.011546060116778 ], [ -120.124915769238854, 39.011552111130513 ], [ -120.124609274766527, 39.011706712555906 ], [ -120.124076716044243, 39.011171054875128 ], [ -120.124215873726669, 39.011156470100865 ], [ -120.124290194446061, 39.0110321781141 ], [ -120.124739490596227, 39.0107729923241 ], [ -120.125063484087732, 39.010186391741072 ] ] ] } },
{ "type": "Feature", "properties": { "part": "upstream", "crossing_id": "X01287", "area_ac": 8.5, "n_upstream": 2.0 }, "geometry": { "type": "MultiPolygon", "coordinates": [ [ [ [ -120.125182021933199, 39.009540669628684 ], [ -120.12490974154305, 39.010560976424919 ], [ -120.124335607566124, 39.011051316358511 ], [ -120.12346355606995, 39.010345119085812 ], [ -120.123227736955485, 39.010465425086082 ], [ -120.123162902376379, 39.010355717492359 ], [ -120.123179239245459, 39.009383152724425 ], [ -120.123357517896864, 39.008973139989777 ], [ -120.123739780868988, 39.008658249863196 ], [ -120.124041886397563, 39.008611649825959 ], [ -120.125182021933199, 39.009540669628684 ] ] ], [ [ [ -120.124267123132512, 39.011031608949878 ], [ -120.124215873726669, 39.011156470100865 ], [ -120.123889956350808, 39.011220500848836 ], [ -120.123756635776544, 39.011091085866205 ], [ -120.12358811854449, 39.01069053337649 ], [ -120.123297680040068, 39.010449133246041 ], [ -120.12346355606995, 39.010345119085812 ], [ -120.124267123132512, 39.011031608949878 ] ] ] ] } }
]
}
