{
"type": "FeatureCollection",
"name": "X01294",
"crs": { "type": "name", "properties": { "name": "urn:ogc:def:crs:OGC:1.3:CRS84" } },
"features": [
{ "type": "Feature", "properties": { "part": "direct", "crossing_id": "X01294", "area_ac": 11.0, "n_upstream": null }, "geometry": { "type": "Polygon", "coordinates": [ [ [ -120.122743369512889, 39.008741767720295 ], [ -120.123223472569791, 39.008861724468609 ], [ -120.123380588523233, 39.008973709308819 ], [ -120.123303349743168, 39.00917000045164 ], [ -120.123185077296881, 39.009239153390872 ], [ -120.12228386018036, 39.009252944744127 ], [ -120.122243999578998, 39.009666372939755 ], [ -120.122355703850857, 39.009759220144588 ], [ -120.122253930345153, 39.009990940696525 ], [ -120.12237162761312, 39.011074921474275 ], [ -120.122525096975636, 39.011276907062232 ], [ -120.123520814563364, 39.011211392371607 ], [ -120.123653405213275, 39.011358807531956 ], [ -120.122901982631561, 39.011664586161089 ], [ -120.122687769740764, 39.011821460091802 ], [ -120.121716575150288, 39.011851537216636 ], [ -120.121644439718494, 39.011921827691182 ], [ -120.121238646030932, 39.011677574009155 ], [ -120.121130160892662, 39.01093616029749 ], [ -120.120999037098315, 39.010752742727981 ], [ -120.120906752478277, 39.010750463454009 ], [ -120.12074804900152, 39.009539343182766 ], [ -120.121146094185576, 39.009405030805354 ], [ -120.121977661817141, 39.008830973117263 ], [ -120.122743369512889, 39.008741767720295 ] ] ] } },
{ "type": "Feature", "properties": { "part": "upstream", "crossing_id": "X01294", "area_ac": 2.2, "n_upstream": 2.0 }, "geometry": { "type": "Polygon", "coordinates": [ [ [ -120.123179239245459, 39.009383152724425 ], [ -120.123193552915964, 39.009599721080363 ], [ -120.123170482090003, 39.009599151716706 ], [ -120.123180864953511, 39.010482286259723 ], [ -120.12294796431938, 39.010530592013652 ], [ -120.122591235323441, 39.010215482322671 ], [ -120.12226634041005, 39.009684942388496 ], [ -120.123004607468772, 39.009703165520811 ], [ -120.122243999578998, 39.009666372939755 ], [ -120.12228386018036, 39.009252944744127 ], [ -120.123278089868066, 39.009223430870662 ], [ -120.123179239245459, 39.009383152724425 ] ] ] } }
]
}
