{
"type": "FeatureCollection",
"name": "X01296",
"crs": { "type": "name", "properties": { "name": "urn:ogc:def:crs:OGC:1.3:CRS84" } },
"features": [
{ "type": "Feature", "properties": { "part": "direct", "crossing_id": "X01296", "area_ac": 0.3 }, "geometry": { "type": "MultiPolygon", "coordinates": [ [ [ [ -120.121835588088487, 39.008917554964327 ], [ -120.121857928583935, 39.008936124480584 ], [ -120.121834858000682, 39.008935554860884 ], [ -120.121835588088487, 39.008917554964327 ] ] ], [ [ [ -120.121834858000682, 39.008935554860884 ], [ -120.121524718118238, 39.009180147868989 ], [ -120.120910274654804, 39.009525332100807 ], [ -120.120656496380988, 39.00951906389335 ], [ -120.120943569994708, 39.009273903577927 ], [ -120.121456236343192, 39.009160438899841 ], [ -120.121834858000682, 39.008935554860884 ] ] ] ] } }
]
}
