{
"type": "FeatureCollection",
"name": "X01221",
"crs": { "type": "name", "properties": { "name": "urn:ogc:def:crs:OGC:1.3:CRS84" } },
"features": [
{ "type": "Feature", "properties": { "part": "direct", "crossing_id": "X01221", "area_ac": 14.7, "n_upstream": null }, "geometry": { "type": "Polygon", "coordinates": [ [ [ -119.978325775666107, 38.899973137917016 ], [ -119.97834651751937, 38.900027728233155 ], [ -119.97866973346909, 38.900018082297386 ], [ -119.978690475600985, 38.90007267256297 ], [ -119.978943068067721, 38.900097232077343 ], [ -119.978984552824699, 38.900206412525655 ], [ -119.979283210716687, 38.90023216427258 ], [ -119.97943222608717, 38.900524305839959 ], [ -119.979720201392595, 38.900802027453487 ], [ -119.979991250996306, 38.900935168714625 ], [ -119.980199307898317, 38.90092253719493 ], [ -119.980332162743778, 38.901052100138735 ], [ -119.980494154582445, 38.90103827564981 ], [ -119.980826675942197, 38.901353183015352 ], [ -119.981130679311732, 38.901252944629206 ], [ -119.981053952636415, 38.901431135859958 ], [ -119.981188335606291, 38.901524702025668 ], [ -119.981128539027793, 38.901847472919044 ], [ -119.980710893983129, 38.901908734571833 ], [ -119.980371645763668, 38.902296342402352 ], [ -119.980115992450905, 38.902343777368813 ], [ -119.980063821322972, 38.902486568201361 ], [ -119.97987650347676, 38.902553789392854 ], [ -119.979818989392029, 38.902822565532311 ], [ -119.979750652837694, 38.902802778552847 ], [ -119.979630143958829, 38.902925782116483 ], [ -119.979142628341847, 38.903003246570385 ], [ -119.978751825832205, 38.902975107812637 ], [ -119.978413962151123, 38.902786179948571 ], [ -119.978194958426954, 38.90196971156908 ], [ -119.977757332610651, 38.901958374284732 ], [ -119.977645986526198, 38.901865401081821 ], [ -119.977528410030686, 38.901375877505949 ], [ -119.977626650599447, 38.901234281481585 ], [ -119.977909915616138, 38.901079461217449 ], [ -119.977915260959563, 38.900953475958097 ], [ -119.978174728122653, 38.900816056173234 ], [ -119.978253751690218, 38.900583873378828 ], [ -119.978144697600968, 38.900436906991857 ], [ -119.978214558476139, 38.900420699009572 ], [ -119.978249043677479, 38.90015132711045 ], [ -119.978158441320474, 38.900112944783615 ], [ -119.97816378604054, 38.899986959474489 ], [ -119.978325775666107, 38.899973137917016 ] ] ] } },
{ "type": "Feature", "properties": { "part": "upstream", "crossing_id": "X01221", "area_ac": 1.1, "n_upstream": 1.0 }, "geometry": { "type": "Polygon", "coordinates": [ [ [ -119.980710893983129, 38.901908734571833 ], [ -119.981082473095043, 38.901846280758342 ], [ -119.981146995030315, 38.901956056664062 ], [ -119.981072556080576, 38.902080254028533 ], [ -119.980571313797867, 38.902481687638392 ], [ -119.980194389380415, 38.902670125157393 ], [ -119.980090809767489, 38.90293770891325 ], [ -119.979930339866513, 38.902915536818924 ], [ -119.979818226203292, 38.902840563452621 ], [ -119.97987650347676, 38.902553789392854 ], [ -119.980063821322972, 38.902486568201361 ], [ -119.980115992450905, 38.902343777368813 ], [ -119.980371645763668, 38.902296342402352 ], [ -119.980710893983129, 38.901908734571833 ] ] ] } }
]
}
