{
"type": "FeatureCollection",
"name": "X01249",
"crs": { "type": "name", "properties": { "name": "urn:ogc:def:crs:OGC:1.3:CRS84" } },
"features": [
{ "type": "Feature", "properties": { "part": "direct", "crossing_id": "X01249", "area_ac": 7.3, "n_upstream": null }, "geometry": { "type": "Polygon", "coordinates": [ [ [ -120.005431288210488, 38.854672587328807 ], [ -120.005658449352396, 38.85475048791649 ], [ -120.006233151530338, 38.854783250984489 ], [ -120.006414277315272, 38.854859969083407 ], [ -120.006767468916635, 38.85522938664154 ], [ -120.006906334788113, 38.855214930604497 ], [ -120.006681800732267, 38.855623582585459 ], [ -120.006652349981096, 38.856325524437402 ], [ -120.006504419498938, 38.856555962141442 ], [ -120.006435362839596, 38.856554190635173 ], [ -120.006289335762787, 38.856190086932813 ], [ -120.005953118338581, 38.855965246465011 ], [ -120.005748971708641, 38.85588793693735 ], [ -120.005399914616447, 38.855969069333959 ], [ -120.005304062464162, 38.85605669890807 ], [ -120.005142931572067, 38.856052563718407 ], [ -120.004557292224376, 38.855731228434017 ], [ -120.004393895034298, 38.855781087659899 ], [ -120.004154294459653, 38.855450615035032 ], [ -120.00401618358201, 38.855447069286953 ], [ -120.004067511050778, 38.855322261945297 ], [ -120.004183359007214, 38.855307218218037 ], [ -120.004143368251405, 38.855162048577739 ], [ -120.004282234320499, 38.855147595681473 ], [ -120.004369426302858, 38.854717405025433 ], [ -120.00475771426477, 38.854799443472587 ], [ -120.005085258909105, 38.854681725063031 ], [ -120.005431288210488, 38.854672587328807 ] ] ] } },
{ "type": "Feature", "properties": { "part": "upstream", "crossing_id": "X01249", "area_ac": 5.5, "n_upstream": 2.0 }, "geometry": { "type": "Polygon", "coordinates": [ [ [ -120.004330885096579, 38.855635327164798 ], [ -120.004272000352159, 38.855940119326114 ], [ -120.00435088075092, 38.855707911961822 ], [ -120.004393895034298, 38.855781087659899 ], [ -120.004557292224376, 38.855731228434017 ], [ -120.005142931572067, 38.856052563718407 ], [ -120.005771990365204, 38.855888527570784 ], [ -120.006289335762787, 38.856190086932813 ], [ -120.006456871292642, 38.856590778149261 ], [ -120.006341776812675, 38.85658782556709 ], [ -120.006313471139805, 38.856713224545189 ], [ -120.00620517401903, 38.856548285319832 ], [ -120.006085547772258, 38.856653323477666 ], [ -120.005971208571509, 38.856632372030113 ], [ -120.005796877358492, 38.856393666665902 ], [ -120.005501410010552, 38.856295995615 ], [ -120.005407823938356, 38.85632962979458 ], [ -120.005318770763054, 38.856255272980889 ], [ -120.005244425867275, 38.856379490177126 ], [ -120.005083294255627, 38.856375354876498 ], [ -120.004791956039753, 38.856728234803207 ], [ -120.004385173236415, 38.856537614346266 ], [ -120.003993097270367, 38.856545566638623 ], [ -120.003891201378934, 38.856460484100538 ], [ -120.003611945160188, 38.856842083979302 ], [ -120.003453080686683, 38.856783951025015 ], [ -120.003014209592266, 38.856808716208597 ], [ -120.002719500992484, 38.856693039753765 ], [ -120.002680268823255, 38.856529871286995 ], [ -120.002776124734865, 38.856442244028827 ], [ -120.0030531061213, 38.856431339998259 ], [ -120.003033867720944, 38.856340756582789 ], [ -120.003196511015958, 38.856308897806208 ], [ -120.003379904957157, 38.856331625267757 ], [ -120.003362934117817, 38.856187046527999 ], [ -120.00350558203958, 38.856082602366499 ], [ -120.003397292447659, 38.855917660813219 ], [ -120.003585976929656, 38.855814398713377 ], [ -120.003662591683437, 38.855636187273845 ], [ -120.003988630249509, 38.85555446911151 ], [ -120.00397014662822, 38.855445887334703 ], [ -120.004085239017812, 38.855448842181382 ], [ -120.004330885096579, 38.855635327164798 ] ] ] } }
]
}
