{
"type": "FeatureCollection",
"name": "X01264",
"crs": { "type": "name", "properties": { "name": "urn:ogc:def:crs:OGC:1.3:CRS84" } },
"features": [
{ "type": "Feature", "properties": { "part": "direct", "crossing_id": "X01264", "area_ac": 1.0 }, "geometry": { "type": "Polygon", "coordinates": [ [ [ -120.008813824876881, 38.852038637380616 ], [ -120.008948911900887, 38.852114171430877 ], [ -120.009274174612528, 38.852050436132394 ], [ -120.009767737158541, 38.852369388387189 ], [ -120.009869248770812, 38.852696311630254 ], [ -120.00976586371398, 38.85296393100856 ], [ -120.009428894868876, 38.852757099189766 ], [ -120.009458701797371, 38.852595701972383 ], [ -120.009006647583433, 38.852385919668976 ], [ -120.008807034345523, 38.852200624386448 ], [ -120.008813824876881, 38.852038637380616 ] ] ] } }
]
}
