{
"type": "FeatureCollection",
"name": "X01205",
"crs": { "type": "name", "properties": { "name": "urn:ogc:def:crs:OGC:1.3:CRS84" } },
"features": [
{ "type": "Feature", "properties": { "part": "direct", "crossing_id": "X01205", "area_ac": 0.4 }, "geometry": { "type": "Polygon", "coordinates": [ [ [ -119.996488419875575, 38.855271577784762 ], [ -119.996414818812028, 38.855377790457389 ], [ -119.996495526536762, 38.855650135437571 ], [ -119.9963574162431, 38.855646580618114 ], [ -119.99623398888275, 38.855841599858799 ], [ -119.996316211838234, 38.856077948263035 ], [ -119.996129790293082, 38.856127203145775 ], [ -119.99600456234262, 38.855817676195755 ], [ -119.995847222711078, 38.855723536542627 ], [ -119.996338186569261, 38.855555996433509 ], [ -119.99637029767635, 38.855340608828698 ], [ -119.996488419875575, 38.855271577784762 ] ] ] } }
]
}
