{
"type": "FeatureCollection",
"name": "X01261",
"crs": { "type": "name", "properties": { "name": "urn:ogc:def:crs:OGC:1.3:CRS84" } },
"features": [
{ "type": "Feature", "properties": { "part": "direct", "crossing_id": "X01261", "area_ac": 0.0 }, "geometry": { "type": "MultiPolygon", "coordinates": [ [ [ [ -120.007808603924431, 38.851832688348068 ], [ -120.007854638710782, 38.851833868695714 ], [ -120.007876146641848, 38.85187045594607 ], [ -120.007808603924431, 38.851832688348068 ] ] ], [ [ [ -120.007787850791303, 38.851778102546469 ], [ -120.007810113419552, 38.851796691266706 ], [ -120.007787096038953, 38.851796101086848 ], [ -120.007787850791303, 38.851778102546469 ] ] ] ] } }
]
}
