{
"type": "FeatureCollection",
"name": "X01243",
"crs": { "type": "name", "properties": { "name": "urn:ogc:def:crs:OGC:1.3:CRS84" } },
"features": [
{ "type": "Feature", "properties": { "part": "direct", "crossing_id": "X01243", "area_ac": 0.8 }, "geometry": { "type": "Polygon", "coordinates": [ [ [ -120.002758065168635, 38.850838222324263 ], [ -120.003045946917354, 38.851115884007385 ], [ -120.003114581756265, 38.851676200811447 ], [ -120.003248905757786, 38.851769739667461 ], [ -120.003934134275354, 38.851913459249893 ], [ -120.004158262304941, 38.852063356292632 ], [ -120.004154483924609, 38.852153348690628 ], [ -120.003993362009012, 38.852149212262113 ], [ -120.003587362669037, 38.851940591538799 ], [ -120.003175318442274, 38.851875957204889 ], [ -120.002950437195338, 38.851744056834825 ], [ -120.002844422836162, 38.851525119592978 ], [ -120.002864834346042, 38.851039161154354 ], [ -120.002730512191235, 38.850945621920332 ], [ -120.002758065168635, 38.850838222324263 ] ] ] } }
]
}
