{
"type": "FeatureCollection",
"name": "X01212",
"crs": { "type": "name", "properties": { "name": "urn:ogc:def:crs:OGC:1.3:CRS84" } },
"features": [
{ "type": "Feature", "properties": { "part": "direct", "crossing_id": "X01212", "area_ac": 6.0, "n_upstream": null }, "geometry": { "type": "Polygon", "coordinates": [ [ [ -119.996805013979738, 38.857604027801031 ], [ -119.997089866746123, 38.857953697447442 ], [ -119.997561906347514, 38.858236111473516 ], [ -119.99746149655698, 38.858431724170842 ], [ -119.996888576101071, 38.858903462803397 ], [ -119.996260988628848, 38.8590314524305 ], [ -119.994511510912361, 38.858986405883968 ], [ -119.994561828220085, 38.858339059944193 ], [ -119.994990579000699, 38.858007763020957 ], [ -119.995258469522184, 38.858212857547102 ], [ -119.996134714740421, 38.85819938146529 ], [ -119.99637096917246, 38.85806132017796 ], [ -119.996805013979738, 38.857604027801031 ] ] ] } },
{ "type": "Feature", "properties": { "part": "upstream", "crossing_id": "X01212", "area_ac": 4.1, "n_upstream": 1.0 }, "geometry": { "type": "Polygon", "coordinates": [ [ [ -119.996353441642938, 38.856835655916065 ], [ -119.996577567590535, 38.856985567401821 ], [ -119.99723981068783, 38.857128735206466 ], [ -119.997067314562429, 38.85739456399854 ], [ -119.996134714740421, 38.85819938146529 ], [ -119.99519017007286, 38.858193081015671 ], [ -119.99501359811353, 38.858008355801644 ], [ -119.995044956658958, 38.8578109671543 ], [ -119.995905474870227, 38.857076374209534 ], [ -119.996053439929312, 38.856845951372158 ], [ -119.996353441642938, 38.856835655916065 ] ] ] } }
]
}
