{
"type": "FeatureCollection",
"name": "X01231",
"crs": { "type": "name", "properties": { "name": "urn:ogc:def:crs:OGC:1.3:CRS84" } },
"features": [
{ "type": "Feature", "properties": { "part": "direct", "crossing_id": "X01231", "area_ac": 4.1 }, "geometry": { "type": "MultiPolygon", "coordinates": [ [ [ [ -120.005519095384685, 38.857521664824091 ], [ -120.0054945652371, 38.857557071089829 ], [ -120.005496076206995, 38.857521074120072 ], [ -120.005519095384685, 38.857521664824091 ] ] ], [ [ [ -120.005341034039489, 38.856273862190086 ], [ -120.005796877358492, 38.856393666665902 ], [ -120.006062528862572, 38.856652732896308 ], [ -120.005719868175618, 38.857130423532745 ], [ -120.005483633824852, 38.857268504620613 ], [ -120.005496076206995, 38.857521074120072 ], [ -120.004508519402194, 38.857441674156298 ], [ -120.004613442868433, 38.857138063712256 ], [ -120.004153818110041, 38.857108246834947 ], [ -120.003839110843856, 38.856919988281284 ], [ -120.003586658398689, 38.856895488274624 ], [ -120.003857251906979, 38.85648802523334 ], [ -120.004385173236415, 38.856537614346266 ], [ -120.004791956039753, 38.856728234803207 ], [ -120.005083294255627, 38.856375354876498 ], [ -120.005244425867275, 38.856379490177126 ], [ -120.005341034039489, 38.856273862190086 ] ] ] ] } }
]
}
