{
"type": "FeatureCollection",
"name": "X01228",
"crs": { "type": "name", "properties": { "name": "urn:ogc:def:crs:OGC:1.3:CRS84" } },
"features": [
{ "type": "Feature", "properties": { "part": "direct", "crossing_id": "X01228", "area_ac": 1.6, "n_upstream": null }, "geometry": { "type": "Polygon", "coordinates": [ [ [ -119.988876112888619, 38.884390338180843 ], [ -119.98974507667117, 38.884556904380403 ], [ -119.990243322591439, 38.884767954346756 ], [ -119.990307845218041, 38.88487772540546 ], [ -119.990449051390215, 38.884809297007173 ], [ -119.990493586705583, 38.884846481343736 ], [ -119.990322512330579, 38.885076299098245 ], [ -119.989636462423832, 38.885491025092144 ], [ -119.98950513768817, 38.885325476665294 ], [ -119.989608652532922, 38.885057881424068 ], [ -119.989352087574048, 38.884582799351541 ], [ -119.989052729272501, 38.88457507393526 ], [ -119.988894577994387, 38.884498921269163 ], [ -119.988753371085849, 38.884567347752842 ], [ -119.988572953131651, 38.884472602188133 ], [ -119.988876112888619, 38.884390338180843 ] ] ] } },
{ "type": "Feature", "properties": { "part": "upstream", "crossing_id": "X01228", "area_ac": 1.2, "n_upstream": 1.0 }, "geometry": { "type": "Polygon", "coordinates": [ [ [ -119.990089505450356, 38.884043275831381 ], [ -119.990630764142097, 38.884327504828846 ], [ -119.990593297207838, 38.884668875806774 ], [ -119.990400715979902, 38.884862103412409 ], [ -119.990307845218041, 38.88487772540546 ], [ -119.990243322591439, 38.884767954346756 ], [ -119.98974507667117, 38.884556904380403 ], [ -119.989104106826517, 38.884450275594958 ], [ -119.989175470366291, 38.884398064019258 ], [ -119.989704342914592, 38.884429729074576 ], [ -119.990089505450356, 38.884043275831381 ] ] ] } }
]
}
