{
"type": "FeatureCollection",
"name": "X01280",
"crs": { "type": "name", "properties": { "name": "urn:ogc:def:crs:OGC:1.3:CRS84" } },
"features": [
{ "type": "Feature", "properties": { "part": "direct", "crossing_id": "X01280", "area_ac": 1.7 }, "geometry": { "type": "Polygon", "coordinates": [ [ [ -120.034366461059136, 38.887537504635851 ], [ -120.035115766124946, 38.888367354852029 ], [ -120.035417217142069, 38.888879516622133 ], [ -120.035034695049049, 38.888653581040465 ], [ -120.034283699342097, 38.88841827813593 ], [ -120.034104705046573, 38.888287602611605 ], [ -120.03401932827029, 38.888123271036442 ], [ -120.034130922944286, 38.887657642504678 ], [ -120.034366461059136, 38.887537504635851 ] ] ] } }
]
}
