{
"type": "FeatureCollection",
"name": "X01202",
"crs": { "type": "name", "properties": { "name": "urn:ogc:def:crs:OGC:1.3:CRS84" } },
"features": [
{ "type": "Feature", "properties": { "part": "direct", "crossing_id": "X01202", "area_ac": 2.4 }, "geometry": { "type": "Polygon", "coordinates": [ [ [ -119.996670940701108, 38.853672687001243 ], [ -119.99725303197414, 38.854624594762264 ], [ -119.997611475033821, 38.854868049612286 ], [ -119.998063508116786, 38.855077875308545 ], [ -119.998224635764203, 38.85508202017779 ], [ -119.998311408107071, 38.85521037719171 ], [ -119.99826082806787, 38.855317183232764 ], [ -119.997814391869071, 38.855521912813764 ], [ -119.997121568425072, 38.855558139991523 ], [ -119.997130658881943, 38.855342159752162 ], [ -119.99671604034674, 38.854790954291659 ], [ -119.996810385598636, 38.85473932881267 ], [ -119.996860676593101, 38.854091980526036 ], [ -119.996707127435002, 38.853907850355611 ], [ -119.996670940701108, 38.853672687001243 ] ] ] } }
]
}
