{
"type": "FeatureCollection",
"name": "X01289",
"crs": { "type": "name", "properties": { "name": "urn:ogc:def:crs:OGC:1.3:CRS84" } },
"features": [
{ "type": "Feature", "properties": { "part": "direct", "crossing_id": "X01289", "area_ac": 0.7 }, "geometry": { "type": "Polygon", "coordinates": [ [ [ -120.12346355606995, 39.010345119085812 ], [ -120.124267123132512, 39.011031608949878 ], [ -120.124215873726669, 39.011156470100865 ], [ -120.123889956350808, 39.011220500848836 ], [ -120.123756635776544, 39.011091085866205 ], [ -120.12358811854449, 39.01069053337649 ], [ -120.123297680040068, 39.010449133246041 ], [ -120.12346355606995, 39.010345119085812 ] ] ] } }
]
}
