{
"type": "FeatureCollection",
"name": "X01284",
"crs": { "type": "name", "properties": { "name": "urn:ogc:def:crs:OGC:1.3:CRS84" } },
"features": [
{ "type": "Feature", "properties": { "part": "direct", "crossing_id": "X01284", "area_ac": 3.2 }, "geometry": { "type": "MultiPolygon", "coordinates": [ [ [ [ -120.127397805643142, 39.025541153745465 ], [ -120.127420152631927, 39.025559722400367 ], [ -120.127397076533427, 39.025559153678614 ], [ -120.127397805643142, 39.025541153745465 ] ] ], [ [ [ -120.127421610839022, 39.025523722533265 ], [ -120.127443957829101, 39.025542291183704 ], [ -120.127420881735802, 39.025541722466869 ], [ -120.127421610839022, 39.025523722533265 ] ] ], [ [ [ -120.122365633919358, 39.02431793305967 ], [ -120.123079517257679, 39.024371591438296 ], [ -120.123155756286678, 39.0247698667796 ], [ -120.123333791260009, 39.024936421901174 ], [ -120.1244154358034, 39.025035183869818 ], [ -120.124663432056465, 39.025185445107084 ], [ -120.124962689370093, 39.025210845001055 ], [ -120.125188341122907, 39.025342536080657 ], [ -120.126040694041791, 39.025399591643541 ], [ -120.126519455941633, 39.025555538793526 ], [ -120.12691247861558, 39.025547209468741 ], [ -120.127396347423073, 39.025577153611685 ], [ -120.127253515924735, 39.025681740767325 ], [ -120.126905915495598, 39.025709208795583 ], [ -120.126052828327019, 39.025670159312249 ], [ -120.125256839427408, 39.025362243435062 ], [ -120.124498981280595, 39.025253459727161 ], [ -120.123689133651993, 39.025287531285201 ], [ -120.123280338242267, 39.025115281548864 ], [ -120.123196066550747, 39.024915004828962 ], [ -120.122965308547592, 39.024909309128731 ], [ -120.122705632548687, 39.025047042218262 ], [ -120.12256790786229, 39.02502562440273 ], [ -120.122582219862267, 39.025242192373597 ], [ -120.122328385029334, 39.025235925698759 ], [ -120.12219504263777, 39.025106508315972 ], [ -120.122353217811565, 39.024623930625424 ], [ -120.122264566982139, 39.024531652472575 ], [ -120.122292755280071, 39.024406223207059 ], [ -120.122365633919358, 39.02431793305967 ] ] ] ] } }
]
}
