{
"type": "FeatureCollection",
"name": "X01346",
"crs": { "type": "name", "properties": { "name": "urn:ogc:def:crs:OGC:1.3:CRS84" } },
"features": [
{ "type": "Feature", "properties": { "part": "direct", "crossing_id": "X01346", "area_ac": 3.0 }, "geometry": { "type": "MultiPolygon", "coordinates": [ [ [ [ -119.982833742860095, 38.901873572136452 ], [ -119.982919775864588, 38.902019938855595 ], [ -119.982578251244064, 38.902461547468043 ], [ -119.981829902020095, 38.903252983486027 ], [ -119.98159804219118, 38.903283019601893 ], [ -119.981647160029425, 38.903212219798661 ], [ -119.981463655482443, 38.903189453779326 ], [ -119.981273899872036, 38.90277013664533 ], [ -119.981369084130847, 38.902700529059658 ], [ -119.981327594456147, 38.902591349296813 ], [ -119.981468082034468, 38.902540931646143 ], [ -119.98169063495439, 38.902186336568342 ], [ -119.981725871039856, 38.901898965266867 ], [ -119.982464452265063, 38.901882037686732 ], [ -119.982600362933624, 38.901939606389391 ], [ -119.982833742860095, 38.901873572136452 ] ] ], [ [ [ -119.981636027171731, 38.90184258753581 ], [ -119.981725871039856, 38.901898965266867 ], [ -119.981635264468409, 38.901860585489274 ], [ -119.981636027171731, 38.90184258753581 ] ] ] ] } }
]
}
