{
"type": "FeatureCollection",
"name": "X01359",
"crs": { "type": "name", "properties": { "name": "urn:ogc:def:crs:OGC:1.3:CRS84" } },
"features": [
{ "type": "Feature", "properties": { "part": "direct", "crossing_id": "X01359", "area_ac": 0.2, "n_upstream": null }, "geometry": { "type": "Polygon", "coordinates": [ [ [ -120.134410670837539, 39.064055828506838 ], [ -120.13463500408983, 39.064223505662028 ], [ -120.134492101254139, 39.064328098568623 ], [ -120.13416885729643, 39.064320149058354 ], [ -120.134224503958151, 39.064087285780154 ], [ -120.134410670837539, 39.064055828506838 ] ] ] } },
{ "type": "Feature", "properties": { "part": "upstream", "crossing_id": "X01359", "area_ac": 0.2, "n_upstream": 1.0 }, "geometry": { "type": "Polygon", "coordinates": [ [ [ -120.134728087658019, 39.064207776738847 ], [ -120.134836977750524, 39.064372614769532 ], [ -120.134228654852606, 39.064555851570802 ], [ -120.134261212699883, 39.064322420438295 ], [ -120.134492101254139, 39.064328098568623 ], [ -120.134588826436129, 39.064222370131596 ], [ -120.134728087658019, 39.064207776738847 ] ] ] } }
]
}
