{
"type": "FeatureCollection",
"name": "X01380",
"crs": { "type": "name", "properties": { "name": "urn:ogc:def:crs:OGC:1.3:CRS84" } },
"features": [
{ "type": "Feature", "properties": { "part": "direct", "crossing_id": "X01380", "area_ac": 5.9 }, "geometry": { "type": "Polygon", "coordinates": [ [ [ -120.138217620285417, 39.061356620442574 ], [ -120.13902479342272, 39.061971030251634 ], [ -120.138951166139947, 39.062077329653995 ], [ -120.138990071406951, 39.06225846343343 ], [ -120.137926179610687, 39.063421515497971 ], [ -120.137936902107455, 39.063728082287973 ], [ -120.138131607915753, 39.064057185723897 ], [ -120.138036342908663, 39.064126917349164 ], [ -120.138053612516558, 39.064271484287339 ], [ -120.137776545616873, 39.064264678945797 ], [ -120.137738560696647, 39.063488978473551 ], [ -120.136945208166125, 39.062532560252116 ], [ -120.137638776190613, 39.061955010159927 ], [ -120.137692954328429, 39.061758144612085 ], [ -120.13780912217446, 39.06174298019662 ], [ -120.138124541110074, 39.061372352330991 ], [ -120.138217620285417, 39.061356620442574 ] ] ] } }
]
}
