{
"type": "FeatureCollection",
"name": "X01333",
"crs": { "type": "name", "properties": { "name": "urn:ogc:def:crs:OGC:1.3:CRS84" } },
"features": [
{ "type": "Feature", "properties": { "part": "direct", "crossing_id": "X01333", "area_ac": 1.0, "n_upstream": null }, "geometry": { "type": "Polygon", "coordinates": [ [ [ -119.963916089293846, 38.898319741416984 ], [ -119.964790518431073, 38.898360514010029 ], [ -119.964924873261026, 38.898454097881427 ], [ -119.965018532979173, 38.89842049938504 ], [ -119.96503696369129, 38.898529084717886 ], [ -119.964663857558364, 38.898627482903827 ], [ -119.96442663918566, 38.89878346894384 ], [ -119.964080397892275, 38.898792476137096 ], [ -119.963654304645047, 38.898511121769616 ], [ -119.963863889618679, 38.898462523902204 ], [ -119.963916089293846, 38.898319741416984 ] ] ] } },
{ "type": "Feature", "properties": { "part": "upstream", "crossing_id": "X01333", "area_ac": 0.6, "n_upstream": 2.0 }, "geometry": { "type": "MultiPolygon", "coordinates": [ [ [ [ -119.963913788050505, 38.898373734424588 ], [ -119.963863889618679, 38.898462523902204 ], [ -119.963775599195017, 38.898370137780745 ], [ -119.963361799997543, 38.89834134920963 ], [ -119.963691911804787, 38.898169765605452 ], [ -119.963913788050505, 38.898373734424588 ] ] ], [ [ [ -119.963589813098082, 38.898401337328927 ], [ -119.963775599195017, 38.898370137780745 ], [ -119.963794795104988, 38.898460725567737 ], [ -119.963562945757502, 38.898490726150541 ], [ -119.962992529480232, 38.898349753714996 ], [ -119.961308932204773, 38.89835996309148 ], [ -119.961887788236922, 38.898302969649578 ], [ -119.962029814495622, 38.898216580332829 ], [ -119.962743787820287, 38.898235171849088 ], [ -119.963589813098082, 38.898401337328927 ] ] ] ] } }
]
}
