{
"type": "FeatureCollection",
"name": "X01312",
"crs": { "type": "name", "properties": { "name": "urn:ogc:def:crs:OGC:1.3:CRS84" } },
"features": [
{ "type": "Feature", "properties": { "part": "direct", "crossing_id": "X01312", "area_ac": 8.2, "n_upstream": null }, "geometry": { "type": "Polygon", "coordinates": [ [ [ -119.9585627975476, 38.898955048945695 ], [ -119.958760860728447, 38.899176424142716 ], [ -119.959031861938669, 38.899309612355538 ], [ -119.959091737047714, 38.899527384565282 ], [ -119.959227622653486, 38.89958497960334 ], [ -119.959369654588428, 38.899498593776165 ], [ -119.959506308613854, 38.899538190905425 ], [ -119.959699767229992, 38.899867550228329 ], [ -119.959967700393577, 38.900072726812667 ], [ -119.960694745904334, 38.899785372303143 ], [ -119.961132351465935, 38.899796773007715 ], [ -119.96163828613075, 38.900368498075032 ], [ -119.962068219610998, 38.900559871704395 ], [ -119.962060543498339, 38.900739848016038 ], [ -119.96162139631987, 38.900764445806502 ], [ -119.961245202963411, 38.900934822835495 ], [ -119.961622164365664, 38.901827505324398 ], [ -119.961228307640638, 38.901871298809723 ], [ -119.961179171066235, 38.901942089247171 ], [ -119.960881283574537, 38.901898293488017 ], [ -119.960908155809591, 38.901808905515892 ], [ -119.960771496619358, 38.901769309837412 ], [ -119.960799904848031, 38.901643926678709 ], [ -119.960571116234277, 38.901601930411999 ], [ -119.960069791073863, 38.900922215228178 ], [ -119.958760840075584, 38.899716951989134 ], [ -119.958904409575027, 38.899594571602655 ], [ -119.95886218799572, 38.899503382826914 ], [ -119.958978115037283, 38.899488387377232 ], [ -119.958983493530198, 38.899362404293527 ], [ -119.958733218625625, 38.899283809165944 ], [ -119.958515197524306, 38.898989843110634 ], [ -119.9585627975476, 38.898955048945695 ] ] ] } },
{ "type": "Feature", "properties": { "part": "upstream", "crossing_id": "X01312", "area_ac": 2.2, "n_upstream": 2.0 }, "geometry": { "type": "MultiPolygon", "coordinates": [ [ [ [ -119.958760840075584, 38.899716951989134 ], [ -119.958737808274265, 38.899716351526109 ], [ -119.958738576699389, 38.899698353947628 ], [ -119.958760840075584, 38.899716951989134 ] ] ], [ [ [ -119.959608059965007, 38.900549829371748 ], [ -119.959647543546893, 38.900550858458296 ], [ -119.960312392638926, 38.901180783762747 ], [ -119.960639445588129, 38.901621728379794 ], [ -119.960591076644462, 38.901674520951673 ], [ -119.960034456724301, 38.901750104616688 ], [ -119.959722757214109, 38.901489734626963 ], [ -119.959778040521385, 38.901274964118414 ], [ -119.959318179627701, 38.900704432129949 ], [ -119.959344284955932, 38.900633042148812 ], [ -119.959369152838804, 38.900637607227338 ], [ -119.959396495442462, 38.900490262160488 ], [ -119.959237575963598, 38.900432066878615 ], [ -119.959264449563676, 38.90034267932667 ], [ -119.959127794176183, 38.900303081861978 ], [ -119.959010329071248, 38.90035407256898 ], [ -119.958875979042745, 38.900260482074387 ], [ -119.958909000160531, 38.900027113978744 ], [ -119.958816872545981, 38.90002471220032 ], [ -119.95875238741786, 38.89991492535183 ], [ -119.958783103463361, 38.899735550026769 ], [ -119.959649079982839, 38.900514863276022 ], [ -119.959608059965007, 38.900549829371748 ] ], [ [ -119.959458677246104, 38.900654041467142 ], [ -119.959467611301761, 38.900641170615799 ], [ -119.959417080041078, 38.900646405364071 ], [ -119.959458677246104, 38.900654041467142 ] ] ] ] } }
]
}
