{
"type": "FeatureCollection",
"name": "X01340",
"crs": { "type": "name", "properties": { "name": "urn:ogc:def:crs:OGC:1.3:CRS84" } },
"features": [
{ "type": "Feature", "properties": { "part": "direct", "crossing_id": "X01340", "area_ac": 0.2 }, "geometry": { "type": "MultiPolygon", "coordinates": [ [ [ [ -119.978060311882246, 38.904056273629827 ], [ -119.978082581837583, 38.904074868224512 ], [ -119.978059548215953, 38.90407427151704 ], [ -119.978060311882246, 38.904056273629827 ] ] ], [ [ [ -119.978059548215953, 38.90407427151704 ], [ -119.978032819465071, 38.90470419752711 ], [ -119.977914595468675, 38.9047732053861 ], [ -119.977880747436515, 38.904484045763816 ], [ -119.977791667421542, 38.904409667200227 ], [ -119.978059548215953, 38.90407427151704 ] ] ], [ [ [ -119.978084109157905, 38.904038872449249 ], [ -119.978106379114593, 38.904057467039465 ], [ -119.978083345498078, 38.904056870336916 ], [ -119.978084109157905, 38.904038872449249 ] ] ] ] } }
]
}
