{
"type": "FeatureCollection",
"name": "X01345",
"crs": { "type": "name", "properties": { "name": "urn:ogc:def:crs:OGC:1.3:CRS84" } },
"features": [
{ "type": "Feature", "properties": { "part": "direct", "crossing_id": "X01345", "area_ac": 3.2 }, "geometry": { "type": "Polygon", "coordinates": [ [ [ -119.983666147670945, 38.902363559051437 ], [ -119.983752182954021, 38.902509925237176 ], [ -119.983889620234905, 38.902531496544704 ], [ -119.983815185289899, 38.902655695816456 ], [ -119.983928065283891, 38.902712667507409 ], [ -119.983783767975652, 38.902853078108592 ], [ -119.98355343452593, 38.902847122233055 ], [ -119.983454440712762, 38.903006721579445 ], [ -119.983130448590316, 38.90303437823907 ], [ -119.983078282826099, 38.903177170626634 ], [ -119.983329363749405, 38.903237717074504 ], [ -119.983232655870935, 38.903343322254024 ], [ -119.982811953487584, 38.903476583027732 ], [ -119.982490246677017, 38.903450243916687 ], [ -119.982268300010688, 38.90324630786079 ], [ -119.98216930277303, 38.903405905969663 ], [ -119.981822275062072, 38.903432963006331 ], [ -119.981759276293943, 38.90328719150164 ], [ -119.982603571866022, 38.902408149360284 ], [ -119.983130285807846, 38.902493843282336 ], [ -119.983180163896861, 38.902405044765494 ], [ -119.983385175809829, 38.902464399627952 ], [ -119.983666147670945, 38.902363559051437 ] ] ] } }
]
}
