{
"type": "FeatureCollection",
"name": "X01310",
"crs": { "type": "name", "properties": { "name": "urn:ogc:def:crs:OGC:1.3:CRS84" } },
"features": [
{ "type": "Feature", "properties": { "part": "direct", "crossing_id": "X01310", "area_ac": 6.0, "n_upstream": null }, "geometry": { "type": "MultiPolygon", "coordinates": [ [ [ [ -119.96240447831785, 38.899703782340907 ], [ -119.962742282365525, 38.899892754410331 ], [ -119.962885845715192, 38.899770368863095 ], [ -119.962951871984544, 38.899844158380468 ], [ -119.963390246078788, 38.899837552984216 ], [ -119.963660491903809, 38.899988728528449 ], [ -119.963149963835221, 38.900606055847234 ], [ -119.963160718646932, 38.900894617839775 ], [ -119.963573013021218, 38.901499932184088 ], [ -119.963339618997423, 38.901565927211692 ], [ -119.963217550403016, 38.901724908074975 ], [ -119.962935020529159, 38.901861693596523 ], [ -119.963059402916059, 38.902189249090441 ], [ -119.962536552089119, 38.901472948540487 ], [ -119.962374557402427, 38.901486747893109 ], [ -119.961965349605961, 38.901890496544233 ], [ -119.961801050767264, 38.901958287928132 ], [ -119.961807960161465, 38.901796309320844 ], [ -119.961764198239436, 38.901741116670834 ], [ -119.961623699874565, 38.901791510083974 ], [ -119.961414105244572, 38.901299574960881 ], [ -119.961661318984724, 38.900909626608566 ], [ -119.961847880016904, 38.900860432814895 ], [ -119.961900085751182, 38.900717651515464 ], [ -119.96210814310993, 38.900705052389718 ], [ -119.962068219610998, 38.900559871704395 ], [ -119.962231747339501, 38.900510077424912 ], [ -119.962262455031563, 38.900330700857808 ], [ -119.962620983046747, 38.900033737106426 ], [ -119.962581058776948, 38.899888556555567 ], [ -119.962242487666714, 38.899717581673805 ], [ -119.96240447831785, 38.899703782340907 ] ], [ [ -119.962955730365763, 38.900835228247843 ], [ -119.962631743949458, 38.900862828015832 ], [ -119.962604874288289, 38.900952216498773 ], [ -119.962369178688775, 38.901072202534344 ], [ -119.962537319603385, 38.901454950903918 ], [ -119.962797583551392, 38.90129956897978 ], [ -119.962955730365763, 38.900835228247843 ] ] ], [ [ [ -119.962220990882514, 38.899680986624141 ], [ -119.962243255207156, 38.899699584036739 ], [ -119.962220223336971, 38.899698984260866 ], [ -119.962220990882514, 38.899680986624141 ] ] ] ] } },
{ "type": "Feature", "properties": { "part": "upstream", "crossing_id": "X01310", "area_ac": 16.9, "n_upstream": 9.0 }, "geometry": { "type": "MultiPolygon", "coordinates": [ [ [ [ -119.959301344065608, 38.898938267123562 ], [ -119.95948098727564, 38.899051055290023 ], [ -119.959519368366301, 38.899232231834517 ], [ -119.959445663979423, 38.899338416449197 ], [ -119.959540863608382, 38.899268827323723 ], [ -119.959625308401073, 38.899451204436232 ], [ -119.959606885854441, 38.899342618583702 ], [ -119.959814939315066, 38.899330023403913 ], [ -119.959808794149367, 38.899474004182778 ], [ -119.960302436263959, 38.899793167889278 ], [ -119.961226782381061, 38.899745180087876 ], [ -119.961706613277215, 38.89984776669575 ], [ -119.962085870024978, 38.89960539733746 ], [ -119.962581058776948, 38.899888556555567 ], [ -119.962620983046747, 38.900033737106426 ], [ -119.962262455031563, 38.900330700857808 ], [ -119.962231747339501, 38.900510077424912 ], [ -119.962114283901784, 38.900561071333755 ], [ -119.962044334355127, 38.900549239875424 ], [ -119.962068219610998, 38.900559871704395 ], [ -119.962060543498339, 38.900739848016038 ], [ -119.961915313744427, 38.900747982902843 ], [ -119.961847880016904, 38.900860432814895 ], [ -119.961661318984724, 38.900909626608566 ], [ -119.961393376269143, 38.901244982146807 ], [ -119.961245202963411, 38.900934822835495 ], [ -119.961622164365664, 38.901827505324398 ], [ -119.961228307640638, 38.901871298809723 ], [ -119.961179171066235, 38.901942089247171 ], [ -119.960881283574537, 38.901898293488017 ], [ -119.960908155809591, 38.901808905515892 ], [ -119.960771496619358, 38.901769309837412 ], [ -119.960799904848031, 38.901643926678709 ], [ -119.960633215971427, 38.901613329442036 ], [ -119.960639445588129, 38.901621728379794 ], [ -119.960591076644462, 38.901674520951673 ], [ -119.960034456724301, 38.901750104616688 ], [ -119.959722757214109, 38.901489734626963 ], [ -119.959778040521385, 38.901274964118414 ], [ -119.959318179627701, 38.900704432129949 ], [ -119.959344284955932, 38.900633042148812 ], [ -119.959369152838804, 38.900637607227338 ], [ -119.959396495442462, 38.900490262160488 ], [ -119.959237575963598, 38.900432066878615 ], [ -119.959264449563676, 38.90034267932667 ], [ -119.959127794176183, 38.900303081861978 ], [ -119.959010329071248, 38.90035407256898 ], [ -119.958875979042745, 38.900260482074387 ], [ -119.958909000160531, 38.900027113978744 ], [ -119.958816872545981, 38.90002471220032 ], [ -119.95875238741786, 38.89991492535183 ], [ -119.958782822095841, 38.899737193159609 ], [ -119.958760840075584, 38.899716951989134 ], [ -119.958904409575027, 38.899594571602655 ], [ -119.95886218799572, 38.899503382826914 ], [ -119.958978115037283, 38.899488387377232 ], [ -119.958983493530198, 38.899362404293527 ], [ -119.958733218625625, 38.899283809165944 ], [ -119.958515197524306, 38.898989843110634 ], [ -119.958529477536175, 38.898979404863397 ], [ -119.958403882170359, 38.898896852678732 ], [ -119.958446756599002, 38.898889654750846 ], [ -119.95835935610998, 38.898859656479125 ], [ -119.958432293053377, 38.898771470165151 ], [ -119.95854668205989, 38.898792470253532 ], [ -119.958921332945579, 38.898658096854646 ], [ -119.958839195893958, 38.898421726568785 ], [ -119.958955121162219, 38.898406731069137 ], [ -119.959202320222488, 38.898557315976234 ], [ -119.959193869140108, 38.898755289459579 ], [ -119.959376584687647, 38.898796087402104 ], [ -119.959301344065608, 38.898938267123562 ] ], [ [ -119.960168711730276, 38.899923355855783 ], [ -119.960181900528355, 38.899916150259678 ], [ -119.959625308401073, 38.899451204436232 ], [ -119.960168711730276, 38.899923355855783 ] ], [ [ -119.960069791073863, 38.900922215228178 ], [ -119.959637816084083, 38.900524464802054 ], [ -119.959608059965007, 38.900549829371748 ], [ -119.959647543546893, 38.900550858458296 ], [ -119.960140098310703, 38.901017541249189 ], [ -119.960069791073863, 38.900922215228178 ] ], [ [ -119.960087468676392, 38.899967742292304 ], [ -119.960144127803616, 38.899936787082652 ], [ -119.960053298180355, 38.899943265120285 ], [ -119.960087468676392, 38.899967742292304 ] ], [ [ -119.959699767229992, 38.899867550228329 ], [ -119.959593058218289, 38.899666575266622 ], [ -119.959837190312413, 38.899889149407976 ], [ -119.959545000200166, 38.899604062791276 ], [ -119.959699767229992, 38.899867550228329 ] ], [ [ -119.959414215665973, 38.899511505900499 ], [ -119.959465312389256, 38.89952631178285 ], [ -119.959438749823917, 38.899500394769333 ], [ -119.959414215665973, 38.899511505900499 ] ], [ [ -119.959227622653486, 38.89958497960334 ], [ -119.959235662206083, 38.899580089844562 ], [ -119.959091737047714, 38.899527384565282 ], [ -119.959227622653486, 38.89958497960334 ] ], [ [ -119.958760860728447, 38.899176424142716 ], [ -119.959031861938669, 38.899309612355538 ], [ -119.958663264227397, 38.899067340749092 ], [ -119.958760860728447, 38.899176424142716 ] ], [ [ -119.959349384549483, 38.899335087904845 ], [ -119.959398064095353, 38.899373210979746 ], [ -119.959407377119788, 38.899366403355906 ], [ -119.959349384549483, 38.899335087904845 ] ], [ [ -119.95859290981123, 38.898939818387326 ], [ -119.958743976364829, 38.899031843043751 ], [ -119.959041081970085, 38.899093641335469 ], [ -119.95859290981123, 38.898939818387326 ] ], [ [ -119.961718397778739, 38.900404157871122 ], [ -119.961555345475574, 38.900274772785707 ], [ -119.96163828613075, 38.900368498075032 ], [ -119.961718397778739, 38.900404157871122 ] ], [ [ -119.959458677246104, 38.900654041467142 ], [ -119.959467611301761, 38.900641170615799 ], [ -119.959417080041078, 38.900646405364071 ], [ -119.959458677246104, 38.900654041467142 ] ] ], [ [ [ -119.958760840075584, 38.899716951989134 ], [ -119.958737808274265, 38.899716351526109 ], [ -119.958738576699389, 38.899698353947628 ], [ -119.958760840075584, 38.899716951989134 ] ] ], [ [ [ -119.962369178688775, 38.901072202534344 ], [ -119.962604874288289, 38.900952216498773 ], [ -119.962631743949458, 38.900862828015832 ], [ -119.962955730365763, 38.900835228247843 ], [ -119.962797583551392, 38.90129956897978 ], [ -119.962537319603385, 38.901454950903918 ], [ -119.962369178688775, 38.901072202534344 ] ] ], [ [ [ -119.962289345669234, 38.902403427536406 ], [ -119.962202588057337, 38.902275044905331 ], [ -119.962041359162129, 38.902270846090737 ], [ -119.961800283053378, 38.901976285550809 ], [ -119.962374557402427, 38.901486747893109 ], [ -119.962536552089119, 38.901472948540487 ], [ -119.96303713763173, 38.902170651800802 ], [ -119.962587236357294, 38.902447219813105 ], [ -119.962289345669234, 38.902403427536406 ] ] ] ] } }
]
}
