{
"type": "FeatureCollection",
"name": "X01354",
"crs": { "type": "name", "properties": { "name": "urn:ogc:def:crs:OGC:1.3:CRS84" } },
"features": [
{ "type": "Feature", "properties": { "part": "direct", "crossing_id": "X01354", "area_ac": 0.7 }, "geometry": { "type": "Polygon", "coordinates": [ [ [ -120.131013962093789, 39.056620970351076 ], [ -120.131053573740459, 39.056784106164393 ], [ -120.130955396264994, 39.056925831750803 ], [ -120.131110440061903, 39.057091809494722 ], [ -120.131015907300451, 39.057143535648549 ], [ -120.131028058584391, 39.057414102424872 ], [ -120.130864994728384, 39.057446123346502 ], [ -120.13062635421241, 39.057061872790548 ], [ -120.130355150702783, 39.056911051791701 ], [ -120.130666209820149, 39.056648443834817 ], [ -120.130871799258628, 39.056707559416147 ], [ -120.131013962093789, 39.056620970351076 ] ] ] } }
]
}
