{
"type": "FeatureCollection",
"name": "X01375",
"crs": { "type": "name", "properties": { "name": "urn:ogc:def:crs:OGC:1.3:CRS84" } },
"features": [
{ "type": "Feature", "properties": { "part": "direct", "crossing_id": "X01375", "area_ac": 2.3 }, "geometry": { "type": "Polygon", "coordinates": [ [ [ -120.125208231862075, 39.058459848516883 ], [ -120.125807757457025, 39.058492655261162 ], [ -120.125819317976067, 39.05991634812132 ], [ -120.125102883076764, 39.059916692655555 ], [ -120.125107997158139, 39.059790694119464 ], [ -120.125200345926274, 39.05979297245478 ], [ -120.125121878074665, 39.059448698076416 ], [ -120.125157675138595, 39.058566708169153 ], [ -120.125208231862075, 39.058459848516883 ] ] ] } }
]
}
