{
"type": "FeatureCollection",
"name": "X01364",
"crs": { "type": "name", "properties": { "name": "urn:ogc:def:crs:OGC:1.3:CRS84" } },
"features": [
{ "type": "Feature", "properties": { "part": "direct", "crossing_id": "X01364", "area_ac": 0.6, "n_upstream": null }, "geometry": { "type": "Polygon", "coordinates": [ [ [ -120.133308968171946, 39.063866569533687 ], [ -120.133559301032619, 39.063962817024162 ], [ -120.133133503022108, 39.064204591481811 ], [ -120.133150033922064, 39.064367158675552 ], [ -120.132087218848966, 39.064359023139843 ], [ -120.132113223349705, 39.064287591853379 ], [ -120.132437924249245, 39.064259547269842 ], [ -120.132510105903521, 39.064189252260419 ], [ -120.13271644736335, 39.064230365499157 ], [ -120.132766997449096, 39.064123502380326 ], [ -120.133114057540084, 39.064114023901794 ], [ -120.133122801414302, 39.063898025046868 ], [ -120.133308968171946, 39.063866569533687 ] ] ] } },
{ "type": "Feature", "properties": { "part": "upstream", "crossing_id": "X01364", "area_ac": 22.3, "n_upstream": 6.0 }, "geometry": { "type": "MultiPolygon", "coordinates": [ [ [ [ -120.138291975095996, 39.061232321511035 ], [ -120.138183100090529, 39.061257675448203 ], [ -120.13824434467746, 39.061267187488731 ], [ -120.138048731170997, 39.061532651116501 ], [ -120.137956379096238, 39.061530382871013 ], [ -120.13780912217446, 39.06174298019662 ], [ -120.137692954328429, 39.061758144612085 ], [ -120.137638776190613, 39.061955010159927 ], [ -120.136969751769172, 39.062497127592898 ], [ -120.13673231937436, 39.062653454283648 ], [ -120.136452348020256, 39.062718645882974 ], [ -120.136042580423634, 39.062564432617272 ], [ -120.135707760371631, 39.06301683304568 ], [ -120.135747321820645, 39.063007621494528 ], [ -120.135718409597942, 39.063151053554378 ], [ -120.135552422013632, 39.063255080383136 ], [ -120.135537133479474, 39.063633079218974 ], [ -120.135278789740013, 39.063734835257002 ], [ -120.13512205406974, 39.064181427822732 ], [ -120.134795169425516, 39.064263479735338 ], [ -120.13474808784234, 39.064238053118331 ], [ -120.134836977750524, 39.064372614769532 ], [ -120.134228654852606, 39.064555851570802 ], [ -120.13425369937373, 39.064376289163427 ], [ -120.133150762579277, 39.06434915877157 ], [ -120.133133503022108, 39.064204591481811 ], [ -120.133297310421639, 39.064154568053333 ], [ -120.133419311561681, 39.063995408938055 ], [ -120.133534755212906, 39.063998248873872 ], [ -120.133635123901612, 39.063802521697561 ], [ -120.13419726430601, 39.063618152120675 ], [ -120.134241912019732, 39.061943591202535 ], [ -120.134638050503014, 39.061863243652702 ], [ -120.134604982356365, 39.061538109349883 ], [ -120.134771695237717, 39.06141608380765 ], [ -120.134757345375505, 39.061199516841484 ], [ -120.13559287594525, 39.061111951363202 ], [ -120.136050993555315, 39.061213300915227 ], [ -120.136413322134686, 39.060825812816546 ], [ -120.136448053506996, 39.0605383807058 ], [ -120.137095963461888, 39.06051826495959 ], [ -120.137058324430626, 39.060877697268985 ], [ -120.137126326598562, 39.060338832398436 ], [ -120.137614803699819, 39.060260743086438 ], [ -120.137782963255333, 39.060102712925278 ], [ -120.138269983665722, 39.060060620764155 ], [ -120.138347972995192, 39.059846321722276 ], [ -120.138441050104291, 39.059830589574887 ], [ -120.13877427422004, 39.060163093482423 ], [ -120.138654473376079, 39.060268258986532 ], [ -120.138695558609712, 39.060395392838402 ], [ -120.138291975095996, 39.061232321511035 ] ], [ [ -120.137817851003689, 39.061526980365869 ], [ -120.137672960212853, 39.061623352350772 ], [ -120.137956379096238, 39.061530382871013 ], [ -120.137817851003689, 39.061526980365869 ] ], [ [ -120.134410670837539, 39.064055828506838 ], [ -120.134627993659564, 39.064218265756935 ], [ -120.134697886433187, 39.06421094158533 ], [ -120.134410670837539, 39.064055828506838 ] ], [ [ -120.134272138239197, 39.064052421606462 ], [ -120.134267798594465, 39.064079970162332 ], [ -120.134410670837539, 39.064055828506838 ], [ -120.134272138239197, 39.064052421606462 ] ], [ [ -120.134171042486216, 39.064266149297566 ], [ -120.134179291076848, 39.064276487197411 ], [ -120.134182393008786, 39.064263506643812 ], [ -120.134171042486216, 39.064266149297566 ] ], [ [ -120.134254476615013, 39.06437071653675 ], [ -120.134261212699883, 39.064322420438295 ], [ -120.134215034996842, 39.064321284757455 ], [ -120.134254476615013, 39.06437071653675 ] ], [ [ -120.134899816076256, 39.062248054816536 ], [ -120.134911811676986, 39.062265688963251 ], [ -120.135236903710947, 39.062256342520911 ], [ -120.134899816076256, 39.062248054816536 ] ], [ [ -120.136197122675711, 39.062171838229631 ], [ -120.136588166556947, 39.062217483751134 ], [ -120.136643759867397, 39.06218281414435 ], [ -120.136197122675711, 39.062171838229631 ] ], [ [ -120.135937037128016, 39.061955869957103 ], [ -120.135949703610336, 39.062003596665647 ], [ -120.136197122675711, 39.062171838229631 ], [ -120.135937037128016, 39.061955869957103 ] ], [ [ -120.136655199975635, 39.061679645874293 ], [ -120.136405844608475, 39.061582378724189 ], [ -120.136586182371161, 39.061694917402342 ], [ -120.136655199975635, 39.061679645874293 ] ], [ [ -120.137374813795532, 39.061624204557681 ], [ -120.137184588863022, 39.061652291014973 ], [ -120.137188654404838, 39.061655666869576 ], [ -120.137374813795532, 39.061624204557681 ] ], [ [ -120.137547342080794, 39.061358175022377 ], [ -120.137786097497411, 39.061280542371279 ], [ -120.13773568279808, 39.061272712143371 ], [ -120.137547342080794, 39.061358175022377 ] ], [ [ -120.137132486599469, 39.061329965617851 ], [ -120.137150636517987, 39.061331199809977 ], [ -120.137075591646976, 39.061022264318645 ], [ -120.137132486599469, 39.061329965617851 ] ], [ [ -120.137984055309715, 39.061226761098176 ], [ -120.137946383620957, 39.061205816001461 ], [ -120.13791766521895, 39.061240600349812 ], [ -120.137968744180682, 39.061224383057407 ], [ -120.137984055309715, 39.061226761098176 ] ] ], [ [ [ -120.135747321820645, 39.063007621494528 ], [ -120.135748049783004, 39.062989621545405 ], [ -120.135770410274915, 39.063008189017964 ], [ -120.135747321820645, 39.063007621494528 ] ] ] ] } }
]
}
