{
"type": "FeatureCollection",
"name": "X01378",
"crs": { "type": "name", "properties": { "name": "urn:ogc:def:crs:OGC:1.3:CRS84" } },
"features": [
{ "type": "Feature", "properties": { "part": "direct", "crossing_id": "X01378", "area_ac": 33.2, "n_upstream": null }, "geometry": { "type": "Polygon", "coordinates": [ [ [ -120.142843805149425, 39.056100815880534 ], [ -120.142956333080249, 39.056175646345494 ], [ -120.142970708014289, 39.056392213362848 ], [ -120.142696428296702, 39.056889989106566 ], [ -120.142361597905918, 39.057170064743225 ], [ -120.142334154380947, 39.057277499019399 ], [ -120.141977686367454, 39.057521007123697 ], [ -120.141923523990712, 39.057717875356126 ], [ -120.141759010817438, 39.057785911810967 ], [ -120.141155686636338, 39.05841975536071 ], [ -120.140980273334648, 39.058757791312111 ], [ -120.140669241038211, 39.059020427819348 ], [ -120.140640340839425, 39.059163861620313 ], [ -120.140475823098171, 39.059231896076106 ], [ -120.140373300134925, 39.059481630330168 ], [ -120.140113524677446, 39.059619398043075 ], [ -120.140083896264386, 39.059780831669379 ], [ -120.139916469275178, 39.059920865356943 ], [ -120.139932288593684, 39.060101432260865 ], [ -120.140756011814048, 39.060878397142787 ], [ -120.140902368228325, 39.061260363353249 ], [ -120.140993267017862, 39.061298629326878 ], [ -120.140983821341251, 39.06153262980186 ], [ -120.140722585885968, 39.061706398660675 ], [ -120.14042954002241, 39.062095600612423 ], [ -120.140266468695174, 39.062127634432699 ], [ -120.140262107929701, 39.062235634569326 ], [ -120.140098309375844, 39.062285668159461 ], [ -120.14006867943877, 39.062447101674209 ], [ -120.139953237653813, 39.06244426830014 ], [ -120.139712903877012, 39.062672601378907 ], [ -120.13962764522843, 39.063066901385398 ], [ -120.139558379576542, 39.063065201090218 ], [ -120.139656374934347, 39.063500035131234 ], [ -120.139644743127064, 39.063788035268772 ], [ -120.139528572178193, 39.063803201400212 ], [ -120.139481491080971, 39.064396634766879 ], [ -120.139541130140515, 39.065208902102832 ], [ -120.139116797803368, 39.065414698882577 ], [ -120.138908266852525, 39.065427596699472 ], [ -120.138681010221745, 39.065331927239654 ], [ -120.138661373481554, 39.065817926894432 ], [ -120.138568288454522, 39.065833658911579 ], [ -120.138581922753772, 39.066068225712073 ], [ -120.138487382686662, 39.066119957617566 ], [ -120.13855083259881, 39.066265658527342 ], [ -120.138457746957585, 39.066281390432152 ], [ -120.138591193135611, 39.066410792407474 ], [ -120.138537740460961, 39.066589658213751 ], [ -120.138604827504608, 39.066645359191874 ], [ -120.138508104583437, 39.066751091026653 ], [ -120.138596099482683, 39.066861358981363 ], [ -120.138567190936016, 39.067004791822121 ], [ -120.138474831689081, 39.067002523722458 ], [ -120.138349926354081, 39.067233688202187 ], [ -120.138234476946124, 39.06723085283727 ], [ -120.138253202206883, 39.067339419771635 ], [ -120.137814493925887, 39.067328644389626 ], [ -120.137700499573867, 39.067289808555785 ], [ -120.137574329577561, 39.06698040592314 ], [ -120.137482698067373, 39.066960137074126 ], [ -120.137690890527153, 39.065812109562536 ], [ -120.137854698890095, 39.065762079753689 ], [ -120.138084137978382, 39.065803750898361 ], [ -120.138069050450298, 39.065605184049211 ], [ -120.138210496159942, 39.065536586632163 ], [ -120.138214860564332, 39.065428586750464 ], [ -120.138333216507405, 39.065359422096108 ], [ -120.138564109262646, 39.065365092289987 ], [ -120.138660830081463, 39.065259360312815 ], [ -120.138680466434806, 39.064773360611625 ], [ -120.13888463219368, 39.064868463088729 ], [ -120.139027530008931, 39.064763864598419 ], [ -120.139236058987976, 39.064750966492817 ], [ -120.139427315396475, 39.064593501178969 ], [ -120.139430950734507, 39.064503501167387 ], [ -120.139270781853767, 39.064463533353837 ], [ -120.139422403025634, 39.064142934294701 ], [ -120.139433308834612, 39.063872934235185 ], [ -120.139343134813288, 39.063816666963561 ], [ -120.139486756797396, 39.063694067783622 ], [ -120.139422579863989, 39.063566367346937 ], [ -120.139501297284227, 39.063334067652889 ], [ -120.139409669786019, 39.063313800464762 ], [ -120.139347674454783, 39.063132099980379 ], [ -120.139399667888995, 39.062989233548862 ], [ -120.139054067258769, 39.062962730997988 ], [ -120.138651564236241, 39.062628526672022 ], [ -120.138990071406951, 39.06225846343343 ], [ -120.138951166139947, 39.062077329653995 ], [ -120.13902479342272, 39.061971030251634 ], [ -120.138194532319687, 39.061356053423609 ], [ -120.138695558609712, 39.060395392838402 ], [ -120.138654473376079, 39.060268258986532 ], [ -120.13877427422004, 39.060163093482423 ], [ -120.138441050104291, 39.059830589574887 ], [ -120.138324885518756, 39.059845754747393 ], [ -120.138407237601115, 39.059523455637347 ], [ -120.138651199749717, 39.059205124870985 ], [ -120.138731368140427, 39.058936825442146 ], [ -120.139110941256348, 39.058693894820124 ], [ -120.13911530322558, 39.058585894726448 ], [ -120.140201458627729, 39.057441394124346 ], [ -120.141357406486748, 39.056857149019955 ], [ -120.142093423565299, 39.056370701469746 ], [ -120.142843805149425, 39.056100815880534 ] ] ] } },
{ "type": "Feature", "properties": { "part": "upstream", "crossing_id": "X01378", "area_ac": 11.1, "n_upstream": 1.0 }, "geometry": { "type": "Polygon", "coordinates": [ [ [ -120.140687242050973, 39.059146994593505 ], [ -120.141757663104613, 39.060110184216597 ], [ -120.142074199882103, 39.060856680540283 ], [ -120.141932040922043, 39.060943283240256 ], [ -120.141586290945909, 39.061493356373092 ], [ -120.141063095273836, 39.061858896315009 ], [ -120.140985838069653, 39.062055197299934 ], [ -120.140629340600441, 39.062298700030794 ], [ -120.140575170040208, 39.062495567218171 ], [ -120.140315383525817, 39.06263333492074 ], [ -120.14025030953762, 39.063100202213249 ], [ -120.140381573102133, 39.063283602158648 ], [ -120.140303585419645, 39.063497902540121 ], [ -120.140393759859663, 39.063554169084 ], [ -120.140295420587293, 39.064272469951838 ], [ -120.140171980200392, 39.06446763685274 ], [ -120.139664021942593, 39.064455169065816 ], [ -120.139638751901273, 39.064508602313261 ], [ -120.139480036978924, 39.064432634773929 ], [ -120.139528572178193, 39.063803201400212 ], [ -120.139644743127064, 39.063788035268772 ], [ -120.139558379576542, 39.063065201090218 ], [ -120.13962764522843, 39.063066901385398 ], [ -120.139712903877012, 39.062672601378907 ], [ -120.139953237653813, 39.06244426830014 ], [ -120.14006867943877, 39.062447101674209 ], [ -120.140098309375844, 39.062285668159461 ], [ -120.140262107929701, 39.062235634569326 ], [ -120.140266468695174, 39.062127634432699 ], [ -120.14042954002241, 39.062095600612423 ], [ -120.140722585885968, 39.061706398660675 ], [ -120.140983821341251, 39.06153262980186 ], [ -120.14101199552708, 39.06140719601386 ], [ -120.140756011814048, 39.060878397142787 ], [ -120.139910654661975, 39.060064865549151 ], [ -120.140113524677446, 39.059619398043075 ], [ -120.140373300134925, 39.059481630330168 ], [ -120.140475823098171, 39.059231896076106 ], [ -120.140687242050973, 39.059146994593505 ] ] ] } }
]
}
