{
"type": "FeatureCollection",
"name": "X01329",
"crs": { "type": "name", "properties": { "name": "urn:ogc:def:crs:OGC:1.3:CRS84" } },
"features": [
{ "type": "Feature", "properties": { "part": "direct", "crossing_id": "X01329", "area_ac": 3.5 }, "geometry": { "type": "Polygon", "coordinates": [ [ [ -119.9600798091586, 38.899066661820505 ], [ -119.961808717842487, 38.899075668217478 ], [ -119.962034429013102, 38.899189652315904 ], [ -119.962022915253002, 38.899459616835756 ], [ -119.961664387912236, 38.899756578788605 ], [ -119.960302436263959, 38.899793167889278 ], [ -119.959808794149367, 38.899474004182778 ], [ -119.959814939315066, 38.899330023403913 ], [ -119.95958308595398, 38.899360015886074 ], [ -119.959540095397585, 38.899286824916956 ], [ -119.959613031399087, 38.899198637828633 ], [ -119.9600798091586, 38.899066661820505 ] ] ] } }
]
}
