{
"type": "FeatureCollection",
"name": "X01385",
"crs": { "type": "name", "properties": { "name": "urn:ogc:def:crs:OGC:1.3:CRS84" } },
"features": [
{ "type": "Feature", "properties": { "part": "direct", "crossing_id": "X01385", "area_ac": 0.1 }, "geometry": { "type": "Polygon", "coordinates": [ [ [ -120.142049301038142, 39.064910089181531 ], [ -120.141741150078872, 39.065100727293085 ], [ -120.141649519574813, 39.06508046176355 ], [ -120.141863134533921, 39.064941558706018 ], [ -120.142049301038142, 39.064910089181531 ] ] ] } }
]
}
