{
"type": "FeatureCollection",
"name": "X01351",
"crs": { "type": "name", "properties": { "name": "urn:ogc:def:crs:OGC:1.3:CRS84" } },
"features": [
{ "type": "Feature", "properties": { "part": "direct", "crossing_id": "X01351", "area_ac": 0.1 }, "geometry": { "type": "Polygon", "coordinates": [ [ [ -119.965998585166645, 38.90572511680103 ], [ -119.96601931880835, 38.905779708953482 ], [ -119.965855014235032, 38.905847505808204 ], [ -119.965600874141003, 38.905858912665735 ], [ -119.965674576989926, 38.905752724163797 ], [ -119.965998585166645, 38.90572511680103 ] ] ] } }
]
}
