{
"type": "FeatureCollection",
"name": "X01337",
"crs": { "type": "name", "properties": { "name": "urn:ogc:def:crs:OGC:1.3:CRS84" } },
"features": [
{ "type": "Feature", "properties": { "part": "direct", "crossing_id": "X01337", "area_ac": 1.7 }, "geometry": { "type": "Polygon", "coordinates": [ [ [ -119.962536552089119, 38.901472948540487 ], [ -119.96303713763173, 38.902170651800802 ], [ -119.962587236357294, 38.902447219813105 ], [ -119.962289345669234, 38.902403427536406 ], [ -119.962202588057337, 38.902275044905331 ], [ -119.962041359162129, 38.902270846090737 ], [ -119.961800283053378, 38.901976285550809 ], [ -119.962374557402427, 38.901486747893109 ], [ -119.962536552089119, 38.901472948540487 ] ] ] } }
]
}
