{
"type": "FeatureCollection",
"name": "X01386",
"crs": { "type": "name", "properties": { "name": "urn:ogc:def:crs:OGC:1.3:CRS84" } },
"features": [
{ "type": "Feature", "properties": { "part": "direct", "crossing_id": "X01386", "area_ac": 0.1 }, "geometry": { "type": "Polygon", "coordinates": [ [ [ -120.125492444160457, 39.059998374306304 ], [ -120.125143943509855, 39.060043830375299 ], [ -120.125102152491095, 39.059934692446149 ], [ -120.125496096595057, 39.059908375322763 ], [ -120.125492444160457, 39.059998374306304 ] ] ] } }
]
}
