{
"type": "FeatureCollection",
"name": "X01439",
"crs": { "type": "name", "properties": { "name": "urn:ogc:def:crs:OGC:1.3:CRS84" } },
"features": [
{ "type": "Feature", "properties": { "part": "direct", "crossing_id": "X01439", "area_ac": 0.1 }, "geometry": { "type": "Polygon", "coordinates": [ [ [ -120.037454636915584, 38.864264710360082 ], [ -120.037533268363916, 38.864591030089599 ], [ -120.037344605484734, 38.86469434800663 ], [ -120.037304542422703, 38.864549187085068 ], [ -120.037454636915584, 38.864264710360082 ] ] ] } }
]
}
