{
"type": "FeatureCollection",
"name": "X01498",
"crs": { "type": "name", "properties": { "name": "urn:ogc:def:crs:OGC:1.3:CRS84" } },
"features": [
{ "type": "Feature", "properties": { "part": "direct", "crossing_id": "X01498", "area_ac": 25.8, "n_upstream": null }, "geometry": { "type": "MultiPolygon", "coordinates": [ [ [ [ -120.033955250546754, 38.850319993441957 ], [ -120.033977519886989, 38.850338577420587 ], [ -120.033954502427875, 38.85033799241571 ], [ -120.033955250546754, 38.850319993441957 ] ] ], [ [ [ -120.037665814315119, 38.846414244164315 ], [ -120.037771931029042, 38.846633153814018 ], [ -120.037786587160895, 38.847390282184435 ], [ -120.037629062563425, 38.847854751910049 ], [ -120.037758944930815, 38.848056246814537 ], [ -120.037332687242269, 38.848333714531606 ], [ -120.037217602833834, 38.848330792893698 ], [ -120.037026742181141, 38.848488109306118 ], [ -120.037069039607061, 38.848579273204614 ], [ -120.036786109932592, 38.848734251649461 ], [ -120.03607034059219, 38.848770129214202 ], [ -120.035718356996654, 38.848923351211866 ], [ -120.035476971135537, 38.849187489606919 ], [ -120.035172514158091, 38.849305881198759 ], [ -120.034980898623346, 38.849481192955182 ], [ -120.034772248032809, 38.849511927604148 ], [ -120.034578387134857, 38.84974123559472 ], [ -120.034440283469934, 38.849737726253011 ], [ -120.033993230121254, 38.849960598949608 ], [ -120.033437821244348, 38.850018553636673 ], [ -120.033293730959926, 38.850159034635602 ], [ -120.033495649854416, 38.850290293434476 ], [ -120.033745848982008, 38.850368725108588 ], [ -120.033954502427875, 38.85033799241571 ], [ -120.033903978715003, 38.850444816228958 ], [ -120.034002607693381, 38.85084371868583 ], [ -120.033724899886963, 38.85087269624826 ], [ -120.033254819446512, 38.851094980645563 ], [ -120.032030770060146, 38.85005484958338 ], [ -120.031959661841469, 38.849548537622283 ], [ -120.032085976166798, 38.849281480327583 ], [ -120.032185717170321, 38.848545279484533 ], [ -120.03306110602837, 38.848549519909987 ], [ -120.033550445695326, 38.848417815503865 ], [ -120.033740565335933, 38.848278504049368 ], [ -120.033744305918333, 38.848188509165574 ], [ -120.033978213845529, 38.848104364250311 ], [ -120.034484582276221, 38.848117232590923 ], [ -120.034535103262741, 38.848010408390337 ], [ -120.034841799012639, 38.847838021276999 ], [ -120.034893067062356, 38.847713197891366 ], [ -120.035055679049492, 38.847681293305151 ], [ -120.035083182253729, 38.847573884056814 ], [ -120.035433664906662, 38.847456661751565 ], [ -120.035632749750093, 38.847101358833946 ], [ -120.035944671661611, 38.846802975435182 ], [ -120.036571345211215, 38.846692763997261 ], [ -120.036762201762002, 38.846535448139186 ], [ -120.036971590188912, 38.846486710506419 ], [ -120.0373828947356, 38.84656922449431 ], [ -120.037665814315119, 38.846414244164315 ] ], [ [ -120.037389473612137, 38.846965787675927 ], [ -120.036765787911676, 38.847004007342392 ], [ -120.036550418797532, 38.847196736745069 ], [ -120.036179164971543, 38.84725938094612 ], [ -120.035940776955655, 38.847451524588514 ], [ -120.03637734447544, 38.847480629802938 ], [ -120.037221633657552, 38.847123688884828 ], [ -120.037389473612137, 38.846965787675927 ] ] ] ] } },
{ "type": "Feature", "properties": { "part": "upstream", "crossing_id": "X01498", "area_ac": 8.8, "n_upstream": 2.0 }, "geometry": { "type": "MultiPolygon", "coordinates": [ [ [ [ -120.037221633657552, 38.847123688884828 ], [ -120.03637734447544, 38.847480629802938 ], [ -120.035940776955655, 38.847451524588514 ], [ -120.036179164971543, 38.84725938094612 ], [ -120.036550418797532, 38.847196736745069 ], [ -120.036765787911676, 38.847004007342392 ], [ -120.037389473612137, 38.846965787675927 ], [ -120.037221633657552, 38.847123688884828 ] ] ], [ [ [ -120.037850122347834, 38.848635137296633 ], [ -120.037698572021412, 38.84895561462038 ], [ -120.037492165416595, 38.848932357133449 ], [ -120.03730205088786, 38.849071674909702 ], [ -120.037002828377624, 38.849064078216664 ], [ -120.037043631447858, 38.8491912401836 ], [ -120.036970096012794, 38.849297481169174 ], [ -120.037125985280156, 38.849427565056381 ], [ -120.037097736922192, 38.849552973876897 ], [ -120.036042523433281, 38.849994646540253 ], [ -120.035697262633107, 38.84998587716035 ], [ -120.035602202331376, 38.850055534493414 ], [ -120.035569464744157, 38.850288936820803 ], [ -120.034375548902943, 38.850186530983876 ], [ -120.034097843767697, 38.850215509543624 ], [ -120.033906971248769, 38.850372820338173 ], [ -120.033745848982008, 38.850368725108588 ], [ -120.033293730959926, 38.850159034635602 ], [ -120.033484604164812, 38.850001724870459 ], [ -120.033993230121254, 38.849960598949608 ], [ -120.034440283469934, 38.849737726253011 ], [ -120.034578387134857, 38.84974123559472 ], [ -120.034772248032809, 38.849511927604148 ], [ -120.034980898623346, 38.849481192955182 ], [ -120.035595795114119, 38.849100417992908 ], [ -120.035718356996654, 38.848923351211866 ], [ -120.03607034059219, 38.848770129214202 ], [ -120.036786109932592, 38.848734251649461 ], [ -120.037069039607061, 38.848579273204614 ], [ -120.037026742181141, 38.848488109306118 ], [ -120.037217602833834, 38.848330792893698 ], [ -120.037332687242269, 38.848333714531606 ], [ -120.037781961733984, 38.848056831041056 ], [ -120.037850122347834, 38.848635137296633 ] ] ] ] } }
]
}
