{
"type": "FeatureCollection",
"name": "X01428",
"crs": { "type": "name", "properties": { "name": "urn:ogc:def:crs:OGC:1.3:CRS84" } },
"features": [
{ "type": "Feature", "properties": { "part": "direct", "crossing_id": "X01428", "area_ac": 0.8 }, "geometry": { "type": "Polygon", "coordinates": [ [ [ -120.036184549650045, 38.857115358968727 ], [ -120.036459290637495, 38.857158372464028 ], [ -120.0364540569322, 38.857284365417001 ], [ -120.035574071640951, 38.857388140126282 ], [ -120.035220547355465, 38.857577356664116 ], [ -120.034923533972176, 38.857515756347041 ], [ -120.034953286284377, 38.857354350538728 ], [ -120.035209495436476, 38.857288788258053 ], [ -120.035377365034066, 38.857130891296599 ], [ -120.035810999868588, 38.857231996824034 ], [ -120.036184549650045, 38.857115358968727 ] ] ] } }
]
}
