{
"type": "FeatureCollection",
"name": "X01490",
"crs": { "type": "name", "properties": { "name": "urn:ogc:def:crs:OGC:1.3:CRS84" } },
"features": [
{ "type": "Feature", "properties": { "part": "direct", "crossing_id": "X01490", "area_ac": 4.5 }, "geometry": { "type": "Polygon", "coordinates": [ [ [ -120.038136284365734, 38.856173923341601 ], [ -120.038686509557053, 38.856241941288154 ], [ -120.038843163523069, 38.856354024428995 ], [ -120.039140923130802, 38.856397615676592 ], [ -120.039230013409068, 38.856471948048735 ], [ -120.039203259060471, 38.85656135920317 ], [ -120.03945124610955, 38.856693776797172 ], [ -120.039612383479763, 38.856697864712309 ], [ -120.039878163875372, 38.856956858755019 ], [ -120.040038555138992, 38.856978945156726 ], [ -120.040185505393254, 38.857325014319542 ], [ -120.040053230449928, 38.85773607310297 ], [ -120.039915857452442, 38.857714570584349 ], [ -120.039918844700608, 38.857642574391285 ], [ -120.039693873421754, 38.857510741615684 ], [ -120.039370101130331, 38.857538563725164 ], [ -120.039007012189344, 38.85740322542177 ], [ -120.038897142415934, 38.857274311635649 ], [ -120.03795930962049, 38.857106366756348 ], [ -120.037830906458652, 38.856868873644771 ], [ -120.037947499263922, 38.856835797177126 ], [ -120.038136284365734, 38.856173923341601 ] ] ] } }
]
}
