{
"type": "FeatureCollection",
"name": "X01403",
"crs": { "type": "name", "properties": { "name": "urn:ogc:def:crs:OGC:1.3:CRS84" } },
"features": [
{ "type": "Feature", "properties": { "part": "direct", "crossing_id": "X01403", "area_ac": 0.6 }, "geometry": { "type": "Polygon", "coordinates": [ [ [ -119.999378157315064, 38.858336882532328 ], [ -119.999551713731279, 38.8585935951441 ], [ -119.999266395986126, 38.858802472664692 ], [ -119.999082997470467, 38.8587797385416 ], [ -119.998987133886416, 38.858867362428718 ], [ -119.998897327545848, 38.858810999251453 ], [ -119.998733162487284, 38.858878848455582 ], [ -119.998766782971444, 38.858627463328425 ], [ -119.999095868663687, 38.858473766151363 ], [ -119.999170983540679, 38.858331555047272 ], [ -119.999378157315064, 38.858336882532328 ] ] ] } }
]
}
