{
"type": "FeatureCollection",
"name": "X01441",
"crs": { "type": "name", "properties": { "name": "urn:ogc:def:crs:OGC:1.3:CRS84" } },
"features": [
{ "type": "Feature", "properties": { "part": "direct", "crossing_id": "X01441", "area_ac": 11.1, "n_upstream": null }, "geometry": { "type": "Polygon", "coordinates": [ [ [ -120.038254576322345, 38.863870603450735 ], [ -120.038691992753229, 38.86388170489704 ], [ -120.038639970503155, 38.864024528465869 ], [ -120.038732805663145, 38.864008866442859 ], [ -120.038911003523907, 38.864157532292232 ], [ -120.03888200353235, 38.86430094017588 ], [ -120.039012663740849, 38.864484435491356 ], [ -120.039027466453334, 38.86468300881473 ], [ -120.039464888168098, 38.864694107560098 ], [ -120.039553241523265, 38.864786439032443 ], [ -120.040199358183315, 38.864766793579953 ], [ -120.040516441659761, 38.864900961793758 ], [ -120.040591483200998, 38.864758721166773 ], [ -120.040892265967017, 38.864730313141692 ], [ -120.041060888788451, 38.864554409321364 ], [ -120.041340888295821, 38.864471419164744 ], [ -120.041343874826794, 38.8643994229623 ], [ -120.041573349745875, 38.864423259063848 ], [ -120.041670664225748, 38.864299600364433 ], [ -120.04165585413871, 38.864101027080459 ], [ -120.041776936533651, 38.863959952863461 ], [ -120.041985627595395, 38.863929207283228 ], [ -120.041904617898737, 38.864215441453545 ], [ -120.04181178300226, 38.864231106018089 ], [ -120.041876370348007, 38.86434085125547 ], [ -120.041782042241522, 38.86439251390658 ], [ -120.041891181058332, 38.864539424530349 ], [ -120.041900019804956, 38.864881990269204 ], [ -120.041620019219238, 38.864964981725812 ], [ -120.041614793164982, 38.86509097509856 ], [ -120.041282026644396, 38.865334789760091 ], [ -120.04130056908231, 38.865443367791201 ], [ -120.041158700671275, 38.865529860437704 ], [ -120.041057649825561, 38.865743513797277 ], [ -120.040971406526552, 38.866155740295689 ], [ -120.040669870877693, 38.866202147319143 ], [ -120.040469388571026, 38.866034900909725 ], [ -120.040150806337877, 38.865936730449995 ], [ -120.039951073032128, 38.865751484194504 ], [ -120.039496599159463, 38.865595810777151 ], [ -120.037607261744071, 38.865583896782354 ], [ -120.037551804931567, 38.864699608497787 ], [ -120.038521725803363, 38.864652156588527 ], [ -120.038440100288497, 38.864397833363192 ], [ -120.038518134651866, 38.864183598182208 ], [ -120.038228564798217, 38.863942015125005 ], [ -120.038254576322345, 38.863870603450735 ] ] ] } },
{ "type": "Feature", "properties": { "part": "upstream", "crossing_id": "X01441", "area_ac": 24.5, "n_upstream": 3.0 }, "geometry": { "type": "Polygon", "coordinates": [ [ [ -120.039076175150441, 38.862954519182772 ], [ -120.039699253494064, 38.862934291692994 ], [ -120.039789099101654, 38.862990624879039 ], [ -120.039931710764151, 38.862886134701199 ], [ -120.040555535347593, 38.862847903564074 ], [ -120.040779904806143, 38.862439180073189 ], [ -120.040633689412729, 38.862075112351064 ], [ -120.040977516887494, 38.862119867518139 ], [ -120.041465445739419, 38.862024131350807 ], [ -120.041537495965201, 38.861953886106058 ], [ -120.041271569054686, 38.862253449553123 ], [ -120.041634060369873, 38.861848226325144 ], [ -120.041843491672225, 38.861799481684777 ], [ -120.041941548232501, 38.861657823484371 ], [ -120.042680468016286, 38.861622498327485 ], [ -120.043057762040888, 38.861415843563712 ], [ -120.043189920667331, 38.861563336313317 ], [ -120.043397112122676, 38.861568586081141 ], [ -120.043449868889965, 38.861407760801001 ], [ -120.043585758291044, 38.861465257656953 ], [ -120.04358128235053, 38.861573252233363 ], [ -120.043465429931757, 38.861588335016201 ], [ -120.043411180959538, 38.861785158480259 ], [ -120.043472038704323, 38.861984898346222 ], [ -120.043236601985939, 38.862105058965732 ], [ -120.043241717143303, 38.862537620405277 ], [ -120.043309289728143, 38.862575368551468 ], [ -120.043232017743321, 38.862771608535304 ], [ -120.042876246064367, 38.863014845129946 ], [ -120.0427276682219, 38.863263331682063 ], [ -120.042276072979746, 38.863594227809344 ], [ -120.042247826392952, 38.863719637748076 ], [ -120.042084433509714, 38.863769550047003 ], [ -120.041985627595395, 38.863929207283228 ], [ -120.041776936533651, 38.863959952863461 ], [ -120.04165585413871, 38.864101027080459 ], [ -120.041644655891574, 38.864371012923883 ], [ -120.041573349745875, 38.864423259063848 ], [ -120.041343874826794, 38.8643994229623 ], [ -120.041340888295821, 38.864471419164744 ], [ -120.041060888788451, 38.864554409321364 ], [ -120.040892265967017, 38.864730313141692 ], [ -120.040591483200998, 38.864758721166773 ], [ -120.040516441659761, 38.864900961793758 ], [ -120.040199358183315, 38.864766793579953 ], [ -120.039553241523265, 38.864786439032443 ], [ -120.039464888168098, 38.864694107560098 ], [ -120.039027466453334, 38.86468300881473 ], [ -120.039012663740849, 38.864484435491356 ], [ -120.03888200353235, 38.86430094017588 ], [ -120.038911003523907, 38.864157532292232 ], [ -120.038732805663145, 38.864008866442859 ], [ -120.038639970503155, 38.864024528465869 ], [ -120.038691992753229, 38.86388170489704 ], [ -120.038391960438958, 38.8638921083516 ], [ -120.038371554302145, 38.863828527532512 ], [ -120.038369685886039, 38.86387352504255 ], [ -120.038254576322345, 38.863870603450735 ], [ -120.038227817393192, 38.86396001412637 ], [ -120.038386728887474, 38.864018101379564 ], [ -120.038518134651866, 38.864183598182208 ], [ -120.038440100288497, 38.864397833363192 ], [ -120.038521725803363, 38.864652156588527 ], [ -120.037551804931567, 38.864699608497787 ], [ -120.037333700414322, 38.863847226638597 ], [ -120.037714011126127, 38.863568594335078 ], [ -120.037991767711816, 38.863539609200807 ], [ -120.038218996145261, 38.86361744875726 ], [ -120.038151425492501, 38.863579697733883 ], [ -120.038245754929207, 38.863528038074492 ], [ -120.038250986638019, 38.863402045051998 ], [ -120.038161889229656, 38.86332771170936 ], [ -120.038397338017944, 38.863207561850871 ], [ -120.038361757511197, 38.86295440716907 ], [ -120.038702598294336, 38.863071165187485 ], [ -120.03900262715095, 38.863060760795349 ], [ -120.039076175150441, 38.862954519182772 ] ], [ [ -120.040931842995846, 38.863776363801257 ], [ -120.040958594715576, 38.863760053797748 ], [ -120.040536831892368, 38.863771028097418 ], [ -120.040931842995846, 38.863776363801257 ] ], [ [ -120.038356438666511, 38.863781430627739 ], [ -120.038351148198331, 38.863764946710717 ], [ -120.038189995061671, 38.863760856434432 ], [ -120.038356438666511, 38.863781430627739 ] ] ] } }
]
}
