{
"type": "FeatureCollection",
"name": "X01453",
"crs": { "type": "name", "properties": { "name": "urn:ogc:def:crs:OGC:1.3:CRS84" } },
"features": [
{ "type": "Feature", "properties": { "part": "direct", "crossing_id": "X01453", "area_ac": 2.8 }, "geometry": { "type": "Polygon", "coordinates": [ [ [ -120.037075466962747, 38.849534390469714 ], [ -120.037384258483343, 38.849866553945311 ], [ -120.037330751155608, 38.850045375585779 ], [ -120.037502187916672, 38.850356033691654 ], [ -120.03737813312911, 38.850569100444694 ], [ -120.037074420286146, 38.850669497844727 ], [ -120.036751426098846, 38.850679314868302 ], [ -120.036643812462074, 38.850496402342763 ], [ -120.036418869344729, 38.850364564229345 ], [ -120.035568717032888, 38.850306935820988 ], [ -120.035602202331376, 38.850055534493414 ], [ -120.035697262633107, 38.84998587716035 ], [ -120.036042523433281, 38.849994646540253 ], [ -120.036650692421532, 38.849775857138226 ], [ -120.037075466962747, 38.849534390469714 ] ] ] } }
]
}
