{
"type": "FeatureCollection",
"name": "X01493",
"crs": { "type": "name", "properties": { "name": "urn:ogc:def:crs:OGC:1.3:CRS84" } },
"features": [
{ "type": "Feature", "properties": { "part": "direct", "crossing_id": "X01493", "area_ac": 5.9 }, "geometry": { "type": "MultiPolygon", "coordinates": [ [ [ [ -120.041561263838233, 38.861936470700464 ], [ -120.041583538689267, 38.861955053414057 ], [ -120.041560517326886, 38.861954469762324 ], [ -120.041561263838233, 38.861936470700464 ] ] ], [ [ [ -120.041537495965201, 38.861953886106058 ], [ -120.041271569054686, 38.862253449553123 ], [ -120.041116267749473, 38.862663925406274 ], [ -120.040879331636134, 38.8628200791103 ], [ -120.041065619721721, 38.863329306531838 ], [ -120.041073708038041, 38.863689871282517 ], [ -120.040978633576884, 38.863759532346982 ], [ -120.039225232933546, 38.86380514621208 ], [ -120.03849002681838, 38.863750453478907 ], [ -120.038409149591857, 38.86347813123632 ], [ -120.03850273139399, 38.863444470362545 ], [ -120.038702598294336, 38.863071165187485 ], [ -120.03900262715095, 38.863060760795349 ], [ -120.039076175150441, 38.862954519182772 ], [ -120.039699253494064, 38.862934291692994 ], [ -120.039789099101654, 38.862990624879039 ], [ -120.039931710764151, 38.862886134701199 ], [ -120.040555535347593, 38.862847903564074 ], [ -120.040779904806143, 38.862439180073189 ], [ -120.040633689412729, 38.862075112351064 ], [ -120.040977516887494, 38.862119867518139 ], [ -120.041465445739419, 38.862024131350807 ], [ -120.041537495965201, 38.861953886106058 ] ] ], [ [ [ -120.041585031699725, 38.86191905528954 ], [ -120.041607306552024, 38.861937637998643 ], [ -120.041584285194816, 38.861937054351813 ], [ -120.041585031699725, 38.86191905528954 ] ] ] ] } }
]
}
