{
"type": "FeatureCollection",
"name": "X01486",
"crs": { "type": "name", "properties": { "name": "urn:ogc:def:crs:OGC:1.3:CRS84" } },
"features": [
{ "type": "Feature", "properties": { "part": "direct", "crossing_id": "X01486", "area_ac": 2.3 }, "geometry": { "type": "Polygon", "coordinates": [ [ [ -120.0400502433273, 38.857808069303623 ], [ -120.04025219617175, 38.8579393175891 ], [ -120.040248462490496, 38.858029312852807 ], [ -120.040642043677906, 38.857985240698454 ], [ -120.040668050263008, 38.857913828242964 ], [ -120.040836532223963, 38.858296478634429 ], [ -120.040972413551842, 38.858353978248132 ], [ -120.040967187586972, 38.85847997168996 ], [ -120.04077779945149, 38.858601295143735 ], [ -120.040572110439683, 38.858560042952057 ], [ -120.040426521884513, 38.858736530569345 ], [ -120.040444315226779, 38.858863107778163 ], [ -120.040257165478295, 38.858930433151663 ], [ -120.040251191379099, 38.859074425548926 ], [ -120.040109334946976, 38.859160917446651 ], [ -120.039600644830571, 38.859202067556161 ], [ -120.039467004031252, 38.859090569221841 ], [ -120.039631881417662, 38.859004662129067 ], [ -120.039830981732052, 38.858649353097533 ], [ -120.0400502433273, 38.857808069303623 ] ] ] } }
]
}
