{
"type": "FeatureCollection",
"name": "X01432",
"crs": { "type": "name", "properties": { "name": "urn:ogc:def:crs:OGC:1.3:CRS84" } },
"features": [
{ "type": "Feature", "properties": { "part": "direct", "crossing_id": "X01432", "area_ac": 3.2, "n_upstream": null }, "geometry": { "type": "Polygon", "coordinates": [ [ [ -120.036422016598181, 38.860274535948676 ], [ -120.037082889186962, 38.860453479714685 ], [ -120.037170486855132, 38.860563811718187 ], [ -120.03744374671615, 38.860642821410018 ], [ -120.037463030017449, 38.860733400851842 ], [ -120.037269144658978, 38.86096271207677 ], [ -120.036987659800474, 38.861081690833437 ], [ -120.03673592441082, 38.861039262599114 ], [ -120.036640849638175, 38.861108920126647 ], [ -120.036747729835071, 38.861309831979099 ], [ -120.036997970886304, 38.861388258202538 ], [ -120.037150147169342, 38.861608337812463 ], [ -120.037666179222143, 38.861945762533146 ], [ -120.037293353330895, 38.862044405162649 ], [ -120.037040866701062, 38.86201997644212 ], [ -120.03714700161899, 38.862238886987356 ], [ -120.037416529919085, 38.862407891930452 ], [ -120.037390518194954, 38.862479303421331 ], [ -120.037528646873355, 38.862482810235008 ], [ -120.037660795494304, 38.862630308857462 ], [ -120.037935558639006, 38.86267331970641 ], [ -120.038092224846267, 38.862785404256016 ], [ -120.037262701584112, 38.862782363779139 ], [ -120.037095569540455, 38.862922263978348 ], [ -120.03692800330694, 38.861963056698364 ], [ -120.036359523984856, 38.860669344247796 ], [ -120.036140533247917, 38.860393512723654 ], [ -120.036422016598181, 38.860274535948676 ] ] ] } },
{ "type": "Feature", "properties": { "part": "upstream", "crossing_id": "X01432", "area_ac": 31.7, "n_upstream": 6.0 }, "geometry": { "type": "Polygon", "coordinates": [ [ [ -120.041103483952057, 38.859332137309842 ], [ -120.041116262151192, 38.859330597384719 ], [ -120.041128584976192, 38.860700277143529 ], [ -120.041099467568387, 38.861402240379491 ], [ -120.041106063218137, 38.861798803339298 ], [ -120.041128337904183, 38.861817386133872 ], [ -120.041381572341606, 38.861823806971891 ], [ -120.041524925864437, 38.861701315583687 ], [ -120.041891027157391, 38.861764650732887 ], [ -120.041541228544233, 38.861863890798034 ], [ -120.041633313879203, 38.861866225388432 ], [ -120.041465445739419, 38.862024131350807 ], [ -120.040977516887494, 38.862119867518139 ], [ -120.040636224927965, 38.862081425665401 ], [ -120.040779904806143, 38.862439180073189 ], [ -120.040555535347593, 38.862847903564074 ], [ -120.039931710764151, 38.862886134701199 ], [ -120.039789099101654, 38.862990624879039 ], [ -120.039699253494064, 38.862934291692994 ], [ -120.039076175150441, 38.862954519182772 ], [ -120.03900262715095, 38.863060760795349 ], [ -120.03883998105438, 38.863092669507999 ], [ -120.038496897984771, 38.863029908904856 ], [ -120.038408548081094, 38.862937576746731 ], [ -120.038335746486084, 38.863025818894272 ], [ -120.038397338017944, 38.863207561850871 ], [ -120.038161889229656, 38.86332771170936 ], [ -120.038250986638019, 38.863402045051998 ], [ -120.038221238337584, 38.863563451750181 ], [ -120.037714011126127, 38.863568594335078 ], [ -120.037474822099185, 38.863778737664568 ], [ -120.037336690920071, 38.863775230689569 ], [ -120.03711560048707, 38.8629948444677 ], [ -120.037169867790851, 38.862798024684494 ], [ -120.038132780306682, 38.86277822293151 ], [ -120.037660795494304, 38.862630308857462 ], [ -120.037528646873355, 38.862482810235008 ], [ -120.037390518194954, 38.862479303421331 ], [ -120.037416529919085, 38.862407891930452 ], [ -120.03714700161899, 38.862238886987356 ], [ -120.03703862373942, 38.862073973405799 ], [ -120.037110678206247, 38.862003731069628 ], [ -120.037293353330895, 38.862044405162649 ], [ -120.037704098671185, 38.861963826961905 ], [ -120.037665431728556, 38.861963761531513 ], [ -120.037488736847735, 38.861779096054555 ], [ -120.037373630752782, 38.861776173726 ], [ -120.037127873630951, 38.861589754300496 ], [ -120.036997970886304, 38.861388258202538 ], [ -120.036725456494821, 38.861291248397173 ], [ -120.036641597367264, 38.861090921142328 ], [ -120.03673592441082, 38.861039262599114 ], [ -120.036987659800474, 38.861081690833437 ], [ -120.037316681675776, 38.860927883050948 ], [ -120.037763198484853, 38.86016444574026 ], [ -120.038336474504561, 38.860233050869027 ], [ -120.038617206673408, 38.860132067641544 ], [ -120.038910498939543, 38.860283654198049 ], [ -120.038807208421247, 38.860551302867655 ], [ -120.039508563100952, 38.859199731496851 ], [ -120.040109334946976, 38.859160917446651 ], [ -120.040251191379099, 38.859074425548926 ], [ -120.040257165478295, 38.858930433151663 ], [ -120.040444315226779, 38.858863107778163 ], [ -120.040426521884513, 38.858736530569345 ], [ -120.040572110439683, 38.858560042952057 ], [ -120.04077779945149, 38.858601295143735 ], [ -120.040968680723125, 38.858443973564064 ], [ -120.041127582680517, 38.858502056735972 ], [ -120.04114152229937, 38.859277183901654 ], [ -120.041103483952057, 38.859332137309842 ] ], [ [ -120.041060767248112, 38.861779636792789 ], [ -120.040944167454967, 38.861812716089176 ], [ -120.041105316595676, 38.861816802394145 ], [ -120.041106063218137, 38.861798803339298 ], [ -120.041060767248112, 38.861779636792789 ] ], [ [ -120.038412462114849, 38.861946687412498 ], [ -120.03842239015998, 38.861960269337665 ], [ -120.040245313404014, 38.861993190286441 ], [ -120.038412462114849, 38.861946687412498 ] ], [ [ -120.040992739539462, 38.859345483268157 ], [ -120.040862289999552, 38.859342175374046 ], [ -120.040813481038541, 38.859367085716222 ], [ -120.040992739539462, 38.859345483268157 ] ], [ [ -120.040702455673454, 38.859423748933516 ], [ -120.0406268582325, 38.859462330940779 ], [ -120.040557173831161, 38.859586689635201 ], [ -120.040702455673454, 38.859423748933516 ] ], [ [ -120.040444350927757, 38.859788032170123 ], [ -120.040178882642635, 38.86026177875825 ], [ -120.040450779917876, 38.859818225202808 ], [ -120.040444350927757, 38.859788032170123 ] ], [ [ -120.040841880382402, 38.86094525888835 ], [ -120.040876722535785, 38.861216412247281 ], [ -120.040917538170433, 38.861343573171567 ], [ -120.040841880382402, 38.86094525888835 ] ], [ [ -120.040359185862286, 38.860914999401253 ], [ -120.039829702996656, 38.860901569014736 ], [ -120.040104461180064, 38.860944574554495 ], [ -120.040359185862286, 38.860914999401253 ] ], [ [ -120.040421927012048, 38.861866060160011 ], [ -120.040434711771937, 38.861871868146743 ], [ -120.04064713077868, 38.861751129505748 ], [ -120.040421927012048, 38.861866060160011 ] ], [ [ -120.040552707533678, 38.862104243538816 ], [ -120.040620928635988, 38.862079702723953 ], [ -120.040564625270846, 38.862073360816076 ], [ -120.040552707533678, 38.862104243538816 ] ], [ [ -120.040437569577691, 38.862358426185715 ], [ -120.040444893943814, 38.862340593966103 ], [ -120.040323209075694, 38.86233750768659 ], [ -120.040437569577691, 38.862358426185715 ] ], [ [ -120.038829662258394, 38.862786102059751 ], [ -120.038844738438158, 38.86277728396778 ], [ -120.038771744906271, 38.862753744356851 ], [ -120.038829662258394, 38.862786102059751 ] ], [ [ -120.038594635654206, 38.862654795272611 ], [ -120.038682236376445, 38.862703736945001 ], [ -120.03865146782087, 38.862637436196543 ], [ -120.038594635654206, 38.862654795272611 ] ], [ [ -120.038346209365955, 38.862773832803725 ], [ -120.038471172581225, 38.86269250626961 ], [ -120.038194710831988, 38.862776949092279 ], [ -120.038346209365955, 38.862773832803725 ] ] ] } }
]
}
