{
"type": "FeatureCollection",
"name": "X01456",
"crs": { "type": "name", "properties": { "name": "urn:ogc:def:crs:OGC:1.3:CRS84" } },
"features": [
{ "type": "Feature", "properties": { "part": "direct", "crossing_id": "X01456", "area_ac": 1.5 }, "geometry": { "type": "Polygon", "coordinates": [ [ [ -120.036418869344729, 38.850364564229345 ], [ -120.036709875444117, 38.850570151832223 ], [ -120.036721681581781, 38.850840721564204 ], [ -120.036490009842439, 38.850870874683174 ], [ -120.036347418567047, 38.850975361582435 ], [ -120.036164024454706, 38.850952686080852 ], [ -120.036137268820866, 38.85104209653575 ], [ -120.035832804713181, 38.851160489551368 ], [ -120.035695445849129, 38.851138982586164 ], [ -120.035515952533885, 38.850467757426514 ], [ -120.035905007799059, 38.850531693705548 ], [ -120.036211711703018, 38.8503593033493 ], [ -120.036418869344729, 38.850364564229345 ] ] ] } }
]
}
