{
"type": "FeatureCollection",
"name": "X01463",
"crs": { "type": "name", "properties": { "name": "urn:ogc:def:crs:OGC:1.3:CRS84" } },
"features": [
{ "type": "Feature", "properties": { "part": "direct", "crossing_id": "X01463", "area_ac": 6.9 }, "geometry": { "type": "Polygon", "coordinates": [ [ [ -120.035920795045399, 38.870117630237274 ], [ -120.036635283534665, 38.870117760017941 ], [ -120.036630795695899, 38.870225753755001 ], [ -120.036283192677288, 38.870270979152096 ], [ -120.035882059722056, 38.870495023183452 ], [ -120.035767687938986, 38.870474099782776 ], [ -120.035577510060193, 38.870613411917788 ], [ -120.035275204414873, 38.870677803017841 ], [ -120.035060504195897, 38.870852527099359 ], [ -120.034922359629377, 38.870849016735527 ], [ -120.034581309600071, 38.871290798254904 ], [ -120.033964711606913, 38.871707556710078 ], [ -120.03377976809945, 38.871720873279337 ], [ -120.033495239070334, 38.87191183712757 ], [ -120.033240472899806, 38.871941395585807 ], [ -120.032229646909656, 38.87186163610162 ], [ -120.032326238987878, 38.871755985251752 ], [ -120.032283384750514, 38.87112426760077 ], [ -120.032973359913385, 38.871159832393808 ], [ -120.033397529337762, 38.870936384274714 ], [ -120.033430287818334, 38.870702983924225 ], [ -120.033736338509314, 38.870548603139348 ], [ -120.034591968373988, 38.870480261686858 ], [ -120.035732114850603, 38.870220944795832 ], [ -120.035920795045399, 38.870117630237274 ] ] ] } }
]
}
