{
"type": "FeatureCollection",
"name": "X01408",
"crs": { "type": "name", "properties": { "name": "urn:ogc:def:crs:OGC:1.3:CRS84" } },
"features": [
{ "type": "Feature", "properties": { "part": "direct", "crossing_id": "X01408", "area_ac": 2.7, "n_upstream": null }, "geometry": { "type": "Polygon", "coordinates": [ [ [ -120.067404927394094, 38.87795821589242 ], [ -120.06801703480312, 38.878207833453665 ], [ -120.068415980035283, 38.878596236629612 ], [ -120.068447971287085, 38.87893938322194 ], [ -120.068543041513436, 38.878869699660029 ], [ -120.06887735115626, 38.879148369110268 ], [ -120.068676848473487, 38.879539728946689 ], [ -120.068369347366854, 38.87973020156398 ], [ -120.068116783518576, 38.879705837356745 ], [ -120.068128627993971, 38.879417846351629 ], [ -120.068223699184429, 38.879348163091926 ], [ -120.068088495169377, 38.879272693571245 ], [ -120.067965136366183, 38.878909232916008 ], [ -120.067807646436123, 38.878815185010396 ], [ -120.067790541832224, 38.878670610838697 ], [ -120.06743247113782, 38.878409359177851 ], [ -120.067260841396958, 38.878098738688408 ], [ -120.067080327112208, 38.878004111104481 ], [ -120.067128602717375, 38.877951270461971 ], [ -120.067404927394094, 38.87795821589242 ] ] ] } },
{ "type": "Feature", "properties": { "part": "upstream", "crossing_id": "X01408", "area_ac": 54.8, "n_upstream": 5.0 }, "geometry": { "type": "Polygon", "coordinates": [ [ [ -120.070472047886369, 38.870071281459403 ], [ -120.070364420772862, 38.870446958758379 ], [ -120.070335681092473, 38.871707501845741 ], [ -120.070502874007488, 38.872126115024315 ], [ -120.07045618478115, 38.8727015208731 ], [ -120.070601833780728, 38.873083556872707 ], [ -120.070500857445865, 38.873297238516273 ], [ -120.070581867487149, 38.873569543288454 ], [ -120.070225388018656, 38.873830863961217 ], [ -120.070148914473833, 38.874009124366687 ], [ -120.070221048438185, 38.874497423186035 ], [ -120.07007771486316, 38.874619950535831 ], [ -120.07002130737493, 38.87487078691386 ], [ -120.069615807610589, 38.875202946827486 ], [ -120.069476170674463, 38.87523547596102 ], [ -120.069423459678745, 38.875396314566679 ], [ -120.069332094447404, 38.875376001744904 ], [ -120.069003067242264, 38.875529899631253 ], [ -120.069353640996525, 38.875412579030318 ], [ -120.069185797930103, 38.875570525727959 ], [ -120.069170999673844, 38.875930515060155 ], [ -120.069524626170704, 38.876299758067276 ], [ -120.069604895298127, 38.876590062854355 ], [ -120.069206042809938, 38.876760225608074 ], [ -120.069368709585135, 38.876728275284307 ], [ -120.069216490671849, 38.87706679487794 ], [ -120.069203911631305, 38.87737278574189 ], [ -120.069315346573006, 38.877465674987022 ], [ -120.06935853027818, 38.878097391314917 ], [ -120.069444719595637, 38.878243700487182 ], [ -120.069340860630433, 38.879087940030821 ], [ -120.069248750776126, 38.879085626430665 ], [ -120.069248010792705, 38.879103625888071 ], [ -120.068874390837252, 38.879220366914794 ], [ -120.068788941761866, 38.879056057891745 ], [ -120.068563848439993, 38.878924276544346 ], [ -120.068536559458451, 38.878874450814692 ], [ -120.068447971287085, 38.87893938322194 ], [ -120.068455373066243, 38.878759388768721 ], [ -120.068513818668265, 38.878832929369288 ], [ -120.068413759491591, 38.878650234965932 ], [ -120.068454718455726, 38.878627793194148 ], [ -120.06801703480312, 38.878207833453665 ], [ -120.067563895696253, 38.878016265393065 ], [ -120.067551974324786, 38.877745695157067 ], [ -120.067517841532805, 38.878015107927915 ], [ -120.067404927394094, 38.87795821589242 ], [ -120.06703501348936, 38.877984954023837 ], [ -120.066991180937151, 38.877929798077382 ], [ -120.066758688800704, 38.877978007714113 ], [ -120.06642809631937, 38.877609335592339 ], [ -120.066392411741802, 38.877356185862041 ], [ -120.066098247927115, 38.877222663233113 ], [ -120.065880573276061, 38.87691088297737 ], [ -120.066014096785167, 38.875346671088735 ], [ -120.066156697911936, 38.875242148494429 ], [ -120.066230153826012, 38.874577327834729 ], [ -120.066106745333101, 38.873655304573646 ], [ -120.06612896400307, 38.873115321837453 ], [ -120.066829354086622, 38.872898695617145 ], [ -120.067638204951677, 38.872846953362831 ], [ -120.068012532725092, 38.872712215513687 ], [ -120.068196735787311, 38.872716843958003 ], [ -120.068816853716839, 38.872209899747425 ], [ -120.068821293168398, 38.872101902915915 ], [ -120.069034438809027, 38.871963112586357 ], [ -120.069066342041992, 38.871747697225871 ], [ -120.069542377954249, 38.871381274207316 ], [ -120.069978275907502, 38.870869696758049 ], [ -120.07010143611835, 38.870116030480936 ], [ -120.07034868972238, 38.86970782297292 ], [ -120.07063681341404, 38.869426767410111 ], [ -120.070660473177156, 38.868850783066996 ], [ -120.070829035648202, 38.868674833834284 ], [ -120.070690359817391, 38.869806491147052 ], [ -120.070472047886369, 38.870071281459403 ] ], [ [ -120.068954315733507, 38.877276425813662 ], [ -120.06894099545346, 38.877600416051862 ], [ -120.068976602602021, 38.877295003714728 ], [ -120.069066490175487, 38.877351315820448 ], [ -120.068954315733507, 38.877276425813662 ] ] ] } }
]
}
