{
"type": "FeatureCollection",
"name": "X01413",
"crs": { "type": "name", "properties": { "name": "urn:ogc:def:crs:OGC:1.3:CRS84" } },
"features": [
{ "type": "Feature", "properties": { "part": "direct", "crossing_id": "X01413", "area_ac": 0.4 }, "geometry": { "type": "Polygon", "coordinates": [ [ [ -120.027818079653571, 38.83612784236734 ], [ -120.028118743915996, 38.8360994626251 ], [ -120.028115747073784, 38.836171458313991 ], [ -120.028302096773487, 38.836122149227258 ], [ -120.028458691366254, 38.836234244275659 ], [ -120.028713330337354, 38.836204691175219 ], [ -120.028895185677655, 38.836263374729491 ], [ -120.028224817462089, 38.836318379542924 ], [ -120.028244833549465, 38.836390961194823 ], [ -120.02773780177732, 38.836396067970895 ], [ -120.027818079653571, 38.83612784236734 ] ] ] } }
]
}
