{
"type": "FeatureCollection",
"name": "X01429",
"crs": { "type": "name", "properties": { "name": "urn:ogc:def:crs:OGC:1.3:CRS84" } },
"features": [
{ "type": "Feature", "properties": { "part": "direct", "crossing_id": "X01429", "area_ac": 0.2 }, "geometry": { "type": "Polygon", "coordinates": [ [ [ -120.03510361385257, 38.858727536097113 ], [ -120.035404372295261, 38.858699141291439 ], [ -120.035728733948915, 38.859211884513812 ], [ -120.035486729582374, 38.858935467205306 ], [ -120.035348608022176, 38.858931958244206 ], [ -120.035191954446177, 38.858819870444997 ], [ -120.03510361385257, 38.858727536097113 ] ] ] } }
]
}
