{
"type": "FeatureCollection",
"name": "X01474",
"crs": { "type": "name", "properties": { "name": "urn:ogc:def:crs:OGC:1.3:CRS84" } },
"features": [
{ "type": "Feature", "properties": { "part": "direct", "crossing_id": "X01474", "area_ac": 9.4, "n_upstream": null }, "geometry": { "type": "Polygon", "coordinates": [ [ [ -120.035631500158047, 38.861551750726434 ], [ -120.035629256167908, 38.861605747625553 ], [ -120.035745857742398, 38.861572673726151 ], [ -120.035834950436282, 38.861647008749685 ], [ -120.035779932599951, 38.861861826803221 ], [ -120.035895038666808, 38.861864750707809 ], [ -120.036027930632542, 38.861994252046408 ], [ -120.036394775240112, 38.862039605341877 ], [ -120.036457108871247, 38.862203350145279 ], [ -120.036872240727092, 38.862195874361717 ], [ -120.03704669193047, 38.862434537700089 ], [ -120.037199462865928, 38.863195171464824 ], [ -120.037197219930221, 38.863249168425376 ], [ -120.036988529361665, 38.863279905435739 ], [ -120.036668469047697, 38.863217724051772 ], [ -120.036433765374923, 38.86331987132958 ], [ -120.036295635213918, 38.863316363157914 ], [ -120.036162740431095, 38.863186862034297 ], [ -120.035749098903338, 38.863158337135069 ], [ -120.035800959811198, 38.86357406772504 ], [ -120.035981394135405, 38.863668740885991 ], [ -120.036283669122881, 38.863604346698779 ], [ -120.036395038757988, 38.863697265078656 ], [ -120.036837687627099, 38.863582380590628 ], [ -120.037297375902114, 38.863612070779034 ], [ -120.03740500889856, 38.863794983185926 ], [ -120.037332205157455, 38.863883224612714 ], [ -120.036412077716136, 38.863841841549565 ], [ -120.036270207065883, 38.863928328161471 ], [ -120.035903352918524, 38.86388297410916 ], [ -120.035553536534039, 38.863982195447093 ], [ -120.035349332068378, 38.863904935674171 ], [ -120.0351406389766, 38.863935669267811 ], [ -120.035121358045743, 38.863845089566752 ], [ -120.034983227032725, 38.863841579803321 ], [ -120.034806535018262, 38.863656910403378 ], [ -120.034637326867269, 38.86329225132107 ], [ -120.034590710926508, 38.862750527851304 ], [ -120.035631500158047, 38.861551750726434 ] ] ] } },
{ "type": "Feature", "properties": { "part": "upstream", "crossing_id": "X01474", "area_ac": 1.4, "n_upstream": 1.0 }, "geometry": { "type": "Polygon", "coordinates": [ [ [ -120.035749098903338, 38.863158337135069 ], [ -120.036162740431095, 38.863186862034297 ], [ -120.036295635213918, 38.863316363157914 ], [ -120.036668469047697, 38.863217724051772 ], [ -120.03680435582956, 38.863275228716113 ], [ -120.037174945893639, 38.863230584906411 ], [ -120.03727435409472, 38.863611486261647 ], [ -120.036837687627099, 38.863582380590628 ], [ -120.03644108239213, 38.863698434457717 ], [ -120.036283669122881, 38.863604346698779 ], [ -120.03605045953411, 38.863670495191315 ], [ -120.035844759352031, 38.863629234226089 ], [ -120.035723833227408, 38.863211749207018 ], [ -120.035749098903338, 38.863158337135069 ] ] ] } }
]
}
