{
"type": "FeatureCollection",
"name": "X01466",
"crs": { "type": "name", "properties": { "name": "urn:ogc:def:crs:OGC:1.3:CRS84" } },
"features": [
{ "type": "Feature", "properties": { "part": "direct", "crossing_id": "X01466", "area_ac": 0.8 }, "geometry": { "type": "Polygon", "coordinates": [ [ [ -120.03227885538368, 38.86070977924814 ], [ -120.033179474515009, 38.861219165404577 ], [ -120.032891244283775, 38.861500124276866 ], [ -120.032041158948871, 38.860883913445974 ], [ -120.032021882566454, 38.860793333378162 ], [ -120.03211321686419, 38.860813674331446 ], [ -120.03227885538368, 38.86070977924814 ] ] ] } }
]
}
