{
"type": "FeatureCollection",
"name": "X01414",
"crs": { "type": "name", "properties": { "name": "urn:ogc:def:crs:OGC:1.3:CRS84" } },
"features": [
{ "type": "Feature", "properties": { "part": "direct", "crossing_id": "X01414", "area_ac": 0.6 }, "geometry": { "type": "Polygon", "coordinates": [ [ [ -120.02510482939131, 38.836004661836476 ], [ -120.02544626990823, 38.836103454274969 ], [ -120.025533071663176, 38.8362317924149 ], [ -120.025456534603748, 38.836410021710215 ], [ -120.025108342860847, 38.83647321909833 ], [ -120.02479591432629, 38.836231021325283 ], [ -120.024800414612216, 38.836123028118472 ], [ -120.02510482939131, 38.836004661836476 ] ] ] } }
]
}
