{
"type": "FeatureCollection",
"name": "X01450",
"crs": { "type": "name", "properties": { "name": "urn:ogc:def:crs:OGC:1.3:CRS84" } },
"features": [
{ "type": "Feature", "properties": { "part": "direct", "crossing_id": "X01450", "area_ac": 3.6 }, "geometry": { "type": "Polygon", "coordinates": [ [ [ -120.038347142611485, 38.844431536883292 ], [ -120.038378236907619, 38.844792686281878 ], [ -120.038215632779014, 38.84482459583117 ], [ -120.038159891351256, 38.84505741539315 ], [ -120.038243738844443, 38.845257741462227 ], [ -120.038125671563947, 38.845326817144461 ], [ -120.038038696736621, 38.845757042083889 ], [ -120.037556106548678, 38.845726774998482 ], [ -120.037332670393624, 38.845558940987829 ], [ -120.036686728349409, 38.8455785773996 ], [ -120.036414273469418, 38.8454815690231 ], [ -120.036259888535284, 38.845315486443688 ], [ -120.036342389060991, 38.844993257378462 ], [ -120.037173199300838, 38.844960298215682 ], [ -120.037623946369109, 38.844647416290037 ], [ -120.038041216856968, 38.844585935150846 ], [ -120.038347142611485, 38.844431536883292 ] ] ] } }
]
}
