{
"type": "FeatureCollection",
"name": "X01479",
"crs": { "type": "name", "properties": { "name": "urn:ogc:def:crs:OGC:1.3:CRS84" } },
"features": [
{ "type": "Feature", "properties": { "part": "direct", "crossing_id": "X01479", "area_ac": 1.9 }, "geometry": { "type": "Polygon", "coordinates": [ [ [ -120.036746585316735, 38.857453955836817 ], [ -120.037501007516369, 38.857599236465177 ], [ -120.037732701003165, 38.857569082207483 ], [ -120.037468867880804, 38.8583731937956 ], [ -120.037036718569283, 38.858236096087403 ], [ -120.03701668873066, 38.858163515588657 ], [ -120.036854053236937, 38.858195421957255 ], [ -120.036629086325405, 38.858063583433257 ], [ -120.036376614027901, 38.858039153821125 ], [ -120.036560931548138, 38.857485277309671 ], [ -120.036746585316735, 38.857453955836817 ] ] ] } }
]
}
