{
"type": "FeatureCollection",
"name": "X01406",
"crs": { "type": "name", "properties": { "name": "urn:ogc:def:crs:OGC:1.3:CRS84" } },
"features": [
{ "type": "Feature", "properties": { "part": "direct", "crossing_id": "X01406", "area_ac": 3.8 }, "geometry": { "type": "Polygon", "coordinates": [ [ [ -120.069353640996525, 38.875412579030318 ], [ -120.069185797930103, 38.875570525727959 ], [ -120.069170999673844, 38.875930515060155 ], [ -120.069524626170704, 38.876299758067276 ], [ -120.069604895298127, 38.876590062854355 ], [ -120.069206042809938, 38.876760225608074 ], [ -120.068967635799183, 38.876952435553584 ], [ -120.06894099545346, 38.877600416051862 ], [ -120.068771665910717, 38.877794360776662 ], [ -120.068761304875025, 38.8780463531224 ], [ -120.068355780500639, 38.878378507569614 ], [ -120.068508089189123, 38.878598550862286 ], [ -120.068460554272292, 38.878633392647416 ], [ -120.06801703480312, 38.878207833453665 ], [ -120.067563895696253, 38.878016265393065 ], [ -120.067551974324786, 38.877745695157067 ], [ -120.06856581942688, 38.87719459379035 ], [ -120.068648961497317, 38.876854339704316 ], [ -120.06907602215594, 38.876558761111617 ], [ -120.069124206858902, 38.875947357745758 ], [ -120.069003067242264, 38.875529899631253 ], [ -120.069353640996525, 38.875412579030318 ] ] ] } }
]
}
