{
"type": "FeatureCollection",
"name": "X01505",
"crs": { "type": "name", "properties": { "name": "urn:ogc:def:crs:OGC:1.3:CRS84" } },
"features": [
{ "type": "Feature", "properties": { "part": "direct", "crossing_id": "X01505", "area_ac": 7.2, "n_upstream": null }, "geometry": { "type": "Polygon", "coordinates": [ [ [ -120.040958711304469, 38.866461723953222 ], [ -120.041179231879809, 38.866701549556296 ], [ -120.041341138784546, 38.866687636922563 ], [ -120.041359681533294, 38.866796214939669 ], [ -120.041588417491496, 38.866838050350708 ], [ -120.041512628786336, 38.866998290612983 ], [ -120.041373744179339, 38.867012787214477 ], [ -120.040873831455642, 38.867396506136743 ], [ -120.040353263775032, 38.867167087905187 ], [ -120.040255195862741, 38.867308744233938 ], [ -120.039854838882036, 38.867514804152599 ], [ -120.039873379485684, 38.867623382312637 ], [ -120.039709976027382, 38.86767329084023 ], [ -120.039634929321807, 38.867815530649374 ], [ -120.038841074915936, 38.867507100127838 ], [ -120.038390929374017, 38.867801981251439 ], [ -120.03794750840494, 38.867934869620598 ], [ -120.037850182295898, 38.868058524698796 ], [ -120.037527856814791, 38.868050341786905 ], [ -120.037600664909021, 38.867962100449759 ], [ -120.037577048628449, 38.867420962049465 ], [ -120.037785751251278, 38.867390224469403 ], [ -120.037955883287353, 38.867178327783549 ], [ -120.038689027389026, 38.866728468954022 ], [ -120.039154715071916, 38.866614160590174 ], [ -120.039427253022851, 38.86671116556704 ], [ -120.03954386158253, 38.866678088152632 ], [ -120.040018377099926, 38.86690634174181 ], [ -120.040166225586319, 38.866675858467602 ], [ -120.040424705499177, 38.866556288860025 ], [ -120.040958711304469, 38.866461723953222 ] ] ] } },
{ "type": "Feature", "properties": { "part": "upstream", "crossing_id": "X01505", "area_ac": 1.8, "n_upstream": 1.0 }, "geometry": { "type": "Polygon", "coordinates": [ [ [ -120.038146196845105, 38.866480458037472 ], [ -120.039044831890024, 38.866485246553736 ], [ -120.039431736068337, 38.866603171491462 ], [ -120.039497068739223, 38.866694918935664 ], [ -120.039131692257612, 38.866613576401221 ], [ -120.038920003145151, 38.866716312522655 ], [ -120.038689027389026, 38.866728468954022 ], [ -120.037645370112742, 38.867440714533693 ], [ -120.037580039269912, 38.867348966128674 ], [ -120.0375869223097, 38.866628422367548 ], [ -120.038146196845105, 38.866480458037472 ] ] ] } }
]
}
