{
"type": "FeatureCollection",
"name": "X01570",
"crs": { "type": "name", "properties": { "name": "urn:ogc:def:crs:OGC:1.3:CRS84" } },
"features": [
{ "type": "Feature", "properties": { "part": "direct", "crossing_id": "X01570", "area_ac": 5.0, "n_upstream": null }, "geometry": { "type": "Polygon", "coordinates": [ [ [ -120.012158363905726, 38.863511625811093 ], [ -120.012366309088137, 38.863498932270119 ], [ -120.012568977180209, 38.863612228434761 ], [ -120.012376513813109, 38.86380549754486 ], [ -120.012207473067392, 38.864539902464493 ], [ -120.012178067283415, 38.865241846788415 ], [ -120.011984844149922, 38.865453113558246 ], [ -120.012169019143627, 38.865457829636512 ], [ -120.012159216882608, 38.865691811044258 ], [ -120.012021085181757, 38.865688273983366 ], [ -120.011887478056607, 38.865576745368955 ], [ -120.011496859883209, 38.865548723828027 ], [ -120.011448553499761, 38.865601540242636 ], [ -120.01096584790065, 38.865571158347997 ], [ -120.010777900966445, 38.865656433095651 ], [ -120.010618256424323, 38.865616307517449 ], [ -120.010308021740457, 38.865320073249649 ], [ -120.010451433621469, 38.865197622510479 ], [ -120.010613340336974, 38.86518375264253 ], [ -120.01090619657613, 38.864794861736719 ], [ -120.011092632496911, 38.864745583785265 ], [ -120.01114395552537, 38.864620773275533 ], [ -120.011282839266499, 38.86460631273436 ], [ -120.011765139704366, 38.864096146500877 ], [ -120.012158363905726, 38.863511625811093 ] ], [ [ -120.011476854759664, 38.865476139965708 ], [ -120.011591209947312, 38.865497086611398 ], [ -120.01161347766805, 38.865515674776198 ], [ -120.011614985981353, 38.86547967765415 ], [ -120.011476854759664, 38.865476139965708 ] ] ] } },
{ "type": "Feature", "properties": { "part": "upstream", "crossing_id": "X01570", "area_ac": 15.5, "n_upstream": 7.0 }, "geometry": { "type": "MultiPolygon", "coordinates": [ [ [ [ -120.011392233246966, 38.863095612833781 ], [ -120.011374012556431, 38.863125742565018 ], [ -120.011416762629167, 38.863060205315939 ], [ -120.011551872738679, 38.863135737161507 ], [ -120.012264019770242, 38.863190009243375 ], [ -120.012009680346623, 38.863760068941971 ], [ -120.011790423356274, 38.864042740347713 ], [ -120.011652294892897, 38.864039202975967 ], [ -120.011621732314836, 38.864218599052535 ], [ -120.011099027034874, 38.864043050415148 ], [ -120.011620978194159, 38.864236597617591 ], [ -120.011282839266499, 38.86460631273436 ], [ -120.01114395552537, 38.864620773275533 ], [ -120.011092632496911, 38.864745583785265 ], [ -120.010882420617563, 38.864812270553436 ], [ -120.010608310643917, 38.865125860606824 ], [ -120.010639379666827, 38.865112348250896 ], [ -120.010613340336974, 38.86518375264253 ], [ -120.010543520654352, 38.865199981781977 ], [ -120.010451433621469, 38.865197622510479 ], [ -120.010140078480632, 38.865477930975736 ], [ -120.009538110585623, 38.864994040527726 ], [ -120.009444514522258, 38.865027677527621 ], [ -120.009424930234559, 38.86501938408896 ], [ -120.009327896684951, 38.865060724404366 ], [ -120.008705935854479, 38.864504245864559 ], [ -120.007633355288633, 38.864801066579005 ], [ -120.00730766753054, 38.864324249592592 ], [ -120.007707337778299, 38.864136302835902 ], [ -120.008183619676458, 38.863770140324043 ], [ -120.008297216035231, 38.863809088570228 ], [ -120.008337219054937, 38.863954257126323 ], [ -120.00861573945302, 38.863907343985581 ], [ -120.009065599007414, 38.864171125859521 ], [ -120.009265619115482, 38.863797877345711 ], [ -120.009457335915059, 38.863622612234209 ], [ -120.010488375895221, 38.863216602807789 ], [ -120.010708389454109, 38.862915935365379 ], [ -120.010628374687087, 38.862625599489469 ], [ -120.010777814608616, 38.862359159617924 ], [ -120.01074535010811, 38.862034006132859 ], [ -120.011047636646168, 38.86196967797602 ], [ -120.011299356417041, 38.862012161188979 ], [ -120.011587315109665, 38.862289804423774 ], [ -120.0115744957006, 38.862595780112194 ], [ -120.011392233246966, 38.863095612833781 ] ], [ [ -120.010850317550393, 38.863928572291243 ], [ -120.010997629721643, 38.86370274343674 ], [ -120.010131006420394, 38.864594822832885 ], [ -120.010752336285066, 38.864018177527626 ], [ -120.01070841770921, 38.864015026570719 ], [ -120.010850317550393, 38.863928572291243 ] ] ], [ [ [ -120.011652294892897, 38.864039202975967 ], [ -120.011765139704366, 38.864096146500877 ], [ -120.011670791677389, 38.864147783947203 ], [ -120.011652294892897, 38.864039202975967 ] ] ], [ [ [ -120.012105231730857, 38.865330071155505 ], [ -120.01217505124761, 38.865313841072215 ], [ -120.012146751288185, 38.865439241572687 ], [ -120.012007866021776, 38.86545370308388 ], [ -120.012105231730857, 38.865330071155505 ] ] ], [ [ [ -120.012007866021776, 38.86545370308388 ], [ -120.011983336024556, 38.865489110692643 ], [ -120.011984844149922, 38.865453113558246 ], [ -120.012007866021776, 38.86545370308388 ] ] ], [ [ [ -120.011477608950045, 38.865458141406855 ], [ -120.011522898497546, 38.865477319213305 ], [ -120.011476854759664, 38.865476139965708 ], [ -120.011477608950045, 38.865458141406855 ] ] ], [ [ [ -120.011522898497546, 38.865477319213305 ], [ -120.01161347766805, 38.865515674776198 ], [ -120.011522144318079, 38.86549531777284 ], [ -120.011522898497546, 38.865477319213305 ] ] ] ] } }
]
}
