{
"type": "FeatureCollection",
"name": "X01510",
"crs": { "type": "name", "properties": { "name": "urn:ogc:def:crs:OGC:1.3:CRS84" } },
"features": [
{ "type": "Feature", "properties": { "part": "direct", "crossing_id": "X01510", "area_ac": 3.4 }, "geometry": { "type": "Polygon", "coordinates": [ [ [ -119.965848230523051, 38.908171602477722 ], [ -119.966838758823229, 38.908737892236211 ], [ -119.966977734762509, 38.90872348836583 ], [ -119.96706680803895, 38.90879787491086 ], [ -119.967207317137678, 38.908747475387649 ], [ -119.96733632850804, 38.908967041097036 ], [ -119.967604317383319, 38.90917220210175 ], [ -119.96817329701129, 38.909349150988248 ], [ -119.968140299775101, 38.909582522429169 ], [ -119.967770203993894, 38.909608937448965 ], [ -119.9675421515403, 38.909548956030179 ], [ -119.96721429339253, 38.909666555443771 ], [ -119.967107549825755, 38.909465586216037 ], [ -119.966765856273312, 38.909366613198991 ], [ -119.966547772842247, 38.909072660043222 ], [ -119.966362726178602, 38.909085865215204 ], [ -119.966322790322124, 38.908940685631599 ], [ -119.966023336112102, 38.908932897108592 ], [ -119.965958832432719, 38.908823113623633 ], [ -119.965776853962197, 38.908764327210719 ], [ -119.965779921540417, 38.908692336537719 ], [ -119.965571840956002, 38.908704941294708 ], [ -119.96557644262009, 38.908596955304255 ], [ -119.965392931096815, 38.908574163652801 ], [ -119.965305393933733, 38.908463780585087 ], [ -119.965376799205288, 38.908411585424226 ], [ -119.965606379834739, 38.908435575538718 ], [ -119.965587179740297, 38.908344987983561 ], [ -119.965726155062583, 38.908330585584189 ], [ -119.965730756431455, 38.90822259957131 ], [ -119.965848230523051, 38.908171602477722 ] ] ] } }
]
}
