{
"type": "FeatureCollection",
"name": "X01581",
"crs": { "type": "name", "properties": { "name": "urn:ogc:def:crs:OGC:1.3:CRS84" } },
"features": [
{ "type": "Feature", "properties": { "part": "direct", "crossing_id": "X01581", "area_ac": 6.5 }, "geometry": { "type": "Polygon", "coordinates": [ [ [ -120.011410248332922, 38.802123335706646 ], [ -120.011692713847168, 38.802526962888429 ], [ -120.011808474287022, 38.802511908013457 ], [ -120.011872964693296, 38.802621666845532 ], [ -120.012149736723117, 38.802610732801085 ], [ -120.012682219013215, 38.803092828351872 ], [ -120.012841727328606, 38.803132945991507 ], [ -120.013621976143085, 38.803747503084836 ], [ -120.01380599245357, 38.803752210329854 ], [ -120.01418950874455, 38.803942200201568 ], [ -120.014972332552574, 38.80394420147389 ], [ -120.015154094758358, 38.804002903039432 ], [ -120.015215585217348, 38.804184655492811 ], [ -120.014773281342002, 38.804299472096048 ], [ -120.014433510461359, 38.804164656951741 ], [ -120.013287162367206, 38.804045243948799 ], [ -120.012422861999397, 38.803788893999517 ], [ -120.012305594912391, 38.803839946929898 ], [ -120.012169839773364, 38.803782418462809 ], [ -120.011916817628659, 38.80377594237909 ], [ -120.011798797781665, 38.803844993541723 ], [ -120.011662290593364, 38.803805463252914 ], [ -120.011514821892632, 38.803477363967026 ], [ -120.011272337010226, 38.803218904047469 ], [ -120.011289645919504, 38.802804932834306 ], [ -120.011207422627763, 38.802568593589022 ], [ -120.010920444001854, 38.802272957806615 ], [ -120.010531676696544, 38.802208949011892 ], [ -120.010626693423305, 38.802139310065144 ], [ -120.011061463430465, 38.802204496357639 ], [ -120.011410248332922, 38.802123335706646 ] ] ] } }
]
}
