{
"type": "FeatureCollection",
"name": "X01517",
"crs": { "type": "name", "properties": { "name": "urn:ogc:def:crs:OGC:1.3:CRS84" } },
"features": [
{ "type": "Feature", "properties": { "part": "direct", "crossing_id": "X01517", "area_ac": 1.0 }, "geometry": { "type": "Polygon", "coordinates": [ [ [ -119.958955121162219, 38.898406731069137 ], [ -119.959202320222488, 38.898557315976234 ], [ -119.959193869140108, 38.898755289459579 ], [ -119.959376584687647, 38.898796087402104 ], [ -119.959301344065608, 38.898938267123562 ], [ -119.95948098727564, 38.899051055290023 ], [ -119.959519368366301, 38.899232231834517 ], [ -119.959421095799954, 38.899373811308116 ], [ -119.959105566893072, 38.899203428025565 ], [ -119.959041081970085, 38.899093641335469 ], [ -119.95835935610998, 38.898859656479125 ], [ -119.958432293053377, 38.898771470165151 ], [ -119.95854668205989, 38.898792470253532 ], [ -119.958921332945579, 38.898658096854646 ], [ -119.958839195893958, 38.898421726568785 ], [ -119.958955121162219, 38.898406731069137 ] ] ] } }
]
}
