{
"type": "FeatureCollection",
"name": "X01580",
"crs": { "type": "name", "properties": { "name": "urn:ogc:def:crs:OGC:1.3:CRS84" } },
"features": [
{ "type": "Feature", "properties": { "part": "direct", "crossing_id": "X01580", "area_ac": 9.2 }, "geometry": { "type": "Polygon", "coordinates": [ [ [ -120.009978289516937, 38.804429009981796 ], [ -120.010252809992721, 38.804472076906187 ], [ -120.010271295058899, 38.804580658362994 ], [ -120.010496800618256, 38.804694541458936 ], [ -120.010671785700083, 38.804915238516813 ], [ -120.011013057615997, 38.805014066987518 ], [ -120.011959918332806, 38.804948216508443 ], [ -120.012218211269854, 38.804828701356534 ], [ -120.012565503519667, 38.804783535262509 ], [ -120.012703517614042, 38.804787067050036 ], [ -120.012995778623477, 38.804956707636094 ], [ -120.014030887833471, 38.804983188362556 ], [ -120.014588209105739, 38.804871316095941 ], [ -120.014677211752456, 38.804945664244201 ], [ -120.015180259139925, 38.805030599461062 ], [ -120.015283997395684, 38.805303522184701 ], [ -120.015440505947581, 38.805415631744715 ], [ -120.015369994924086, 38.805449865080135 ], [ -120.015448476953537, 38.805776196009759 ], [ -120.01536714562927, 38.806620963702876 ], [ -120.015156360267767, 38.806705664475103 ], [ -120.01465179762485, 38.806656726295529 ], [ -120.014141527344421, 38.806193225550963 ], [ -120.014003510356019, 38.806189695355087 ], [ -120.013962016525454, 38.806080525890216 ], [ -120.013824751780533, 38.8060589967101 ], [ -120.013818293029459, 38.805662435108935 ], [ -120.013386507397314, 38.80552526309063 ], [ -120.013253004582566, 38.805413739414497 ], [ -120.012632687881577, 38.805379849031901 ], [ -120.012446410585639, 38.805429136054606 ], [ -120.012151891900714, 38.805313490346329 ], [ -120.011367549188108, 38.805347467040711 ], [ -120.010956515058439, 38.805264871383955 ], [ -120.010507758039751, 38.804983110189966 ], [ -120.010225290593041, 38.804579480166183 ], [ -120.010019023450496, 38.804556179333879 ], [ -120.009978289516937, 38.804429009981796 ] ] ] } }
]
}
