{
"type": "FeatureCollection",
"name": "X01515",
"crs": { "type": "name", "properties": { "name": "urn:ogc:def:crs:OGC:1.3:CRS84" } },
"features": [
{ "type": "Feature", "properties": { "part": "direct", "crossing_id": "X01515", "area_ac": 1.3 }, "geometry": { "type": "Polygon", "coordinates": [ [ [ -119.964490701017041, 38.907559719250422 ], [ -119.964621236215066, 38.907743292280138 ], [ -119.964803211056548, 38.90780208036356 ], [ -119.96484391040056, 38.907929262687595 ], [ -119.964935281661084, 38.907949657773692 ], [ -119.96489460377127, 38.908363004497147 ], [ -119.964705723044247, 38.908466195363978 ], [ -119.964590549273879, 38.90846319830424 ], [ -119.964278037239964, 38.908220836557398 ], [ -119.964116794585266, 38.908216640073455 ], [ -119.964100665648672, 38.908054061779538 ], [ -119.963943260091042, 38.90795987686657 ], [ -119.964281089197684, 38.907608317124776 ], [ -119.964490701017041, 38.907559719250422 ] ] ] } }
]
}
