{
"type": "FeatureCollection",
"name": "X01546",
"crs": { "type": "name", "properties": { "name": "urn:ogc:def:crs:OGC:1.3:CRS84" } },
"features": [
{ "type": "Feature", "properties": { "part": "direct", "crossing_id": "X01546", "area_ac": 0.6 }, "geometry": { "type": "Polygon", "coordinates": [ [ [ -120.018512360692952, 38.833890499182097 ], [ -120.018809260150405, 38.833952137078327 ], [ -120.019009603922314, 38.834119415972083 ], [ -120.019092634437342, 38.834337752289379 ], [ -120.018863266027338, 38.834313875951231 ], [ -120.018745200038808, 38.834382932099665 ], [ -120.018728951780304, 38.834220355328057 ], [ -120.018406784571056, 38.834212125632533 ], [ -120.018363767154781, 38.834138954815231 ], [ -120.018132144700616, 38.834169073372379 ], [ -120.018115897861804, 38.83400649656722 ], [ -120.018512360692952, 38.833890499182097 ] ] ] } }
]
}
