{
"type": "FeatureCollection",
"name": "X01535",
"crs": { "type": "name", "properties": { "name": "urn:ogc:def:crs:OGC:1.3:CRS84" } },
"features": [
{ "type": "Feature", "properties": { "part": "direct", "crossing_id": "X01535", "area_ac": 29.5 }, "geometry": { "type": "Polygon", "coordinates": [ [ [ -120.010029751059676, 38.844466240166533 ], [ -120.01061608146658, 38.844769547211392 ], [ -120.010961309176864, 38.844778389735779 ], [ -120.011750607960778, 38.844636441373616 ], [ -120.012187142605981, 38.844665636088031 ], [ -120.012639159502186, 38.844875404737785 ], [ -120.013074942947355, 38.844922594845741 ], [ -120.013411887496801, 38.845129415324053 ], [ -120.014793562537434, 38.845146747855175 ], [ -120.015068994465892, 38.845171810816844 ], [ -120.01515804519498, 38.845246160161444 ], [ -120.015873781298481, 38.845210409953104 ], [ -120.015891842015009, 38.844778441286522 ], [ -120.016214808572215, 38.844768681089057 ], [ -120.016326122980928, 38.84486161670614 ], [ -120.016510245604479, 38.844866323854703 ], [ -120.016505731382381, 38.84497431608429 ], [ -120.016660820279569, 38.845122424274081 ], [ -120.016844943631526, 38.845127130921476 ], [ -120.016851408615892, 38.845523690839997 ], [ -120.016969495451278, 38.845454637523282 ], [ -120.017333983126576, 38.845554043205937 ], [ -120.017611674227268, 38.845525104100048 ], [ -120.017696215609305, 38.845707443954289 ], [ -120.017879588596784, 38.845730147753777 ], [ -120.017852812689625, 38.845819553256916 ], [ -120.01796638697283, 38.845858491267322 ], [ -120.017949842192536, 38.846254463222117 ], [ -120.018127200682102, 38.846421156496739 ], [ -120.018609030242374, 38.846469502574813 ], [ -120.018801136546159, 38.846834768977708 ], [ -120.018360072644597, 38.846913590776865 ], [ -120.017508480029548, 38.846891830313588 ], [ -120.016865536840868, 38.846839361406154 ], [ -120.016527821461239, 38.846650548944851 ], [ -120.016113535264694, 38.846639957109097 ], [ -120.015323468106956, 38.846799933106027 ], [ -120.014755275843925, 38.84716377666048 ], [ -120.014364003362928, 38.84715376725061 ], [ -120.012999616043075, 38.846722459360578 ], [ -120.0127679508049, 38.846752565503238 ], [ -120.012071790744599, 38.846320331669553 ], [ -120.011387349443453, 38.846158662646218 ], [ -120.011048145151065, 38.846005832225693 ], [ -120.011053421560618, 38.8458798419408 ], [ -120.010718742432786, 38.84561901897861 ], [ -120.010601758180314, 38.845111520762451 ], [ -120.010319146015149, 38.844707887054874 ], [ -120.010095780362107, 38.844540003491474 ], [ -120.009745275623388, 38.844657148618374 ], [ -120.009821861454014, 38.844478931754296 ], [ -120.010029751059676, 38.844466240166533 ] ] ] } }
]
}
