{
"type": "FeatureCollection",
"name": "X01528",
"crs": { "type": "name", "properties": { "name": "urn:ogc:def:crs:OGC:1.3:CRS84" } },
"features": [
{ "type": "Feature", "properties": { "part": "direct", "crossing_id": "X01528", "area_ac": 5.0, "n_upstream": null }, "geometry": { "type": "Polygon", "coordinates": [ [ [ -120.02451364073363, 38.848530100743226 ], [ -120.024573685534037, 38.848747847165839 ], [ -120.024497881137137, 38.848908076053469 ], [ -120.024607712085142, 38.849037002036532 ], [ -120.024769580409895, 38.849023110926126 ], [ -120.02486965710537, 38.849386021449661 ], [ -120.025662736750689, 38.849153985755706 ], [ -120.025812602970802, 38.849428074688113 ], [ -120.025390044362766, 38.849615502352798 ], [ -120.025649983643589, 38.849459966057999 ], [ -120.025632217984978, 38.849333387539026 ], [ -120.025496366900001, 38.849275871134729 ], [ -120.025074558795623, 38.849445298829131 ], [ -120.024753071477576, 38.849419085118626 ], [ -120.024119604323346, 38.849691220679418 ], [ -120.023403823975272, 38.849727019865185 ], [ -120.023400820923328, 38.849799015077188 ], [ -120.02321518280641, 38.849830315891616 ], [ -120.022688794132833, 38.849744815837546 ], [ -120.022601231790375, 38.849634474182189 ], [ -120.022878937557905, 38.849605523092727 ], [ -120.023106855002013, 38.849665391066402 ], [ -120.023272478879221, 38.84956150810163 ], [ -120.0231819125691, 38.84952316205591 ], [ -120.023207932760357, 38.849451753970762 ], [ -120.023023797193545, 38.849447056916539 ], [ -120.022844167034705, 38.849334366802552 ], [ -120.022830160858902, 38.849117794073756 ], [ -120.022558464654864, 38.849002754793005 ], [ -120.022523695502727, 38.848731598442569 ], [ -120.022595749364427, 38.848661364968173 ], [ -120.022662546649372, 38.848717123003425 ], [ -120.022759118833704, 38.84861147903969 ], [ -120.022918733819864, 38.848651586866403 ], [ -120.023221704667819, 38.848569225553135 ], [ -120.023588470015426, 38.848614616189906 ], [ -120.023813382507612, 38.84874647793648 ], [ -120.023976751433693, 38.848696590276937 ], [ -120.024087331671893, 38.848807517887785 ], [ -120.024413318779139, 38.848725740382527 ], [ -120.02451364073363, 38.848530100743226 ] ] ] } },
{ "type": "Feature", "properties": { "part": "upstream", "crossing_id": "X01528", "area_ac": 74.2, "n_upstream": 14.0 }, "geometry": { "type": "Polygon", "coordinates": [ [ [ -120.0196456800184, 38.847577057751714 ], [ -120.020145744688364, 38.848292527233646 ], [ -120.02005969116766, 38.848146186363984 ], [ -120.020200796054638, 38.848077717565239 ], [ -120.02060757789495, 38.848268282853226 ], [ -120.020632079903876, 38.848267782264855 ], [ -120.020749433937226, 38.848181814617185 ], [ -120.02071316911514, 38.847946655510398 ], [ -120.020947089923609, 38.847862537304138 ], [ -120.021221032853717, 38.847923583766537 ], [ -120.021212768916044, 38.848121570264929 ], [ -120.021458438110898, 38.848308020141204 ], [ -120.021804437463189, 38.848298832509968 ], [ -120.022208221051059, 38.848561387565461 ], [ -120.02194076711173, 38.848896903863242 ], [ -120.022182951295221, 38.848614796623821 ], [ -120.022525948370003, 38.84867760206685 ], [ -120.022558464654864, 38.849002754793005 ], [ -120.022830160858902, 38.849117794073756 ], [ -120.022844167034705, 38.849334366802552 ], [ -120.023023797193545, 38.849447056916539 ], [ -120.023207932760357, 38.849451753970762 ], [ -120.023270977297273, 38.849597505704509 ], [ -120.023106855002013, 38.849665391066402 ], [ -120.022878937557905, 38.849605523092727 ], [ -120.022692548835977, 38.849654821879795 ], [ -120.022589632838631, 38.849611246320151 ], [ -120.022688794132833, 38.849744815837546 ], [ -120.022987264739498, 38.849770448106788 ], [ -120.022985012133134, 38.849824444495049 ], [ -120.024306742833986, 38.849623920758383 ], [ -120.024753071477576, 38.849419085118626 ], [ -120.025074558795623, 38.849445298829131 ], [ -120.025565417722305, 38.849277631095845 ], [ -120.025649983643589, 38.849459966057999 ], [ -120.025391544877706, 38.849579504680626 ], [ -120.025364776521357, 38.84966891217136 ], [ -120.024475118737158, 38.850006591039197 ], [ -120.024322254572169, 38.849804495838264 ], [ -120.024516650108623, 38.850115757694269 ], [ -120.024263461060102, 38.850109301914607 ], [ -120.023416824406397, 38.850520141318924 ], [ -120.02325795579965, 38.850462035210946 ], [ -120.023228931912428, 38.85060543847483 ], [ -120.022010249086719, 38.851096866435078 ], [ -120.021866134881847, 38.851237332319442 ], [ -120.019938863345999, 38.852143083501979 ], [ -120.019824526345673, 38.852122145749007 ], [ -120.019724472663569, 38.851759231903706 ], [ -120.019587118738357, 38.851737706112289 ], [ -120.019648189139573, 38.851378907098741 ], [ -120.0189353990489, 38.851342683174082 ], [ -120.018793534413788, 38.85142914882821 ], [ -120.018658437476006, 38.85135362581461 ], [ -120.018428262848701, 38.851347745246173 ], [ -120.018356202163062, 38.851417975848697 ], [ -120.018244123195217, 38.851343040465373 ], [ -120.018035461820617, 38.851373744660847 ], [ -120.017947905066436, 38.851263399743097 ], [ -120.018018461655217, 38.851229166821597 ], [ -120.017953170294064, 38.851137408778563 ], [ -120.017998752390525, 38.85059803562126 ], [ -120.017874847206627, 38.850330813539706 ], [ -120.017502153470176, 38.850351111970646 ], [ -120.017180666219701, 38.850324877336277 ], [ -120.016938011788682, 38.850066423887064 ], [ -120.016731611131178, 38.850043129798379 ], [ -120.016613826005496, 38.849553634663771 ], [ -120.016613692324952, 38.848454537511152 ], [ -120.016570669143562, 38.848381365920574 ], [ -120.01633975202698, 38.848393480305425 ], [ -120.01657292648288, 38.84832736983445 ], [ -120.016574108896293, 38.848299086170023 ], [ -120.016107329731, 38.848441591605052 ], [ -120.015739818888818, 38.848414176342608 ], [ -120.015643236966753, 38.848519814096768 ], [ -120.015073094726631, 38.848379107175482 ], [ -120.014424869944307, 38.848452615014054 ], [ -120.013964541231573, 38.848440837473476 ], [ -120.013807191968496, 38.848346721657201 ], [ -120.013303091242733, 38.848279767689284 ], [ -120.013024634918452, 38.848326694667946 ], [ -120.012157892510331, 38.847565772506989 ], [ -120.01216392078851, 38.847421783502284 ], [ -120.011825462465936, 38.847250956445158 ], [ -120.011651885643573, 38.846994261014409 ], [ -120.011359462311859, 38.846824611428382 ], [ -120.011232673429305, 38.846551095665049 ], [ -120.011117594624778, 38.846548148425121 ], [ -120.011007038631917, 38.846437209413949 ], [ -120.011026637128921, 38.845969245534135 ], [ -120.011479412006423, 38.846161020214872 ], [ -120.011491177282934, 38.846203716600982 ], [ -120.012071790744599, 38.846320331669553 ], [ -120.0127679508049, 38.846752565503238 ], [ -120.012999616043075, 38.846722459360578 ], [ -120.014364003362928, 38.84715376725061 ], [ -120.014755275843925, 38.84716377666048 ], [ -120.015323468106956, 38.846799933106027 ], [ -120.016113535264694, 38.846639957109097 ], [ -120.016527821461239, 38.846650548944851 ], [ -120.016865536840868, 38.846839361406154 ], [ -120.017945032168797, 38.846921004102164 ], [ -120.018754352665837, 38.846851591806605 ], [ -120.018910202077535, 38.846981698571952 ], [ -120.019192408862821, 38.846844763455813 ], [ -120.019623415405434, 38.847558471209666 ], [ -120.019480807680253, 38.847662936824285 ], [ -120.0196456800184, 38.847577057751714 ] ], [ [ -120.020383145107672, 38.848676965596312 ], [ -120.020442565407464, 38.848633437838657 ], [ -120.020408416211382, 38.848623556982439 ], [ -120.020390660021008, 38.848496978023931 ], [ -120.020383145107672, 38.848676965596312 ] ], [ [ -120.020497476848377, 38.848697902601039 ], [ -120.020306580037612, 38.848855190148726 ], [ -120.020496725381591, 38.848715901359689 ], [ -120.020513626075839, 38.848697414008754 ], [ -120.020383145107672, 38.848676965596312 ], [ -120.020497476848377, 38.848697902601039 ] ], [ [ -120.019913499512427, 38.848696309217559 ], [ -120.019854658482657, 38.848892790346717 ], [ -120.019939816216763, 38.848809789225236 ], [ -120.01993493073779, 38.848926781093759 ], [ -120.019985849564478, 38.848810964715277 ], [ -120.019919806001539, 38.84873720647748 ], [ -120.019913499512427, 38.848696309217559 ] ], [ [ -120.019883543767534, 38.848502047228791 ], [ -120.01974532757184, 38.848363383056999 ], [ -120.01990368942964, 38.848632691257059 ], [ -120.019883543767534, 38.848502047228791 ] ], [ [ -120.019807261753044, 38.848121722447942 ], [ -120.019664653103149, 38.848226188244887 ], [ -120.019683092955503, 38.848257547063156 ], [ -120.019807261753044, 38.848121722447942 ] ], [ [ -120.021765640323565, 38.849341436480906 ], [ -120.021782385564535, 38.84937934666516 ], [ -120.02208385851489, 38.849332986052204 ], [ -120.021765640323565, 38.849341436480906 ] ], [ [ -120.02189371438125, 38.849472277473701 ], [ -120.02216874197876, 38.84950749763162 ], [ -120.022169917561058, 38.84947932562244 ], [ -120.02189371438125, 38.849472277473701 ] ], [ [ -120.020956783238674, 38.849286202501965 ], [ -120.021186200443537, 38.849310076595451 ], [ -120.020917843894182, 38.849237932560293 ], [ -120.020956783238674, 38.849286202501965 ] ], [ [ -120.019397829131776, 38.850201347103777 ], [ -120.019472142814607, 38.85007711954335 ], [ -120.019499428603126, 38.850078942542339 ], [ -120.019495159886716, 38.850077707398817 ], [ -120.01949703927464, 38.850032710553577 ], [ -120.019337080307523, 38.850207678365656 ], [ -120.019397829131776, 38.850201347103777 ] ], [ [ -120.019158450758383, 38.850119224520519 ], [ -120.01925897466343, 38.850215818512396 ], [ -120.01931493094726, 38.850209986770864 ], [ -120.019158450758383, 38.850119224520519 ] ], [ [ -120.018182051732182, 38.847392952764459 ], [ -120.018321265245433, 38.847290976027409 ], [ -120.01816247226337, 38.847377920847798 ], [ -120.018179408291147, 38.847377441274908 ], [ -120.018182051732182, 38.847392952764459 ] ], [ [ -120.017502668725086, 38.847430819560998 ], [ -120.01748591459183, 38.847431791740981 ], [ -120.017462877520103, 38.847431703487302 ], [ -120.017453872000516, 38.847647188072393 ], [ -120.017502668725086, 38.847430819560998 ] ], [ [ -120.017389336587456, 38.847537431111213 ], [ -120.017310746260208, 38.847527700542472 ], [ -120.017387079928881, 38.847591427244872 ], [ -120.017389336587456, 38.847537431111213 ] ], [ [ -120.017205959195778, 38.847514726369731 ], [ -120.01705113434079, 38.847543905524745 ], [ -120.017259112049075, 38.847521307483433 ], [ -120.017205959195778, 38.847514726369731 ] ], [ [ -120.01653941941079, 38.847640344520258 ], [ -120.016550407542752, 38.847763733768254 ], [ -120.01655569403755, 38.847637277404978 ], [ -120.01653941941079, 38.847640344520258 ] ], [ [ -120.01658176767026, 38.848115885157767 ], [ -120.016582870905623, 38.84808949517744 ], [ -120.016579460833796, 38.84808998114088 ], [ -120.01658176767026, 38.848115885157767 ] ], [ [ -120.016905689844819, 38.848083625270156 ], [ -120.017417315847837, 38.847970576644315 ], [ -120.016666894984766, 38.848077521017224 ], [ -120.016905689844819, 38.848083625270156 ] ], [ [ -120.017560024571353, 38.849517760153134 ], [ -120.017560225165624, 38.849512960497663 ], [ -120.017469963173383, 38.849467410656217 ], [ -120.017560024571353, 38.849517760153134 ] ], [ [ -120.0176956183751, 38.849581285136772 ], [ -120.01758279068217, 38.849524347947785 ], [ -120.017605055318839, 38.849542934877221 ], [ -120.01760291438805, 38.849594161970849 ], [ -120.017880505544085, 38.849567991890964 ], [ -120.0176956183751, 38.849581285136772 ] ], [ [ -120.018390536601189, 38.850281149369458 ], [ -120.018404333840863, 38.850266057936828 ], [ -120.018372096864525, 38.850249790357992 ], [ -120.018390536601189, 38.850281149369458 ] ], [ [ -120.018022544316196, 38.850322769014831 ], [ -120.018356043476075, 38.850318877942769 ], [ -120.018369777440412, 38.850303855741608 ], [ -120.018022544316196, 38.850322769014831 ] ], [ [ -120.017571282255147, 38.849524053835644 ], [ -120.017582539941031, 38.849530347517202 ], [ -120.017582790682098, 38.849524347947742 ], [ -120.01758279068207, 38.849524347947735 ], [ -120.017571282255147, 38.849524053835644 ] ], [ [ -120.0176373386916, 38.850025902397981 ], [ -120.017597345049353, 38.849727421637489 ], [ -120.017585497424406, 38.850010901279589 ], [ -120.0176373386916, 38.850025902397981 ] ], [ [ -120.01765003513934, 38.850120658192104 ], [ -120.017645223240606, 38.850084746178993 ], [ -120.017636084080848, 38.85014239912455 ], [ -120.01765003513934, 38.850120658192104 ] ], [ [ -120.01976703125105, 38.849185391651105 ], [ -120.01976216304827, 38.849201647275997 ], [ -120.019764594419925, 38.849205376175917 ], [ -120.01976703125105, 38.849185391651105 ] ], [ [ -120.01965053882067, 38.849187829186192 ], [ -120.019668592492607, 38.849235293568817 ], [ -120.01976216304827, 38.849201647275997 ], [ -120.01965053882067, 38.849187829186192 ] ], [ [ -120.01957276670683, 38.849322936008058 ], [ -120.019471407480637, 38.849221248676713 ], [ -120.019338857275258, 38.84927347036804 ], [ -120.019342598431905, 38.849317057498034 ], [ -120.019330110001704, 38.849360550570637 ], [ -120.019414655928784, 38.849246826142078 ], [ -120.01957276670683, 38.849322936008058 ] ], [ [ -120.019249285596274, 38.849642033773669 ], [ -120.019234743251417, 38.849692679415824 ], [ -120.019252334797031, 38.849733354831955 ], [ -120.019249285596274, 38.849642033773669 ] ], [ [ -120.019360816409289, 38.849984186518491 ], [ -120.019498274298712, 38.850003141197888 ], [ -120.019498918658371, 38.849987713707883 ], [ -120.019360816409289, 38.849984186518491 ] ], [ [ -120.019578780415074, 38.849178946072939 ], [ -120.019519312343391, 38.849202375220216 ], [ -120.019624626060747, 38.849184621400319 ], [ -120.019578780415074, 38.849178946072939 ] ], [ [ -120.019275340082302, 38.848720747630395 ], [ -120.019008914484672, 38.848479709203119 ], [ -120.019278303835122, 38.848757011473417 ], [ -120.019275340082302, 38.848720747630395 ] ], [ [ -120.012059734247401, 38.846608309704742 ], [ -120.011517486187515, 38.846299191889933 ], [ -120.011519413997632, 38.846306187923879 ], [ -120.012059734247401, 38.846608309704742 ] ], [ [ -120.014379163526698, 38.847892890046175 ], [ -120.013844650050842, 38.847781917376849 ], [ -120.013898834619738, 38.847808528928539 ], [ -120.014379163526698, 38.847892890046175 ] ], [ [ -120.015353743441082, 38.847555658653313 ], [ -120.014988126181933, 38.847656216796366 ], [ -120.015242809920906, 38.847626694988456 ], [ -120.015353743441082, 38.847555658653313 ] ], [ [ -120.015827246324349, 38.847425425849231 ], [ -120.016563010751028, 38.847462255586372 ], [ -120.016568206416991, 38.847465160400851 ], [ -120.016543194708916, 38.847428176519188 ], [ -120.015827246324349, 38.847425425849231 ] ], [ [ -120.016534727553264, 38.847587658067845 ], [ -120.016539003909131, 38.847635678713743 ], [ -120.016628297213259, 38.847554014254449 ], [ -120.016606597742381, 38.847521928143678 ], [ -120.016534727553264, 38.847587658067845 ] ] ] } }
]
}
