{
"type": "FeatureCollection",
"name": "X01553",
"crs": { "type": "name", "properties": { "name": "urn:ogc:def:crs:OGC:1.3:CRS84" } },
"features": [
{ "type": "Feature", "properties": { "part": "direct", "crossing_id": "X01553", "area_ac": 0.0, "n_upstream": null }, "geometry": { "type": "Polygon", "coordinates": [ [ [ -120.017702686841531, 38.830662614122637 ], [ -120.017699680088441, 38.830734609196256 ], [ -120.017606885163516, 38.830750256077266 ], [ -120.017609892011777, 38.830678261009908 ], [ -120.017702686841531, 38.830662614122637 ] ] ] } },
{ "type": "Feature", "properties": { "part": "upstream", "crossing_id": "X01553", "area_ac": 420.9, "n_upstream": 1.0 }, "geometry": { "type": "Polygon", "coordinates": [ [ [ -119.994337870174917, 38.819883148914961 ], [ -119.994743664069588, 38.820091794501685 ], [ -119.995746127994693, 38.820351833163734 ], [ -119.996391081044933, 38.820350413262126 ], [ -119.996478568579704, 38.820460772039745 ], [ -119.996427257088953, 38.82058557715483 ], [ -119.996535481827777, 38.820750523272437 ], [ -119.996581800993084, 38.821292252785895 ], [ -119.996891040030519, 38.821606514092181 ], [ -119.997029392456355, 38.822150611259588 ], [ -119.997184392713848, 38.82229874227508 ], [ -119.997196807592928, 38.822551312559177 ], [ -119.997286568724348, 38.822607675481791 ], [ -119.997277489347312, 38.822823656964459 ], [ -119.998366299732638, 38.823770575998417 ], [ -119.998489978181468, 38.824116096998281 ], [ -119.998624246234186, 38.824209639261326 ], [ -119.998635909790252, 38.824480208010399 ], [ -119.99945319514498, 38.825312027394041 ], [ -119.999447902161023, 38.825438016785469 ], [ -120.000471532715167, 38.826293151545642 ], [ -120.001319088146417, 38.826405019086344 ], [ -120.001942186984081, 38.826925527670028 ], [ -120.002022135379136, 38.827215868053308 ], [ -120.002510966325588, 38.827642835245129 ], [ -120.004281908381685, 38.828805413852031 ], [ -120.004537282191293, 38.828757914293647 ], [ -120.004694576885555, 38.828852040694187 ], [ -120.005272844290573, 38.828794807503918 ], [ -120.005569709211784, 38.828856477857258 ], [ -120.005969933466289, 38.828650529798487 ], [ -120.007233215452132, 38.828736982312364 ], [ -120.007754902859702, 38.828930537191724 ], [ -120.008305635388851, 38.82898069068758 ], [ -120.008940116779002, 38.829231185230476 ], [ -120.00972246180261, 38.829251231351279 ], [ -120.01096651807363, 38.82924706123265 ], [ -120.011826932871841, 38.82905287699792 ], [ -120.012031764938442, 38.829112174736167 ], [ -120.012678308497641, 38.829074670520946 ], [ -120.013274314721215, 38.829143977284588 ], [ -120.013462159904435, 38.829058694132584 ], [ -120.014129455286252, 38.829075766729112 ], [ -120.01420149597719, 38.829005537778443 ], [ -120.014522886038904, 38.829031776869918 ], [ -120.015032871944754, 38.828954730590262 ], [ -120.015456525623335, 38.829289887868647 ], [ -120.01566286611569, 38.829313181898108 ], [ -120.015719110433352, 38.829620925490744 ], [ -120.016108783280188, 38.829666924080861 ], [ -120.016295122762358, 38.829617633788274 ], [ -120.016357386019706, 38.829781387188063 ], [ -120.016492440972385, 38.829856911400107 ], [ -120.01663426363163, 38.82977044668511 ], [ -120.016980172625551, 38.829761269817268 ], [ -120.017105750368714, 38.829512227554126 ], [ -120.017425640831419, 38.82957445630776 ], [ -120.0175229444514, 38.829450816894649 ], [ -120.017731541258328, 38.829420110994427 ], [ -120.01762313057533, 38.830912832956777 ], [ -120.017418288155895, 38.830853544666525 ], [ -120.016817750884229, 38.830892250895126 ], [ -120.016823014279339, 38.830766259620304 ], [ -120.016457849637149, 38.830684853882033 ], [ -120.01641483615893, 38.830611682470582 ], [ -120.016229998221803, 38.830624975359015 ], [ -120.016097950515004, 38.830477455834618 ], [ -120.01568526262038, 38.830430868686129 ], [ -120.015573218172733, 38.830355931915321 ], [ -120.015013439489806, 38.830521796829146 ], [ -120.014093765442254, 38.830480254947069 ], [ -120.013721831755632, 38.830560829175326 ], [ -120.012569793400971, 38.830567383702721 ], [ -120.012180118720138, 38.830521373190251 ], [ -120.011889265317961, 38.830315729786939 ], [ -120.011386799771927, 38.830212775127187 ], [ -120.010852284559618, 38.830325212948992 ], [ -120.010092183884893, 38.830323762033565 ], [ -120.009783249522712, 38.830550081037771 ], [ -120.009113681485431, 38.830586978956688 ], [ -120.008480332020071, 38.830859034581891 ], [ -120.007949578936191, 38.830881465662081 ], [ -120.007714947250392, 38.830983558210008 ], [ -120.006415786979574, 38.831202495053567 ], [ -120.006155877631215, 38.831357989871442 ], [ -120.005971036893627, 38.831371266347283 ], [ -120.005803923943049, 38.831511122836297 ], [ -120.005619082777628, 38.831524398735674 ], [ -120.005146788834537, 38.831800567737723 ], [ -120.004986467585155, 38.831778435931348 ], [ -120.004742014202719, 38.832114503387665 ], [ -120.004554906265142, 38.832181773176295 ], [ -120.004524344792529, 38.832361168073611 ], [ -120.003995446176873, 38.83288813037619 ], [ -120.003987894156367, 38.833068115735479 ], [ -120.003723441145553, 38.833331595803941 ], [ -120.003693632207771, 38.833492991820918 ], [ -120.003479731539343, 38.833649661562994 ], [ -120.003495944866557, 38.833812239090484 ], [ -120.00320545387865, 38.834147121053931 ], [ -120.002618830416068, 38.834402325762909 ], [ -120.002366457757347, 38.834377826209639 ], [ -120.002006168159625, 38.834728930236118 ], [ -120.001776050589996, 38.834723018966258 ], [ -120.00166737515319, 38.835116621150128 ], [ -120.001410464983991, 38.835200110373471 ], [ -120.001168250419141, 38.835482173585241 ], [ -120.000672901159817, 38.835757731299047 ], [ -120.000597815909359, 38.835899944908135 ], [ -120.000219791250544, 38.83612446201986 ], [ -120.000058706062745, 38.836120321590947 ], [ -119.999501438751494, 38.836772658465428 ], [ -119.999180778729936, 38.83672837839935 ], [ -119.999024988204795, 38.836598247385744 ], [ -119.998909926716209, 38.836595288752164 ], [ -119.998649225036573, 38.8367687637244 ], [ -119.998442113946467, 38.836763437416735 ], [ -119.998205936478627, 38.836901506296257 ], [ -119.997861507709459, 38.836874629155211 ], [ -119.997767187633869, 38.836926256589962 ], [ -119.997457882575077, 38.836611995525807 ], [ -119.997568854515094, 38.836164403105037 ], [ -119.997506630410399, 38.836000641320837 ], [ -119.997305577493051, 38.83585132574369 ], [ -119.997384453806248, 38.83561912241904 ], [ -119.997209441986257, 38.835398405071636 ], [ -119.997214740797816, 38.835272416154133 ], [ -119.99702761807238, 38.835339673223729 ], [ -119.996759046754121, 38.835152583688476 ], [ -119.996785086840944, 38.835081182188041 ], [ -119.996480336595653, 38.834658928483854 ], [ -119.996046144905847, 38.834575682420393 ], [ -119.995874168838483, 38.834282969705818 ], [ -119.995280414976492, 38.834159577874793 ], [ -119.993830897882461, 38.833023160562071 ], [ -119.993234126934652, 38.832971752297162 ], [ -119.993078355530159, 38.832841614025398 ], [ -119.992553652000893, 38.832719987446708 ], [ -119.991618284699214, 38.831957148277382 ], [ -119.991560627298867, 38.831685393899761 ], [ -119.991227603042617, 38.831388523271798 ], [ -119.991061721286769, 38.830951817780175 ], [ -119.990730977859016, 38.830600950942198 ], [ -119.99039012292873, 38.829943518501494 ], [ -119.990210594694148, 38.829830781798108 ], [ -119.990306427249365, 38.829743163625217 ], [ -119.990341573954268, 38.829455783836188 ], [ -119.990579256981533, 38.829281733703823 ], [ -119.990468000699295, 38.829188775598041 ], [ -119.990550682574565, 38.828866585629704 ], [ -119.990305920567337, 38.828662077657974 ], [ -119.990334998314523, 38.828518684396904 ], [ -119.990223743490617, 38.828425726107717 ], [ -119.990278106295733, 38.828228931228075 ], [ -119.990148393927726, 38.828027389613098 ], [ -119.990312239330862, 38.827419006577237 ], [ -119.989999214040523, 38.827194719862909 ], [ -119.989721587837991, 38.827223595692459 ], [ -119.989611853090196, 38.827094640279796 ], [ -119.989104895568659, 38.827099581628126 ], [ -119.989017412326447, 38.826989217557966 ], [ -119.989024241598187, 38.826827232792311 ], [ -119.98926495344692, 38.826581191807122 ], [ -119.989249531979652, 38.826400615171572 ], [ -119.98948720686414, 38.826226566886575 ], [ -119.98943259556809, 38.825882818464571 ], [ -119.989585820163001, 38.825526412787802 ], [ -119.989731457289764, 38.825349990072098 ], [ -119.990175444829518, 38.825199278922014 ], [ -119.990067229097065, 38.825034327328474 ], [ -119.990016408010462, 38.824600587388751 ], [ -119.990216401275802, 38.82422736891138 ], [ -119.990251288541103, 38.823399445412313 ], [ -119.990509425541575, 38.822739439227604 ], [ -119.990523833506359, 38.82239747066388 ], [ -119.990372639151502, 38.822159339620605 ], [ -119.990663894081095, 38.821806491130353 ], [ -119.990745806130775, 38.821502298647687 ], [ -119.990933655168504, 38.821417051953759 ], [ -119.991034781947008, 38.821203444085924 ], [ -119.991249427459337, 38.821028798119485 ], [ -119.991527029021015, 38.820999917641544 ], [ -119.991671135589627, 38.820859488564174 ], [ -119.992009150412926, 38.820489823713459 ], [ -119.992067290186199, 38.820203035442276 ], [ -119.992321881439594, 38.820173560048936 ], [ -119.992616424484467, 38.820289256734199 ], [ -119.993098812226108, 38.820319702298598 ], [ -119.993287413049359, 38.820216453165543 ], [ -119.993495232720619, 38.820203788311296 ], [ -119.994015774764435, 38.819874854512406 ], [ -119.994337870174917, 38.819883148914961 ] ] ] } }
]
}
