{
"type": "FeatureCollection",
"name": "X01582",
"crs": { "type": "name", "properties": { "name": "urn:ogc:def:crs:OGC:1.3:CRS84" } },
"features": [
{ "type": "Feature", "properties": { "part": "direct", "crossing_id": "X01582", "area_ac": 2.7 }, "geometry": { "type": "MultiPolygon", "coordinates": [ [ [ [ -120.012423499657132, 38.802671793170084 ], [ -120.01342053322216, 38.803057664900592 ], [ -120.013594771952654, 38.803296356610822 ], [ -120.014351579313072, 38.803369768513484 ], [ -120.014709086328381, 38.803631163585749 ], [ -120.015095611075395, 38.803749155326464 ], [ -120.015294362406379, 38.803952435276081 ], [ -120.015131092608314, 38.804002314911848 ], [ -120.014720812629278, 38.803901733832035 ], [ -120.01418950874455, 38.803942200201568 ], [ -120.01380599245357, 38.803752210329854 ], [ -120.013621976143085, 38.803747503084836 ], [ -120.012215732381406, 38.802684493937782 ], [ -120.012423499657132, 38.802671793170084 ] ] ], [ [ [ -120.012034728532882, 38.80260778924896 ], [ -120.012056977814211, 38.802626376730842 ], [ -120.012033976171736, 38.802625788010999 ], [ -120.012034728532882, 38.80260778924896 ] ] ], [ [ [ -120.012148984390848, 38.802628731565008 ], [ -120.012217989330367, 38.802630497643165 ], [ -120.012216484698385, 38.802666495172957 ], [ -120.012148984390848, 38.802628731565008 ] ] ], [ [ [ -120.012058482524282, 38.802590379205995 ], [ -120.012149736723117, 38.802610732801085 ], [ -120.012057730169587, 38.802608377968426 ], [ -120.012058482524282, 38.802590379205995 ] ] ] ] } }
]
}
