{
"type": "FeatureCollection",
"name": "X01597",
"crs": { "type": "name", "properties": { "name": "urn:ogc:def:crs:OGC:1.3:CRS84" } },
"features": [
{ "type": "Feature", "properties": { "part": "direct", "crossing_id": "X01597", "area_ac": 7.0 }, "geometry": { "type": "Polygon", "coordinates": [ [ [ -120.125630134655026, 39.044074004441491 ], [ -120.125740434999358, 39.044202849824288 ], [ -120.125937677637296, 39.045036535543503 ], [ -120.125931107733152, 39.045198534189311 ], [ -120.125791152948068, 39.045231118284924 ], [ -120.124428558302014, 39.045215522604167 ], [ -120.123578161713709, 39.04510444706122 ], [ -120.122372762666302, 39.045200814151549 ], [ -120.121926466203021, 39.044811418586882 ], [ -120.12300213412226, 39.04449563934098 ], [ -120.12476587432414, 39.044304934947533 ], [ -120.125630134655026, 39.044074004441491 ] ] ] } }
]
}
