{
"type": "FeatureCollection",
"name": "X01566",
"crs": { "type": "name", "properties": { "name": "urn:ogc:def:crs:OGC:1.3:CRS84" } },
"features": [
{ "type": "Feature", "properties": { "part": "direct", "crossing_id": "X01566", "area_ac": 23.1, "n_upstream": null }, "geometry": { "type": "Polygon", "coordinates": [ [ [ -120.012197058620401, 38.859836967854477 ], [ -120.0123291484189, 38.859984492983145 ], [ -120.012563932103404, 38.860981487930857 ], [ -120.012810373386955, 38.86114995793492 ], [ -120.013021326347328, 38.861065268559329 ], [ -120.013156434632236, 38.861140798485856 ], [ -120.013341352302248, 38.861127513676955 ], [ -120.013310795668758, 38.861306910490754 ], [ -120.013627055304511, 38.861459147898181 ], [ -120.013655765196305, 38.861874294146872 ], [ -120.014069385410735, 38.861902896783619 ], [ -120.014361121792334, 38.862090540507893 ], [ -120.014479239355126, 38.862021491061135 ], [ -120.01443738466115, 38.862470867506303 ], [ -120.014750638747842, 38.862695096615859 ], [ -120.015047652678717, 38.862756748432609 ], [ -120.015108430640467, 38.862956499975539 ], [ -120.015220523589974, 38.863031438834014 ], [ -120.015168455711091, 38.863174250120977 ], [ -120.015232247043116, 38.863302007107535 ], [ -120.015161676901059, 38.863336237757551 ], [ -120.015257200404605, 38.863807146376963 ], [ -120.015349286047865, 38.863809501788865 ], [ -120.015267417539349, 38.864113711876939 ], [ -120.015451589629308, 38.864118422643145 ], [ -120.015471598553077, 38.864191005982825 ], [ -120.016024115653209, 38.864205136469181 ], [ -120.016257343029309, 38.864139028836199 ], [ -120.016203770311577, 38.864317837892962 ], [ -120.015969789268155, 38.864401944027975 ], [ -120.015937731185971, 38.864617338918748 ], [ -120.015799601087863, 38.86461380640835 ], [ -120.015768295448893, 38.864811202590133 ], [ -120.015512796839147, 38.864858721683575 ], [ -120.015457715266948, 38.865073527535259 ], [ -120.015295056094203, 38.865105402800104 ], [ -120.015262995531103, 38.865320797389941 ], [ -120.01533206122734, 38.865322564009688 ], [ -120.015349057435799, 38.86546714185593 ], [ -120.012652478707338, 38.865470207962417 ], [ -120.012604173206398, 38.865523024892283 ], [ -120.012145997267041, 38.86545724014259 ], [ -120.012322177841085, 38.864002303030276 ], [ -120.012376513813109, 38.86380549754486 ], [ -120.012568977180209, 38.863612228434761 ], [ -120.012366309088137, 38.863498932270119 ], [ -120.012180631194553, 38.863530213854361 ], [ -120.012162887689868, 38.86340363435329 ], [ -120.012313831654211, 38.863101195223983 ], [ -120.012451958386194, 38.863104731742062 ], [ -120.012454220026427, 38.863050735995209 ], [ -120.013073528980286, 38.863120644055186 ], [ -120.013123339823764, 38.863031829647312 ], [ -120.01300974173536, 38.862992886043266 ], [ -120.013062157857831, 38.862291530193332 ], [ -120.012995700745535, 38.861677220846452 ], [ -120.012816057865436, 38.86156451489849 ], [ -120.012698693365266, 38.861615564040569 ], [ -120.012517543489921, 38.861538854835032 ], [ -120.012399424985034, 38.861607902256026 ], [ -120.012197058620401, 38.859836967854477 ] ], [ [ -120.014360119365591, 38.863766178700786 ], [ -120.014037820147777, 38.863757931720023 ], [ -120.013638167379213, 38.863945900929345 ], [ -120.013563074124079, 38.864088122141581 ], [ -120.013580479167075, 38.864773247212504 ], [ -120.014248108338563, 38.864790332245711 ], [ -120.014390759203465, 38.864685874950716 ], [ -120.0143865733327, 38.864235320663802 ], [ -120.014495234104572, 38.86384170730377 ], [ -120.014360119365591, 38.863766178700786 ] ] ] } },
{ "type": "Feature", "properties": { "part": "upstream", "crossing_id": "X01566", "area_ac": 745.4, "n_upstream": 111.0 }, "geometry": { "type": "MultiPolygon", "coordinates": [ [ [ [ -120.014027843583776, 38.851883879588179 ], [ -120.014004826044314, 38.851883290632486 ], [ -120.014005579232034, 38.85186529199008 ], [ -120.014027843583776, 38.851883879588179 ] ] ], [ [ [ -120.018572765153692, 38.858974060037802 ], [ -120.018728610734811, 38.859049071871539 ], [ -120.018810160133185, 38.859303406088799 ], [ -120.018987551213925, 38.859470099091105 ], [ -120.018830859769594, 38.859530385412469 ], [ -120.018848500332354, 38.859557762500643 ], [ -120.019105660091157, 38.859401044583258 ], [ -120.019510997402264, 38.859627613219793 ], [ -120.019367612191488, 38.859750076257903 ], [ -120.0194314085293, 38.859877831187887 ], [ -120.019291783020364, 38.859910300577589 ], [ -120.019123120225103, 38.860086171357558 ], [ -120.019018252567079, 38.860389796991335 ], [ -120.018877873694763, 38.86044026453289 ], [ -120.0188741127387, 38.860530258011529 ], [ -120.018572590414479, 38.86057660830069 ], [ -120.018732981262502, 38.860598724056636 ], [ -120.018584326811066, 38.860847176821302 ], [ -120.018716432032932, 38.860994695287104 ], [ -120.018384363749746, 38.861220443734354 ], [ -120.018353067321058, 38.861417841050347 ], [ -120.018167396920518, 38.861449132495025 ], [ -120.018231192389223, 38.861576888024615 ], [ -120.017994212899993, 38.861732993421327 ], [ -120.017787778243175, 38.861709699897006 ], [ -120.0179006247714, 38.861766637551568 ], [ -120.01763535528687, 38.862048144548119 ], [ -120.017494972200936, 38.86209861024502 ], [ -120.017453445944597, 38.861989441431973 ], [ -120.017339094224667, 38.861968500678735 ], [ -120.01726551581973, 38.862074727360763 ], [ -120.017176442899867, 38.862000378895289 ], [ -120.017033048827258, 38.862122838673272 ], [ -120.016848128873391, 38.862136129260172 ], [ -120.016845117881033, 38.862208123889125 ], [ -120.016683971407303, 38.862204004076453 ], [ -120.016744000858225, 38.862421753599904 ], [ -120.016483241488658, 38.862595265762984 ], [ -120.016597593896705, 38.86261620738334 ], [ -120.01670441839984, 38.862817135426646 ], [ -120.016628579646209, 38.862977357576831 ], [ -120.016644072594687, 38.86315793266786 ], [ -120.016735404714183, 38.863178285605755 ], [ -120.016701844085858, 38.863429678161154 ], [ -120.016607500291386, 38.863481319783006 ], [ -120.016707550537276, 38.86384423569455 ], [ -120.016472065834108, 38.86396434022236 ], [ -120.016468301372484, 38.864054333449296 ], [ -120.016116954860806, 38.864189492657509 ], [ -120.015471598553077, 38.864191005982825 ], [ -120.015451589629308, 38.864118422643145 ], [ -120.015267417539349, 38.864113711876939 ], [ -120.015347026536148, 38.863863497671346 ], [ -120.015347214120752, 38.863809448792885 ], [ -120.015257200404605, 38.863807146376963 ], [ -120.015161676901059, 38.863336237757551 ], [ -120.015232247043116, 38.863302007107535 ], [ -120.015168455711091, 38.863174250120977 ], [ -120.015220523589974, 38.863031438834014 ], [ -120.015108430640467, 38.862956499975539 ], [ -120.015047652678717, 38.862756748432609 ], [ -120.014750638747842, 38.862695096615859 ], [ -120.01443738466115, 38.862470867506303 ], [ -120.014482252713236, 38.861949496585275 ], [ -120.014482252713265, 38.861949496585218 ], [ -120.014384142629751, 38.862091129522561 ], [ -120.014068631969394, 38.86192089539604 ], [ -120.014175161378702, 38.861892733484119 ], [ -120.013700299635516, 38.86191146965713 ], [ -120.013594238526821, 38.861692540617064 ], [ -120.013627055304511, 38.861459147898181 ], [ -120.013310795668758, 38.861306910490754 ], [ -120.0133636192095, 38.861146101483662 ], [ -120.013021326347328, 38.861065268559329 ], [ -120.012810373386955, 38.86114995793492 ], [ -120.012563932103404, 38.860981487930857 ], [ -120.012500901264744, 38.860835731121341 ], [ -120.012511454507091, 38.860583750854786 ], [ -120.0123291484189, 38.859984492983145 ], [ -120.012154033962602, 38.85976379466571 ], [ -120.012144484934637, 38.859991776769824 ], [ -120.012191027738965, 38.859980956556946 ], [ -120.012229529416231, 38.860162121263301 ], [ -120.012361676187368, 38.861408739010841 ], [ -120.012449349834455, 38.861589721153308 ], [ -120.012563584732206, 38.861540033572638 ], [ -120.012698693365266, 38.861615564040569 ], [ -120.012816057865436, 38.86156451489849 ], [ -120.013037973618466, 38.861768392379616 ], [ -120.01300974173536, 38.862992886043266 ], [ -120.013123339823764, 38.863031829647312 ], [ -120.013073528980286, 38.863120644055186 ], [ -120.012546304458397, 38.863053093578799 ], [ -120.012313831654211, 38.863101195223983 ], [ -120.01247382065425, 38.862582772830216 ], [ -120.012460320402923, 38.862097706901174 ], [ -120.012453815162345, 38.862510189097115 ], [ -120.012395255970318, 38.862542240352603 ], [ -120.012449291962412, 38.862618180600151 ], [ -120.012398645836498, 38.862616883908203 ], [ -120.01242476324542, 38.862653588363827 ], [ -120.012287040918139, 38.863190598685314 ], [ -120.011551872738679, 38.863135737161507 ], [ -120.011394495687952, 38.86304161713911 ], [ -120.0115744957006, 38.862595780112194 ], [ -120.011587315109665, 38.862289804423774 ], [ -120.011299356417041, 38.862012161188979 ], [ -120.011047636646168, 38.86196967797602 ], [ -120.010863470839894, 38.861964960482965 ], [ -120.01079139159522, 38.862035185581611 ], [ -120.010751311962125, 38.862001726674919 ], [ -120.010777814608616, 38.862359159617924 ], [ -120.010647299675099, 38.862470604194911 ], [ -120.010628374687087, 38.862625599489469 ], [ -120.010712915335475, 38.862807944039531 ], [ -120.010608761932531, 38.8630935618622 ], [ -120.010322701550052, 38.863320465415264 ], [ -120.009457335915059, 38.863622612234209 ], [ -120.009265619115482, 38.863797877345711 ], [ -120.009065599007414, 38.864171125859521 ], [ -120.00861573945302, 38.863907343985581 ], [ -120.008337219054937, 38.863954257126323 ], [ -120.008206640925579, 38.863770730577635 ], [ -120.008017185825466, 38.863891997971358 ], [ -120.008005297671531, 38.863900702078993 ], [ -120.008016430804787, 38.863909996478164 ], [ -120.007993409514725, 38.863909406185307 ], [ -120.007993409514754, 38.863909406185286 ], [ -120.007981521355021, 38.863918110290243 ], [ -120.00799265448758, 38.863927404691623 ], [ -120.007969633192431, 38.863926814393864 ], [ -120.007969633192431, 38.863926814393842 ], [ -120.007957745026928, 38.863935518496135 ], [ -120.007968878158835, 38.863944812899774 ], [ -120.007945856858569, 38.863944222597105 ], [ -120.007945856858569, 38.863944222597056 ], [ -120.007933968687254, 38.86395292669669 ], [ -120.007945101818464, 38.86396222110254 ], [ -120.007922080513083, 38.863961630794968 ], [ -120.007922080513083, 38.86396163079494 ], [ -120.007910192335999, 38.863970334891881 ], [ -120.007921325466555, 38.863979629299941 ], [ -120.007898304156058, 38.863979038987466 ], [ -120.007898304156058, 38.863979038987459 ], [ -120.007565433941991, 38.864222753120664 ], [ -120.007145762432032, 38.864338114923896 ], [ -120.006992165469967, 38.864153996651552 ], [ -120.007021229036539, 38.864010599226667 ], [ -120.006815547999238, 38.863969287677435 ], [ -120.006836303321947, 38.864023873664415 ], [ -120.006695154089755, 38.864092324373246 ], [ -120.006397867569589, 38.864000614517785 ], [ -120.006420409137789, 38.864049240447009 ], [ -120.006299258967388, 38.864190275178657 ], [ -120.006110555173123, 38.864293540819006 ], [ -120.005817322044464, 38.864141873955177 ], [ -120.005822212667468, 38.864130498687999 ], [ -120.005632395886977, 38.864155146460973 ], [ -120.00532253887269, 38.86439944460993 ], [ -120.00434471497411, 38.864086059703276 ], [ -120.003840098147094, 38.864577603588174 ], [ -120.003500070192814, 38.864442747231145 ], [ -120.003357404737926, 38.864547190593491 ], [ -120.003127947065082, 38.864523279772357 ], [ -120.003099631732823, 38.864648677474079 ], [ -120.002797327836348, 38.864712984266205 ], [ -120.002765821141494, 38.864640103595363 ], [ -120.002795815117949, 38.864748981102643 ], [ -120.00262861375316, 38.864888829001444 ], [ -120.002763291017999, 38.865522913020165 ], [ -120.002618352990567, 38.865681350573219 ], [ -120.002636836182717, 38.865789932423198 ], [ -120.002498705495171, 38.865786384092509 ], [ -120.002469631946127, 38.865929779963373 ], [ -120.002166565525471, 38.866012083276047 ], [ -120.002158999965559, 38.866192067311374 ], [ -120.001924241254628, 38.866294142738532 ], [ -120.001944236718302, 38.866366727854995 ], [ -120.001757034438739, 38.866433989144099 ], [ -120.001624199513572, 38.86630445096722 ], [ -120.001553620302431, 38.866338672989464 ], [ -120.001372471868507, 38.866261946522208 ], [ -120.001183755771933, 38.866365203657175 ], [ -120.001249037618123, 38.866456970580245 ], [ -120.001127873159987, 38.866597999320753 ], [ -120.001009735665647, 38.8666670343829 ], [ -120.000826316340536, 38.866644302204165 ], [ -120.000817990315966, 38.866842284378031 ], [ -120.000723631166494, 38.866893912487065 ], [ -120.000722117284681, 38.866929909241584 ], [ -120.000484326184406, 38.867103975078201 ], [ -120.0005711159383, 38.867232330923599 ], [ -120.000364673161172, 38.867209006166192 ], [ -120.000569601961303, 38.867268327671056 ], [ -120.00015520217427, 38.867257674516438 ], [ -120.000010254780193, 38.867416108417125 ], [ -119.999849856204847, 38.867393966551788 ], [ -119.999800025785916, 38.867482774455759 ], [ -119.999913622819903, 38.867521730901238 ], [ -119.999586010191223, 38.867639431881315 ], [ -119.999416523793869, 38.867833269657766 ], [ -119.999207807756193, 38.867863937852398 ], [ -119.999061342231244, 38.868058367121456 ], [ -119.998897912874568, 38.868108217281559 ], [ -119.998962435725574, 38.868217983751649 ], [ -119.998776740902315, 38.868249243248542 ], [ -119.998725393541775, 38.868374047285663 ], [ -119.998538183163063, 38.868441303057153 ], [ -119.998532880414857, 38.868567291410997 ], [ -119.998340366230408, 38.868760535171589 ], [ -119.998226768225024, 38.868721577156236 ], [ -119.998223737742876, 38.868793570477642 ], [ -119.998109382107302, 38.868772610677759 ], [ -119.998035768143779, 38.868878823703916 ], [ -119.997538362833026, 38.868649811715535 ], [ -119.998438682941924, 38.867519834542335 ], [ -119.997124999690612, 38.869161691030129 ], [ -119.99711658661856, 38.869156924560848 ], [ -119.996585903070709, 38.869922581789048 ], [ -119.995747701884753, 38.8695766825861 ], [ -119.996100628160818, 38.869031199726209 ], [ -119.995578200458468, 38.869770514130266 ], [ -119.995033235128659, 38.869576302471216 ], [ -119.995036268913594, 38.869504309370335 ], [ -119.995994881083263, 38.86801431663271 ], [ -119.99572612854692, 38.867900470590541 ], [ -119.995517411151198, 38.86793113210782 ], [ -119.995358529864561, 38.867872987501464 ], [ -119.995534851434982, 38.86751717146187 ], [ -119.995485499989968, 38.867047437524477 ], [ -119.995137622884101, 38.866551998434694 ], [ -119.994999491672118, 38.866548441176342 ], [ -119.995004041905119, 38.866440451471846 ], [ -119.994844405918428, 38.866400304583451 ], [ -119.994850473171098, 38.866256318327089 ], [ -119.994698422086771, 38.86603618844574 ], [ -119.99477355450442, 38.865893980998642 ], [ -119.994542579558853, 38.86590604978862 ], [ -119.994317672787687, 38.865774131920126 ], [ -119.99423241329059, 38.86560977536169 ], [ -119.994305270552445, 38.865521563051992 ], [ -119.994101111181806, 38.865444232655619 ], [ -119.993927559845076, 38.865187512308282 ], [ -119.993744905932942, 38.865146770956983 ], [ -119.993636627107662, 38.86498182091033 ], [ -119.993275873520147, 38.864792347507169 ], [ -119.993236659922005, 38.864629176740273 ], [ -119.993382374482692, 38.864452753304143 ], [ -119.993799031270839, 38.864409435035462 ], [ -119.993824328259194, 38.864356033319176 ], [ -119.994100581924741, 38.86436315011737 ], [ -119.994523305378067, 38.864175842979016 ], [ -119.99468369464455, 38.864197991829379 ], [ -119.995099591159985, 38.864172667111134 ], [ -119.995102624293381, 38.864100673939106 ], [ -119.995216971445501, 38.864121636369894 ], [ -119.995244542009914, 38.864014239410508 ], [ -119.995429468665122, 38.864000983441962 ], [ -119.995716335081738, 38.86375612013498 ], [ -119.995816479583084, 38.863019967671917 ], [ -119.995714263493142, 38.862711032976961 ], [ -119.99583694730164, 38.862534013323703 ], [ -119.995547535321649, 38.862292330208511 ], [ -119.995554358382549, 38.862130345451064 ], [ -119.995944948174966, 38.862158419423409 ], [ -119.995974872280144, 38.863636651543985 ], [ -119.996294133742083, 38.86371694160556 ], [ -119.995998651272131, 38.863619245892934 ], [ -119.995967210634547, 38.862177010382247 ], [ -119.995968016021905, 38.862157887174277 ], [ -119.995623419746394, 38.862132123603693 ], [ -119.995834394092995, 38.862047466259988 ], [ -119.995968618369957, 38.86214358494302 ], [ -119.995971758694381, 38.862069020500812 ], [ -119.996890303610186, 38.862146717514946 ], [ -119.997023122322247, 38.86227626051604 ], [ -119.996977266955227, 38.8622827173281 ], [ -119.996995481883388, 38.863032298055899 ], [ -119.997233014460448, 38.863038410839863 ], [ -119.997015074833897, 38.863014784459608 ], [ -119.997025395564677, 38.862222265524167 ], [ -119.996935586818552, 38.862165900757773 ], [ -119.997325419979134, 38.862211968468095 ], [ -119.997343894496083, 38.862320550857348 ], [ -119.997548049025951, 38.86239787539602 ], [ -119.997624686761938, 38.86221966897719 ], [ -119.998687042137092, 38.862019085823839 ], [ -119.998651979918691, 38.861903757757943 ], [ -119.999143738661672, 38.861718209052462 ], [ -119.999524935800807, 38.861421708302615 ], [ -119.999577033063545, 38.861278905155046 ], [ -119.999835555090783, 38.861159427346827 ], [ -120.000317779765822, 38.861748395753999 ], [ -119.999859332325286, 38.861142020831892 ], [ -120.000043494153928, 38.86114675559292 ], [ -120.00004652197471, 38.861074762056923 ], [ -120.000185400154507, 38.861060314541916 ], [ -120.000400150669364, 38.860885656637713 ], [ -120.00049071761903, 38.860924020399061 ], [ -120.000818297330895, 38.860806315477326 ], [ -120.00089492506055, 38.860628106475083 ], [ -120.001102862501696, 38.860615432762025 ], [ -120.001145876007953, 38.860688609590319 ], [ -120.001307016772358, 38.860692750706676 ], [ -120.00173607729927, 38.860901972302955 ], [ -120.001965522748137, 38.860925885395645 ], [ -120.001964970232422, 38.860932177448269 ], [ -120.002133471971646, 38.860768039629399 ], [ -120.002501794510636, 38.860777501613775 ], [ -120.002550860095951, 38.86070669057446 ], [ -120.002945983675318, 38.86062675031669 ], [ -120.00334791140358, 38.860384822720178 ], [ -120.003488299949453, 38.860334374305545 ], [ -120.003479983180014, 38.860532357176545 ], [ -120.003512832111355, 38.860298968553721 ], [ -120.003843428331251, 38.860109261020831 ], [ -120.003957016339598, 38.860148213191628 ], [ -120.004196286865792, 38.859938141926769 ], [ -120.004453285186457, 38.859854650275253 ], [ -120.00542541085791, 38.85975347648354 ], [ -120.005616369660331, 38.859596216004881 ], [ -120.005621658212945, 38.859470226639424 ], [ -120.005765815568168, 38.85939517631558 ], [ -120.005740534635862, 38.859383187698782 ], [ -120.005767331745872, 38.859293785959316 ], [ -120.006216037434299, 38.8590350305982 ], [ -120.006474415016882, 38.85876788315602 ], [ -120.006433788601981, 38.858788366722898 ], [ -120.006249271898923, 38.858243096877821 ], [ -120.005939841617149, 38.85792885415853 ], [ -120.005933440698357, 38.857532296721828 ], [ -120.00626854931609, 38.857234590495167 ], [ -120.006275346825461, 38.857072604005232 ], [ -120.006140253779122, 38.856997066653491 ], [ -120.006235351005671, 38.856927434912571 ], [ -120.006216108434714, 38.856836851863434 ], [ -120.006147806823336, 38.856817081678166 ], [ -120.006290429158753, 38.856678131100082 ], [ -120.00620517401903, 38.856548285319832 ], [ -120.006085547772258, 38.856653323477666 ], [ -120.005971208571509, 38.856632372030113 ], [ -120.005796877358492, 38.856393666665902 ], [ -120.005501410010552, 38.856295995615 ], [ -120.005407823938356, 38.85632962979458 ], [ -120.005318770763054, 38.856255272980889 ], [ -120.005244425867275, 38.856379490177126 ], [ -120.005083294255627, 38.856375354876498 ], [ -120.004791956039753, 38.856728234803207 ], [ -120.004385173236415, 38.856537614346266 ], [ -120.003993097270367, 38.856545566638623 ], [ -120.003891201378934, 38.856460484100538 ], [ -120.003611945160188, 38.856842083979302 ], [ -120.003453080686683, 38.856783951025015 ], [ -120.003014209592266, 38.856808716208597 ], [ -120.002719500992484, 38.856693039753765 ], [ -120.002680268823255, 38.856529871286995 ], [ -120.002776124734865, 38.856442244028827 ], [ -120.0030531061213, 38.856431339998259 ], [ -120.003033867720944, 38.856340756582789 ], [ -120.003196511015958, 38.856308897806208 ], [ -120.003379904957157, 38.856331625267757 ], [ -120.003362934117817, 38.856187046527999 ], [ -120.00350558203958, 38.856082602366499 ], [ -120.003397292447659, 38.855917660813219 ], [ -120.003585976929656, 38.855814398713377 ], [ -120.003662591683437, 38.855636187273845 ], [ -120.003988630249509, 38.85555446911151 ], [ -120.00397014662822, 38.855445887334703 ], [ -120.00401618358201, 38.855447069286953 ], [ -120.004067511050778, 38.855322261945297 ], [ -120.004183359007214, 38.855307218218037 ], [ -120.004143368251405, 38.855162048577739 ], [ -120.004282234320499, 38.855147595681473 ], [ -120.004367886499139, 38.854725002212582 ], [ -120.003641913139646, 38.854482512579189 ], [ -120.003650227665759, 38.854284529473389 ], [ -120.003494392319325, 38.854154402924848 ], [ -120.003455159380152, 38.853991234642464 ], [ -120.003275551116658, 38.853878515231756 ], [ -120.003375938055655, 38.853682896509525 ], [ -120.003491783427265, 38.853667853365963 ], [ -120.003589146025462, 38.853544228280064 ], [ -120.00348010382929, 38.853397285351924 ], [ -120.003602751355118, 38.853220255884359 ], [ -120.003708427059152, 38.852898647502357 ], [ -120.003669949945674, 38.85271748079996 ], [ -120.003751400906793, 38.852688207674206 ], [ -120.003740514314231, 38.852683256853297 ], [ -120.004035618296768, 38.852240386508313 ], [ -120.003920490153831, 38.852111767614545 ], [ -120.003587362669037, 38.851940591538799 ], [ -120.003175318442274, 38.851875957204889 ], [ -120.002950437195338, 38.851744056834825 ], [ -120.002844422836162, 38.851525119592978 ], [ -120.002864834346042, 38.851039161154354 ], [ -120.002730512191235, 38.850945621920332 ], [ -120.002757158822178, 38.850841755205906 ], [ -120.002735804203013, 38.850819632700926 ], [ -120.002667928744444, 38.850241317292642 ], [ -120.002413653289707, 38.849712267651746 ], [ -120.002374089643851, 38.849008554107982 ], [ -120.002197519567574, 38.84882383968494 ], [ -120.002060267752398, 38.847703205268637 ], [ -120.001926708829686, 38.84759166689588 ], [ -120.001914278568904, 38.847339097213847 ], [ -120.00180298017456, 38.847246148465203 ], [ -120.001751324208129, 38.846830410058843 ], [ -120.002098492988992, 38.846244738665625 ], [ -120.002083793942461, 38.846046164329358 ], [ -120.002196428889064, 38.846005681313528 ], [ -120.002178123609056, 38.84599453382765 ], [ -120.002207187011948, 38.845851137307029 ], [ -120.002473206666082, 38.845551666285097 ], [ -120.002490174559696, 38.845696245210291 ], [ -120.002507249531362, 38.845716953903768 ], [ -120.002496977839897, 38.845534258960228 ], [ -120.002618101186414, 38.845393226831192 ], [ -120.002454389377377, 38.844902538964128 ], [ -120.00295357693021, 38.844536983887942 ], [ -120.003074354778292, 38.843855405555402 ], [ -120.00338412527455, 38.843611109405174 ], [ -120.003508265837695, 38.843398082132786 ], [ -120.004361741570023, 38.84416768930474 ], [ -120.003931944043757, 38.843733281811929 ], [ -120.003441488951083, 38.843342313872263 ], [ -120.00333246130468, 38.843195371214307 ], [ -120.00340720385951, 38.84251261027476 ], [ -120.003230645997689, 38.842327897769813 ], [ -120.003484211266638, 38.841775853660607 ], [ -120.003696626431392, 38.841655182073644 ], [ -120.003614392205961, 38.841418838058168 ], [ -120.003896603259832, 38.841281940135303 ], [ -120.00413807320308, 38.841017870365917 ], [ -120.004463288096943, 38.840954146546672 ], [ -120.00465268540141, 38.840832882340713 ], [ -120.004680230619911, 38.840725481860055 ], [ -120.004886599193014, 38.84074879608734 ], [ -120.005052981530113, 38.840626940563247 ], [ -120.005608694711668, 38.841109665623009 ], [ -120.005912770672381, 38.841549896846146 ], [ -120.008021400710319, 38.843459819518479 ], [ -120.008194956336794, 38.843716519630028 ], [ -120.009148002399016, 38.84406527017638 ], [ -120.009291760954056, 38.844483366311806 ], [ -120.009542664263762, 38.844543849534851 ], [ -120.009559646447997, 38.844688428010741 ], [ -120.010049750181992, 38.844538824212052 ], [ -120.010319146015149, 38.844707887054874 ], [ -120.010601758180314, 38.845111520762451 ], [ -120.010740250199319, 38.845655605718406 ], [ -120.011053421560618, 38.8458798419408 ], [ -120.010980605988692, 38.845968066585293 ], [ -120.011046637599421, 38.846041829449291 ], [ -120.011007038631917, 38.846437209413949 ], [ -120.011117594624778, 38.846548148425121 ], [ -120.011232673429305, 38.846551095665049 ], [ -120.011359462311859, 38.846824611428382 ], [ -120.011651885643573, 38.846994261014409 ], [ -120.011825462465936, 38.847250956445158 ], [ -120.01216392078851, 38.847421783502284 ], [ -120.012193512639556, 38.84759551313013 ], [ -120.012202417676491, 38.847602948284397 ], [ -120.013024634918452, 38.848326694667946 ], [ -120.013159719940191, 38.848402223780184 ], [ -120.01370985421427, 38.848470356350354 ], [ -120.01313745685394, 38.848383636058664 ], [ -120.013164993076245, 38.848276233304155 ], [ -120.013807191968496, 38.848346721657201 ], [ -120.013964541231573, 38.848440837473476 ], [ -120.015073094726631, 38.848379107175482 ], [ -120.015597203988932, 38.848518636902668 ], [ -120.015739818888818, 38.848414176342608 ], [ -120.015922445346916, 38.848454882143926 ], [ -120.016295224134979, 38.848356306007524 ], [ -120.016385032460605, 38.848412655895913 ], [ -120.016570669143562, 38.848381365920574 ], [ -120.016647820303461, 38.849842790564608 ], [ -120.016776892698971, 38.850062305277483 ], [ -120.016775124942811, 38.850070142931571 ], [ -120.016870465579771, 38.850028661405773 ], [ -120.017183675597906, 38.85025288253857 ], [ -120.017180666219701, 38.850324877336277 ], [ -120.017825897566496, 38.850323349598654 ], [ -120.017938726691895, 38.850380286603176 ], [ -120.017953170294064, 38.851137408778563 ], [ -120.018020718129279, 38.851175170690574 ], [ -120.017947905066436, 38.851263399743097 ], [ -120.018035461820617, 38.851373744660847 ], [ -120.018244123195217, 38.851343040465373 ], [ -120.018356202163062, 38.851417975848697 ], [ -120.018428262848701, 38.851347745246173 ], [ -120.018658437476006, 38.85135362581461 ], [ -120.018793534413788, 38.85142914882821 ], [ -120.0189353990489, 38.851342683174082 ], [ -120.019648189139573, 38.851378907098741 ], [ -120.019587118738357, 38.851737706112289 ], [ -120.019724472663569, 38.851759231903706 ], [ -120.019892076141105, 38.852159906647344 ], [ -120.015040965334933, 38.854430981367358 ], [ -120.016177003017575, 38.853938839738866 ], [ -120.016311349199114, 38.85403236436148 ], [ -120.016329098852225, 38.854158943605853 ], [ -120.016315765924404, 38.854175097987437 ], [ -120.016352117173938, 38.854159532132293 ], [ -120.018571674284075, 38.856738768964 ], [ -120.019269937060315, 38.85767552080744 ], [ -120.019015675202127, 38.858245599237954 ], [ -120.01889832035738, 38.858296655035694 ], [ -120.019049681158123, 38.858534754613068 ], [ -120.018572765153692, 38.858974060037802 ] ], [ [ -119.995991828857001, 38.863781230675109 ], [ -119.99599628742763, 38.863777967115716 ], [ -119.995716335081738, 38.86375612013498 ], [ -119.995991828857001, 38.863781230675109 ] ], [ [ -119.99603938692259, 38.86374641936505 ], [ -119.996063165938011, 38.863729013701985 ], [ -119.995974872280144, 38.863636651543985 ], [ -119.99603938692259, 38.86374641936505 ] ], [ [ -120.012194745635895, 38.8476027518645 ], [ -120.012200910620649, 38.847638945536076 ], [ -120.012511834764922, 38.847917174186101 ], [ -120.012202417676491, 38.847602948284397 ], [ -120.012194745635895, 38.8476027518645 ] ], [ [ -120.012178936309198, 38.859672283642297 ], [ -120.012158077417936, 38.859667256785784 ], [ -120.012157803286001, 38.859673801726863 ], [ -120.012178936309198, 38.859672283642297 ] ], [ [ -120.012342717216441, 38.859660518355824 ], [ -120.012329206737618, 38.859652965288284 ], [ -120.012316300943738, 38.859662415998365 ], [ -120.012342717216441, 38.859660518355824 ] ], [ [ -120.012242548767404, 38.859411108581988 ], [ -120.012255914034824, 38.859532170655292 ], [ -120.012262480800459, 38.859540446840477 ], [ -120.012242548767404, 38.859411108581988 ] ], [ [ -120.012129336912508, 38.858290199651648 ], [ -120.012122262810053, 38.858321549834592 ], [ -120.012129552793795, 38.858387583702374 ], [ -120.012129336912508, 38.858290199651648 ] ], [ [ -120.011067490972053, 38.857645893836938 ], [ -120.012006761179165, 38.857778055581491 ], [ -120.011709016921699, 38.857734395482971 ], [ -120.011711278690569, 38.857680399723037 ], [ -120.011896187463549, 38.857667116855218 ], [ -120.011067490972053, 38.857645893836938 ] ], [ [ -120.0110461158757, 38.857645346340163 ], [ -120.01105630128157, 38.857689525836669 ], [ -120.011067490972053, 38.857645893836938 ], [ -120.0110461158757, 38.857645346340163 ] ], [ [ -120.01077728952967, 38.857422245665241 ], [ -120.010811143793632, 38.857399947015793 ], [ -120.010750658597971, 38.857429285433966 ], [ -120.010759118313871, 38.857432868120284 ], [ -120.010847101435374, 38.857406016063997 ], [ -120.01077728952967, 38.857422245665241 ] ], [ [ -120.011014268935654, 38.857266154894127 ], [ -120.010928284353668, 38.85720088982756 ], [ -120.010993914916625, 38.85727956148407 ], [ -120.011014268935654, 38.857266154894127 ] ], [ [ -120.010776926889051, 38.857086004206757 ], [ -120.01074453944338, 38.857147345128126 ], [ -120.010829218824838, 38.85712569568107 ], [ -120.010776926889051, 38.857086004206757 ] ], [ [ -120.010980675201608, 38.857029059834119 ], [ -120.011001806950574, 38.857013585202999 ], [ -120.010817653935106, 38.857008868140092 ], [ -120.010980675201608, 38.857029059834119 ] ], [ [ -120.011971276383349, 38.85752489644522 ], [ -120.01198616489927, 38.857519544711586 ], [ -120.011815418428569, 38.8573947801994 ], [ -120.011786750040116, 38.857399610428182 ], [ -120.011971276383349, 38.85752489644522 ] ], [ [ -120.012111653734095, 38.857474437163056 ], [ -120.012117785466415, 38.85746558521636 ], [ -120.012064861305007, 38.857491256943462 ], [ -120.012111653734095, 38.857474437163056 ] ], [ [ -120.012430501730108, 38.85701413541095 ], [ -120.012590882182977, 38.857036259235464 ], [ -120.012476540051154, 38.857015314068249 ], [ -120.012500714460899, 38.856949009346032 ], [ -120.012287110464385, 38.857136589517239 ], [ -120.012160707548801, 38.857403621578257 ], [ -120.012430501730108, 38.85701413541095 ] ], [ [ -120.012778803742023, 38.856950980473442 ], [ -120.012644457204743, 38.856857451787199 ], [ -120.012755784595555, 38.856950391207441 ], [ -120.012590882182977, 38.857036259235464 ], [ -120.012778803742023, 38.856950980473442 ] ], [ [ -120.012766119857531, 38.85687652499653 ], [ -120.012760306417675, 38.856842399569203 ], [ -120.012647723078373, 38.85677945783317 ], [ -120.012645964532609, 38.856821454577798 ], [ -120.012598117507864, 38.856863472641642 ], [ -120.012644457204743, 38.856857451787199 ], [ -120.012766119857531, 38.85687652499653 ] ], [ [ -120.012675012873416, 38.856678055020488 ], [ -120.012701046510173, 38.85660664987418 ], [ -120.013510807605883, 38.855342384033399 ], [ -120.01344285224198, 38.855400419921232 ], [ -120.012651993817101, 38.856677465737491 ], [ -120.012649481620457, 38.856737461088144 ], [ -120.012688928753533, 38.856689672448745 ], [ -120.012675012873416, 38.856678055020488 ] ], [ [ -120.014137388680595, 38.854853956565002 ], [ -120.01401639202399, 38.854910595631921 ], [ -120.013819750704741, 38.855078535745157 ], [ -120.014137388680595, 38.854853956565002 ] ], [ [ -120.017826013570399, 38.859692671372912 ], [ -120.018500247994581, 38.859040857672355 ], [ -120.017791313131212, 38.859693868560981 ], [ -120.017826013570399, 38.859692671372912 ] ], [ [ -120.017380661844001, 38.859320930911096 ], [ -120.017471236850525, 38.859359281774331 ], [ -120.017345350383081, 38.859192843108325 ], [ -120.017380661844001, 38.859320930911096 ] ], [ [ -120.017320632427527, 38.859103181641508 ], [ -120.01733142420872, 38.859142327579377 ], [ -120.017705505306992, 38.858716624407471 ], [ -120.017320632427527, 38.859103181641508 ] ], [ [ -120.016359528648692, 38.857048855014547 ], [ -120.016360820835288, 38.857048099532292 ], [ -120.0162377054411, 38.856895329773536 ], [ -120.016359528648692, 38.857048855014547 ] ], [ [ -120.016171213815554, 38.857221131638205 ], [ -120.016195849882138, 38.85718769409727 ], [ -120.016178869826888, 38.85720012985923 ], [ -120.016171213815554, 38.857221131638205 ] ], [ [ -120.015928603192577, 38.857756789987988 ], [ -120.015875347735459, 38.857681948848771 ], [ -120.015857785833205, 38.857714438735037 ], [ -120.015928603192577, 38.857756789987988 ] ], [ [ -120.015666532380862, 38.858430263989028 ], [ -120.015813685375306, 38.858217812362483 ], [ -120.015670297097969, 38.858340270741095 ], [ -120.015666532380862, 38.858430263989028 ] ], [ [ -120.015830525991603, 38.858516357475246 ], [ -120.015803144677079, 38.858469793490627 ], [ -120.015666532380862, 38.858430263989028 ], [ -120.015830525991603, 38.858516357475246 ] ], [ [ -120.015889200352191, 38.8586161374242 ], [ -120.015848323864347, 38.858546624062306 ], [ -120.015856570138538, 38.858674327158326 ], [ -120.015889200352191, 38.8586161374242 ] ], [ [ -120.0156409318583, 38.859042218029927 ], [ -120.015693748202395, 38.858881407639601 ], [ -120.015919429172811, 38.858995286461997 ], [ -120.015739787864476, 38.858882585057877 ], [ -120.015671481328141, 38.858862820275533 ], [ -120.0156409318583, 38.859042218029927 ] ], [ [ -120.016450361176155, 38.859729012039118 ], [ -120.016444053797429, 38.859675363657487 ], [ -120.015919429172811, 38.858995286461997 ], [ -120.016450361176155, 38.859729012039118 ] ], [ [ -120.016461051664336, 38.859819941498564 ], [ -120.01645467745837, 38.859765724808511 ], [ -120.016403996596082, 38.859861725684411 ], [ -120.016461051664336, 38.859819941498564 ] ], [ [ -120.016027546276788, 38.860334039622884 ], [ -120.016080683283249, 38.860098502155566 ], [ -120.016024855103893, 38.860331307289222 ], [ -120.016027546276788, 38.860334039622884 ] ], [ [ -120.016159965455046, 38.86040683381438 ], [ -120.016055803604146, 38.860362729123032 ], [ -120.016334341318142, 38.860645525299802 ], [ -120.016159965455046, 38.86040683381438 ] ], [ [ -120.016017005941649, 38.861069840538676 ], [ -120.016035451188387, 38.861061980238865 ], [ -120.015872083965348, 38.861008477245925 ], [ -120.016017005941649, 38.861069840538676 ] ], [ [ -120.014870169663411, 38.861490955589638 ], [ -120.014886870236452, 38.861504896240476 ], [ -120.015009046795299, 38.861476490332954 ], [ -120.014755066399516, 38.861488010987948 ], [ -120.014870169663411, 38.861490955589638 ] ], [ [ -120.014659970674543, 38.861557649718492 ], [ -120.014644833907198, 38.861595418006765 ], [ -120.014755066399516, 38.861488010987948 ], [ -120.014659970674543, 38.861557649718492 ] ], [ [ -120.016755084947661, 38.856284108177199 ], [ -120.016770469766769, 38.856278323912143 ], [ -120.01665838525274, 38.856203386823132 ], [ -120.016755084947661, 38.856284108177199 ] ], [ [ -120.013562386859036, 38.857184677495738 ], [ -120.01355241383618, 38.857186996249865 ], [ -120.013596192013708, 38.857242170326856 ], [ -120.013562386859036, 38.857184677495738 ] ], [ [ -120.013642983953915, 38.8572253499106 ], [ -120.013622224983592, 38.857170764952521 ], [ -120.013573894192362, 38.857182002009118 ], [ -120.013642983953915, 38.8572253499106 ] ], [ [ -120.016529916960764, 38.861479349334552 ], [ -120.016587451761737, 38.861624483078273 ], [ -120.016558000197193, 38.861463395613065 ], [ -120.016529916960764, 38.861479349334552 ] ], [ [ -120.016849355248439, 38.861756146685458 ], [ -120.016904322092699, 38.861724012071981 ], [ -120.016636898978973, 38.86174921512626 ], [ -120.016717531242406, 38.861952611460268 ], [ -120.016702038172255, 38.861772036349663 ], [ -120.016818647586845, 38.86173898173444 ], [ -120.016849355248439, 38.861756146685458 ] ], [ [ -120.016277015253948, 38.861878285748993 ], [ -120.016300005384039, 38.861886166558364 ], [ -120.016306920579666, 38.861852023567266 ], [ -120.016277015253948, 38.861878285748993 ] ], [ [ -120.016187299143709, 38.861957072242355 ], [ -120.016250006676543, 38.861983623552383 ], [ -120.01622442307557, 38.861924470944189 ], [ -120.016187299143709, 38.861957072242355 ] ], [ [ -120.016277876706638, 38.861995424124338 ], [ -120.016295303046661, 38.861909383791833 ], [ -120.01625846722041, 38.861987205869525 ], [ -120.016277876706638, 38.861995424124338 ] ], [ [ -120.017464734721912, 38.861719461407965 ], [ -120.017582848842693, 38.861650408670712 ], [ -120.017739479139067, 38.861762519234283 ], [ -120.01774772533274, 38.861753501300292 ], [ -120.017560580634139, 38.861631821621479 ], [ -120.017464734721912, 38.861719461407965 ] ], [ [ -120.016892978982426, 38.861614756681973 ], [ -120.01793072309259, 38.861046690465948 ], [ -120.01708316627834, 38.861475475328071 ], [ -120.016892978982426, 38.861614756681973 ] ], [ [ -120.016910939164987, 38.861720143607755 ], [ -120.016935256899771, 38.86170592699817 ], [ -120.016892978982426, 38.861614756681973 ], [ -120.016910939164987, 38.861720143607755 ] ], [ [ -120.018965098353661, 38.860094462630016 ], [ -120.019080840285383, 38.859995001740316 ], [ -120.019058802490207, 38.85995916966742 ], [ -120.018965098353661, 38.860094462630016 ] ], [ [ -120.010683704159945, 38.85745588411352 ], [ -120.010684458334524, 38.85743788554295 ], [ -120.01070884221636, 38.857448212121419 ], [ -120.010738169942357, 38.857439261456847 ], [ -120.010730496855359, 38.857439064899225 ], [ -120.009560287697312, 38.857318992893177 ], [ -120.010683704159945, 38.85745588411352 ] ], [ [ -120.008269879348148, 38.857420003593283 ], [ -120.008449329102945, 38.857434660617997 ], [ -120.009560287697312, 38.857318992893177 ], [ -120.008269879348148, 38.857420003593283 ] ], [ [ -120.008106000827709, 38.857432251951145 ], [ -120.008127815023897, 38.857408399921582 ], [ -120.008171095748196, 38.85741193506643 ], [ -120.00813838240822, 38.85715642051386 ], [ -120.008106000827709, 38.857432251951145 ] ], [ [ -120.008179516593387, 38.85672504595351 ], [ -120.008362158951201, 38.85676576421622 ], [ -120.008355765371249, 38.856776925832314 ], [ -120.008478763354475, 38.856732717745892 ], [ -120.008179516593387, 38.85672504595351 ] ], [ [ -120.00839046107933, 38.856640364600061 ], [ -120.008429509625273, 38.856664867248213 ], [ -120.008371970533958, 38.856531783262128 ], [ -120.008235366565756, 38.856492245352641 ], [ -120.008289832094448, 38.856475623830626 ], [ -120.008144045746633, 38.8564718861712 ], [ -120.007941481183337, 38.856636672557926 ], [ -120.008092724340571, 38.856596695535636 ], [ -120.008368196861781, 38.856621775938102 ], [ -120.008478763354475, 38.856732717745892 ], [ -120.00839046107933, 38.856640364600061 ] ], [ [ -120.007906308333332, 38.856645969510751 ], [ -120.007918106821961, 38.856642850913879 ], [ -120.007855459288791, 38.856622143345732 ], [ -120.007906308333332, 38.856645969510751 ] ], [ [ -120.007585350273047, 38.856564281987822 ], [ -120.007655742394107, 38.856556128456177 ], [ -120.007633855634751, 38.856548893927766 ], [ -120.007585350273047, 38.856564281987822 ] ], [ [ -120.007348421215525, 38.856541574199071 ], [ -120.007287062062773, 38.85657603636384 ], [ -120.006807050560269, 38.857032189864462 ], [ -120.007141398157572, 38.856752479382195 ], [ -120.007164417122112, 38.856753069752195 ], [ -120.007353602159824, 38.856637802428715 ], [ -120.007213475173884, 38.85668225641578 ], [ -120.007348421215525, 38.856541574199071 ] ], [ [ -120.006484228895673, 38.856625263472246 ], [ -120.006501398677059, 38.856627956159123 ], [ -120.00650003930366, 38.856660353466729 ], [ -120.007039894635824, 38.856425554227435 ], [ -120.006484228895673, 38.856625263472246 ] ], [ [ -120.006341776812675, 38.85658782556709 ], [ -120.006330121549354, 38.856639460441983 ], [ -120.006364040466792, 38.856606414594687 ], [ -120.006473927027557, 38.856623647858925 ], [ -120.006433852395276, 38.856590187641892 ], [ -120.006341776812675, 38.85658782556709 ] ], [ [ -120.010484771164229, 38.857175371574122 ], [ -120.010602939998435, 38.857183546801814 ], [ -120.010722512871823, 38.857152976511273 ], [ -120.010484771164229, 38.857175371574122 ] ], [ [ -120.009550017093289, 38.856904318291711 ], [ -120.009553866461033, 38.856922434825158 ], [ -120.0098078306509, 38.85691092488188 ], [ -120.009550017093289, 38.856904318291711 ] ], [ [ -120.008451031742467, 38.856678372190984 ], [ -120.008480272775628, 38.856696720672716 ], [ -120.009124804324259, 38.856713241912374 ], [ -120.008451031742467, 38.856678372190984 ] ], [ [ -120.006462985502623, 38.856554899242575 ], [ -120.006441640717483, 38.856554351682874 ], [ -120.006448968633904, 38.856571877624454 ], [ -120.006462985502623, 38.856554899242575 ] ], [ [ -120.00558746143976, 38.854726144028355 ], [ -120.005658449352396, 38.85475048791649 ], [ -120.006233151530338, 38.854783250984489 ], [ -120.00558746143976, 38.854726144028355 ] ], [ [ -120.005187153217435, 38.854450107675717 ], [ -120.005045399034159, 38.854696050635333 ], [ -120.005085258909105, 38.854681725063031 ], [ -120.005244698671802, 38.854451584481993 ], [ -120.005187153217435, 38.854450107675717 ] ], [ [ -120.005281492312193, 38.854398475079293 ], [ -120.005167912454354, 38.85435952449955 ], [ -120.005256963224895, 38.85443388134933 ], [ -120.005281492312193, 38.854398475079293 ] ], [ [ -120.004953597159073, 38.853975648753611 ], [ -120.004975859662451, 38.853994238006834 ], [ -120.004975859662451, 38.853994238006827 ], [ -120.004998122177383, 38.854012827256213 ], [ -120.005020384703855, 38.854031416501741 ], [ -120.00502285831864, 38.854033481973225 ], [ -120.005042647241964, 38.85405000574346 ], [ -120.005057931643464, 38.854048298841953 ], [ -120.004953597159073, 38.853975648753611 ] ], [ [ -120.005020384703855, 38.854031416501741 ], [ -120.005020384703855, 38.854031416501748 ], [ -120.005020384703855, 38.854031416501741 ], [ -120.005020384703855, 38.854031416501741 ] ], [ [ -120.006129782901297, 38.853951776522017 ], [ -120.006028311867411, 38.853855827549246 ], [ -120.00611774639934, 38.853957011684322 ], [ -120.006129782901297, 38.853951776522017 ] ], [ [ -120.003781528926837, 38.852701908778215 ], [ -120.003874085229924, 38.852794793554857 ], [ -120.004328392537346, 38.852950599808253 ], [ -120.003781528926837, 38.852701908778215 ] ], [ [ -120.004068876475372, 38.852165934847804 ], [ -120.004101872683194, 38.852151998044491 ], [ -120.004062414254477, 38.852150985044361 ], [ -120.004068876475372, 38.852165934847804 ] ], [ [ -120.004125421016127, 38.85229674561608 ], [ -120.00446766064519, 38.85237760269365 ], [ -120.00411642003543, 38.852275922678892 ], [ -120.004125421016127, 38.85229674561608 ] ], [ [ -120.005445327888594, 38.852690980777069 ], [ -120.005453418676993, 38.852673891227177 ], [ -120.005077046065338, 38.852681529718076 ], [ -120.005445327888594, 38.852690980777069 ] ], [ [ -120.005470611588677, 38.852637575931212 ], [ -120.005186491362409, 38.852269927199821 ], [ -120.005459834934527, 38.852660338653294 ], [ -120.005470611588677, 38.852637575931212 ] ], [ [ -120.004846908673187, 38.852207696152092 ], [ -120.004842740279273, 38.852225069200109 ], [ -120.004343912701074, 38.852032086386984 ], [ -120.004273349263158, 38.85206631073914 ], [ -120.004209586709337, 38.851938548719488 ], [ -120.004259306545691, 38.852085501564922 ], [ -120.004343157073976, 38.852050084869902 ], [ -120.004773687912788, 38.85222329687636 ], [ -120.005186491362409, 38.852269927199821 ], [ -120.004846908673187, 38.852207696152092 ] ], [ [ -120.004227573054948, 38.851937008467146 ], [ -120.003960930209374, 38.851824057805096 ], [ -120.004209586709337, 38.851938548719488 ], [ -120.004227573054948, 38.851937008467146 ] ], [ [ -120.004571469452927, 38.851551444820927 ], [ -120.004432432298046, 38.851810910167288 ], [ -120.004438946631097, 38.851816957875819 ], [ -120.004571469452927, 38.851551444820927 ] ], [ [ -120.003819545396127, 38.849886508649071 ], [ -120.003895375483637, 38.850092658192487 ], [ -120.004091947292295, 38.850349955137794 ], [ -120.003819545396127, 38.849886508649071 ] ], [ [ -120.003663386926277, 38.849235857457181 ], [ -120.003667886430151, 38.849474209447514 ], [ -120.003707755383559, 38.849582597396768 ], [ -120.003663386926277, 38.849235857457181 ] ], [ [ -120.003652958036739, 38.849154355211226 ], [ -120.00357011798009, 38.850156378669624 ], [ -120.003654617146694, 38.849167321240436 ], [ -120.003652958036739, 38.849154355211226 ] ], [ [ -120.00268632420682, 38.846355075079373 ], [ -120.002679338658723, 38.846314030824928 ], [ -120.00262709310924, 38.84627633428952 ], [ -120.00259088897279, 38.846041171885865 ], [ -120.002626337204688, 38.846294332761914 ], [ -120.00268632420682, 38.846355075079373 ] ], [ [ -120.002821470885479, 38.845983372173826 ], [ -120.002685218292044, 38.84598954095911 ], [ -120.002663336721341, 38.845961952132264 ], [ -120.00259088897279, 38.846041171885865 ], [ -120.002821470885479, 38.845983372173826 ] ], [ [ -120.005482419246107, 38.849610874049532 ], [ -120.005535951819937, 38.849691738377153 ], [ -120.005460325461172, 38.849492799143313 ], [ -120.005482419246107, 38.849610874049532 ] ], [ [ -120.005785772045641, 38.850069104965122 ], [ -120.006009143493685, 38.850236996930406 ], [ -120.005644206938001, 38.849855263953977 ], [ -120.005785772045641, 38.850069104965122 ] ], [ [ -120.005605094841542, 38.8494222049341 ], [ -120.005494503553308, 38.849322897894339 ], [ -120.006967916375672, 38.851000324550085 ], [ -120.005605094841542, 38.8494222049341 ] ], [ [ -120.006597766405847, 38.850486329558585 ], [ -120.006673072114609, 38.850565943104776 ], [ -120.006382698472748, 38.850120454898772 ], [ -120.006597766405847, 38.850486329558585 ] ], [ [ -120.0070169702892, 38.85092951108706 ], [ -120.007051510133977, 38.850951186806427 ], [ -120.006936353759372, 38.850844283973352 ], [ -120.0070169702892, 38.85092951108706 ] ], [ [ -120.007286381641592, 38.851098581446934 ], [ -120.007364639938132, 38.851100588345368 ], [ -120.007206030752215, 38.851048157013942 ], [ -120.007286381641592, 38.851098581446934 ] ], [ [ -120.008810974537042, 38.852106631926929 ], [ -120.008813824876881, 38.852038637380616 ], [ -120.008948911900887, 38.852114171430877 ], [ -120.008964650431309, 38.85211108748625 ], [ -120.008859105349117, 38.852057815894511 ], [ -120.008968293843623, 38.852044435179764 ], [ -120.008310458984823, 38.851953662468098 ], [ -120.008767789918181, 38.852037457405807 ], [ -120.008810974537042, 38.852106631926929 ] ], [ [ -120.009345490195273, 38.8519982100931 ], [ -120.010262025641154, 38.851571247351956 ], [ -120.009234787651195, 38.852011776727906 ], [ -120.009345490195273, 38.8519982100931 ] ], [ [ -120.012043815561825, 38.851941204508385 ], [ -120.012031589789984, 38.851869430623381 ], [ -120.011898926980408, 38.852099655822428 ], [ -120.012043815561825, 38.851941204508385 ] ], [ [ -120.01224645143553, 38.852054500109844 ], [ -120.012060212678776, 38.851819757767281 ], [ -120.012042732032441, 38.851850094114958 ], [ -120.01224645143553, 38.852054500109844 ] ], [ [ -120.012991301532267, 38.851875370724784 ], [ -120.01256301145358, 38.851648192485797 ], [ -120.012966023667104, 38.851928777440627 ], [ -120.013015825921514, 38.851839962627778 ], [ -120.012991301532267, 38.851875370724784 ] ], [ [ -120.012592057180029, 38.851504792762462 ], [ -120.01258700575903, 38.851529731845844 ], [ -120.012597368223055, 38.85152732241044 ], [ -120.012591303645749, 38.851522791382713 ], [ -120.012657752576402, 38.851464432716099 ], [ -120.012583557260072, 38.851505049324736 ], [ -120.012592057180029, 38.851504792762462 ] ], [ [ -120.013347111262107, 38.851632226733386 ], [ -120.013341303634448, 38.851611154071286 ], [ -120.01329638142596, 38.851605590706512 ], [ -120.013347111262107, 38.851632226733386 ] ], [ [ -120.01349350233582, 38.851437776173846 ], [ -120.013308170511493, 38.851556441223984 ], [ -120.013332454834696, 38.851579046659381 ], [ -120.013327107224129, 38.851559643118492 ], [ -120.01349350233582, 38.851437776173846 ] ], [ [ -120.013865065554626, 38.851436920213636 ], [ -120.013862533790729, 38.851429201802048 ], [ -120.013873665881192, 38.851438495612385 ], [ -120.014159500502132, 38.851490854101165 ], [ -120.013864040212852, 38.851393204519113 ], [ -120.013861959597477, 38.851375501076831 ], [ -120.013827234638512, 38.851420819410244 ], [ -120.013830357645631, 38.851430562448328 ], [ -120.013865065554626, 38.851436920213636 ] ], [ [ -120.014005579232034, 38.85186529199008 ], [ -120.013884776677287, 38.851497012081431 ], [ -120.013835792612127, 38.851447518242793 ], [ -120.014021818103913, 38.852027868727681 ], [ -120.014027843583776, 38.851883879588179 ], [ -120.014054149344048, 38.851884552674839 ], [ -120.014005579232034, 38.85186529199008 ] ], [ [ -120.014132387078078, 38.852138805316336 ], [ -120.014267480317358, 38.852214333434198 ], [ -120.014021818103913, 38.852027868727681 ], [ -120.014132387078078, 38.852138805316336 ] ], [ [ -120.014518415318193, 38.852274807123422 ], [ -120.014656521386826, 38.852278340212095 ], [ -120.014407092428172, 38.852181869519057 ], [ -120.014518415318193, 38.852274807123422 ] ], [ [ -120.014705568834543, 38.852207523261235 ], [ -120.014717617071284, 38.851919544807032 ], [ -120.014693093474108, 38.851954953293799 ], [ -120.014656521386826, 38.852278340212095 ], [ -120.014705568834543, 38.852207523261235 ] ], [ [ -120.014725900134096, 38.851721559609693 ], [ -120.014698140669722, 38.851919046574842 ], [ -120.014717617071284, 38.851919544807032 ], [ -120.014725900134096, 38.851721559609693 ] ], [ [ -120.014611817825724, 38.851439766867934 ], [ -120.014617589882931, 38.851556627606058 ], [ -120.014725900134096, 38.851721559609693 ], [ -120.014611817825724, 38.851439766867934 ] ], [ [ -120.014349992741941, 38.850793029095883 ], [ -120.014428506542416, 38.851119360304949 ], [ -120.014521458144458, 38.851216569448461 ], [ -120.014349992741941, 38.850793029095883 ] ], [ [ -120.013795155849579, 38.849968689693554 ], [ -120.013783180637986, 38.850021773779233 ], [ -120.014039049293942, 38.850514804687052 ], [ -120.013795155849579, 38.849968689693554 ] ], [ [ -120.013680900664625, 38.849712851899007 ], [ -120.013669299776836, 38.84970836482146 ], [ -120.013692740168139, 38.849739362748934 ], [ -120.013680900664625, 38.849712851899007 ] ], [ [ -120.013012581399963, 38.848614672854616 ], [ -120.012612600652631, 38.848262094133581 ], [ -120.013016180719944, 38.8486347225043 ], [ -120.013012581399963, 38.848614672854616 ] ], [ [ -120.011053719038912, 38.856953139242201 ], [ -120.011058862627223, 38.856971803677816 ], [ -120.011073126535962, 38.856961358291699 ], [ -120.011053719038912, 38.856953139242201 ] ], [ [ -120.010908987475887, 38.856905490452746 ], [ -120.010993879285635, 38.856927797153745 ], [ -120.010937274153818, 38.856903824881016 ], [ -120.011216519418568, 38.856838905743523 ], [ -120.010908987475887, 38.856905490452746 ] ], [ [ -120.011722939294089, 38.856851875192234 ], [ -120.011714040456042, 38.856870674208629 ], [ -120.012158794601433, 38.856899071508757 ], [ -120.012171811729175, 38.856863369007321 ], [ -120.011722939294089, 38.856851875192234 ] ], [ [ -120.011805566294612, 38.856529668941199 ], [ -120.012262931228634, 38.856613451436495 ], [ -120.011753813037998, 38.856507751796237 ], [ -120.011805566294612, 38.856529668941199 ] ], [ [ -120.011351972438092, 38.856355891769525 ], [ -120.011335621179995, 38.856379496856434 ], [ -120.011350464482945, 38.856391888939278 ], [ -120.011327445546755, 38.856391299398858 ], [ -120.011327445546755, 38.856391299398844 ], [ -120.011297258568973, 38.856434878010859 ], [ -120.01144329418932, 38.856376248469296 ], [ -120.011556504049224, 38.856424192481455 ], [ -120.011444048143389, 38.856358249882895 ], [ -120.011351972438092, 38.856355891769525 ] ], [ [ -120.009109704901576, 38.85619393976706 ], [ -120.009104618512609, 38.856167095925002 ], [ -120.009092888659126, 38.856169072002153 ], [ -120.009109704901576, 38.85619393976706 ] ], [ [ -120.008842913620867, 38.856291605287552 ], [ -120.00904720578859, 38.856125409305406 ], [ -120.008991590695871, 38.856043165740104 ], [ -120.009010082112752, 38.856151747019943 ], [ -120.008835224115174, 38.856293997582753 ], [ -120.009139895146888, 38.856353270954791 ], [ -120.008842913620867, 38.856291605287552 ] ], [ [ -120.008852723462411, 38.856057624211616 ], [ -120.008177255791239, 38.855679950705991 ], [ -120.008874233051628, 38.856094211325626 ], [ -120.00852215914216, 38.856247347331355 ], [ -120.008991590695871, 38.856043165740104 ], [ -120.008852723462411, 38.856057624211616 ] ], [ [ -120.007425945436182, 38.855462489391343 ], [ -120.007207453480987, 38.855727154297554 ], [ -120.007448209053962, 38.855481078212328 ], [ -120.008177255791239, 38.855679950705991 ], [ -120.007425945436182, 38.855462489391343 ] ], [ [ -120.008971763642421, 38.852353537991156 ], [ -120.008955952060532, 38.852338860578591 ], [ -120.00896212133695, 38.852348742645496 ], [ -120.008971763642421, 38.852353537991156 ] ], [ [ -120.009749015224699, 38.852953589439046 ], [ -120.009428894868876, 38.852757099189766 ], [ -120.009742845916008, 38.852963341199299 ], [ -120.009749015224699, 38.852953589439046 ] ], [ [ -120.009856563532693, 38.852729148370955 ], [ -120.00980254882974, 38.852868969308886 ], [ -120.00986623175676, 38.852768305917103 ], [ -120.009856563532693, 38.852729148370955 ] ], [ [ -120.008630128765532, 38.852142819503634 ], [ -120.008766767986927, 38.852297403701712 ], [ -120.00875949024514, 38.85223544151502 ], [ -120.008630128765532, 38.852142819503634 ] ], [ [ -120.008417245605685, 38.852154596866484 ], [ -120.008493278304655, 38.852044835022191 ], [ -120.008446299875345, 38.852011198524465 ], [ -120.008417245605685, 38.852154596866484 ] ], [ [ -120.007854638710782, 38.851833868695714 ], [ -120.007876146641848, 38.85187045594607 ], [ -120.007856148182768, 38.851797871612845 ], [ -120.007810868166118, 38.851778692725951 ], [ -120.007810113419552, 38.851796691266706 ], [ -120.007843130013967, 38.851833573610499 ], [ -120.007854638710782, 38.851833868695714 ] ], [ [ -120.01056647666654, 38.856843876347178 ], [ -120.010588012432862, 38.856828105954946 ], [ -120.010576894652715, 38.856824144996821 ], [ -120.01056647666654, 38.856843876347178 ] ], [ [ -120.01045236491511, 38.856927438871686 ], [ -120.01047537133806, 38.856910591598435 ], [ -120.010045564596865, 38.856736837523655 ], [ -120.01045236491511, 38.856927438871686 ] ], [ [ -120.008014235404985, 38.856270361234031 ], [ -120.007593857243165, 38.856403725191988 ], [ -120.007486835833987, 38.85646383383925 ], [ -120.007757253940724, 38.856353861454572 ], [ -120.00849385744435, 38.856372747002119 ], [ -120.008670964225757, 38.856328349626338 ], [ -120.007919140740157, 38.856339994535915 ], [ -120.008079076743499, 38.856267423412923 ], [ -120.008014235404985, 38.856270361234031 ] ], [ [ -120.010970096364957, 38.85667043300068 ], [ -120.011155756602562, 38.856639152627416 ], [ -120.010648584336479, 38.856644179351335 ], [ -120.010970096364957, 38.85667043300068 ] ], [ [ -120.009913485274794, 38.856589310161667 ], [ -120.01012442749176, 38.856504625572384 ], [ -120.00989495323698, 38.856587107563897 ], [ -120.009913485274794, 38.856589310161667 ] ], [ [ -120.008517404748972, 38.856470647225905 ], [ -120.008558686870842, 38.856430425614036 ], [ -120.008537631124696, 38.856427922810404 ], [ -120.008517404748972, 38.856470647225905 ] ], [ [ -120.008504218843953, 38.85648349438069 ], [ -120.008506593424698, 38.856481180804188 ], [ -120.008497699756589, 38.856480952810756 ], [ -120.008504218843953, 38.85648349438069 ] ], [ [ -120.012879832398568, 38.849584242540381 ], [ -120.012629661807409, 38.849505767102848 ], [ -120.012885458558429, 38.849596902812706 ], [ -120.012879832398568, 38.849584242540381 ] ], [ [ -120.012985122271502, 38.84982117045751 ], [ -120.012909529475905, 38.849651068370818 ], [ -120.012974574750629, 38.850073151298155 ], [ -120.012985122271502, 38.84982117045751 ] ], [ [ -120.013645045532769, 38.850962892583773 ], [ -120.013371553711863, 38.850497723700329 ], [ -120.013518361032837, 38.850843821171559 ], [ -120.013645045532769, 38.850962892583773 ] ], [ [ -120.013830056922814, 38.851104048289827 ], [ -120.013786795713415, 38.851096123693793 ], [ -120.013834382057681, 38.851140849992348 ], [ -120.013830056922814, 38.851104048289827 ] ], [ [ -120.010680465304134, 38.85093332223552 ], [ -120.010584626531568, 38.85102095673998 ], [ -120.010872142136961, 38.85075805295893 ], [ -120.010752532722819, 38.850863096650599 ], [ -120.010617445937626, 38.850787564693924 ], [ -120.010680465304134, 38.85093332223552 ] ], [ [ -120.010911745797884, 38.850362673417834 ], [ -120.011080803949042, 38.850727361629204 ], [ -120.011048193795006, 38.850515716895224 ], [ -120.010912499724228, 38.850344674821621 ], [ -120.011409073968466, 38.850591625631566 ], [ -120.01090683940987, 38.850334583955714 ], [ -120.010872142136961, 38.85075805295893 ], [ -120.010911745797884, 38.850362673417834 ] ], [ [ -120.011303524620331, 38.850773606082591 ], [ -120.011584165353085, 38.850812324386816 ], [ -120.011080803949042, 38.850727361629204 ], [ -120.011303524620331, 38.850773606082591 ] ], [ [ -120.010226155083657, 38.850777540642561 ], [ -120.010166490991779, 38.850792795858609 ], [ -120.010617445937626, 38.850787564693924 ], [ -120.010226155083657, 38.850777540642561 ] ], [ [ -120.010519347683314, 38.848987924536175 ], [ -120.010607206855994, 38.849381905696752 ], [ -120.010530220083794, 38.849019575409606 ], [ -120.010856221274949, 38.848937836457495 ], [ -120.010530974070164, 38.849001576815532 ], [ -120.010519347683314, 38.848987924536175 ] ], [ [ -120.011932837434344, 38.851169817278176 ], [ -120.01197887851518, 38.851290897144203 ], [ -120.012079268734041, 38.851319951711154 ], [ -120.011932837434344, 38.851169817278176 ] ], [ [ -120.01182454087386, 38.851124784108542 ], [ -120.011875503634528, 38.851558518842118 ], [ -120.01189100297357, 38.851577310956593 ], [ -120.01182454087386, 38.851124784108542 ] ], [ [ -120.014234187246601, 38.851850056443624 ], [ -120.014333452469913, 38.85198379041821 ], [ -120.014347076796199, 38.851964119083661 ], [ -120.014234187246601, 38.851850056443624 ] ], [ [ -120.014327192641687, 38.85199282859827 ], [ -120.014295815671161, 38.851980386039507 ], [ -120.014322553003282, 38.851999527484416 ], [ -120.014327192641687, 38.85199282859827 ] ], [ [ -120.004032190171117, 38.851979039254708 ], [ -120.004158262304941, 38.852063356292632 ], [ -120.00415675095482, 38.852099353252036 ], [ -120.004179012686393, 38.852117942631111 ], [ -120.004155995278765, 38.852117351731629 ], [ -120.00415549149433, 38.852129350718002 ], [ -120.004231842178086, 38.852097101913401 ], [ -120.004032190171117, 38.851979039254708 ] ], [ [ -120.009472579225744, 38.848415904430908 ], [ -120.009520136977031, 38.848438803199578 ], [ -120.007601095186061, 38.846890463586647 ], [ -120.009472579225744, 38.848415904430908 ] ], [ [ -120.007086474615264, 38.846618259537479 ], [ -120.007148327208128, 38.846698674097937 ], [ -120.007601095186061, 38.846890463586647 ], [ -120.007086474615264, 38.846618259537479 ] ], [ [ -120.004967565140973, 38.844858955826027 ], [ -120.00493742500278, 38.84474953707965 ], [ -120.00493290723071, 38.844744970978141 ], [ -120.004967565140973, 38.844858955826027 ] ], [ [ -120.003581653737925, 38.846589133509745 ], [ -120.002939143569336, 38.845978044457645 ], [ -120.002936629457921, 38.845978158287132 ], [ -120.003581653737925, 38.846589133509745 ] ], [ [ -120.008807778107894, 38.851083533855153 ], [ -120.009315664754098, 38.851060515006822 ], [ -120.00786558404441, 38.851023344111169 ], [ -120.008807778107894, 38.851083533855153 ] ], [ [ -120.009569608007467, 38.851049004748248 ], [ -120.009585267075423, 38.851041898556367 ], [ -120.009533330402505, 38.85105064910497 ], [ -120.009569608007467, 38.851049004748248 ] ], [ [ -120.010092483069769, 38.8508117185252 ], [ -120.009969950285566, 38.850843048111734 ], [ -120.009882788789142, 38.850906880486725 ], [ -120.010092483069769, 38.8508117185252 ] ], [ [ -120.003888855340946, 38.851894278879229 ], [ -120.003248905757786, 38.851769739667461 ], [ -120.003914231330086, 38.851909284877486 ], [ -120.003888855340946, 38.851894278879229 ] ], [ [ -120.003112039710985, 38.851655448338008 ], [ -120.003114581756265, 38.851676200811447 ], [ -120.003248905757786, 38.851769739667461 ], [ -120.003112039710985, 38.851655448338008 ] ], [ [ -120.003049460198739, 38.85114456567301 ], [ -120.003074208225229, 38.851346602696808 ], [ -120.003065184353574, 38.851206467435723 ], [ -120.003176490318239, 38.851299415235374 ], [ -120.003186837872391, 38.851286881376957 ], [ -120.003049460198739, 38.85114456567301 ] ], [ [ -120.002509891157231, 38.846452352807312 ], [ -120.002425245378021, 38.84614502466227 ], [ -120.002439189427164, 38.846361597460131 ], [ -120.002509891157231, 38.846452352807312 ] ], [ [ -120.002813824317812, 38.846767613086946 ], [ -120.002618810381676, 38.846592165026642 ], [ -120.002816802971566, 38.846846313090595 ], [ -120.002813824317812, 38.846767613086946 ] ], [ [ -120.003119533562483, 38.851009666516198 ], [ -120.003116132297436, 38.850375036481616 ], [ -120.003090129568207, 38.850612518073667 ], [ -120.003119533562483, 38.851009666516198 ] ], [ [ -120.006289335762787, 38.856190086932813 ], [ -120.005953118338581, 38.855965246465011 ], [ -120.005811786007342, 38.855911724520631 ], [ -120.006289335762787, 38.856190086932813 ] ], [ [ -120.005399914616447, 38.855969069333959 ], [ -120.005374690388877, 38.855992129756849 ], [ -120.005759282133454, 38.855891841467127 ], [ -120.005748971708641, 38.85588793693735 ], [ -120.005399914616447, 38.855969069333959 ] ], [ [ -120.004347677496909, 38.855717341704086 ], [ -120.00432190719134, 38.855681797722617 ], [ -120.004272000352159, 38.855940119326114 ], [ -120.004347677496909, 38.855717341704086 ] ], [ [ -120.00423597623174, 38.8555632762044 ], [ -120.004154294459653, 38.855450615035032 ], [ -120.004085239017812, 38.855448842181382 ], [ -120.00423597623174, 38.8555632762044 ] ], [ [ -120.012098543641955, 38.859438051810379 ], [ -120.011977412753026, 38.859579093291515 ], [ -120.012122317442063, 38.85942064264929 ], [ -120.012133317793769, 38.859472404000385 ], [ -120.012143829651578, 38.859457229248328 ], [ -120.012104917259492, 38.859285881930148 ], [ -120.012098543641955, 38.859438051810379 ] ], [ [ -120.011337624091041, 38.859631469590454 ], [ -120.011336995953002, 38.859633967709613 ], [ -120.011977412753026, 38.859579093291515 ], [ -120.011337624091041, 38.859631469590454 ] ], [ [ -120.012369263782631, 38.862575591389643 ], [ -120.012376118968263, 38.862552714612256 ], [ -120.012359469772008, 38.862561827215394 ], [ -120.012369263782631, 38.862575591389643 ] ], [ [ -120.010702325794796, 38.861960832438697 ], [ -120.010560909885371, 38.86203583308545 ], [ -120.010718043275517, 38.861973953586038 ], [ -120.010702325794796, 38.861960832438697 ] ], [ [ -120.010471299653133, 38.862083358152496 ], [ -120.010492530404335, 38.862082717926455 ], [ -120.010491523467948, 38.86207263240091 ], [ -120.010471299653133, 38.862083358152496 ] ], [ [ -120.010093580348027, 38.862073257991234 ], [ -120.010006739723238, 38.862159752115737 ], [ -120.010022332483913, 38.862153969064323 ], [ -120.010093580348027, 38.862073257991234 ] ], [ [ -120.010219645270439, 38.861930448425049 ], [ -120.009991701727458, 38.861870554250075 ], [ -120.010207273219237, 38.861944463833737 ], [ -120.010219645270439, 38.861930448425049 ] ], [ [ -120.007436471898018, 38.862572612918356 ], [ -120.007496779171859, 38.862563348810298 ], [ -120.007831151540159, 38.862283637498713 ], [ -120.007436471898018, 38.862572612918356 ] ], [ [ -120.006744591754483, 38.862780723415547 ], [ -120.006893705815457, 38.862655988458826 ], [ -120.00664328558274, 38.862782241792395 ], [ -120.006728027918385, 38.862759845811716 ], [ -120.006744591754483, 38.862780723415547 ] ], [ [ -120.006252143658102, 38.862567458868782 ], [ -120.006541594714548, 38.862809116884989 ], [ -120.006574126700301, 38.86280051927028 ], [ -120.006252143658102, 38.862567458868782 ] ], [ [ -120.006238072198087, 38.862377518593945 ], [ -120.006213656397478, 38.862386292802853 ], [ -120.006252143658102, 38.862567458868782 ], [ -120.006238072198087, 38.862377518593945 ] ], [ [ -120.006475193848345, 38.862194806072161 ], [ -120.006491477152977, 38.862271453230179 ], [ -120.006526547225874, 38.862258003015008 ], [ -120.006495193117686, 38.862267390590155 ], [ -120.006475193848345, 38.862194806072161 ] ], [ [ -120.006894853442745, 38.862079446189647 ], [ -120.006917543416861, 38.862108045504009 ], [ -120.006961283838237, 38.862091269757435 ], [ -120.006872588026567, 38.862060857205343 ], [ -120.006475193848345, 38.862194806072161 ], [ -120.006894853442745, 38.862079446189647 ] ], [ [ -120.00810137144768, 38.86133561907981 ], [ -120.008113795314785, 38.861247309171212 ], [ -120.008069950604735, 38.861360780383386 ], [ -120.00810137144768, 38.86133561907981 ] ], [ [ -120.008134205871571, 38.861102228598938 ], [ -120.007579082780737, 38.860601511650628 ], [ -120.008132148136156, 38.861116855251069 ], [ -120.008134205871571, 38.861102228598938 ] ], [ [ -120.00724661673695, 38.860286681539129 ], [ -120.007057619380817, 38.860247436419101 ], [ -120.007066931181527, 38.86025375920994 ], [ -120.00724661673695, 38.860286681539129 ] ], [ [ -120.009000824227414, 38.860616654292784 ], [ -120.008929571168423, 38.860606823345805 ], [ -120.008968197451992, 38.86064231352676 ], [ -120.009000824227414, 38.860616654292784 ] ], [ [ -120.007523260880333, 38.858636131839347 ], [ -120.007452260900862, 38.858629667290764 ], [ -120.007924780037428, 38.858952731740658 ], [ -120.007523260880333, 38.858636131839347 ] ], [ [ -120.007339839941082, 38.85858496084078 ], [ -120.007272310744455, 38.858575642502927 ], [ -120.007139127239441, 38.858623508388966 ], [ -120.007329404676895, 38.85861848112647 ], [ -120.007247781047212, 38.858611049152067 ], [ -120.007339839941082, 38.85858496084078 ] ], [ [ -120.007649098779538, 38.858664878539471 ], [ -120.007593074607527, 38.858619904265581 ], [ -120.00742627734202, 38.858596888257175 ], [ -120.007649098779538, 38.858664878539471 ] ], [ [ -120.008665561973146, 38.859422170688177 ], [ -120.008556500799003, 38.85927523186561 ], [ -120.008354746331932, 38.859175341115517 ], [ -120.008665561973146, 38.859422170688177 ] ], [ [ -120.012137448739537, 38.860159763576419 ], [ -120.01215745340069, 38.860232347350319 ], [ -120.012139333440416, 38.860114767111014 ], [ -120.012137448739537, 38.860159763576419 ] ], [ [ -120.006102052797786, 38.859554624427531 ], [ -120.005887401173879, 38.859452833997238 ], [ -120.006494826322253, 38.859865291841118 ], [ -120.006102052797786, 38.859554624427531 ] ], [ [ -120.006572903201047, 38.858718225961205 ], [ -120.006691535603281, 38.858686871356788 ], [ -120.006739840366663, 38.858634056812932 ], [ -120.006572903201047, 38.858718225961205 ] ], [ [ -120.011076814018821, 38.857778500290074 ], [ -120.011083723582374, 38.857808470631603 ], [ -120.011286373896993, 38.857921768401575 ], [ -120.011076814018821, 38.857778500290074 ] ], [ [ -120.011616232870054, 38.858849128693606 ], [ -120.01149434812325, 38.859008168267003 ], [ -120.011390122282265, 38.859422682391475 ], [ -120.011616232870054, 38.858849128693606 ] ], [ [ -120.008064796097997, 38.857262641120407 ], [ -120.008079512140938, 38.857461215123564 ], [ -120.008098488282215, 38.857440466296978 ], [ -120.008064796097997, 38.857262641120407 ] ], [ [ -120.007551964890936, 38.856853097954371 ], [ -120.007417625776839, 38.856759563523191 ], [ -120.008064796097997, 38.857262641120407 ], [ -120.007551964890936, 38.856853097954371 ] ], [ [ -120.006785367359569, 38.863590138390556 ], [ -120.006378143721093, 38.86395806682679 ], [ -120.006389444624688, 38.86398244480133 ], [ -120.006872756165947, 38.863544126171121 ], [ -120.006785367359569, 38.863590138390556 ] ], [ [ -120.007195882365735, 38.863373991668439 ], [ -120.00720881094712, 38.863384785246076 ], [ -120.007185789843462, 38.863384194800688 ], [ -120.007185999625719, 38.863379195218847 ], [ -120.007097935147343, 38.863425563658716 ], [ -120.007436842222361, 38.863355455810435 ], [ -120.007209566157286, 38.863366786750987 ], [ -120.007195882365735, 38.863373991668439 ] ], [ [ -120.007081257702211, 38.863129263599859 ], [ -120.006844763726832, 38.862906983166816 ], [ -120.007209566157286, 38.863366786750987 ], [ -120.007081257702211, 38.863129263599859 ] ], [ [ -120.007533350889332, 38.86336924706626 ], [ -120.007925485614649, 38.863331092778324 ], [ -120.007443335823837, 38.863355132062708 ], [ -120.007533350889332, 38.86336924706626 ] ], [ [ -120.008919254559828, 38.863222129472582 ], [ -120.009169380810519, 38.863344963909128 ], [ -120.008944452914463, 38.863213073453458 ], [ -120.008919254559828, 38.863222129472582 ] ], [ [ -120.008757264990848, 38.863280346601961 ], [ -120.008704806972048, 38.863322244738448 ], [ -120.008674279761351, 38.863366306643982 ], [ -120.008844619397223, 38.863248952505231 ], [ -120.008757264990848, 38.863280346601961 ] ], [ [ -120.00947053738841, 38.862758092664393 ], [ -120.009429611256934, 38.862757043787262 ], [ -120.009648668367788, 38.862906800730087 ], [ -120.00947053738841, 38.862758092664393 ] ], [ [ -120.008637630395071, 38.863385386975182 ], [ -120.008669834925144, 38.863350176814855 ], [ -120.008609726655536, 38.863398185043799 ], [ -120.008603592096989, 38.863415006155833 ], [ -120.008646263320472, 38.863385608285427 ], [ -120.008637630395071, 38.863385386975182 ] ], [ [ -120.008529186198757, 38.863462512221382 ], [ -120.008531650450848, 38.863464569468839 ], [ -120.008545404008501, 38.863455094133371 ], [ -120.008542526364195, 38.863455020360767 ], [ -120.008560547101993, 38.863437464478118 ], [ -120.008529186198757, 38.863462512221382 ] ], [ [ -120.008506378255362, 38.863480728755981 ], [ -120.008507199672692, 38.863481414505294 ], [ -120.008520189149991, 38.863472465580394 ], [ -120.008518750327539, 38.863472428693768 ], [ -120.00851881895322, 38.863470792465002 ], [ -120.008506378255362, 38.863480728755981 ] ], [ [ -120.003692388747709, 38.862849142002425 ], [ -120.00367793475256, 38.862951832972868 ], [ -120.003471801651273, 38.862967269245772 ], [ -120.004781426627304, 38.863016199079048 ], [ -120.003770018317923, 38.862954197470984 ], [ -120.003769262251723, 38.862972195910736 ], [ -120.00370019955929, 38.862970422542809 ], [ -120.003692388747709, 38.862849142002425 ] ], [ [ -120.003706842691741, 38.862746451026979 ], [ -120.003779847116945, 38.862720217748503 ], [ -120.003710784667604, 38.862718444396435 ], [ -120.003706842691741, 38.862746451026979 ] ], [ [ -120.002838701053221, 38.863042891556063 ], [ -120.003047263131847, 38.862999059628841 ], [ -120.002961262408306, 38.863005499360511 ], [ -120.002838701053221, 38.863042891556063 ] ], [ [ -120.001855071494589, 38.863553653444299 ], [ -120.002656715787325, 38.863098413053329 ], [ -120.002471016259847, 38.863155067337665 ], [ -120.001855071494589, 38.863553653444299 ] ], [ [ -120.002064733987751, 38.863842821375556 ], [ -120.002087768703092, 38.863865935491873 ], [ -120.002032431187246, 38.863720370984979 ], [ -120.001855071494589, 38.863553653444299 ], [ -120.002064733987751, 38.863842821375556 ] ], [ [ -120.001354225720306, 38.86395519407921 ], [ -120.001805183174866, 38.863625064293615 ], [ -120.001783738611181, 38.863605874137541 ], [ -120.001354225720306, 38.86395519407921 ] ], [ [ -120.000939551579137, 38.864316905640777 ], [ -120.000991646619909, 38.864250073173586 ], [ -120.00093574765495, 38.864295534471971 ], [ -120.000947729879456, 38.864305103944595 ], [ -120.000939551579137, 38.864316905640777 ] ], [ [ -120.001088248178931, 38.863155573529554 ], [ -120.001063713770463, 38.863190978669586 ], [ -120.001064839199529, 38.863164211826557 ], [ -120.000374156574068, 38.863695771950042 ], [ -120.001086734682772, 38.863191570319231 ], [ -120.001158824343861, 38.863121351656879 ], [ -120.001135803452669, 38.863120760022333 ], [ -120.001136288538731, 38.863109222589088 ], [ -120.001117235392371, 38.863123886390511 ], [ -120.001135046717877, 38.863138758418081 ], [ -120.001112025821584, 38.863138166778619 ], [ -120.001112472104609, 38.863127552340295 ], [ -120.00109401435968, 38.8631417578938 ], [ -120.001111269080326, 38.863156165173912 ], [ -120.001088248178931, 38.863155573529554 ] ], [ [ -120.00108865565818, 38.863145882086123 ], [ -120.001076456985757, 38.863155270490445 ], [ -120.001088248178931, 38.863155573529554 ], [ -120.00108865565818, 38.863145882086123 ] ], [ [ -120.001176846736712, 38.863103796983289 ], [ -120.001159581072216, 38.863103353260634 ], [ -120.001160104960675, 38.863090892832446 ], [ -120.001140456413452, 38.863106014882064 ], [ -120.001158824343861, 38.863121351656872 ], [ -120.001176846736712, 38.863103796983289 ] ], [ [ -120.001194869120567, 38.863086242306565 ], [ -120.001183358680166, 38.863085946493626 ], [ -120.001167075618397, 38.863085528024619 ], [ -120.001163677422895, 38.863088143368486 ], [ -120.001179421363517, 38.863101289172519 ], [ -120.001194869120567, 38.863086242306565 ] ], [ [ -120.001183921370369, 38.863072563070411 ], [ -120.00117528792326, 38.863079207609786 ], [ -120.001183358680166, 38.863085946493626 ], [ -120.001183921370369, 38.863072563070411 ] ], [ [ -120.001186898420713, 38.863070271849786 ], [ -120.001200018371449, 38.863081226684031 ], [ -120.001303003235194, 38.862980914179253 ], [ -120.001186898420713, 38.863070271849786 ] ], [ [ -120.001316593281459, 38.862943660963893 ], [ -120.001304516610887, 38.862944917381164 ], [ -120.001287549295654, 38.862800338585458 ], [ -120.001303003235194, 38.862980914179253 ], [ -120.001316593281459, 38.862943660963893 ] ], [ [ -120.000929054815558, 38.86255689324247 ], [ -120.000906034111225, 38.862556301569811 ], [ -120.000906706801771, 38.862540302997552 ], [ -120.000894146449497, 38.862548470508855 ], [ -120.000960054813447, 38.862626812993064 ], [ -120.000951318754645, 38.862575483305093 ], [ -120.001287549295654, 38.862800338585458 ], [ -120.000929054815558, 38.86255689324247 ] ], [ [ -120.001096253589978, 38.862417047647881 ], [ -120.000908100530538, 38.862539396709458 ], [ -120.000929054815558, 38.86255689324247 ], [ -120.001096253589978, 38.862417047647881 ] ], [ [ -120.002129041024844, 38.862667990030658 ], [ -120.00158227994622, 38.862916019463384 ], [ -120.002153896992297, 38.862678456529473 ], [ -120.002122350012215, 38.862677646046372 ], [ -120.002129041024844, 38.862667990030658 ] ], [ [ -120.00216962080134, 38.862649581487624 ], [ -120.002168665165087, 38.862672318846045 ], [ -120.002649980888819, 38.862472281385635 ], [ -120.002522023267659, 38.862489717193476 ], [ -120.00216962080134, 38.862649581487624 ] ], [ [ -120.003078301797814, 38.862413916272949 ], [ -120.002763157004239, 38.862456859615449 ], [ -120.003677994804562, 38.862445196897959 ], [ -120.003692187475522, 38.8624296811942 ], [ -120.003078301797814, 38.862413916272949 ] ], [ [ -120.003722881771992, 38.862430469355708 ], [ -120.003722286836492, 38.862444632063031 ], [ -120.004091213423777, 38.86243992666558 ], [ -120.003722881771992, 38.862430469355708 ] ], [ [ -120.005589451522923, 38.862433338883527 ], [ -120.005612850079928, 38.86242493039564 ], [ -120.005638137581727, 38.862371525722217 ], [ -120.005579159266063, 38.862428979798601 ], [ -120.005589451522923, 38.862433338883527 ] ], [ [ -120.001059293060663, 38.862199883603893 ], [ -120.001031027634028, 38.861844430822998 ], [ -120.001003852609927, 38.861874137519564 ], [ -120.001059293060663, 38.862199883603893 ] ], [ [ -120.001100474813171, 38.861768513676061 ], [ -120.001319224204053, 38.861608371139653 ], [ -120.001185948057696, 38.86167507712161 ], [ -120.001100474813171, 38.861768513676061 ] ], [ [ -120.001582878471027, 38.861476408826213 ], [ -120.001629521732767, 38.861456712027874 ], [ -120.001620543288723, 38.861457557014994 ], [ -120.001582878471027, 38.861476408826213 ] ], [ [ -120.001955209099805, 38.861043337042503 ], [ -120.001936730926872, 38.861253764818336 ], [ -120.001975683026672, 38.861232449911746 ], [ -120.001981734779207, 38.861088462585741 ], [ -120.001955209099805, 38.861043337042503 ] ], [ [ -120.002734314506824, 38.864567222917813 ], [ -120.002396558256777, 38.864378368182834 ], [ -120.002748013036239, 38.864598910169782 ], [ -120.002734314506824, 38.864567222917813 ] ], [ [ -120.000682128668572, 38.866784738685155 ], [ -120.000567775338951, 38.866763781389309 ], [ -120.000697997256893, 38.866826481610808 ], [ -120.000682128668572, 38.866784738685155 ] ], [ [ -120.000452353046853, 38.866220279319258 ], [ -120.000350958797853, 38.86627651227743 ], [ -120.000457062926756, 38.866224211858501 ], [ -120.000452353046853, 38.866220279319258 ] ], [ [ -120.000325577104675, 38.865946752774207 ], [ -120.000279733761502, 38.865897407759192 ], [ -120.000336251565912, 38.866003120446166 ], [ -120.000325577104675, 38.865946752774207 ] ], [ [ -120.000146484802997, 38.865648173429506 ], [ -120.000169274825055, 38.865690800949885 ], [ -120.000163357339744, 38.865420065191351 ], [ -120.000153515740337, 38.865654044030073 ], [ -120.000146484802997, 38.865648173429506 ] ], [ [ -120.000697472625205, 38.864666235525291 ], [ -120.000653309308305, 38.864729964559636 ], [ -120.000496257354499, 38.865176373457622 ], [ -120.000697472625205, 38.864666235525291 ] ], [ [ -119.99982128685555, 38.86400330531275 ], [ -119.999852551891195, 38.864042718829424 ], [ -119.999831801993381, 38.86398813181119 ], [ -119.99982128685555, 38.86400330531275 ] ], [ [ -120.000019928129362, 38.865542502554469 ], [ -119.999949348989148, 38.865576723608854 ], [ -120.000064457286726, 38.865579683061732 ], [ -120.000019928129362, 38.865542502554469 ] ], [ [ -119.99983314091152, 38.865881893710295 ], [ -119.999572978973305, 38.866305777395048 ], [ -119.999984035905186, 38.865847882936826 ], [ -119.999766997203977, 38.866076534405565 ], [ -119.99983314091152, 38.865881893710295 ] ], [ [ -119.999566164015533, 38.866467762633832 ], [ -119.999601333249245, 38.86650830620227 ], [ -119.999572978973305, 38.866305777395048 ], [ -119.999566164015533, 38.866467762633832 ] ], [ [ -119.999694596465602, 38.865606209142634 ], [ -119.999536710650347, 38.865677824238631 ], [ -119.999693839300335, 38.865624207506954 ], [ -119.999841656550558, 38.865856834701596 ], [ -119.99984590544139, 38.865844331464196 ], [ -119.999694596465602, 38.865606209142634 ] ], [ [ -119.998921408052652, 38.865932954433838 ], [ -119.998850669472461, 38.865944862918063 ], [ -119.99894199912724, 38.865965229725305 ], [ -119.999025459230623, 38.865909719180969 ], [ -119.998942756491275, 38.865947231374435 ], [ -119.998921408052652, 38.865932954433838 ] ], [ [ -119.998618636192305, 38.865730472300896 ], [ -119.998628783824017, 38.865740959654467 ], [ -119.998681238712294, 38.865772338604231 ], [ -119.998618636192305, 38.865730472300896 ] ], [ [ -119.997896636040906, 38.865614018070701 ], [ -119.997819151083434, 38.865725821288493 ], [ -119.998253323412897, 38.86535292705382 ], [ -119.998569500333417, 38.865679691420311 ], [ -119.998259278848366, 38.865322049553185 ], [ -119.997896636040906, 38.865614018070701 ] ], [ [ -119.999038612318131, 38.864953960332016 ], [ -119.998373733601653, 38.865229899759825 ], [ -119.998280258779943, 38.865305158221162 ], [ -119.999038612318131, 38.864953960332016 ] ], [ [ -119.999876638862204, 38.864565855398141 ], [ -119.999954030624409, 38.864369648995137 ], [ -119.999832465750487, 38.864586313011046 ], [ -119.999876638862204, 38.864565855398141 ] ], [ [ -119.999117388048163, 38.864267642875738 ], [ -119.999078038241393, 38.864287115054758 ], [ -119.9991203119733, 38.864275335083306 ], [ -119.999117388048163, 38.864267642875738 ] ], [ [ -120.000969798891092, 38.862684065336708 ], [ -120.000969406739188, 38.862681761208755 ], [ -119.999691853303773, 38.863480034008695 ], [ -120.000969798891092, 38.862684065336708 ] ], [ [ -119.997697385392541, 38.864967343387271 ], [ -119.997710959260928, 38.864955939224423 ], [ -119.997704348374015, 38.864950419006504 ], [ -119.997697385392541, 38.864967343387271 ] ], [ [ -119.99757404257349, 38.86506518305665 ], [ -119.997143742993245, 38.865432484570725 ], [ -119.997665288812811, 38.864994309489923 ], [ -119.997574800258107, 38.865047184725597 ], [ -119.997555567263504, 38.86495660070581 ], [ -119.99757404257349, 38.86506518305665 ] ], [ [ -119.997744284373525, 38.864853349482217 ], [ -119.99773401512762, 38.864878310218899 ], [ -119.997767305751822, 38.864853941807297 ], [ -119.997683248540341, 38.864797725564273 ], [ -119.99769824161892, 38.864852164818444 ], [ -119.997655229499543, 38.864778986804197 ], [ -119.997697483970668, 38.864870163152105 ], [ -119.997555567263504, 38.86495660070581 ], [ -119.997744284373525, 38.864853349482217 ] ], [ [ -119.997039750394947, 38.865678679497961 ], [ -119.997061697614697, 38.865626721210553 ], [ -119.997011999810042, 38.865605668797635 ], [ -119.997039750394947, 38.865678679497961 ] ], [ [ -119.996105941806391, 38.865552836806586 ], [ -119.996704059883498, 38.865475222090424 ], [ -119.996172290113705, 38.86551558738455 ], [ -119.996105941806391, 38.865552836806586 ] ], [ [ -119.995780442503118, 38.866064051753732 ], [ -119.995558565669668, 38.865860142984914 ], [ -119.995779822186705, 38.866078777634122 ], [ -119.995780442503118, 38.866064051753732 ] ], [ [ -119.995777409840912, 38.866136044946344 ], [ -119.995777788924286, 38.866127045797299 ], [ -119.995753629918127, 38.866153450510282 ], [ -119.995775893505751, 38.866172041542235 ], [ -119.995777409840912, 38.866136044946344 ] ], [ [ -119.995892518599746, 38.866139008546646 ], [ -119.995932080256551, 38.866181263735534 ], [ -119.995893276737348, 38.866121010246736 ], [ -119.995775893505751, 38.866172041542235 ], [ -119.995892518599746, 38.866139008546646 ] ], [ [ -119.996055086761785, 38.866656701677492 ], [ -119.995855110141179, 38.866502233642841 ], [ -119.995941114360022, 38.86662674075572 ], [ -119.996055086761785, 38.866656701677492 ] ], [ [ -119.996315086522259, 38.866857531945556 ], [ -119.996246407197717, 38.866804482492043 ], [ -119.996277346439527, 38.866851610480168 ], [ -119.996315086522259, 38.866857531945556 ] ], [ [ -119.99649130337103, 38.866993645269197 ], [ -119.996480738735983, 38.866985484960964 ], [ -119.996488778579661, 38.866999163531688 ], [ -119.99649130337103, 38.866993645269197 ] ], [ [ -119.996096760124331, 38.867855959340424 ], [ -119.996273829286011, 38.867468959789647 ], [ -119.996011613074828, 38.867988309055747 ], [ -119.996096760124331, 38.867855959340424 ] ], [ [ -120.000661909437554, 38.862272418595772 ], [ -120.000437856846915, 38.861985346748178 ], [ -120.000412289132484, 38.861967039374782 ], [ -120.00044379237498, 38.862039920568201 ], [ -120.000186024938287, 38.862141401240144 ], [ -120.000466812903042, 38.8620405123254 ], [ -120.000661909437554, 38.862272418595772 ] ], [ [ -119.99947345179605, 38.862645597608463 ], [ -119.99893819606956, 38.862787018605481 ], [ -119.998960181063964, 38.862794558677656 ], [ -119.99947345179605, 38.862645597608463 ] ], [ [ -119.998905658286773, 38.862775859291396 ], [ -119.998808123629644, 38.862574433832307 ], [ -119.998846591978563, 38.862755601595417 ], [ -119.998905658286773, 38.862775859291396 ] ], [ [ -119.998804792856191, 38.862105884392449 ], [ -119.998725499977311, 38.862103844967343 ], [ -119.998731081592311, 38.862159843825737 ], [ -119.998804792856191, 38.862105884392449 ] ], [ [ -119.998711510592898, 38.862174170515239 ], [ -119.998457213068789, 38.86215099769651 ], [ -119.998685903665901, 38.862192915711027 ], [ -119.998711510592898, 38.862174170515239 ] ], [ [ -119.998102354229005, 38.862916636074694 ], [ -119.998100165910998, 38.862968631297221 ], [ -119.998123102523493, 38.862971223344459 ], [ -119.998102354229005, 38.862916636074694 ] ], [ [ -119.997916673081392, 38.862947894759237 ], [ -119.997517485602629, 38.86304573092761 ], [ -119.99795816942607, 38.863057069350909 ], [ -119.997729476609805, 38.863015149821372 ], [ -119.997916673081392, 38.862947894759237 ] ], [ [ -119.997554985127053, 38.863875516026141 ], [ -119.997158104402601, 38.863835626834906 ], [ -119.997232690372584, 38.863867222651066 ], [ -119.997554985127053, 38.863875516026141 ] ], [ [ -119.997070103315977, 38.863798348064265 ], [ -119.997065709129444, 38.86375562831654 ], [ -119.99703007657628, 38.863757491004229 ], [ -119.997030269536594, 38.863781473757705 ], [ -119.997070103315977, 38.863798348064265 ] ], [ [ -119.997030404684295, 38.863798271094012 ], [ -119.997037442296431, 38.864673000250093 ], [ -119.997072300824001, 38.863845077304134 ], [ -119.997030404684295, 38.863798271094012 ] ], [ [ -119.996069790036373, 38.864666111057502 ], [ -119.995663807278333, 38.864676336986321 ], [ -119.997037442296431, 38.864673000250093 ], [ -119.996069790036373, 38.864666111057502 ] ], [ [ -119.9950139845796, 38.864677909849661 ], [ -119.995014844753484, 38.864675552615012 ], [ -119.994479047816711, 38.864679201919067 ], [ -119.9950139845796, 38.864677909849661 ] ], [ [ -119.997010815635889, 38.863663316685972 ], [ -119.997063888934477, 38.863737932591967 ], [ -119.996996773150272, 38.863085436468651 ], [ -119.997010815635889, 38.863663316685972 ] ], [ [ -120.000519425904059, 38.861995018363899 ], [ -120.000560408722336, 38.862006882529606 ], [ -120.000634768092098, 38.861882668979597 ], [ -120.000519425904059, 38.861995018363899 ] ], [ [ -119.995034591337244, 38.864621438703566 ], [ -119.994994996090284, 38.864600643358706 ], [ -119.995022249726219, 38.864655259898797 ], [ -119.995034591337244, 38.864621438703566 ] ], [ [ -119.999711865381826, 38.866635728785567 ], [ -119.999742010576128, 38.866670480383341 ], [ -119.999601282376588, 38.866728637222678 ], [ -119.999768364761422, 38.866677670485238 ], [ -119.999711865381826, 38.866635728785567 ] ], [ [ -119.999571755861083, 38.86673764394493 ], [ -119.999371386737707, 38.866715003563598 ], [ -119.99953001395761, 38.866750376813158 ], [ -119.999571755861083, 38.86673764394493 ] ], [ [ -119.999194026534212, 38.866548282000338 ], [ -119.999157907738876, 38.866536754392811 ], [ -119.999371386737707, 38.866715003563598 ], [ -119.999194026534212, 38.866548282000338 ] ], [ [ -119.998195198613331, 38.866699910792505 ], [ -119.997749331142757, 38.866661529004304 ], [ -119.997805133767656, 38.866692733357695 ], [ -119.998172727835353, 38.86672020853387 ], [ -119.998195198613331, 38.866699910792505 ] ], [ [ -119.997303815479881, 38.866641351792161 ], [ -119.997423335307417, 38.866633465074877 ], [ -119.997346967810202, 38.866626890709256 ], [ -119.997368018099465, 38.866477441925653 ], [ -119.997326977024414, 38.866554304989975 ], [ -119.997303815479881, 38.866641351792161 ] ], [ [ -119.996901950459915, 38.866431255965296 ], [ -119.996938636059411, 38.866472239739799 ], [ -119.997326977024414, 38.866554304989975 ], [ -119.996901950459915, 38.866431255965296 ] ], [ [ -119.999771089968377, 38.866527085437838 ], [ -119.999794647159391, 38.866550724250772 ], [ -119.99982032912132, 38.866538065444033 ], [ -119.999771089968377, 38.866527085437838 ] ], [ [ -119.999818243830077, 38.86669979743354 ], [ -119.999837128175315, 38.866717395610607 ], [ -119.999881656918078, 38.866638035313564 ], [ -119.999818243830077, 38.86669979743354 ] ], [ [ -119.996346041816153, 38.866623405957512 ], [ -119.996181946579483, 38.866380691334349 ], [ -119.996085880469607, 38.866345534764619 ], [ -119.996346041816153, 38.866623405957512 ] ], [ [ -119.996521686685909, 38.866883201753616 ], [ -119.996509708496475, 38.866953418425119 ], [ -119.996756734802233, 38.866413504600935 ], [ -119.996814668411389, 38.866405986784343 ], [ -119.996780514584188, 38.866396098826819 ], [ -119.996821060277426, 38.866202887747299 ], [ -119.996529072391766, 38.86689412588386 ], [ -119.996521686685909, 38.866883201753616 ] ], [ [ -119.996290594892983, 38.868725804423519 ], [ -119.99619774638262, 38.868741432031399 ], [ -119.996358898928634, 38.868727647721755 ], [ -119.996308022172229, 38.868698822546449 ], [ -119.996290594892983, 38.868725804423519 ] ], [ [ -119.996191453868931, 38.868890817893451 ], [ -119.996240759097958, 38.868814610575889 ], [ -119.99619774638262, 38.868741432031399 ], [ -119.996191453868931, 38.868890817893451 ] ], [ [ -119.999144127259939, 38.867029950062694 ], [ -119.998724039539013, 38.86731096079717 ], [ -119.998625890926931, 38.867452578829116 ], [ -119.999144127259939, 38.867029950062694 ] ] ], [ [ [ -120.013580479167075, 38.864773247212504 ], [ -120.013563074124079, 38.864088122141581 ], [ -120.013638167379213, 38.863945900929345 ], [ -120.014037820147777, 38.863757931720023 ], [ -120.014383140743334, 38.863766767736877 ], [ -120.014495234104572, 38.86384170730377 ], [ -120.0143865733327, 38.864235320663802 ], [ -120.014390759203465, 38.864685874950716 ], [ -120.014248108338563, 38.864790332245711 ], [ -120.013580479167075, 38.864773247212504 ] ] ], [ [ [ -120.013245018132267, 38.865629519442116 ], [ -120.013157452938955, 38.865519170762234 ], [ -120.013159714240302, 38.86546517500296 ], [ -120.013966234719788, 38.865467799004627 ], [ -120.013771508804282, 38.865715066107448 ], [ -120.01365639884493, 38.865712120155635 ], [ -120.013614123152962, 38.865620948776481 ], [ -120.013245018132267, 38.865629519442116 ] ] ], [ [ [ -120.008371970533958, 38.856531783262128 ], [ -120.008368196861781, 38.856621775938102 ], [ -120.008070460217226, 38.856578106820372 ], [ -120.008144045746633, 38.8564718861712 ], [ -120.008371970533958, 38.856531783262128 ] ] ], [ [ [ -120.008069705406896, 38.85659610535059 ], [ -120.008070460217226, 38.856578106820372 ], [ -120.008092724340571, 38.856596695535636 ], [ -120.008069705406896, 38.85659610535059 ] ] ], [ [ [ -120.012283374549483, 38.865478775610342 ], [ -120.012284128536578, 38.865460777038201 ], [ -120.012352440210762, 38.865480543998117 ], [ -120.012283374549483, 38.865478775610342 ] ] ] ] } }
]
}
