{
"type": "FeatureCollection",
"name": "X01521",
"crs": { "type": "name", "properties": { "name": "urn:ogc:def:crs:OGC:1.3:CRS84" } },
"features": [
{ "type": "Feature", "properties": { "part": "direct", "crossing_id": "X01521", "area_ac": 9.5 }, "geometry": { "type": "MultiPolygon", "coordinates": [ [ [ [ -120.041535651774311, 38.866998874337412 ], [ -120.041545981676279, 38.867305441833047 ], [ -120.041326826472115, 38.867588172792317 ], [ -120.041314878856696, 38.867876157433543 ], [ -120.041467828100878, 38.86807823321876 ], [ -120.04077537455818, 38.869213824310989 ], [ -120.03950832556545, 38.869199701972988 ], [ -120.039064897543838, 38.869332594305263 ], [ -120.038720289698858, 38.869305831224935 ], [ -120.038695023733979, 38.869359243893719 ], [ -120.038282092483271, 38.869312727576528 ], [ -120.038216011687197, 38.86923897843949 ], [ -120.037685720421763, 38.869243534909273 ], [ -120.037811305680648, 38.868994471699445 ], [ -120.037973965784758, 38.868962564994845 ], [ -120.038071293020735, 38.868838909869815 ], [ -120.038418888201903, 38.868793678814669 ], [ -120.038497675747905, 38.868561444987286 ], [ -120.039056216784061, 38.86843147585185 ], [ -120.039630446389907, 38.867923524722336 ], [ -120.039769333005438, 38.86790903028259 ], [ -120.040108705455225, 38.868061783156243 ], [ -120.040452693280912, 38.867547987206983 ], [ -120.04073643971509, 38.867375003877896 ], [ -120.040873831455642, 38.867396506136743 ], [ -120.041062496987863, 38.867293182630554 ], [ -120.041373744179339, 38.867012787214477 ], [ -120.041535651774311, 38.866998874337412 ] ] ], [ [ [ -120.041491099125381, 38.866961708793731 ], [ -120.041513375444069, 38.866980291567508 ], [ -120.041490352462532, 38.866979707838929 ], [ -120.041491099125381, 38.866961708793731 ] ] ] ] } }
]
}
