{
"type": "FeatureCollection",
"name": "X01513",
"crs": { "type": "name", "properties": { "name": "urn:ogc:def:crs:OGC:1.3:CRS84" } },
"features": [
{ "type": "Feature", "properties": { "part": "direct", "crossing_id": "X01513", "area_ac": 1.5 }, "geometry": { "type": "Polygon", "coordinates": [ [ [ -119.965124113131637, 38.90676540814944 ], [ -119.965065772332053, 38.907052172141164 ], [ -119.965154841536261, 38.907126560002141 ], [ -119.965056567938731, 38.907268144074585 ], [ -119.965214740597631, 38.907344329828312 ], [ -119.965134132064691, 38.907612496872382 ], [ -119.965247003522251, 38.907669486329489 ], [ -119.965243168514775, 38.907759474641871 ], [ -119.96471951137292, 38.907601708645501 ], [ -119.96409372841768, 38.907134982932966 ], [ -119.964406984044473, 38.906818818393177 ], [ -119.964868435594454, 38.906812808594069 ], [ -119.964957504299235, 38.906887196588237 ], [ -119.965124113131637, 38.90676540814944 ] ] ] } }
]
}
