{
"type": "FeatureCollection",
"name": "X01573",
"crs": { "type": "name", "properties": { "name": "urn:ogc:def:crs:OGC:1.3:CRS84" } },
"features": [
{ "type": "Feature", "properties": { "part": "direct", "crossing_id": "X01573", "area_ac": 7.8, "n_upstream": null }, "geometry": { "type": "MultiPolygon", "coordinates": [ [ [ [ -120.015378740497951, 38.814062699493313 ], [ -120.015400994067292, 38.814081286481489 ], [ -120.015377988670849, 38.814080698274879 ], [ -120.015378740497951, 38.814062699493313 ] ] ], [ [ [ -120.015885453247748, 38.812958537701064 ], [ -120.016078217830213, 38.813305807496299 ], [ -120.016113705424416, 38.813558966749781 ], [ -120.016205726404721, 38.813561318943172 ], [ -120.016336242156186, 38.813744835084236 ], [ -120.01706582471067, 38.815024741622928 ], [ -120.016711720534573, 38.815231908390814 ], [ -120.016399410266843, 38.814989692160047 ], [ -120.016209646601283, 38.814570427566458 ], [ -120.015881100741026, 38.814165632934255 ], [ -120.015400242245292, 38.814099285263403 ], [ -120.015630296304565, 38.814105167084463 ], [ -120.015841103570082, 38.814020466390843 ], [ -120.015973122482421, 38.814167985341584 ], [ -120.016019885025244, 38.81415116272624 ], [ -120.015687583344601, 38.813836361591079 ], [ -120.015482039044215, 38.81379507053645 ], [ -120.015112450454197, 38.8138216565576 ], [ -120.014877133783713, 38.813941765170817 ], [ -120.014487547179826, 38.813895765785134 ], [ -120.014134193980581, 38.814084925925009 ], [ -120.013904892498488, 38.814061042403267 ], [ -120.013717088421387, 38.814146328040437 ], [ -120.013516810672698, 38.81397904226769 ], [ -120.013242251552427, 38.813935981559794 ], [ -120.013008436436351, 38.814020088773027 ], [ -120.012549835107365, 38.813972316904525 ], [ -120.012407287870445, 38.814076776634785 ], [ -120.011898159905229, 38.814135816975238 ], [ -120.011826132992439, 38.814206045162472 ], [ -120.01095042383821, 38.814219660740989 ], [ -120.010724135401233, 38.81412377616671 ], [ -120.010196519661932, 38.814074227685232 ], [ -120.010132022689007, 38.813964467804773 ], [ -120.010203297816432, 38.813912239414627 ], [ -120.010891949210972, 38.813965911565191 ], [ -120.011072226807983, 38.814060617701458 ], [ -120.011120496101796, 38.814007799670073 ], [ -120.011856665510436, 38.814026646834662 ], [ -120.01222776094707, 38.813964073760282 ], [ -120.012533602657285, 38.813809739519598 ], [ -120.013228274601715, 38.813719407966495 ], [ -120.013675905604728, 38.813478608504212 ], [ -120.013998730163038, 38.813468848809627 ], [ -120.014065489251607, 38.813524610492827 ], [ -120.014491615311414, 38.813247221740269 ], [ -120.015043738130743, 38.813261341385953 ], [ -120.015885453247748, 38.812958537701064 ] ] ] ] } },
{ "type": "Feature", "properties": { "part": "upstream", "crossing_id": "X01573", "area_ac": 0.5, "n_upstream": 3.0 }, "geometry": { "type": "MultiPolygon", "coordinates": [ [ [ [ -120.01586410895689, 38.814021054505496 ], [ -120.015630296304565, 38.814105167084463 ], [ -120.015400994067292, 38.814081286481489 ], [ -120.015334985230538, 38.814007526724353 ], [ -120.015055161282419, 38.814090461683875 ], [ -120.014871870118881, 38.814067756585466 ], [ -120.014877885733142, 38.813923766396996 ], [ -120.01518221824854, 38.813805422531665 ], [ -120.015687583344601, 38.813836361591079 ], [ -120.01586410895689, 38.814021054505496 ] ] ], [ [ [ -120.015840351860462, 38.814038465180147 ], [ -120.015909368040198, 38.814040229511662 ], [ -120.015973874162086, 38.814149986550454 ], [ -120.015840351860462, 38.814038465180147 ] ] ], [ [ [ -120.015997631266558, 38.814132575849079 ], [ -120.016019885025244, 38.81415116272624 ], [ -120.015996879593317, 38.814150574640607 ], [ -120.015997631266558, 38.814132575849079 ] ] ], [ [ [ -120.015973874162086, 38.814149986550454 ], [ -120.015996127919422, 38.814168573432113 ], [ -120.015973122482421, 38.814167985341584 ], [ -120.015973874162086, 38.814149986550454 ] ] ], [ [ [ -120.016421664387835, 38.815008278972932 ], [ -120.016466924243574, 38.815027453790627 ], [ -120.016465421084689, 38.815063451383544 ], [ -120.016421664387835, 38.815008278972932 ] ] ], [ [ [ -120.01650617155974, 38.815190618967101 ], [ -120.016487675245415, 38.815082038185167 ], [ -120.01666646048092, 38.815212733660914 ], [ -120.016665708947073, 38.815230732460137 ], [ -120.01650617155974, 38.815190618967101 ] ] ], [ [ [ -120.016667212014113, 38.815194734861691 ], [ -120.016689466268559, 38.815213321628143 ], [ -120.01666646048092, 38.815212733660914 ], [ -120.016667212014113, 38.815194734861691 ] ] ] ] } }
]
}
