{
"type": "FeatureCollection",
"name": "X01694",
"crs": { "type": "name", "properties": { "name": "urn:ogc:def:crs:OGC:1.3:CRS84" } },
"features": [
{ "type": "Feature", "properties": { "part": "direct", "crossing_id": "X01694", "area_ac": 0.0 }, "geometry": { "type": "MultiPolygon", "coordinates": [ [ [ [ -120.005566808559564, 38.862423748895566 ], [ -120.005612094492591, 38.862442928867353 ], [ -120.005566052960646, 38.862441747366496 ], [ -120.005566808559564, 38.862423748895566 ] ] ], [ [ [ -120.005753241311112, 38.862374479364846 ], [ -120.00570493312884, 38.862427293341455 ], [ -120.005612850079928, 38.862424930395647 ], [ -120.005638137581727, 38.862371525722217 ], [ -120.005753241311112, 38.862374479364846 ] ] ] ] } }
]
}
