{
"type": "FeatureCollection",
"name": "X01655",
"crs": { "type": "name", "properties": { "name": "urn:ogc:def:crs:OGC:1.3:CRS84" } },
"features": [
{ "type": "Feature", "properties": { "part": "direct", "crossing_id": "X01655", "area_ac": 1.4 }, "geometry": { "type": "Polygon", "coordinates": [ [ [ -119.999328046802887, 38.860623860373252 ], [ -119.999509178893817, 38.860700589425562 ], [ -119.999812534860155, 38.861158835476417 ], [ -119.999577033063545, 38.861278905155046 ], [ -119.999524935800807, 38.861421708302615 ], [ -119.999143738661672, 38.861718209052462 ], [ -119.998699535443109, 38.861868945251906 ], [ -119.999189474544579, 38.861178850002347 ], [ -119.999170240205359, 38.861088266157012 ], [ -119.998986078675088, 38.861083530024992 ], [ -119.998925347697977, 38.860883771876402 ], [ -119.999328046802887, 38.860623860373252 ] ] ] } }
]
}
