{
"type": "FeatureCollection",
"name": "X01696",
"crs": { "type": "name", "properties": { "name": "urn:ogc:def:crs:OGC:1.3:CRS84" } },
"features": [
{ "type": "Feature", "properties": { "part": "direct", "crossing_id": "X01696", "area_ac": 23.1 }, "geometry": { "type": "Polygon", "coordinates": [ [ [ -119.994392917492661, 38.870550789455564 ], [ -119.994617838914834, 38.87068270768971 ], [ -119.994588746996897, 38.870826100782807 ], [ -119.994924993510324, 38.871050974884575 ], [ -119.994902237761835, 38.871590922916369 ], [ -119.995012804176397, 38.871701877337003 ], [ -119.994996875311827, 38.872079840953958 ], [ -119.995531241678478, 38.872526029312603 ], [ -119.995391581980073, 38.872558468607068 ], [ -119.99552214080822, 38.872742008598287 ], [ -119.994561241074734, 38.874212738615824 ], [ -119.994329741974127, 38.874783344717336 ], [ -119.994068125250777, 38.874974800718348 ], [ -119.993819665958924, 38.875400826391008 ], [ -119.993630914644214, 38.875504069766059 ], [ -119.993404716575554, 38.875948685851064 ], [ -119.993265808329909, 38.875963124050834 ], [ -119.993109948007287, 38.875832982911682 ], [ -119.99312057536801, 38.875581007769398 ], [ -119.992668431939734, 38.875371158958579 ], [ -119.992580888623095, 38.875260795773869 ], [ -119.992420475518102, 38.875238643103856 ], [ -119.992131786199138, 38.874978952162799 ], [ -119.991562249014294, 38.874820126068066 ], [ -119.991565286868365, 38.874748133261555 ], [ -119.991961774186947, 38.874091697689167 ], [ -119.992570025246025, 38.873332612381397 ], [ -119.992793182640924, 38.872959990531591 ], [ -119.992751689547688, 38.872850814347004 ], [ -119.992891350824308, 38.872818378286709 ], [ -119.994392917492661, 38.870550789455564 ] ] ] } }
]
}
