{
"type": "FeatureCollection",
"name": "X01650",
"crs": { "type": "name", "properties": { "name": "urn:ogc:def:crs:OGC:1.3:CRS84" } },
"features": [
{ "type": "Feature", "properties": { "part": "direct", "crossing_id": "X01650", "area_ac": 0.3, "n_upstream": null }, "geometry": { "type": "Polygon", "coordinates": [ [ [ -119.995971758694381, 38.862069020500812 ], [ -119.996890303610186, 38.862146717514946 ], [ -119.997023122322247, 38.86227626051604 ], [ -119.9966985614533, 38.862321960933599 ], [ -119.996678572257977, 38.862249375131015 ], [ -119.996310244092768, 38.862239894482855 ], [ -119.996267234834136, 38.862166716047447 ], [ -119.995967210634547, 38.862177010382247 ], [ -119.995971758694381, 38.862069020500812 ] ] ] } },
{ "type": "Feature", "properties": { "part": "upstream", "crossing_id": "X01650", "area_ac": 0.0, "n_upstream": 1.0 }, "geometry": { "type": "Polygon", "coordinates": [ [ [ -119.995834394092995, 38.862047466259988 ], [ -119.995990989118141, 38.862159604709781 ], [ -119.995623419746394, 38.862132123603693 ], [ -119.995834394092995, 38.862047466259988 ] ] ] } }
]
}
