{
"type": "FeatureCollection",
"name": "X01676",
"crs": { "type": "name", "properties": { "name": "urn:ogc:def:crs:OGC:1.3:CRS84" } },
"features": [
{ "type": "Feature", "properties": { "part": "direct", "crossing_id": "X01676", "area_ac": 2.8, "n_upstream": null }, "geometry": { "type": "MultiPolygon", "coordinates": [ [ [ [ -120.005967138098939, 38.864415986012453 ], [ -120.00598940396381, 38.864434575182898 ], [ -120.005966382547285, 38.864433984483838 ], [ -120.005967138098939, 38.864415986012453 ] ] ], [ [ [ -120.005944872245678, 38.86439739683815 ], [ -120.005967138098939, 38.864415986012453 ], [ -120.005944116688909, 38.864415395309244 ], [ -120.005944872245678, 38.86439739683815 ] ] ], [ [ [ -120.006884611854915, 38.863971059241202 ], [ -120.007021229036539, 38.864010599226667 ], [ -120.007077453473855, 38.864318345010581 ], [ -120.007352955150338, 38.864343428949155 ], [ -120.007347668733971, 38.864469418408866 ], [ -120.007655621722492, 38.86481965545218 ], [ -120.006747205629097, 38.865048606209491 ], [ -120.006239218914587, 38.865071609846304 ], [ -120.006002202620877, 38.865227689291771 ], [ -120.005947847900231, 38.865424491026218 ], [ -120.005933893186594, 38.865207918689926 ], [ -120.006076556455028, 38.865103472088222 ], [ -120.00598940396381, 38.864434575182898 ], [ -120.006215085224014, 38.864548472776278 ], [ -120.006326813034505, 38.864082874939903 ], [ -120.006421164564628, 38.86403124196692 ], [ -120.006695154089755, 38.864092324373246 ], [ -120.006884611854915, 38.863971059241202 ] ] ] ] } },
{ "type": "Feature", "properties": { "part": "upstream", "crossing_id": "X01676", "area_ac": 0.2, "n_upstream": 1.0 }, "geometry": { "type": "Polygon", "coordinates": [ [ [ -120.00584034336363, 38.864142464679901 ], [ -120.006110555173123, 38.864293540819006 ], [ -120.006321524856276, 38.864208864286951 ], [ -120.006215085224014, 38.864548472776278 ], [ -120.005699948623672, 38.864192915667012 ], [ -120.00584034336363, 38.864142464679901 ] ] ] } }
]
}
