{
"type": "FeatureCollection",
"name": "X01636",
"crs": { "type": "name", "properties": { "name": "urn:ogc:def:crs:OGC:1.3:CRS84" } },
"features": [
{ "type": "Feature", "properties": { "part": "direct", "crossing_id": "X01636", "area_ac": 2.6, "n_upstream": null }, "geometry": { "type": "Polygon", "coordinates": [ [ [ -119.996704059883498, 38.865475222090424 ], [ -119.996999550966549, 38.865572916332276 ], [ -119.997041047152507, 38.865682091212804 ], [ -119.996529072391766, 38.86689412588386 ], [ -119.996181946579483, 38.866380691334349 ], [ -119.996023068066506, 38.866322547735855 ], [ -119.995893276737348, 38.866121010246736 ], [ -119.995775893505751, 38.866172041542235 ], [ -119.995780442503118, 38.866064051753732 ], [ -119.995558565669668, 38.865860142984914 ], [ -119.996008864945793, 38.865565433665097 ], [ -119.996704059883498, 38.865475222090424 ] ] ] } },
{ "type": "Feature", "properties": { "part": "upstream", "crossing_id": "X01636", "area_ac": 23.0, "n_upstream": 6.0 }, "geometry": { "type": "MultiPolygon", "coordinates": [ [ [ [ -119.997492387203707, 38.865909919766565 ], [ -119.997465576811322, 38.865999319006313 ], [ -119.99760219186642, 38.866038869963106 ], [ -119.997326977024414, 38.866554304989975 ], [ -119.997303815479881, 38.866641351792161 ], [ -119.997670032761306, 38.866617185932903 ], [ -119.997805133767656, 38.866692733357695 ], [ -119.998172727835353, 38.86672020853387 ], [ -119.998580008685309, 38.866352311210953 ], [ -119.999148739952972, 38.866529099512555 ], [ -119.999371386737707, 38.866715003563598 ], [ -119.99953001395761, 38.866750376813158 ], [ -119.999788054589885, 38.866671664287637 ], [ -120.000364673161172, 38.867209006166192 ], [ -120.000569601961303, 38.867268327671056 ], [ -120.00015520217427, 38.867257674516438 ], [ -120.000010254780193, 38.867416108417125 ], [ -119.999849856204847, 38.867393966551788 ], [ -119.999800025785916, 38.867482774455759 ], [ -119.999913622819903, 38.867521730901238 ], [ -119.999586010191223, 38.867639431881315 ], [ -119.999416523793869, 38.867833269657766 ], [ -119.999207807756193, 38.867863937852398 ], [ -119.999061342231244, 38.868058367121456 ], [ -119.998897912874568, 38.868108217281559 ], [ -119.998962435725574, 38.868217983751649 ], [ -119.998776740902315, 38.868249243248542 ], [ -119.998725393541775, 38.868374047285663 ], [ -119.998538183163063, 38.868441303057153 ], [ -119.998532880414857, 38.868567291410997 ], [ -119.998340366230408, 38.868760535171589 ], [ -119.998226768225024, 38.868721577156236 ], [ -119.998223737742876, 38.868793570477642 ], [ -119.998109382107302, 38.868772610677759 ], [ -119.998035768143779, 38.868878823703916 ], [ -119.997538362833026, 38.868649811715535 ], [ -119.998438682941924, 38.867519834542335 ], [ -119.997124999690612, 38.869161691030129 ], [ -119.99711658661856, 38.869156924560848 ], [ -119.996585903070709, 38.869922581789048 ], [ -119.995747701884753, 38.8695766825861 ], [ -119.996100628160818, 38.869031199726209 ], [ -119.995578200458468, 38.869770514130266 ], [ -119.995033235128659, 38.869576302471216 ], [ -119.995036268913594, 38.869504309370335 ], [ -119.996096760124331, 38.867855959340424 ], [ -119.99649130337103, 38.866993645269197 ], [ -119.995608675498858, 38.866311878665805 ], [ -119.995731366342099, 38.866134859474506 ], [ -119.995775893505751, 38.866172041542235 ], [ -119.995892518599746, 38.866139008546646 ], [ -119.996532104377863, 38.866822132650924 ], [ -119.996509708496475, 38.866953418425119 ], [ -119.996756734802233, 38.866413504600935 ], [ -119.996814668411389, 38.866405986784343 ], [ -119.996780514584188, 38.866396098826819 ], [ -119.996867011757331, 38.865983915156214 ], [ -119.996969708701229, 38.865734308720043 ], [ -119.997245968498504, 38.865741418288842 ], [ -119.997492387203707, 38.865909919766565 ] ], [ [ -119.996901950459915, 38.866431255965296 ], [ -119.996938636059411, 38.866472239739799 ], [ -119.997326977024414, 38.866554304989975 ], [ -119.996901950459915, 38.866431255965296 ] ], [ [ -119.996358898928634, 38.868727647721755 ], [ -119.996308022172229, 38.868698822546449 ], [ -119.996290594892983, 38.868725804423519 ], [ -119.99619774638262, 38.868741432031399 ], [ -119.996358898928634, 38.868727647721755 ] ], [ [ -119.996191453868931, 38.868890817893451 ], [ -119.996240759097958, 38.868814610575889 ], [ -119.99619774638262, 38.868741432031399 ], [ -119.996191453868931, 38.868890817893451 ] ], [ [ -119.999144127259939, 38.867029950062694 ], [ -119.998724039539013, 38.86731096079717 ], [ -119.998625890926931, 38.867452578829116 ], [ -119.999144127259939, 38.867029950062694 ] ] ], [ [ [ -119.995777409840912, 38.866136044946344 ], [ -119.995778168007476, 38.866118046648317 ], [ -119.99580043159132, 38.866136637675467 ], [ -119.995777409840912, 38.866136044946344 ] ] ] ] } }
]
}
