{
"type": "FeatureCollection",
"name": "X01693",
"crs": { "type": "name", "properties": { "name": "urn:ogc:def:crs:OGC:1.3:CRS84" } },
"features": [
{ "type": "Feature", "properties": { "part": "direct", "crossing_id": "X01693", "area_ac": 0.1 }, "geometry": { "type": "Polygon", "coordinates": [ [ [ -120.006894853442745, 38.862079446189647 ], [ -120.006938629065289, 38.862134622641214 ], [ -120.006495193117686, 38.862267390590155 ], [ -120.006475193848345, 38.862194806072161 ], [ -120.006894853442745, 38.862079446189647 ] ] ] } }
]
}
