{
"type": "FeatureCollection",
"name": "X01634",
"crs": { "type": "name", "properties": { "name": "urn:ogc:def:crs:OGC:1.3:CRS84" } },
"features": [
{ "type": "Feature", "properties": { "part": "direct", "crossing_id": "X01634", "area_ac": 25.5, "n_upstream": null }, "geometry": { "type": "Polygon", "coordinates": [ [ [ -120.000466812903042, 38.8620405123254 ], [ -120.000993576396382, 38.862666658603622 ], [ -119.999691853303773, 38.863480034008695 ], [ -119.999711088759838, 38.863570617787765 ], [ -119.999519349179863, 38.863745865931328 ], [ -119.999481941871167, 38.864087242922828 ], [ -119.997716717131027, 38.864960747155884 ], [ -119.997672189622506, 38.864923565812546 ], [ -119.997767305751822, 38.864853941807297 ], [ -119.997655229499543, 38.864778986804197 ], [ -119.997697483970668, 38.864870163152105 ], [ -119.997555567263504, 38.86495660070581 ], [ -119.99757404257349, 38.86506518305665 ], [ -119.997143742993245, 38.865432484570725 ], [ -119.997066342270884, 38.865628688724733 ], [ -119.996704059883498, 38.865475222090424 ], [ -119.996172290113705, 38.86551558738455 ], [ -119.995558565669668, 38.865860142984914 ], [ -119.995801947912184, 38.866100641078525 ], [ -119.995608675498858, 38.866311878665805 ], [ -119.995789059098328, 38.866406612143635 ], [ -119.995941114360022, 38.86662674075572 ], [ -119.996169059265725, 38.866686662491503 ], [ -119.996277346439527, 38.866851610480168 ], [ -119.996414720374446, 38.866873164556637 ], [ -119.9965007443394, 38.867019521441044 ], [ -119.995997847451761, 38.868015573208261 ], [ -119.99572612854692, 38.867900470590541 ], [ -119.995517411151198, 38.86793113210782 ], [ -119.995358529864561, 38.867872987501464 ], [ -119.995534851434982, 38.86751717146187 ], [ -119.995485499989968, 38.867047437524477 ], [ -119.995137622884101, 38.866551998434694 ], [ -119.994999491672118, 38.866548441176342 ], [ -119.995004041905119, 38.866440451471846 ], [ -119.994844405918428, 38.866400304583451 ], [ -119.994850473171098, 38.866256318327089 ], [ -119.994698422086771, 38.86603618844574 ], [ -119.99477355450442, 38.865893980998642 ], [ -119.994542579558853, 38.86590604978862 ], [ -119.994317672787687, 38.865774131920126 ], [ -119.99423241329059, 38.86560977536169 ], [ -119.994305270552445, 38.865521563051992 ], [ -119.994101111181806, 38.865444232655619 ], [ -119.993927559845076, 38.865187512308282 ], [ -119.993744905932942, 38.865146770956983 ], [ -119.993636627107662, 38.86498182091033 ], [ -119.993275873520147, 38.864792347507169 ], [ -119.993236659922005, 38.864629176740273 ], [ -119.993382374482692, 38.864452753304143 ], [ -119.993799031270839, 38.864409435035462 ], [ -119.993824328259194, 38.864356033319176 ], [ -119.994169645356365, 38.864364929214986 ], [ -119.994212653590893, 38.86443810836753 ], [ -119.994352297579738, 38.864405669835719 ], [ -119.994323967005116, 38.86453106479744 ], [ -119.994479047816711, 38.864679201919067 ], [ -119.997037442296431, 38.864673000250093 ], [ -119.997072300824001, 38.863845077304134 ], [ -119.997006268889194, 38.863771306640885 ], [ -119.997232690372584, 38.863867222651066 ], [ -119.997554985127053, 38.863875516026141 ], [ -119.998365267312096, 38.863788255492409 ], [ -119.998381173633376, 38.863410290169185 ], [ -119.99821926968994, 38.863424143120803 ], [ -119.99795816942607, 38.863057069350909 ], [ -119.997729476609805, 38.863015149821372 ], [ -119.997916673081392, 38.862947894759237 ], [ -119.998123102523493, 38.862971223344459 ], [ -119.997957116988204, 38.862534525105922 ], [ -119.998012248311412, 38.862319729452992 ], [ -119.998339838228688, 38.862202031935418 ], [ -119.998430405592259, 38.862240397311957 ], [ -119.998457213068789, 38.86215099769651 ], [ -119.998685903665901, 38.862192915711027 ], [ -119.998804792856191, 38.862105884392449 ], [ -119.998980627219325, 38.862308602908556 ], [ -119.998808123629644, 38.862574433832307 ], [ -119.998846591978563, 38.862755601595417 ], [ -119.998960181063964, 38.862794558677656 ], [ -119.99947345179605, 38.862645597608463 ], [ -120.000186024938287, 38.862141401240144 ], [ -120.000466812903042, 38.8620405123254 ] ] ] } },
{ "type": "Feature", "properties": { "part": "upstream", "crossing_id": "X01634", "area_ac": 47.8, "n_upstream": 21.0 }, "geometry": { "type": "MultiPolygon", "coordinates": [ [ [ [ -120.00173607729927, 38.860901972302955 ], [ -120.001965522748137, 38.860925885395645 ], [ -120.001921321070924, 38.861429249566008 ], [ -120.001620543288723, 38.861457557014994 ], [ -120.001185948057696, 38.86167507712161 ], [ -120.001003852609927, 38.861874137519564 ], [ -120.001059293060663, 38.862199883603893 ], [ -120.000964183683251, 38.862269510589819 ], [ -120.001096253589978, 38.862417047647881 ], [ -120.000883013407588, 38.862555709892625 ], [ -120.000437856846915, 38.861985346748178 ], [ -120.000412289132484, 38.861967039374782 ], [ -120.00044379237498, 38.862039920568201 ], [ -120.000186024938287, 38.862141401240144 ], [ -119.99947345179605, 38.862645597608463 ], [ -119.998914139585835, 38.862793374545603 ], [ -119.998808123629644, 38.862574433832307 ], [ -119.998980627219325, 38.862308602908556 ], [ -119.998804792856191, 38.862105884392449 ], [ -119.998725499977311, 38.862103844967343 ], [ -119.998732702062298, 38.862176101558731 ], [ -119.998457213068789, 38.86215099769651 ], [ -119.998430405592259, 38.862240397311957 ], [ -119.998339838228688, 38.862202031935418 ], [ -119.998012248311412, 38.862319729452992 ], [ -119.997957116988204, 38.862534525105922 ], [ -119.998107656668424, 38.862790647648517 ], [ -119.998099324248727, 38.862988629459565 ], [ -119.997916673081392, 38.862947894759237 ], [ -119.997517485602629, 38.86304573092761 ], [ -119.99795816942607, 38.863057069350909 ], [ -119.99821926968994, 38.863424143120803 ], [ -119.998381173633376, 38.863410290169185 ], [ -119.998365267312096, 38.863788255492409 ], [ -119.997554985127053, 38.863875516026141 ], [ -119.99707305860214, 38.863827078977593 ], [ -119.997065709129444, 38.86375562831654 ], [ -119.99703007657628, 38.863757491004229 ], [ -119.997037442296431, 38.864673000250093 ], [ -119.996069790036373, 38.864666111057502 ], [ -119.995008536810175, 38.864692839002323 ], [ -119.995014844753484, 38.864675552615012 ], [ -119.994479047816711, 38.864679201919067 ], [ -119.994323967005116, 38.86453106479744 ], [ -119.994352297579738, 38.864405669835719 ], [ -119.994212653590893, 38.86443810836753 ], [ -119.994100581924741, 38.86436315011737 ], [ -119.994523305378067, 38.864175842979016 ], [ -119.99468369464455, 38.864197991829379 ], [ -119.995099591159985, 38.864172667111134 ], [ -119.995102624293381, 38.864100673939106 ], [ -119.995216971445501, 38.864121636369894 ], [ -119.995244542009914, 38.864014239410508 ], [ -119.995429468665122, 38.864000983441962 ], [ -119.995716335081738, 38.86375612013498 ], [ -119.995816479583084, 38.863019967671917 ], [ -119.995714263493142, 38.862711032976961 ], [ -119.99583694730164, 38.862534013323703 ], [ -119.995547535321649, 38.862292330208511 ], [ -119.995554358382549, 38.862130345451064 ], [ -119.995944948174966, 38.862158419423409 ], [ -119.995974872280144, 38.863636651543985 ], [ -119.996294133742083, 38.86371694160556 ], [ -119.995998651272131, 38.863619245892934 ], [ -119.995967210634547, 38.862177010382247 ], [ -119.995968016021905, 38.862157887174277 ], [ -119.995623419746394, 38.862132123603693 ], [ -119.995834394092995, 38.862047466259988 ], [ -119.995968618369957, 38.86214358494302 ], [ -119.995971758694381, 38.862069020500812 ], [ -119.996890303610186, 38.862146717514946 ], [ -119.997023122322247, 38.86227626051604 ], [ -119.996977266955227, 38.8622827173281 ], [ -119.996995481883388, 38.863032298055899 ], [ -119.997233014460448, 38.863038410839863 ], [ -119.997015074833897, 38.863014784459608 ], [ -119.997025395564677, 38.862222265524167 ], [ -119.996935586818552, 38.862165900757773 ], [ -119.997325419979134, 38.862211968468095 ], [ -119.997343894496083, 38.862320550857348 ], [ -119.997548049025951, 38.86239787539602 ], [ -119.997624686761938, 38.86221966897719 ], [ -119.998687042137092, 38.862019085823839 ], [ -119.998651979918691, 38.861903757757943 ], [ -119.999143738661672, 38.861718209052462 ], [ -119.999524935800807, 38.861421708302615 ], [ -119.999577033063545, 38.861278905155046 ], [ -119.999835555090783, 38.861159427346827 ], [ -120.000317779765822, 38.861748395753999 ], [ -119.999859332325286, 38.861142020831892 ], [ -120.000043494153928, 38.86114675559292 ], [ -120.00004652197471, 38.861074762056923 ], [ -120.000185400154507, 38.861060314541916 ], [ -120.000400150669364, 38.860885656637713 ], [ -120.00049071761903, 38.860924020399061 ], [ -120.000818297330895, 38.860806315477326 ], [ -120.00089492506055, 38.860628106475083 ], [ -120.001102862501696, 38.860615432762025 ], [ -120.001145876007953, 38.860688609590319 ], [ -120.001307016772358, 38.860692750706676 ], [ -120.00173607729927, 38.860901972302955 ] ], [ [ -119.995991828857001, 38.863781230675109 ], [ -119.99599628742763, 38.863777967115716 ], [ -119.995716335081738, 38.86375612013498 ], [ -119.995991828857001, 38.863781230675109 ] ], [ [ -119.99603938692259, 38.86374641936505 ], [ -119.996063165938011, 38.863729013701985 ], [ -119.995974872280144, 38.863636651543985 ], [ -119.99603938692259, 38.86374641936505 ] ], [ [ -119.996996773150272, 38.863085436468651 ], [ -119.997010815635889, 38.863663316685972 ], [ -119.997063888934477, 38.863737932591967 ], [ -119.996996773150272, 38.863085436468651 ] ], [ [ -120.000634768092098, 38.861882668979597 ], [ -120.000519425904059, 38.861995018363899 ], [ -120.000560408722336, 38.862006882529606 ], [ -120.000634768092098, 38.861882668979597 ] ], [ [ -119.995022249726219, 38.864655259898797 ], [ -119.995034591337244, 38.864621438703566 ], [ -119.994994996090284, 38.864600643358706 ], [ -119.995022249726219, 38.864655259898797 ] ] ], [ [ [ -119.99769824161892, 38.864852164818444 ], [ -119.997655229499543, 38.864778986804197 ], [ -119.99767825085199, 38.864779579145882 ], [ -119.99769824161892, 38.864852164818444 ] ] ], [ [ [ -119.997744284373525, 38.864853349482217 ], [ -119.997692938067047, 38.864978153152741 ], [ -119.997574800258107, 38.865047184725597 ], [ -119.997555567263504, 38.86495660070581 ], [ -119.997744284373525, 38.864853349482217 ] ] ], [ [ [ -119.997303815479881, 38.866641351792161 ], [ -119.997670032761306, 38.866617185932903 ], [ -119.997805133767656, 38.866692733357695 ], [ -119.998172727835353, 38.86672020853387 ], [ -119.998580008685309, 38.866352311210953 ], [ -119.999148739952972, 38.866529099512555 ], [ -119.999371386737707, 38.866715003563598 ], [ -119.99953001395761, 38.866750376813158 ], [ -119.999788054589885, 38.866671664287637 ], [ -120.000364673161172, 38.867209006166192 ], [ -120.000569601961303, 38.867268327671056 ], [ -120.00015520217427, 38.867257674516438 ], [ -120.000010254780193, 38.867416108417125 ], [ -119.999849856204847, 38.867393966551788 ], [ -119.999800025785916, 38.867482774455759 ], [ -119.999913622819903, 38.867521730901238 ], [ -119.999586010191223, 38.867639431881315 ], [ -119.999416523793869, 38.867833269657766 ], [ -119.999207807756193, 38.867863937852398 ], [ -119.999061342231244, 38.868058367121456 ], [ -119.998897912874568, 38.868108217281559 ], [ -119.998962435725574, 38.868217983751649 ], [ -119.998776740902315, 38.868249243248542 ], [ -119.998725393541775, 38.868374047285663 ], [ -119.998538183163063, 38.868441303057153 ], [ -119.998532880414857, 38.868567291410997 ], [ -119.998340366230408, 38.868760535171589 ], [ -119.998226768225024, 38.868721577156236 ], [ -119.998223737742876, 38.868793570477642 ], [ -119.998109382107302, 38.868772610677759 ], [ -119.998035768143779, 38.868878823703916 ], [ -119.997538362833026, 38.868649811715535 ], [ -119.998438682941924, 38.867519834542335 ], [ -119.997124999690612, 38.869161691030129 ], [ -119.99711658661856, 38.869156924560848 ], [ -119.996585903070709, 38.869922581789048 ], [ -119.995747701884753, 38.8695766825861 ], [ -119.996100628160818, 38.869031199726209 ], [ -119.995578200458468, 38.869770514130266 ], [ -119.995033235128659, 38.869576302471216 ], [ -119.995036268913594, 38.869504309370335 ], [ -119.996096760124331, 38.867855959340424 ], [ -119.99649130337103, 38.866993645269197 ], [ -119.995608675498858, 38.866311878665805 ], [ -119.995731366342099, 38.866134859474506 ], [ -119.995775893505751, 38.866172041542235 ], [ -119.995777409840912, 38.866136044946344 ], [ -119.995778168007476, 38.866118046648317 ], [ -119.995780442503118, 38.866064051753732 ], [ -119.995558565669668, 38.865860142984914 ], [ -119.996008864945793, 38.865565433665097 ], [ -119.996704059883498, 38.865475222090424 ], [ -119.996999550966549, 38.865572916332276 ], [ -119.997041047152507, 38.865682091212804 ], [ -119.99701846042305, 38.865735563397237 ], [ -119.997245968498504, 38.865741418288842 ], [ -119.997492387203707, 38.865909919766565 ], [ -119.997465576811322, 38.865999319006313 ], [ -119.99760219186642, 38.866038869963106 ], [ -119.997326977024414, 38.866554304989975 ], [ -119.997303815479881, 38.866641351792161 ] ], [ [ -119.995892518599746, 38.866139008546646 ], [ -119.995932080256551, 38.866181263735534 ], [ -119.995893276737348, 38.866121010246736 ], [ -119.995775893505751, 38.866172041542235 ], [ -119.995892518599746, 38.866139008546646 ] ], [ [ -119.996901950459915, 38.866431255965296 ], [ -119.996938636059411, 38.866472239739799 ], [ -119.997326977024414, 38.866554304989975 ], [ -119.996901950459915, 38.866431255965296 ] ], [ [ -119.996181946579483, 38.866380691334349 ], [ -119.996085880469607, 38.866345534764619 ], [ -119.996346041816153, 38.866623405957512 ], [ -119.996181946579483, 38.866380691334349 ] ], [ [ -119.996756734802233, 38.866413504600935 ], [ -119.996814668411389, 38.866405986784343 ], [ -119.996780514584188, 38.866396098826819 ], [ -119.996821060277426, 38.866202887747299 ], [ -119.996529072391766, 38.86689412588386 ], [ -119.996521686685909, 38.866883201753616 ], [ -119.996509708496475, 38.866953418425119 ], [ -119.996756734802233, 38.866413504600935 ] ], [ [ -119.996358898928634, 38.868727647721755 ], [ -119.996308022172229, 38.868698822546449 ], [ -119.996290594892983, 38.868725804423519 ], [ -119.99619774638262, 38.868741432031399 ], [ -119.996358898928634, 38.868727647721755 ] ], [ [ -119.996191453868931, 38.868890817893451 ], [ -119.996240759097958, 38.868814610575889 ], [ -119.99619774638262, 38.868741432031399 ], [ -119.996191453868931, 38.868890817893451 ] ], [ [ -119.998724039539013, 38.86731096079717 ], [ -119.998625890926931, 38.867452578829116 ], [ -119.999144127259939, 38.867029950062694 ], [ -119.998724039539013, 38.86731096079717 ] ] ] ] } }
]
}
