{
"type": "FeatureCollection",
"name": "X01647",
"crs": { "type": "name", "properties": { "name": "urn:ogc:def:crs:OGC:1.3:CRS84" } },
"features": [
{ "type": "Feature", "properties": { "part": "direct", "crossing_id": "X01647", "area_ac": 2.6 }, "geometry": { "type": "Polygon", "coordinates": [ [ [ -119.995500940729002, 38.861210060865027 ], [ -119.996097191145381, 38.861279465091009 ], [ -119.996081273941442, 38.861657429760037 ], [ -119.996194859629284, 38.861696389413062 ], [ -119.996187280179143, 38.861876372595802 ], [ -119.996114429189618, 38.861964586369474 ], [ -119.995883467076212, 38.861976658337255 ], [ -119.995786079064999, 38.862100275846892 ], [ -119.995531337929279, 38.862129752724456 ], [ -119.995454695159893, 38.862307957565797 ], [ -119.994969748091265, 38.862331505488733 ], [ -119.994962378439283, 38.861412406628858 ], [ -119.99485258529829, 38.861283454330589 ], [ -119.995500940729002, 38.861210060865027 ] ] ] } }
]
}
