{
"type": "FeatureCollection",
"name": "X01600",
"crs": { "type": "name", "properties": { "name": "urn:ogc:def:crs:OGC:1.3:CRS84" } },
"features": [
{ "type": "Feature", "properties": { "part": "direct", "crossing_id": "X01600", "area_ac": 2.3 }, "geometry": { "type": "Polygon", "coordinates": [ [ [ -120.123808985530971, 39.045110144005342 ], [ -120.124428558302014, 39.045215522604167 ], [ -120.125954190190285, 39.045199103439749 ], [ -120.126202987790563, 39.045331363867007 ], [ -120.123847845101011, 39.045291281502784 ], [ -120.123096054311617, 39.045597046319422 ], [ -120.122725272298965, 39.045623928232253 ], [ -120.122536957751606, 39.045709367918384 ], [ -120.122329214790369, 39.045704238357985 ], [ -120.122083347581011, 39.045499970735904 ], [ -120.122021410062317, 39.045318262795078 ], [ -120.122048147379743, 39.045228833882994 ], [ -120.123808985530971, 39.045110144005342 ] ] ] } }
]
}
