{
"type": "FeatureCollection",
"name": "X01619",
"crs": { "type": "name", "properties": { "name": "urn:ogc:def:crs:OGC:1.3:CRS84" } },
"features": [
{ "type": "Feature", "properties": { "part": "direct", "crossing_id": "X01619", "area_ac": 1.7 }, "geometry": { "type": "Polygon", "coordinates": [ [ [ -119.995404574468793, 38.867874173164559 ], [ -119.995517411151198, 38.86793113210782 ], [ -119.99572612854692, 38.867900470590541 ], [ -119.995973308753946, 38.86805097708492 ], [ -119.995259400426889, 38.869131681601075 ], [ -119.994968448265794, 38.868925992854585 ], [ -119.994934538241409, 38.868636834579753 ], [ -119.995067852783635, 38.868207840472387 ], [ -119.995207503948407, 38.868175401212291 ], [ -119.995404574468793, 38.867874173164559 ] ] ] } }
]
}
