{
"type": "FeatureCollection",
"name": "X01645",
"crs": { "type": "name", "properties": { "name": "urn:ogc:def:crs:OGC:1.3:CRS84" } },
"features": [
{ "type": "Feature", "properties": { "part": "direct", "crossing_id": "X01645", "area_ac": 0.0 }, "geometry": { "type": "MultiPolygon", "coordinates": [ [ [ [ -119.99495182146876, 38.863304006255596 ], [ -119.994951063169964, 38.86332200454865 ], [ -119.99492804234518, 38.863321411687963 ], [ -119.994928800649774, 38.863303413395286 ], [ -119.99495182146876, 38.863304006255596 ] ] ], [ [ [ -119.994977875453728, 38.863232605936894 ], [ -119.99495182146876, 38.863304006255596 ], [ -119.994954854657223, 38.863232013082616 ], [ -119.994977875453728, 38.863232605936894 ] ] ] ] } }
]
}
