{
"type": "FeatureCollection",
"name": "X01644",
"crs": { "type": "name", "properties": { "name": "urn:ogc:def:crs:OGC:1.3:CRS84" } },
"features": [
{ "type": "Feature", "properties": { "part": "direct", "crossing_id": "X01644", "area_ac": 4.4, "n_upstream": null }, "geometry": { "type": "Polygon", "coordinates": [ [ [ -119.999828016551731, 38.864078123668349 ], [ -119.999954030624409, 38.864369648995137 ], [ -119.999804546435783, 38.864636073144752 ], [ -119.998373733601653, 38.865229899759825 ], [ -119.997896636040906, 38.865614018070701 ], [ -119.99760219186642, 38.866038869963106 ], [ -119.997465576811322, 38.865999319006313 ], [ -119.997492387203707, 38.865909919766565 ], [ -119.997245968498504, 38.865741418288842 ], [ -119.997015751993985, 38.865735493693478 ], [ -119.997143742993245, 38.865432484570725 ], [ -119.997788811879943, 38.864890530798185 ], [ -119.999058473534674, 38.864292566936967 ], [ -119.999828016551731, 38.864078123668349 ] ] ] } },
{ "type": "Feature", "properties": { "part": "upstream", "crossing_id": "X01644", "area_ac": 4.7, "n_upstream": 2.0 }, "geometry": { "type": "Polygon", "coordinates": [ [ [ -119.998628783824017, 38.865740959654467 ], [ -119.998943513854627, 38.865929233023536 ], [ -119.998850669472461, 38.865944862918063 ], [ -119.99894199912724, 38.865965229725305 ], [ -119.99920281152167, 38.865791759057622 ], [ -119.999693839300335, 38.865624207506954 ], [ -119.999845148307827, 38.865862329830271 ], [ -119.999572978973305, 38.866305777395048 ], [ -119.999566164015533, 38.866467762633832 ], [ -119.999742010576128, 38.866670480383341 ], [ -119.99957782765506, 38.866738330011799 ], [ -119.999371386737707, 38.866715003563598 ], [ -119.999194026534212, 38.866548282000338 ], [ -119.998583798908044, 38.866353520916704 ], [ -119.998242551366701, 38.866703986976525 ], [ -119.997346967810202, 38.866626890709256 ], [ -119.997379840817118, 38.866393504932994 ], [ -119.997703371024599, 38.86582525944408 ], [ -119.998253323412897, 38.86535292705382 ], [ -119.998628783824017, 38.865740959654467 ] ] ] } }
]
}
