{
"type": "FeatureCollection",
"name": "X01656",
"crs": { "type": "name", "properties": { "name": "urn:ogc:def:crs:OGC:1.3:CRS84" } },
"features": [
{ "type": "Feature", "properties": { "part": "direct", "crossing_id": "X01656", "area_ac": 2.5 }, "geometry": { "type": "MultiPolygon", "coordinates": [ [ [ [ -120.001487394780668, 38.860787475184154 ], [ -120.001967035678916, 38.860889888563015 ], [ -120.001965522748137, 38.860925885395645 ], [ -120.001487394780668, 38.860787475184154 ] ] ], [ [ [ -120.001465887811037, 38.860750886827063 ], [ -120.001488151363205, 38.86076947677531 ], [ -120.001465131223412, 38.860768885235572 ], [ -120.001465887811037, 38.860750886827063 ] ] ], [ [ [ -119.999515992579248, 38.86053860403495 ], [ -119.999538255535981, 38.860557194333332 ], [ -119.999515235505783, 38.860556602411975 ], [ -119.999515992579248, 38.86053860403495 ] ] ], [ [ [ -119.999493729634068, 38.860520013732774 ], [ -119.999515992579248, 38.86053860403495 ], [ -119.999492972555501, 38.860538012109444 ], [ -119.999493729634068, 38.860520013732774 ] ] ], [ [ [ -120.000736494358151, 38.8600114275892 ], [ -120.000815709408172, 38.860319767052502 ], [ -120.001021375887731, 38.860361088652667 ], [ -120.001081355780215, 38.860578844342953 ], [ -120.001312313136211, 38.860566761862195 ], [ -120.001465887811037, 38.860750886827063 ], [ -120.000941721941942, 38.860611291370873 ], [ -120.000818297330895, 38.860806315477326 ], [ -120.00049071761903, 38.860924020399061 ], [ -120.000400150669364, 38.860885656637713 ], [ -120.000185400154507, 38.861060314541916 ], [ -120.00004652197471, 38.861074762056923 ], [ -120.000043494153928, 38.86114675559292 ], [ -119.999835555090783, 38.861159427346827 ], [ -119.999489944234512, 38.860610005615548 ], [ -119.99975149194384, 38.860418534373522 ], [ -120.000736494358151, 38.8600114275892 ] ] ] ] } }
]
}
