{
"type": "FeatureCollection",
"name": "X01607",
"crs": { "type": "name", "properties": { "name": "urn:ogc:def:crs:OGC:1.3:CRS84" } },
"features": [
{ "type": "Feature", "properties": { "part": "direct", "crossing_id": "X01607", "area_ac": 7.6 }, "geometry": { "type": "Polygon", "coordinates": [ [ [ -119.997753474694647, 38.873394031898712 ], [ -119.998004466792665, 38.873454543338028 ], [ -119.997917964271025, 38.873866727297788 ], [ -119.997583497529646, 38.874146406002936 ], [ -119.997067864791688, 38.874349349937994 ], [ -119.996782474073953, 38.874558218101313 ], [ -119.996658253551416, 38.874771234278079 ], [ -119.996578565086367, 38.875021432234739 ], [ -119.99658973673391, 38.875850538617264 ], [ -119.996492329383315, 38.875974155759124 ], [ -119.995877481934869, 38.875796166357283 ], [ -119.995416984701876, 38.875784308757552 ], [ -119.995437194643728, 38.874757814791657 ], [ -119.995736241167847, 38.87422498122433 ], [ -119.996143579460153, 38.873857095022359 ], [ -119.996303232728692, 38.873897240779542 ], [ -119.996374580203309, 38.873845024086883 ], [ -119.996570904988474, 38.873561793033979 ], [ -119.996685267668852, 38.873582754614908 ], [ -119.996711324369244, 38.873511354097751 ], [ -119.996939291670017, 38.873571275166043 ], [ -119.997128791259541, 38.873450027714377 ], [ -119.997311468428038, 38.873490764635591 ], [ -119.997453403081977, 38.873404328174161 ], [ -119.99765910450094, 38.873445657045501 ], [ -119.997753474694647, 38.873394031898712 ] ] ] } }
]
}
