{
"type": "FeatureCollection",
"name": "X01609",
"crs": { "type": "name", "properties": { "name": "urn:ogc:def:crs:OGC:1.3:CRS84" } },
"features": [
{ "type": "Feature", "properties": { "part": "direct", "crossing_id": "X01609", "area_ac": 0.0 }, "geometry": { "type": "Polygon", "coordinates": [ [ [ -120.000414575306536, 38.872597619009277 ], [ -120.000574985717193, 38.872619760551736 ], [ -120.000804468104562, 38.872643677367314 ], [ -120.000551204636281, 38.87263716703815 ], [ -120.000414575306536, 38.872597619009277 ] ] ] } }
]
}
