{
"type": "FeatureCollection",
"name": "X01682",
"crs": { "type": "name", "properties": { "name": "urn:ogc:def:crs:OGC:1.3:CRS84" } },
"features": [
{ "type": "Feature", "properties": { "part": "direct", "crossing_id": "X01682", "area_ac": 2.6 }, "geometry": { "type": "Polygon", "coordinates": [ [ [ -120.007431937593836, 38.858615772006097 ], [ -120.007924780037428, 38.858952731740658 ], [ -120.008164409313451, 38.859283197603467 ], [ -120.008610465234455, 38.859636972829122 ], [ -120.008694242835489, 38.859837317109388 ], [ -120.00906029883798, 38.85990075382422 ], [ -120.009440320919325, 38.860180761880535 ], [ -120.009435793537193, 38.86028875312941 ], [ -120.009247104653909, 38.860392024493606 ], [ -120.009266351776361, 38.860482607185062 ], [ -120.009030112301133, 38.860620695221776 ], [ -120.008869725277222, 38.860598566236334 ], [ -120.008760662026731, 38.860451627542496 ], [ -120.008767454662021, 38.860289640772748 ], [ -120.007284004335929, 38.858846210532633 ], [ -120.006691535603281, 38.858686871356788 ], [ -120.006739840366663, 38.858634056812932 ], [ -120.007431937593836, 38.858615772006097 ] ] ] } }
]
}
