{
"type": "FeatureCollection",
"name": "X01664",
"crs": { "type": "name", "properties": { "name": "urn:ogc:def:crs:OGC:1.3:CRS84" } },
"features": [
{ "type": "Feature", "properties": { "part": "direct", "crossing_id": "X01664", "area_ac": 2.3 }, "geometry": { "type": "Polygon", "coordinates": [ [ [ -120.005828961162536, 38.865511529711583 ], [ -120.005941047622542, 38.865586477235517 ], [ -120.005909714247082, 38.865783869645412 ], [ -120.004980117208262, 38.866516762649439 ], [ -120.0042155124099, 38.866064706196525 ], [ -120.004997910736591, 38.865544255416751 ], [ -120.005828961162536, 38.865511529711583 ] ] ] } }
]
}
