{
"type": "FeatureCollection",
"name": "X01678",
"crs": { "type": "name", "properties": { "name": "urn:ogc:def:crs:OGC:1.3:CRS84" } },
"features": [
{ "type": "Feature", "properties": { "part": "direct", "crossing_id": "X01678", "area_ac": 0.0, "n_upstream": null }, "geometry": { "type": "Polygon", "coordinates": [ [ [ -120.010639379666827, 38.865112348250896 ], [ -120.010613340336974, 38.86518375264253 ], [ -120.010543520654352, 38.865199981781977 ], [ -120.010522007742551, 38.865163394882849 ], [ -120.010639379666827, 38.865112348250896 ] ] ] } },
{ "type": "Feature", "properties": { "part": "upstream", "crossing_id": "X01678", "area_ac": 3.1, "n_upstream": 1.0 }, "geometry": { "type": "Polygon", "coordinates": [ [ [ -120.010754460472356, 38.864016206084237 ], [ -120.011099027034874, 38.864043050415148 ], [ -120.011620978194159, 38.864236597617591 ], [ -120.011282839266499, 38.86460631273436 ], [ -120.01114395552537, 38.864620773275533 ], [ -120.011092632496911, 38.864745583785265 ], [ -120.010882420617563, 38.864812270553436 ], [ -120.010543520654352, 38.865199981781977 ], [ -120.010451433621469, 38.865197622510479 ], [ -120.010140078480632, 38.865477930975736 ], [ -120.009538110585623, 38.864994040527726 ], [ -120.009444514522258, 38.865027677527621 ], [ -120.009399225864172, 38.86500849894599 ], [ -120.009726811692573, 38.864890769227877 ], [ -120.010131006420394, 38.864594822832885 ], [ -120.010754460472356, 38.864016206084237 ] ] ] } }
]
}
