{
"type": "FeatureCollection",
"name": "X01673",
"crs": { "type": "name", "properties": { "name": "urn:ogc:def:crs:OGC:1.3:CRS84" } },
"features": [
{ "type": "Feature", "properties": { "part": "direct", "crossing_id": "X01673", "area_ac": 0.9 }, "geometry": { "type": "Polygon", "coordinates": [ [ [ -120.006497347957009, 38.865510660850383 ], [ -120.007465018289196, 38.865517463995602 ], [ -120.007456711011557, 38.865715447411247 ], [ -120.007026455862572, 38.866082787222091 ], [ -120.006601125489453, 38.86578359101793 ], [ -120.006497347957009, 38.865510660850383 ] ] ] } }
]
}
