{
"type": "FeatureCollection",
"name": "X01628",
"crs": { "type": "name", "properties": { "name": "urn:ogc:def:crs:OGC:1.3:CRS84" } },
"features": [
{ "type": "Feature", "properties": { "part": "direct", "crossing_id": "X01628", "area_ac": 1.8 }, "geometry": { "type": "Polygon", "coordinates": [ [ [ -119.999693839300335, 38.865624207506954 ], [ -119.999845148307827, 38.865862329830271 ], [ -119.999572978973305, 38.866305777395048 ], [ -119.999566164015533, 38.866467762633832 ], [ -119.999742010576128, 38.866670480383341 ], [ -119.99957782765506, 38.866738330011799 ], [ -119.999371386737707, 38.866715003563598 ], [ -119.999194026534212, 38.866548282000338 ], [ -119.998580008685309, 38.866352311210953 ], [ -119.998892926095678, 38.866036038905051 ], [ -119.998850669472461, 38.865944862918063 ], [ -119.99894199912724, 38.865965229725305 ], [ -119.99920281152167, 38.865791759057622 ], [ -119.999693839300335, 38.865624207506954 ] ] ] } }
]
}
