{
"type": "FeatureCollection",
"name": "X01784",
"crs": { "type": "name", "properties": { "name": "urn:ogc:def:crs:OGC:1.3:CRS84" } },
"features": [
{ "type": "Feature", "properties": { "part": "direct", "crossing_id": "X01784", "area_ac": 2.2 }, "geometry": { "type": "Polygon", "coordinates": [ [ [ -119.996359662684625, 38.868727582392737 ], [ -119.997125757599193, 38.869143692719184 ], [ -119.996585903070709, 38.869922581789048 ], [ -119.995747701884753, 38.8695766825861 ], [ -119.996240759097958, 38.868814610575889 ], [ -119.99619774638262, 38.868741432031399 ], [ -119.996359662684625, 38.868727582392737 ] ] ] } }
]
}
