{
"type": "FeatureCollection",
"name": "X01779",
"crs": { "type": "name", "properties": { "name": "urn:ogc:def:crs:OGC:1.3:CRS84" } },
"features": [
{ "type": "Feature", "properties": { "part": "direct", "crossing_id": "X01779", "area_ac": 4.1 }, "geometry": { "type": "Polygon", "coordinates": [ [ [ -120.003763531895544, 38.852683847841838 ], [ -120.003874085229924, 38.852794793554857 ], [ -120.004328392537346, 38.852950599808253 ], [ -120.005287581513613, 38.853155397658917 ], [ -120.005689060952122, 38.853472003900997 ], [ -120.006129027672586, 38.853969775028396 ], [ -120.005895070804002, 38.854053861949431 ], [ -120.005436220387764, 38.854006052381557 ], [ -120.005087927847299, 38.854069185726459 ], [ -120.004953597159073, 38.853975648753611 ], [ -120.004518521746149, 38.853910427901177 ], [ -120.004363441182008, 38.853762303997556 ], [ -120.004347224281375, 38.853599726813009 ], [ -120.004117801149732, 38.853575819283222 ], [ -120.004051770488488, 38.853502052585668 ], [ -120.003843854060833, 38.853514732413487 ], [ -120.003806132166503, 38.853315567275395 ], [ -120.003602751355118, 38.853220255884359 ], [ -120.003708427059152, 38.852898647502357 ], [ -120.003669949945674, 38.85271748079996 ], [ -120.003763531895544, 38.852683847841838 ] ] ] } }
]
}
