{
"type": "FeatureCollection",
"name": "X01783",
"crs": { "type": "name", "properties": { "name": "urn:ogc:def:crs:OGC:1.3:CRS84" } },
"features": [
{ "type": "Feature", "properties": { "part": "direct", "crossing_id": "X01783", "area_ac": 11.9 }, "geometry": { "type": "Polygon", "coordinates": [ [ [ -120.001829780734468, 38.863607057159015 ], [ -120.002161479891058, 38.863939900636765 ], [ -120.002177692610942, 38.864102477771851 ], [ -120.002378832111887, 38.864251787888307 ], [ -120.002396558256777, 38.864378368182834 ], [ -120.002755823167448, 38.864603811091683 ], [ -120.002795815117949, 38.864748981102643 ], [ -120.00262861375316, 38.864888829001444 ], [ -120.002763291017999, 38.865522913020165 ], [ -120.002618352990567, 38.865681350573219 ], [ -120.002636836182717, 38.865789932423198 ], [ -120.002498705495171, 38.865786384092509 ], [ -120.002469631946127, 38.865929779963373 ], [ -120.002166565525471, 38.866012083276047 ], [ -120.002158999965559, 38.866192067311374 ], [ -120.001924241254628, 38.866294142738532 ], [ -120.001944236718302, 38.866366727854995 ], [ -120.001757034438739, 38.866433989144099 ], [ -120.001624199513572, 38.86630445096722 ], [ -120.001553620302431, 38.866338672989464 ], [ -120.001372471868507, 38.866261946522208 ], [ -120.001183755771933, 38.866365203657175 ], [ -120.001249037618123, 38.866456970580245 ], [ -120.001127873159987, 38.866597999320753 ], [ -120.001009735665647, 38.8666670343829 ], [ -120.000826316340536, 38.866644302204165 ], [ -120.000817990315966, 38.866842284378031 ], [ -120.000723631166494, 38.866893912487065 ], [ -120.000682128668572, 38.866784738685155 ], [ -120.000567775338951, 38.866763781389309 ], [ -120.000675002481145, 38.86640618098599 ], [ -120.000363293597303, 38.866145918545001 ], [ -120.000325577104675, 38.865946752774207 ], [ -120.000171238098105, 38.865780624493816 ], [ -120.000163357339744, 38.865420065191351 ], [ -120.000496257354499, 38.865176373457622 ], [ -120.000728428545969, 38.86458775272218 ], [ -120.00104511247838, 38.864181481928597 ], [ -120.001829780734468, 38.863607057159015 ] ] ] } }
]
}
