{
"type": "FeatureCollection",
"name": "X01743",
"crs": { "type": "name", "properties": { "name": "urn:ogc:def:crs:OGC:1.3:CRS84" } },
"features": [
{ "type": "Feature", "properties": { "part": "direct", "crossing_id": "X01743", "area_ac": 0.0 }, "geometry": { "type": "MultiPolygon", "coordinates": [ [ [ [ -120.012007866021776, 38.86545370308388 ], [ -120.011983336024556, 38.865489110692643 ], [ -120.011984844149922, 38.865453113558246 ], [ -120.012007866021776, 38.86545370308388 ] ] ], [ [ [ -120.01217505124761, 38.865313841072215 ], [ -120.012146751288185, 38.865439241572687 ], [ -120.012007866021776, 38.86545370308388 ], [ -120.012105231730857, 38.865330071155505 ], [ -120.01217505124761, 38.865313841072215 ] ] ] ] } }
]
}
