{
"type": "FeatureCollection",
"name": "X01793",
"crs": { "type": "name", "properties": { "name": "urn:ogc:def:crs:OGC:1.3:CRS84" } },
"features": [
{ "type": "Feature", "properties": { "part": "direct", "crossing_id": "X01793", "area_ac": 6.7, "n_upstream": null }, "geometry": { "type": "Polygon", "coordinates": [ [ [ -120.018820507835883, 38.855195584865768 ], [ -120.019077180310148, 38.855670607733849 ], [ -120.019146988905746, 38.855654373017146 ], [ -120.019112689981384, 38.855923765735696 ], [ -120.019227032752468, 38.855944704406852 ], [ -120.019313844868094, 38.856073047308705 ], [ -120.019477233654499, 38.856023166792745 ], [ -120.01942292439152, 38.85621997682069 ], [ -120.019671622725497, 38.856334436272967 ], [ -120.019596550255287, 38.856476662321704 ], [ -120.019799963257512, 38.856571946980587 ], [ -120.019675844770191, 38.856784992196253 ], [ -120.019754388009559, 38.857111320750349 ], [ -120.019679314783033, 38.857253546810277 ], [ -120.019784637330432, 38.857490469655694 ], [ -120.019711067522792, 38.85759669827717 ], [ -120.019929232949622, 38.857890556652201 ], [ -120.019944734012839, 38.858071131726824 ], [ -120.01984814409154, 38.858176772542237 ], [ -120.019962490696201, 38.858197710636055 ], [ -120.019772317881845, 38.858336997320279 ], [ -120.019680990855861, 38.85831664695673 ], [ -120.019599439213209, 38.858062313233368 ], [ -120.019399030342186, 38.857895033240048 ], [ -120.018571674284075, 38.856738768964 ], [ -120.017690030652631, 38.855779308735585 ], [ -120.017740582500252, 38.855672493137931 ], [ -120.01865712058337, 38.855245464524316 ], [ -120.018820507835883, 38.855195584865768 ] ] ] } },
{ "type": "Feature", "properties": { "part": "upstream", "crossing_id": "X01793", "area_ac": 9.2, "n_upstream": 1.0 }, "geometry": { "type": "Polygon", "coordinates": [ [ [ -120.018645815181998, 38.852758701913849 ], [ -120.018730366640284, 38.852941041265176 ], [ -120.018497930628513, 38.852989156776147 ], [ -120.018422859818358, 38.853131382186454 ], [ -120.018042536061131, 38.853409951228414 ], [ -120.017870877672678, 38.853657815657705 ], [ -120.017862602756779, 38.853855801357149 ], [ -120.018000712303987, 38.853859330611627 ], [ -120.018040731023603, 38.854004496612049 ], [ -120.018227886226271, 38.853937207161955 ], [ -120.018292428117164, 38.854046963834136 ], [ -120.018519602979339, 38.854124839850094 ], [ -120.018376979970455, 38.854229303431453 ], [ -120.018661177445225, 38.854596922908364 ], [ -120.018655912816968, 38.854722913879435 ], [ -120.018861575730696, 38.854764203818021 ], [ -120.0189506419362, 38.854838550789033 ], [ -120.018901596611315, 38.854909369592633 ], [ -120.019152545524008, 38.854969833814316 ], [ -120.019150289600304, 38.855023829965916 ], [ -120.017667764150048, 38.855760721761861 ], [ -120.01751791817297, 38.855486623329156 ], [ -120.017382815270537, 38.855411098633255 ], [ -120.016177755713059, 38.853920841067179 ], [ -120.018645815181998, 38.852758701913849 ] ] ] } }
]
}
