{
"type": "FeatureCollection",
"name": "X01759",
"crs": { "type": "name", "properties": { "name": "urn:ogc:def:crs:OGC:1.3:CRS84" } },
"features": [
{ "type": "Feature", "properties": { "part": "direct", "crossing_id": "X01759", "area_ac": 4.6, "n_upstream": null }, "geometry": { "type": "Polygon", "coordinates": [ [ [ -120.015862239773654, 38.843282195450257 ], [ -120.015997318802988, 38.84335772107336 ], [ -120.016435353114503, 38.843350902239003 ], [ -120.016615710353065, 38.843445602619624 ], [ -120.01677756675835, 38.84343172215177 ], [ -120.016842850149516, 38.843523480619837 ], [ -120.017396712281283, 38.843501600899003 ], [ -120.017406941349947, 38.843808167383052 ], [ -120.017572259535768, 38.84426284085324 ], [ -120.017350832419496, 38.844599522930281 ], [ -120.01711767099566, 38.844665635502686 ], [ -120.016265353718907, 38.844661865735645 ], [ -120.01601293839154, 38.844637394131652 ], [ -120.015879362045979, 38.844525871053094 ], [ -120.015850952361831, 38.843552175933432 ], [ -120.015946774312695, 38.843464536351945 ], [ -120.015858477319853, 38.843372188946347 ], [ -120.015862239773654, 38.843282195450257 ] ] ] } },
{ "type": "Feature", "properties": { "part": "upstream", "crossing_id": "X01759", "area_ac": 80.4, "n_upstream": 3.0 }, "geometry": { "type": "Polygon", "coordinates": [ [ [ -120.008240937538446, 38.839321326509996 ], [ -120.008506538703813, 38.839580385662821 ], [ -120.008757424260821, 38.839640869910248 ], [ -120.009244869523812, 38.840103810255506 ], [ -120.009609318011215, 38.840203238652961 ], [ -120.009944722649024, 38.840446065231852 ], [ -120.009985472926857, 38.840573234728758 ], [ -120.010279375753356, 38.840706889543299 ], [ -120.010701564746611, 38.841078062625712 ], [ -120.011066774089485, 38.84115948810657 ], [ -120.011040745478539, 38.841230893209854 ], [ -120.011177322529022, 38.841270426828117 ], [ -120.011173554444142, 38.841360419970393 ], [ -120.011554998234743, 38.841604421064588 ], [ -120.012220902890107, 38.841657506454212 ], [ -120.012286932126429, 38.841731268555982 ], [ -120.013911156048195, 38.842007070797948 ], [ -120.014363914940816, 38.842198833704565 ], [ -120.014496731874416, 38.842328356971677 ], [ -120.014862705344569, 38.842391772290711 ], [ -120.015086076407044, 38.842559646954612 ], [ -120.015801785471695, 38.84252389611062 ], [ -120.015839977461823, 38.843263608265836 ], [ -120.015946774312695, 38.843464536351945 ], [ -120.01566758578106, 38.84352946918326 ], [ -120.015852457358804, 38.843516178536547 ], [ -120.015893972194235, 38.843625347697767 ], [ -120.015857851885158, 38.844489285164343 ], [ -120.016013690878694, 38.844619395433952 ], [ -120.015849574096009, 38.844687270811704 ], [ -120.015894099577324, 38.844724445200448 ], [ -120.015851243554792, 38.844723349374192 ], [ -120.015873781298481, 38.845210409953104 ], [ -120.015434230338926, 38.845253223595847 ], [ -120.014793562537434, 38.845146747855175 ], [ -120.013526211129403, 38.845150358869127 ], [ -120.013074942947355, 38.844922594845741 ], [ -120.012639159502186, 38.844875404737785 ], [ -120.012187142605981, 38.844665636088031 ], [ -120.011750607960778, 38.844636441373616 ], [ -120.010961309176864, 38.844778389735779 ], [ -120.01061608146658, 38.844769547211392 ], [ -120.010029751059676, 38.844466240166533 ], [ -120.009821861454014, 38.844478931754296 ], [ -120.009744521555902, 38.844675147212968 ], [ -120.009559646447997, 38.844688428010741 ], [ -120.009542664263762, 38.844543849534851 ], [ -120.009291760954056, 38.844483366311806 ], [ -120.009148002399016, 38.84406527017638 ], [ -120.008194956336794, 38.843716519630028 ], [ -120.008021400710319, 38.843459819518479 ], [ -120.005912770672381, 38.841549896846146 ], [ -120.005608694711668, 38.841109665623009 ], [ -120.005052226388969, 38.840644939093067 ], [ -120.005081281182967, 38.840501541427074 ], [ -120.005362730852383, 38.840382638216099 ], [ -120.005486104379315, 38.840187606817047 ], [ -120.005915447319211, 38.839838263955365 ], [ -120.006018069519385, 38.83958864583758 ], [ -120.006130872052125, 38.839645593311893 ], [ -120.006338747745872, 38.839632907762919 ], [ -120.00654431872556, 38.839712445791854 ], [ -120.006542849694014, 38.839710214627146 ], [ -120.00661566368629, 38.839621992636161 ], [ -120.006776757735693, 38.83962612433443 ], [ -120.007035942500934, 38.839488628029294 ], [ -120.008240937538446, 38.839321326509996 ] ], [ [ -120.015487982278472, 38.843416768686048 ], [ -120.015045431504007, 38.843531576054779 ], [ -120.015513904398034, 38.843433034752998 ], [ -120.015487982278472, 38.843416768686048 ] ], [ [ -120.006653736297935, 38.839878628749787 ], [ -120.006756381140491, 38.840112085464504 ], [ -120.006965199900122, 38.840351673825097 ], [ -120.006653736297935, 38.839878628749787 ] ] ] } }
]
}
