{
"type": "FeatureCollection",
"name": "X01707",
"crs": { "type": "name", "properties": { "name": "urn:ogc:def:crs:OGC:1.3:CRS84" } },
"features": [
{ "type": "Feature", "properties": { "part": "direct", "crossing_id": "X01707", "area_ac": 81.1 }, "geometry": { "type": "Polygon", "coordinates": [ [ [ -120.05153236845878, 38.8894320409646 ], [ -120.05198329730554, 38.889677669591684 ], [ -120.052272270491656, 38.889937222604438 ], [ -120.052680866038699, 38.89009168917601 ], [ -120.053118448937795, 38.890102742814527 ], [ -120.05416740795701, 38.890940042027907 ], [ -120.054736455005482, 38.891675127713732 ], [ -120.054685151914683, 38.892358515213139 ], [ -120.054954089888312, 38.892545484096608 ], [ -120.054890140012603, 38.893534857742651 ], [ -120.054789828527234, 38.893730522991234 ], [ -120.054816547892628, 38.89419966450636 ], [ -120.054617410009811, 38.894554996289969 ], [ -120.054633745429484, 38.894717570334336 ], [ -120.054341731608034, 38.895088574698114 ], [ -120.054395945424375, 38.895450302672963 ], [ -120.05417897863461, 38.895679057729637 ], [ -120.054123982733316, 38.895893884482582 ], [ -120.054068946778145, 38.896667266726041 ], [ -120.054130602607572, 38.896849003156703 ], [ -120.053986450864102, 38.896989506649128 ], [ -120.053540547716921, 38.898293555783795 ], [ -120.053557625437861, 38.898438130682244 ], [ -120.053261914113349, 38.898340571919569 ], [ -120.05250335617481, 38.897726816807626 ], [ -120.05218312669966, 38.89766467177639 ], [ -120.051936466130812, 38.897496277349674 ], [ -120.051317554039173, 38.89740856382636 ], [ -120.051070896483253, 38.897240167675825 ], [ -120.051066489745992, 38.896789607756354 ], [ -120.05064302435764, 38.896436561896977 ], [ -120.050325783425833, 38.896302415640172 ], [ -120.050383771841211, 38.896015594750523 ], [ -120.049706212475087, 38.895674138879762 ], [ -120.049790216314221, 38.895315904431719 ], [ -120.050402536944773, 38.894448508166022 ], [ -120.050391427247959, 38.894159940160904 ], [ -120.049835006183557, 38.893677404311163 ], [ -120.049424906628431, 38.893558925471559 ], [ -120.048438353407818, 38.892885324354083 ], [ -120.049000877651224, 38.892106765035244 ], [ -120.050702402484688, 38.890546194087847 ], [ -120.05153236845878, 38.8894320409646 ] ] ] } }
]
}
