{
"type": "FeatureCollection",
"name": "X01776",
"crs": { "type": "name", "properties": { "name": "urn:ogc:def:crs:OGC:1.3:CRS84" } },
"features": [
{ "type": "Feature", "properties": { "part": "direct", "crossing_id": "X01776", "area_ac": 3.0 }, "geometry": { "type": "Polygon", "coordinates": [ [ [ -120.161311548876355, 39.048516142199077 ], [ -120.160956630925739, 39.048723711996139 ], [ -120.160906135062007, 39.048830589587205 ], [ -120.16060315350056, 39.048895279862663 ], [ -120.160238132205734, 39.049354852605973 ], [ -120.160098182354702, 39.049387478191662 ], [ -120.159570119455026, 39.049879111384826 ], [ -120.159432333126944, 39.049857735031338 ], [ -120.159332778172356, 39.050035487876663 ], [ -120.158772971190047, 39.050165984553836 ], [ -120.158415165478132, 39.049868973444518 ], [ -120.158465665871816, 39.049762097117224 ], [ -120.158650342677248, 39.049766599922059 ], [ -120.158676314476594, 39.049695161352211 ], [ -120.158839350068263, 39.049663100319592 ], [ -120.158866765127897, 39.049555660991075 ], [ -120.15907596938942, 39.049524725175552 ], [ -120.159339280395372, 39.049296910400365 ], [ -120.15959753885781, 39.049195097523189 ], [ -120.159932985910018, 39.048896967690361 ], [ -120.16007077057354, 39.048918343390859 ], [ -120.160167436391646, 39.048812591262852 ], [ -120.160376638012337, 39.048781653004916 ], [ -120.160686110602285, 39.048554959844623 ], [ -120.160937873802823, 39.048615147298996 ], [ -120.161311548876355, 39.048516142199077 ] ] ] } }
]
}
