{
"type": "FeatureCollection",
"name": "X01708",
"crs": { "type": "name", "properties": { "name": "urn:ogc:def:crs:OGC:1.3:CRS84" } },
"features": [
{ "type": "Feature", "properties": { "part": "direct", "crossing_id": "X01708", "area_ac": 7.3 }, "geometry": { "type": "Polygon", "coordinates": [ [ [ -120.048227981345548, 38.89851961528948 ], [ -120.048501398082237, 38.89859860477565 ], [ -120.048789646492992, 38.898876166054926 ], [ -120.048806714585069, 38.899020741266924 ], [ -120.049008796557032, 38.899151978764671 ], [ -120.049102341692517, 38.899676864961677 ], [ -120.048891973685556, 38.900302170934928 ], [ -120.0485122447989, 38.900562833180139 ], [ -120.04833385286895, 38.900972731903579 ], [ -120.048371716899126, 38.90117188707849 ], [ -120.048706788841287, 38.901432615389979 ], [ -120.048679279986473, 38.901540026981586 ], [ -120.048294409979036, 38.901368128201668 ], [ -120.048261767141938, 38.901042979663032 ], [ -120.047988341490651, 38.900963989288464 ], [ -120.047636208484221, 38.900558683812811 ], [ -120.04709533215069, 38.900256707431808 ], [ -120.047466951085539, 38.899635486145719 ], [ -120.047461075957116, 38.89922092521833 ], [ -120.048101627294045, 38.898786687070881 ], [ -120.048227981345548, 38.89851961528948 ] ] ] } }
]
}
