{
"type": "FeatureCollection",
"name": "X01761",
"crs": { "type": "name", "properties": { "name": "urn:ogc:def:crs:OGC:1.3:CRS84" } },
"features": [
{ "type": "Feature", "properties": { "part": "direct", "crossing_id": "X01761", "area_ac": 0.7, "n_upstream": null }, "geometry": { "type": "Polygon", "coordinates": [ [ [ -119.997909049417387, 38.872983625262513 ], [ -119.998019622720065, 38.873094577080202 ], [ -119.997836188240939, 38.873071839601025 ], [ -119.99726617810974, 38.873471581281372 ], [ -119.997058960807308, 38.873466248316269 ], [ -119.996939291670017, 38.873571275166043 ], [ -119.996757372668327, 38.873512539371056 ], [ -119.996685267668852, 38.873582754614908 ], [ -119.996570904988474, 38.873561793033979 ], [ -119.996400637323546, 38.873773623658046 ], [ -119.996432760027673, 38.873558236935366 ], [ -119.996576212145044, 38.873435805014914 ], [ -119.996465640683965, 38.873324851902076 ], [ -119.99711031528777, 38.873341445368503 ], [ -119.99770183340955, 38.872978293493979 ], [ -119.997909049417387, 38.872983625262513 ] ] ] } },
{ "type": "Feature", "properties": { "part": "upstream", "crossing_id": "X01761", "area_ac": 4.5, "n_upstream": 2.0 }, "geometry": { "type": "MultiPolygon", "coordinates": [ [ [ [ -119.995041405587614, 38.872117023401692 ], [ -119.995063670742866, 38.872135614619836 ], [ -119.99504064707304, 38.872135021669067 ], [ -119.995041405587614, 38.872117023401692 ] ] ], [ [ [ -119.995085935909685, 38.872154205834086 ], [ -119.995310863570737, 38.872286122951813 ], [ -119.995354635699087, 38.872341303562031 ], [ -119.99512819079365, 38.872245383056672 ], [ -119.995085935909685, 38.872154205834086 ] ] ], [ [ [ -119.995524416034954, 38.872688013777761 ], [ -119.995388548223104, 38.872630461693703 ], [ -119.995391581980073, 38.872558468607068 ], [ -119.995531241678478, 38.872526029312603 ], [ -119.995396132595161, 38.872450478974962 ], [ -119.995400683185863, 38.872342489340475 ], [ -119.995758043633629, 38.872519448076908 ], [ -119.995762238116271, 38.872513959420864 ], [ -119.996009433776777, 38.87266446637399 ], [ -119.99617466850782, 38.873119165475877 ], [ -119.996577728469376, 38.873399808437419 ], [ -119.996382162417092, 38.873665041242674 ], [ -119.99642290333999, 38.873792214646656 ], [ -119.996303232728692, 38.873897240779542 ], [ -119.996143579460153, 38.873857095022359 ], [ -119.995638834788281, 38.874348597712242 ], [ -119.995570520043344, 38.874328820832744 ], [ -119.995577345981658, 38.874166836406282 ], [ -119.995010840687044, 38.873936034032553 ], [ -119.99486814355194, 38.874040465612602 ], [ -119.994884340367662, 38.874203042949532 ], [ -119.994743159793813, 38.874271477830575 ], [ -119.994713307532237, 38.874432869085439 ], [ -119.994596668142449, 38.874465900300308 ], [ -119.994587563814008, 38.874681879328733 ], [ -119.994357319031693, 38.874675948354195 ], [ -119.995006022089271, 38.87350348276766 ], [ -119.995381595162456, 38.873012042377802 ], [ -119.99535263070014, 38.872935839400512 ], [ -119.995524416034954, 38.872688013777761 ] ] ] ] } }
]
}
