{
"type": "FeatureCollection",
"name": "X01760",
"crs": { "type": "name", "properties": { "name": "urn:ogc:def:crs:OGC:1.3:CRS84" } },
"features": [
{ "type": "Feature", "properties": { "part": "direct", "crossing_id": "X01760", "area_ac": 36.8, "n_upstream": null }, "geometry": { "type": "MultiPolygon", "coordinates": [ [ [ [ -120.00301161256246, 38.870033751260763 ], [ -120.003534338560144, 38.870209336948733 ], [ -120.004061604408832, 38.870276929860069 ], [ -120.004082359114676, 38.870331516275463 ], [ -120.004130674193632, 38.870278703292648 ], [ -120.006188413068799, 38.870673857978204 ], [ -120.005936613758351, 38.87173044973531 ], [ -120.005917719643449, 38.872180410922979 ], [ -120.005890916827425, 38.872269812341962 ], [ -120.005705969483884, 38.87228308411467 ], [ -120.00572521430108, 38.872373667179971 ], [ -120.00590865031829, 38.872396392277899 ], [ -120.005660966581772, 38.873903534579718 ], [ -120.005522063889018, 38.873917987642628 ], [ -120.005387696868738, 38.873824449941985 ], [ -120.005178964991487, 38.873855128205861 ], [ -120.005378625407687, 38.874040431131235 ], [ -120.005212161892516, 38.874162283450438 ], [ -120.00539560226207, 38.874185009525206 ], [ -120.005413335124587, 38.874311589484584 ], [ -120.004113371090597, 38.874530467720355 ], [ -120.003332803390052, 38.87445636928706 ], [ -120.003133147426198, 38.874271063034051 ], [ -120.002926683271042, 38.874247741996747 ], [ -120.002636444450772, 38.874024072448876 ], [ -120.00208807786187, 38.873361342412032 ], [ -120.001820112543939, 38.873156261001867 ], [ -120.000940340725009, 38.872701223314166 ], [ -120.000711615189857, 38.872659308397736 ], [ -120.00080522517932, 38.872625679006347 ], [ -120.000574985717193, 38.872619760551736 ], [ -120.000760691452072, 38.872588498631046 ], [ -120.001806288377978, 38.87184060453891 ], [ -120.002053930492735, 38.871432557623535 ], [ -120.003097653787236, 38.870180103897127 ], [ -120.00301161256246, 38.870033751260763 ] ], [ [ -120.004214449566533, 38.870479050472412 ], [ -120.004189157747305, 38.8705324546168 ], [ -120.004235204440064, 38.870533636865908 ], [ -120.004214449566533, 38.870479050472412 ] ] ], [ [ [ -120.002967079161664, 38.8699965717325 ], [ -120.002989345856264, 38.870015161498529 ], [ -120.00296632270306, 38.870014570137222 ], [ -120.002967079161664, 38.8699965717325 ] ] ], [ [ [ -120.002944812478674, 38.869977981962585 ], [ -120.002967079161664, 38.8699965717325 ], [ -120.002944056014968, 38.86999598036703 ], [ -120.002944812478674, 38.869977981962585 ] ] ], [ [ [ -120.002922545807223, 38.869959392188861 ], [ -120.002944812478674, 38.869977981962585 ], [ -120.002921789338401, 38.869977390592972 ], [ -120.002922545807223, 38.869959392188861 ] ] ] ] } },
{ "type": "Feature", "properties": { "part": "upstream", "crossing_id": "X01760", "area_ac": 110.4, "n_upstream": 22.0 }, "geometry": { "type": "MultiPolygon", "coordinates": [ [ [ [ -120.005909714247082, 38.865783869645412 ], [ -120.005533451083295, 38.866080517807227 ], [ -120.00562060556797, 38.866082754403401 ], [ -120.005359806755209, 38.866256239995693 ], [ -120.00537453294514, 38.866315318625794 ], [ -120.005430384203535, 38.866222015593451 ], [ -120.005511136376356, 38.866494355746262 ], [ -120.005646246059186, 38.866569894406574 ], [ -120.00554508906157, 38.866783512695228 ], [ -120.005766242733259, 38.867005402137131 ], [ -120.005712641384918, 38.867184205171654 ], [ -120.005500150520035, 38.867304877097375 ], [ -120.00530236749583, 38.867624122436574 ], [ -120.005289518706263, 38.867930096086674 ], [ -120.005482361845893, 38.868277384406731 ], [ -120.00549404783817, 38.868547952020997 ], [ -120.00586578639718, 38.869025955626313 ], [ -120.006163572837323, 38.869069632296892 ], [ -120.006203573722914, 38.869214801416724 ], [ -120.006367001219729, 38.869164940922637 ], [ -120.006593453146891, 38.869260839854853 ], [ -120.006385445963858, 38.870372609918029 ], [ -120.006316375945644, 38.8703708378154 ], [ -120.006210680843878, 38.870692447168771 ], [ -120.00602649334617, 38.87068772116303 ], [ -120.005984225054874, 38.870596547353919 ], [ -120.004079965356013, 38.870284705827849 ], [ -120.004106894752795, 38.870296110575673 ], [ -120.004105382393647, 38.870332107420786 ], [ -120.004065953212319, 38.870282411075337 ], [ -120.00337468870471, 38.870169201237424 ], [ -120.002854232893398, 38.869939619650921 ], [ -120.002634593200852, 38.869681727980087 ], [ -120.002476609553369, 38.869601994625285 ], [ -120.003097653787236, 38.870180103897127 ], [ -120.002053930492735, 38.871432557623535 ], [ -120.001806288377978, 38.87184060453891 ], [ -120.000760691452072, 38.872588498631046 ], [ -119.999680081889053, 38.872524680878335 ], [ -119.999888811561078, 38.872494012392451 ], [ -119.998640976908604, 38.872570027642205 ], [ -119.998758369113034, 38.872518993847102 ], [ -119.998055528989227, 38.872789198108883 ], [ -119.99711031528777, 38.873341445368503 ], [ -119.996397326641258, 38.873305075533828 ], [ -119.996087880403707, 38.872990806499509 ], [ -119.996056387477353, 38.872722302612765 ], [ -119.996030182797469, 38.872719053986387 ], [ -119.995854333349797, 38.872516330646995 ], [ -119.995716190503572, 38.872512773780613 ], [ -119.995650910941947, 38.872421003904499 ], [ -119.99519726191761, 38.872247161847802 ], [ -119.994996875311827, 38.872079840953958 ], [ -119.994982953975793, 38.871863268789284 ], [ -119.995015838211927, 38.871629884263712 ], [ -119.995289086575553, 38.871708992446742 ], [ -119.995575227841655, 38.871482129293597 ], [ -119.995806979185275, 38.871452060896225 ], [ -119.995858334142184, 38.871327258492116 ], [ -119.996112350094478, 38.871315780527354 ], [ -119.996419994292893, 38.871125504430239 ], [ -119.996518910812483, 38.870965890411526 ], [ -119.996778989807211, 38.870810424552829 ], [ -119.996855639846842, 38.870632219296759 ], [ -119.996972271944685, 38.870599185512688 ], [ -119.996956828616902, 38.870418609918389 ], [ -119.996797940613675, 38.870360467028284 ], [ -119.996868526030823, 38.870326248153823 ], [ -119.996775675509042, 38.870341876140543 ], [ -119.996929732015616, 38.869967467193248 ], [ -119.997255085815127, 38.869903769248737 ], [ -119.997493651994418, 38.869711712438345 ], [ -119.997596352999125, 38.869462105713993 ], [ -119.997710709544521, 38.869483066052872 ], [ -119.99787717374339, 38.869361224434542 ], [ -119.997999107158961, 38.869202201246026 ], [ -119.997962153953523, 38.868985036673273 ], [ -119.998055002489039, 38.868969407658071 ], [ -119.998109382107302, 38.868772610677759 ], [ -119.998340366230408, 38.868760535171589 ], [ -119.998532880414857, 38.868567291410997 ], [ -119.998538183163063, 38.868441303057153 ], [ -119.998725393541775, 38.868374047285663 ], [ -119.998776740902315, 38.868249243248542 ], [ -119.998962435725574, 38.868217983751649 ], [ -119.998897912874568, 38.868108217281559 ], [ -119.999061342231244, 38.868058367121456 ], [ -119.999207807756193, 38.867863937852398 ], [ -119.999416523793869, 38.867833269657766 ], [ -119.999586010191223, 38.867639431881315 ], [ -119.999913622819903, 38.867521730901238 ], [ -119.999800025785916, 38.867482774455759 ], [ -119.999849856204847, 38.867393966551788 ], [ -120.000010254780193, 38.867416108417125 ], [ -120.00006159912806, 38.867291303679927 ], [ -120.000511829972368, 38.867286125284423 ], [ -120.000681769167471, 38.867168478587899 ], [ -120.000620188249044, 38.867161521016634 ], [ -120.000571872925789, 38.8672143325498 ], [ -120.000484326184406, 38.867103975078201 ], [ -120.000817990315966, 38.866842284378031 ], [ -120.000826316340536, 38.866644302204165 ], [ -120.001009735665647, 38.8666670343829 ], [ -120.001199209635061, 38.866545779189593 ], [ -120.001207534514251, 38.86634779693653 ], [ -120.001395493777693, 38.866262538150025 ], [ -120.001553620302431, 38.866338672989464 ], [ -120.001624199513572, 38.86630445096722 ], [ -120.001780056411519, 38.866434580698296 ], [ -120.001944236718302, 38.866366727854995 ], [ -120.001995576859073, 38.866241922082608 ], [ -120.002110686445207, 38.866244879561009 ], [ -120.002166565525471, 38.866012083276047 ], [ -120.002469631946127, 38.865929779963373 ], [ -120.002498705495171, 38.865786384092509 ], [ -120.002636836182717, 38.865789932423198 ], [ -120.002618352990567, 38.865681350573219 ], [ -120.002763291017999, 38.865522913020165 ], [ -120.002653904443008, 38.864835425117903 ], [ -120.002797327836348, 38.864712984266205 ], [ -120.003099631732823, 38.864648677474079 ], [ -120.003127947065082, 38.864523279772357 ], [ -120.003357404737926, 38.864547190593491 ], [ -120.003569134296939, 38.864444520773517 ], [ -120.004101234622752, 38.864944665524135 ], [ -120.004050655243162, 38.865051473992807 ], [ -120.004320866312028, 38.865202554245357 ], [ -120.004762402027524, 38.865664335262821 ], [ -120.0042155124099, 38.866064706196525 ], [ -120.004997910736591, 38.865544255416751 ], [ -120.005828961162536, 38.865511529711583 ], [ -120.005941047622542, 38.865586477235517 ], [ -120.005909714247082, 38.865783869645412 ] ], [ [ -119.999894112658225, 38.872368023966793 ], [ -119.999854881247202, 38.872370837186651 ], [ -119.999888811561078, 38.872494012392451 ], [ -119.999894112658225, 38.872368023966793 ] ], [ [ -119.997203295807893, 38.87054721678706 ], [ -119.997184028499021, 38.870496528457707 ], [ -119.996868526030823, 38.870326248153823 ], [ -119.997203295807893, 38.87054721678706 ] ], [ [ -120.00437239802767, 38.866170447652081 ], [ -120.004372885769925, 38.866158835755442 ], [ -120.004395151714277, 38.866177425230624 ], [ -120.004417417670268, 38.866196014701963 ], [ -120.004439683637798, 38.866214604169521 ], [ -120.00444710562968, 38.866220800657914 ], [ -120.004568597563207, 38.866302686107424 ], [ -120.004980117208262, 38.866516762649439 ], [ -120.0042155124099, 38.866064706196525 ], [ -120.00437239802767, 38.866170447652081 ] ], [ [ -120.004382259424986, 38.866177094251334 ], [ -120.004394810297057, 38.866185553558424 ], [ -120.004395151714277, 38.866177425230624 ], [ -120.004382259424986, 38.866177094251334 ] ], [ [ -120.004410050645646, 38.866195825572447 ], [ -120.004417222576038, 38.866200659460816 ], [ -120.004417417670268, 38.866196014701963 ], [ -120.004410050645646, 38.866195825572447 ] ], [ [ -120.004437841881128, 38.866214556887513 ], [ -120.004439634864582, 38.86621576535925 ], [ -120.004439683637798, 38.866214604169521 ], [ -120.004437841881128, 38.866214556887513 ] ], [ [ -120.002487221895805, 38.869532297997125 ], [ -120.002414830830219, 38.869544486211311 ], [ -120.002429744711023, 38.869558369216229 ], [ -120.002487221895805, 38.869532297997125 ] ], [ [ -120.002184725591562, 38.869417921074415 ], [ -120.001907693603641, 38.869428821016307 ], [ -120.00223649741514, 38.869451590896176 ], [ -120.002184725591562, 38.869417921074415 ] ], [ [ -120.001375577877937, 38.868928665871024 ], [ -120.001439743276649, 38.868897555148969 ], [ -120.001377527441605, 38.868855951652435 ], [ -120.001341202484753, 38.869198049919419 ], [ -120.001375577877937, 38.868928665871024 ] ], [ [ -120.001420866597783, 38.86894784757127 ], [ -120.001447051026361, 38.868941763786296 ], [ -120.001375577877937, 38.868928665871024 ], [ -120.001420866597783, 38.86894784757127 ] ], [ [ -120.001266518897324, 38.868781720455893 ], [ -120.001035534825391, 38.868793801775993 ], [ -120.001344979281228, 38.86883418678746 ], [ -120.001266518897324, 38.868781720455893 ] ], [ [ -119.999919198713201, 38.869231929918882 ], [ -119.999922269353988, 38.869233646854141 ], [ -120.000210054865917, 38.869241045921953 ], [ -120.000100961964549, 38.869229675336392 ], [ -119.999919198713201, 38.869231929918882 ] ], [ [ -119.998609820361168, 38.868929626988525 ], [ -119.99919417537096, 38.868187908129428 ], [ -119.999216440499978, 38.868206498559594 ], [ -119.999243241341148, 38.868102083821505 ], [ -119.999220227270087, 38.868116506816612 ], [ -119.997563767051574, 38.870236033316218 ], [ -119.997904276376204, 38.869812367208787 ], [ -119.997990044277529, 38.869828087265276 ], [ -119.997928814804368, 38.869776962920938 ], [ -119.998269319656785, 38.86935329554548 ], [ -119.998626306729065, 38.86893782638856 ], [ -119.998609820361168, 38.868929626988525 ] ], [ [ -119.999833198211803, 38.867789930485792 ], [ -120.000366808805168, 38.86825409525435 ], [ -120.000477670070197, 38.868292112507788 ], [ -119.999810933037352, 38.867771340171018 ], [ -120.000192813895808, 38.867506974191663 ], [ -119.999268556808659, 38.868086218521185 ], [ -119.999833198211803, 38.867789930485792 ] ], [ [ -120.005393083758761, 38.866389740783575 ], [ -120.005436579526659, 38.866564236571755 ], [ -120.005465847969134, 38.866475175645988 ], [ -120.005393083758761, 38.866389740783575 ] ], [ [ -120.005576774781673, 38.867126665002992 ], [ -120.004746049615079, 38.867699932393379 ], [ -120.004714108661517, 38.867746026860353 ], [ -120.005576774781673, 38.867126665002992 ] ], [ [ -120.004356522145571, 38.868025049078675 ], [ -120.004345501808345, 38.868031988736917 ], [ -120.004366867642062, 38.868032537268157 ], [ -120.004356522145571, 38.868025049078675 ] ], [ [ -120.003871452015758, 38.869317101864937 ], [ -120.003871452015545, 38.869317101864773 ], [ -120.003871452015701, 38.869317101864922 ], [ -120.003871452015758, 38.869317101864937 ] ], [ [ -120.00375971407361, 38.869208146294696 ], [ -120.003751464070035, 38.868881592637713 ], [ -120.003738608055812, 38.869187565787371 ], [ -120.00375971407361, 38.869208146294696 ] ], [ [ -120.003428669414021, 38.868573330584745 ], [ -120.003483509728866, 38.868676515391741 ], [ -120.003751464070035, 38.868881592637713 ], [ -120.003428669414021, 38.868573330584745 ] ], [ [ -120.003772543729426, 38.868379886621831 ], [ -120.003240848635272, 38.868418033635145 ], [ -120.002877025046686, 38.868300581978424 ], [ -120.003297118678333, 38.868447701435336 ], [ -120.00328613758856, 38.868437214619341 ], [ -120.003748859396723, 38.868395044055553 ], [ -120.003772543729426, 38.868379886621831 ] ], [ [ -120.002815434759484, 38.868138583068387 ], [ -120.002709376421819, 38.868303746439103 ], [ -120.00273737652897, 38.868333030552805 ], [ -120.002789473397726, 38.868190226061252 ], [ -120.002877025046686, 38.868300581978424 ], [ -120.002815434759484, 38.868138583068387 ] ], [ [ -120.002693222524172, 38.868286851755421 ], [ -120.00269759929688, 38.868182718122171 ], [ -120.002667857483047, 38.868260323503414 ], [ -120.002693222524172, 38.868286851755421 ] ], [ [ -120.002467810073895, 38.869263033282607 ], [ -120.002563940640798, 38.869497498875127 ], [ -120.00259686908133, 38.869482562722865 ], [ -120.002467810073895, 38.869263033282607 ] ], [ [ -120.002571546154087, 38.867267089165601 ], [ -120.002552541040757, 38.867247212189703 ], [ -120.002812741165087, 38.867104839401001 ], [ -120.002789571438782, 38.86709114036848 ], [ -120.002382618685047, 38.867341669068693 ], [ -120.002571546154087, 38.867267089165601 ] ], [ [ -120.0019923190073, 38.867495739989984 ], [ -120.001286636104311, 38.867755220994404 ], [ -120.001276319868452, 38.867741320753311 ], [ -120.001285879282463, 38.867773219378343 ], [ -120.001276806200636, 38.867778183655496 ], [ -120.0019923190073, 38.867495739989984 ] ], [ [ -120.003553123994635, 38.867542583504502 ], [ -120.003032006339268, 38.867234478813742 ], [ -120.003506045108082, 38.867577604509371 ], [ -120.003553123994635, 38.867542583504502 ] ], [ [ -120.003435283971939, 38.867630242143193 ], [ -120.003501927019826, 38.867580667866953 ], [ -120.002987269139069, 38.867870985519374 ], [ -120.003435283971939, 38.867630242143193 ] ], [ [ -120.00147799625482, 38.868934573850815 ], [ -120.001490691731519, 38.868931624131228 ], [ -120.001458666982629, 38.868910209344733 ], [ -120.00147799625482, 38.868934573850815 ] ], [ [ -120.000908438031374, 38.867979732665987 ], [ -120.00080437333159, 38.868093480769041 ], [ -120.00097984600032, 38.867940662685399 ], [ -120.000908438031374, 38.867979732665987 ] ], [ [ -120.00052584685622, 38.868308633554427 ], [ -120.000564111688462, 38.868321755520427 ], [ -120.000570119486952, 38.868302887203775 ], [ -120.00052584685622, 38.868308633554427 ] ], [ [ -120.000492831396485, 38.868545620198532 ], [ -120.00053760254626, 38.868405010987296 ], [ -120.000269012572588, 38.868752648345207 ], [ -120.00029956528266, 38.868756865773463 ], [ -120.000492831396485, 38.868545620198532 ] ], [ [ -119.999639480150947, 38.868559716002636 ], [ -119.9999787620321, 38.868712582384447 ], [ -120.000142371633146, 38.868735167021207 ], [ -119.999639480150947, 38.868559716002636 ] ], [ [ -119.999782171267981, 38.871193987350566 ], [ -119.999382441086738, 38.871381904347885 ], [ -119.999522096937156, 38.871349460103822 ], [ -119.999782171267981, 38.871193987350566 ] ], [ [ -119.998862603001228, 38.871126581149888 ], [ -119.998811804518027, 38.871066931138451 ], [ -119.998840482316268, 38.871115716284592 ], [ -119.998862603001228, 38.871126581149888 ] ], [ [ -119.998691358175577, 38.870862033460796 ], [ -119.998957573333243, 38.870524139928357 ], [ -119.998668416090226, 38.870823005320013 ], [ -119.998691358175577, 38.870862033460796 ] ], [ [ -119.998456822490112, 38.870217826441504 ], [ -119.998195998602625, 38.870000050755699 ], [ -119.99837336444017, 38.870166773999877 ], [ -119.998456822490112, 38.870217826441504 ] ], [ [ -120.000013581937424, 38.869303125542793 ], [ -120.000002686232563, 38.869317067686758 ], [ -120.000022843403002, 38.869308304033943 ], [ -120.000013581937424, 38.869303125542793 ] ], [ [ -119.999856061802049, 38.869504687645431 ], [ -119.99960949341029, 38.869820192663063 ], [ -119.99982654477941, 38.869591542086233 ], [ -119.999856061802049, 38.869504687645431 ] ], [ [ -119.997208097848386, 38.870765484605656 ], [ -119.997313906821006, 38.870607977730863 ], [ -119.997294597019661, 38.870607480806001 ], [ -119.99719644067882, 38.870749097272721 ], [ -119.997208097848386, 38.870765484605656 ] ], [ [ -119.997295354924546, 38.870589482496705 ], [ -119.99731520010036, 38.870606052554415 ], [ -119.997325804988421, 38.87059026610703 ], [ -119.997318378143476, 38.870590074983284 ], [ -119.997319136041895, 38.870572076673533 ], [ -119.997268510943258, 38.870590262521603 ], [ -119.997294597019661, 38.870607480806001 ], [ -119.997295354924546, 38.870589482496705 ] ], [ [ -119.997261720895239, 38.870840866324386 ], [ -119.998050109100419, 38.871275562373761 ], [ -119.997240737950762, 38.870811369132603 ], [ -119.997261720895239, 38.870840866324386 ] ], [ [ -119.997712624373008, 38.871627235320837 ], [ -119.997990026455426, 38.871373733460096 ], [ -119.997977249976827, 38.871363776898924 ], [ -119.998050109100419, 38.871275562373761 ], [ -119.997712624373008, 38.871627235320837 ] ], [ [ -119.99864674226518, 38.871885498989258 ], [ -119.998623256377968, 38.872443447113987 ], [ -119.998656129147435, 38.87221006111956 ], [ -119.998677091424312, 38.87221451613452 ], [ -119.99864674226518, 38.871885498989258 ] ], [ [ -119.999753697588034, 38.87241846692347 ], [ -119.999814849192859, 38.872373707805394 ], [ -119.999524216407963, 38.872394548081608 ], [ -119.999753697588034, 38.87241846692347 ] ], [ [ -119.997319136041895, 38.870572076673518 ], [ -119.997331236758484, 38.870582180365204 ], [ -119.997344031956459, 38.87056313340377 ], [ -119.997319136041895, 38.870572076673518 ] ], [ [ -119.996952178846101, 38.873265304153847 ], [ -119.99649768300273, 38.873202555067024 ], [ -119.996560769676265, 38.873255229459417 ], [ -119.996952178846101, 38.873265304153847 ] ], [ [ -119.996427174477589, 38.873143683650774 ], [ -119.996288942793882, 38.872969430170357 ], [ -119.996315845463826, 38.873050728704577 ], [ -119.996427174477589, 38.873143683650774 ] ] ], [ [ [ -120.004235204440064, 38.870533636865908 ], [ -120.004167646741251, 38.870495866639544 ], [ -120.004214449566533, 38.870479050472412 ], [ -120.004235204440064, 38.870533636865908 ] ] ], [ [ [ -120.000414575306536, 38.872597619009277 ], [ -120.000574985717193, 38.872619760551736 ], [ -120.000804468104562, 38.872643677367314 ], [ -120.000551204636281, 38.87263716703815 ], [ -120.000414575306536, 38.872597619009277 ] ] ], [ [ [ -120.003131634361452, 38.874307059822542 ], [ -120.003017268225889, 38.874286104446028 ], [ -120.003018024786869, 38.87426810605362 ], [ -120.003131634361452, 38.874307059822542 ] ] ], [ [ [ -120.003176926923302, 38.874326240979421 ], [ -120.003130877828085, 38.874325058216705 ], [ -120.003131634361452, 38.874307059822542 ], [ -120.003176926923302, 38.874326240979421 ] ] ], [ [ [ -119.995512768306043, 38.872417446804775 ], [ -119.995513526709232, 38.872399448530508 ], [ -119.995535792077007, 38.872418039666066 ], [ -119.995512768306043, 38.872417446804775 ] ] ], [ [ [ -119.995535792077007, 38.872418039666066 ], [ -119.995626370417114, 38.872456407618024 ], [ -119.995535033678934, 38.87243603794068 ], [ -119.995535792077007, 38.872418039666066 ] ] ], [ [ [ -119.996030182797469, 38.872719053986387 ], [ -119.996007158918914, 38.872718461218746 ], [ -119.99600791720556, 38.872700462937203 ], [ -119.996030182797469, 38.872719053986387 ] ] ] ] } }
]
}
