{
"type": "FeatureCollection",
"name": "X01713",
"crs": { "type": "name", "properties": { "name": "urn:ogc:def:crs:OGC:1.3:CRS84" } },
"features": [
{ "type": "Feature", "properties": { "part": "direct", "crossing_id": "X01713", "area_ac": 48.8 }, "geometry": { "type": "Polygon", "coordinates": [ [ [ -120.044186232858479, 38.920903604361087 ], [ -120.044586762025716, 38.921256093014229 ], [ -120.044908582902551, 38.921282264704296 ], [ -120.045242862655456, 38.922119555038464 ], [ -120.045661333788175, 38.922040065855043 ], [ -120.04573717985248, 38.921879826128638 ], [ -120.045918518250787, 38.921956490420648 ], [ -120.045962242624881, 38.922570205249158 ], [ -120.046073712841803, 38.922663117657535 ], [ -120.046261029121098, 38.922595789902907 ], [ -120.046413353602489, 38.922815861635307 ], [ -120.046571653972663, 38.922891941559172 ], [ -120.046676403879601, 38.923146844037959 ], [ -120.046928363882984, 38.923189259208485 ], [ -120.046985539232239, 38.923478992643908 ], [ -120.047144588436964, 38.923537072901865 ], [ -120.047203258332047, 38.923790808336257 ], [ -120.047361561719129, 38.923866887293393 ], [ -120.047380869738788, 38.923957465402047 ], [ -120.047685635700034, 38.923839054899979 ], [ -120.048063903510226, 38.924172950566422 ], [ -120.047628249045133, 38.924666424222046 ], [ -120.047086340541426, 38.924940991766789 ], [ -120.046802258836664, 38.925672531629054 ], [ -120.046828177108054, 38.926159670109477 ], [ -120.046940400702056, 38.926234582951942 ], [ -120.047042915572277, 38.926543482070052 ], [ -120.047243575446487, 38.926710722910734 ], [ -120.047236107399883, 38.926890712449897 ], [ -120.047092624776212, 38.927013204939577 ], [ -120.047085156267642, 38.927193194444868 ], [ -120.047218183815502, 38.927322687316199 ], [ -120.04721370285931, 38.927430681026706 ], [ -120.047003331712716, 38.927497426404969 ], [ -120.046823472141298, 38.927384765378768 ], [ -120.046569256542767, 38.927396346256437 ], [ -120.046187874475464, 38.927692991793386 ], [ -120.046049618341655, 38.927689490323687 ], [ -120.045882342169861, 38.927829396500684 ], [ -120.045872628837188, 38.928063382567828 ], [ -120.045575191875173, 38.928560348489249 ], [ -120.045254832574358, 38.928498179544953 ], [ -120.045228052847818, 38.928587590363158 ], [ -120.044882408516528, 38.928578833372548 ], [ -120.044775415977071, 38.928377926153765 ], [ -120.044113153727452, 38.928217001347477 ], [ -120.043686556386348, 38.927935921511342 ], [ -120.043533482847806, 38.927733845175425 ], [ -120.043585550161652, 38.927591022210137 ], [ -120.043843504943766, 38.927489453404739 ], [ -120.044421195486521, 38.926909504774152 ], [ -120.044427175623653, 38.926765513509821 ], [ -120.044180437944959, 38.926597100187877 ], [ -120.044071207269482, 38.926450189169344 ], [ -120.044077935606552, 38.92628819903512 ], [ -120.043768802950524, 38.925956042909398 ], [ -120.043933835602672, 38.925870136426589 ], [ -120.043988890908508, 38.925655317540517 ], [ -120.043810536156982, 38.925506654394326 ], [ -120.043731078548177, 38.925198337010393 ], [ -120.043777296986619, 38.924640955025502 ], [ -120.04370891966829, 38.924621204095061 ], [ -120.043990652432285, 38.924502219598601 ], [ -120.043998875600849, 38.924304231604239 ], [ -120.044119316035321, 38.924181158941714 ], [ -120.04411944760767, 38.923622608739464 ], [ -120.044365557264655, 38.923250470465746 ], [ -120.04452983537054, 38.923182561752142 ], [ -120.044496458759809, 38.922875412417149 ], [ -120.04457156104074, 38.922733172528631 ], [ -120.04421486360836, 38.92243584811844 ], [ -120.044243136670232, 38.92231043957257 ], [ -120.044020950072706, 38.922106612461086 ], [ -120.042619199373917, 38.921980990277021 ], [ -120.042102725346027, 38.921643572590028 ], [ -120.041882043134535, 38.921403743931158 ], [ -120.041891019261783, 38.921187757324581 ], [ -120.041984677221848, 38.921154096841796 ], [ -120.043532129401868, 38.921103241027737 ], [ -120.043863666578915, 38.920895429669393 ], [ -120.044186232858479, 38.920903604361087 ] ] ] } }
]
}
