{
"type": "FeatureCollection",
"name": "X01770",
"crs": { "type": "name", "properties": { "name": "urn:ogc:def:crs:OGC:1.3:CRS84" } },
"features": [
{ "type": "Feature", "properties": { "part": "direct", "crossing_id": "X01770", "area_ac": 0.8 }, "geometry": { "type": "Polygon", "coordinates": [ [ [ -120.025018852375027, 38.839173635758542 ], [ -120.025220725320736, 38.839304907276706 ], [ -120.025473126337999, 38.83932935835152 ], [ -120.025468626554058, 38.839437351564975 ], [ -120.025349807731956, 38.839524413132324 ], [ -120.02523548879185, 38.839503481379182 ], [ -120.025277766282002, 38.839594648873742 ], [ -120.025153696594842, 38.839807702263613 ], [ -120.024809988719724, 38.839762904911723 ], [ -120.024895293082778, 38.839927241301567 ], [ -120.024825501198663, 38.839943480154801 ], [ -120.024867778379843, 38.840034647781671 ], [ -120.024751208315749, 38.840067712096328 ], [ -120.024553085264287, 38.839846445467835 ], [ -120.024697169930732, 38.839705974910984 ], [ -120.024703171249442, 38.839561984066798 ], [ -120.024986837715616, 38.839389035465615 ], [ -120.025018852375027, 38.839173635758542 ] ] ] } }
]
}
