{
"type": "FeatureCollection",
"name": "X01781",
"crs": { "type": "name", "properties": { "name": "urn:ogc:def:crs:OGC:1.3:CRS84" } },
"features": [
{ "type": "Feature", "properties": { "part": "direct", "crossing_id": "X01781", "area_ac": 1.0 }, "geometry": { "type": "Polygon", "coordinates": [ [ [ -120.00350565348387, 38.874731075917197 ], [ -120.003839678322137, 38.87500992122758 ], [ -120.003724886993894, 38.875547508206438 ], [ -120.003522201238141, 38.87543419608253 ], [ -120.003081701706861, 38.875494953690144 ], [ -120.003132290939448, 38.875388146158087 ], [ -120.003040947969851, 38.875367782135989 ], [ -120.003249355919763, 38.874796564733266 ], [ -120.00350565348387, 38.874731075917197 ] ] ] } }
]
}
