{
"type": "FeatureCollection",
"name": "X01702",
"crs": { "type": "name", "properties": { "name": "urn:ogc:def:crs:OGC:1.3:CRS84" } },
"features": [
{ "type": "Feature", "properties": { "part": "direct", "crossing_id": "X01702", "area_ac": 1.4 }, "geometry": { "type": "Polygon", "coordinates": [ [ [ -120.03510917785691, 38.883538387259939 ], [ -120.035313436950915, 38.883615649421195 ], [ -120.035330475878482, 38.883760225722583 ], [ -120.035557015545734, 38.883856071538709 ], [ -120.035696682524758, 38.883823584334905 ], [ -120.035854886472052, 38.883899675420871 ], [ -120.035927714028489, 38.883811436051516 ], [ -120.036040610057739, 38.883868357902237 ], [ -120.035854137935985, 38.883917674321964 ], [ -120.035825121248209, 38.88406108046815 ], [ -120.035684705261261, 38.884111566706437 ], [ -120.035338530841855, 38.88412078872993 ], [ -120.035248663393631, 38.884064451386045 ], [ -120.034669210307214, 38.884139814976166 ], [ -120.034580092260541, 38.884065478256538 ], [ -120.034634386274234, 38.88386866117289 ], [ -120.034543021993727, 38.883848321078247 ], [ -120.034546766312104, 38.883758326678056 ], [ -120.034384819672596, 38.883772228270807 ], [ -120.034299446982402, 38.883607896976976 ], [ -120.03510917785691, 38.883538387259939 ] ] ] } }
]
}
