{
"type": "FeatureCollection",
"name": "X01710",
"crs": { "type": "name", "properties": { "name": "urn:ogc:def:crs:OGC:1.3:CRS84" } },
"features": [
{ "type": "Feature", "properties": { "part": "direct", "crossing_id": "X01710", "area_ac": 13.9 }, "geometry": { "type": "Polygon", "coordinates": [ [ [ -120.041345184935764, 38.905462330018459 ], [ -120.042103858502841, 38.905517605404796 ], [ -120.042415890250538, 38.905777767434181 ], [ -120.042778479774086, 38.905931102976901 ], [ -120.043016177535179, 38.906315504251864 ], [ -120.043793289586347, 38.907037898226257 ], [ -120.043155008678838, 38.906859560105026 ], [ -120.043043565893868, 38.906766645799308 ], [ -120.042036716992257, 38.906578958402228 ], [ -120.04074596659872, 38.906564239505371 ], [ -120.039947196961151, 38.90636379465554 ], [ -120.039149018636635, 38.906703895745338 ], [ -120.038626514733366, 38.907069007833663 ], [ -120.038324054423157, 38.907133400548815 ], [ -120.037426228602101, 38.907651138263603 ], [ -120.036402722380714, 38.908417926012234 ], [ -120.036056991431764, 38.908967695678427 ], [ -120.036308515125171, 38.907911032349105 ], [ -120.036990221156856, 38.907045474551872 ], [ -120.037427153157822, 38.907074589887721 ], [ -120.039115830446846, 38.905838195178085 ], [ -120.039647142927095, 38.905815643977306 ], [ -120.039673171033201, 38.90574423297344 ], [ -120.040110844864273, 38.905755339086454 ], [ -120.040322652074309, 38.905652605865924 ], [ -120.040373958781814, 38.905527782394962 ], [ -120.040858450244201, 38.905522055600905 ], [ -120.0409944192767, 38.905579558305639 ], [ -120.041345184935764, 38.905462330018459 ] ] ] } }
]
}
