{
"type": "FeatureCollection",
"name": "X01795",
"crs": { "type": "name", "properties": { "name": "urn:ogc:def:crs:OGC:1.3:CRS84" } },
"features": [
{ "type": "Feature", "properties": { "part": "direct", "crossing_id": "X01795", "area_ac": 1.9 }, "geometry": { "type": "Polygon", "coordinates": [ [ [ -120.014383140743334, 38.863766767736877 ], [ -120.014495234104572, 38.86384170730377 ], [ -120.0143865733327, 38.864235320663802 ], [ -120.014390759203465, 38.864685874950716 ], [ -120.014248108338563, 38.864790332245711 ], [ -120.013580479167075, 38.864773247212504 ], [ -120.013563074124079, 38.864088122141581 ], [ -120.013638167379213, 38.863945900929345 ], [ -120.014037820147777, 38.863757931720023 ], [ -120.014383140743334, 38.863766767736877 ] ] ] } }
]
}
