{
"type": "FeatureCollection",
"name": "X01798",
"crs": { "type": "name", "properties": { "name": "urn:ogc:def:crs:OGC:1.3:CRS84" } },
"features": [
{ "type": "Feature", "properties": { "part": "direct", "crossing_id": "X01798", "area_ac": 0.0 }, "geometry": { "type": "MultiPolygon", "coordinates": [ [ [ [ -120.019928192995053, 38.858467103566028 ], [ -120.019950460914629, 38.858485690157217 ], [ -120.01992744112286, 38.85848510228525 ], [ -120.019928192995053, 38.858467103566028 ] ] ], [ [ [ -120.019795337622611, 38.858337585220951 ], [ -120.019929696737393, 38.858431106127462 ], [ -120.019928192995053, 38.858467103566028 ], [ -120.019791578104943, 38.858427578807301 ], [ -120.019795337622611, 38.858337585220951 ] ] ] ] } }
]
}
