{
"type": "FeatureCollection",
"name": "X01720",
"crs": { "type": "name", "properties": { "name": "urn:ogc:def:crs:OGC:1.3:CRS84" } },
"features": [
{ "type": "Feature", "properties": { "part": "direct", "crossing_id": "X01720", "area_ac": 9.4 }, "geometry": { "type": "Polygon", "coordinates": [ [ [ -120.018808493090489, 38.874780737076115 ], [ -120.018872300127043, 38.874908492517513 ], [ -120.019625356161725, 38.87508989157979 ], [ -120.019765011734975, 38.875057423028949 ], [ -120.020144402855777, 38.875355399077968 ], [ -120.020003242219133, 38.875423865401935 ], [ -120.019971189152244, 38.875639261334243 ], [ -120.019852300773678, 38.87572631419043 ], [ -120.019227606502199, 38.875782428271421 ], [ -120.019307668007031, 38.876072759641836 ], [ -120.019204278275708, 38.876340386521385 ], [ -120.018946481830596, 38.876441907468212 ], [ -120.018752492870732, 38.876671183341763 ], [ -120.018540745939887, 38.876773879978536 ], [ -120.0181036993296, 38.877303247393314 ], [ -120.017606603826692, 38.877614863699336 ], [ -120.017243894695739, 38.878020002746254 ], [ -120.017275204435677, 38.877822606622743 ], [ -120.017542044009204, 38.877505106231858 ], [ -120.017515133427963, 38.876495417620255 ], [ -120.017855120646516, 38.875531142684807 ], [ -120.017861896291237, 38.875369154989158 ], [ -120.017661445634104, 38.875201870682112 ], [ -120.017516081146113, 38.87481977964817 ], [ -120.018530687530003, 38.874809674433358 ], [ -120.018712629917488, 38.874868377081206 ], [ -120.018808493090489, 38.874780737076115 ] ] ] } }
]
}
