{
"type": "FeatureCollection",
"name": "X01725",
"crs": { "type": "name", "properties": { "name": "urn:ogc:def:crs:OGC:1.3:CRS84" } },
"features": [
{ "type": "Feature", "properties": { "part": "direct", "crossing_id": "X01725", "area_ac": 0.2 }, "geometry": { "type": "Polygon", "coordinates": [ [ [ -120.129587491844546, 39.066729877789008 ], [ -120.129934564581504, 39.066720409285217 ], [ -120.129930187358269, 39.066828408359662 ], [ -120.12934929960457, 39.066904188021731 ], [ -120.129376037604644, 39.066814757675772 ], [ -120.129587491844546, 39.066729877789008 ] ] ] } }
]
}
