{
"type": "FeatureCollection",
"name": "X01823",
"crs": { "type": "name", "properties": { "name": "urn:ogc:def:crs:OGC:1.3:CRS84" } },
"features": [
{ "type": "Feature", "properties": { "part": "direct", "crossing_id": "X01823", "area_ac": 1.2 }, "geometry": { "type": "Polygon", "coordinates": [ [ [ -119.931403384040294, 39.235939112706298 ], [ -119.931677149989781, 39.236036415406417 ], [ -119.931647732365221, 39.236179773906514 ], [ -119.931084888035841, 39.236867585574188 ], [ -119.930949965848441, 39.23677394338862 ], [ -119.930787193991904, 39.236787667114434 ], [ -119.93068992074997, 39.236893202063619 ], [ -119.93018474309882, 39.236789792497049 ], [ -119.930284371829998, 39.236630269817546 ], [ -119.930728758996096, 39.236533891117482 ], [ -119.931017436979843, 39.2362892700949 ], [ -119.931322191513601, 39.236207223203316 ], [ -119.931443388277415, 39.236084301773587 ], [ -119.931403384040294, 39.235939112706298 ] ] ] } }
]
}
