{
"type": "FeatureCollection",
"name": "X01818",
"crs": { "type": "name", "properties": { "name": "urn:ogc:def:crs:OGC:1.3:CRS84" } },
"features": [
{ "type": "Feature", "properties": { "part": "direct", "crossing_id": "X01818", "area_ac": 0.1 }, "geometry": { "type": "Polygon", "coordinates": [ [ [ -119.932956198623401, 39.240177957595513 ], [ -119.932999345454334, 39.240251161887521 ], [ -119.933014643899426, 39.240431732774546 ], [ -119.932762432510884, 39.240371034720496 ], [ -119.932956198623401, 39.240177957595513 ] ] ] } }
]
}
