{
"type": "FeatureCollection",
"name": "X01874",
"crs": { "type": "name", "properties": { "name": "urn:ogc:def:crs:OGC:1.3:CRS84" } },
"features": [
{ "type": "Feature", "properties": { "part": "direct", "crossing_id": "X01874", "area_ac": 0.2 }, "geometry": { "type": "Polygon", "coordinates": [ [ [ -119.937351583914804, 39.239266768107576 ], [ -119.93757987084858, 39.239344843358801 ], [ -119.937479470799289, 39.239522368898633 ], [ -119.937183323945732, 39.23940647377777 ], [ -119.937134690047003, 39.239459244037342 ], [ -119.936950337251275, 39.239436374733799 ], [ -119.937072313804762, 39.239295451162548 ], [ -119.937351583914804, 39.239266768107576 ] ] ] } }
]
}
