{
"type": "FeatureCollection",
"name": "X01812",
"crs": { "type": "name", "properties": { "name": "urn:ogc:def:crs:OGC:1.3:CRS84" } },
"features": [
{ "type": "Feature", "properties": { "part": "direct", "crossing_id": "X01812", "area_ac": 0.4, "n_upstream": null }, "geometry": { "type": "Polygon", "coordinates": [ [ [ -119.933877498773498, 39.236580865284779 ], [ -119.934054002752575, 39.236783700355716 ], [ -119.933665711043844, 39.237187855179712 ], [ -119.93342762565193, 39.236803228956923 ], [ -119.933877498773498, 39.236580865284779 ] ] ] } },
{ "type": "Feature", "properties": { "part": "upstream", "crossing_id": "X01812", "area_ac": 1.0, "n_upstream": 2.0 }, "geometry": { "type": "MultiPolygon", "coordinates": [ [ [ [ -119.933578635250583, 39.237059443217582 ], [ -119.933555494096026, 39.237058833415489 ], [ -119.933556278241525, 39.237040837302906 ], [ -119.933578635250583, 39.237059443217582 ] ] ], [ [ [ -119.933454303578316, 39.237254351377864 ], [ -119.933357817706423, 39.237341892575522 ], [ -119.933363706415534, 39.237738416795551 ], [ -119.933143670001996, 39.238002869495951 ], [ -119.932980111192521, 39.238034592294355 ], [ -119.933082872842519, 39.237803082659362 ], [ -119.933015801592333, 39.237747264611393 ], [ -119.933012267725729, 39.237296752144253 ], [ -119.933131895137734, 39.237209821140084 ], [ -119.932956177218173, 39.236988988642516 ], [ -119.933426057307699, 39.236839221179132 ], [ -119.933555494096026, 39.237058833415489 ], [ -119.933664926922191, 39.237205851293659 ], [ -119.933454303578316, 39.237254351377864 ] ] ] ] } }
]
}
