{
"type": "FeatureCollection",
"name": "X01850",
"crs": { "type": "name", "properties": { "name": "urn:ogc:def:crs:OGC:1.3:CRS84" } },
"features": [
{ "type": "Feature", "properties": { "part": "direct", "crossing_id": "X01850", "area_ac": 0.5 }, "geometry": { "type": "Polygon", "coordinates": [ [ [ -119.937781482336106, 39.250682699016636 ], [ -119.937986660295266, 39.25076016567629 ], [ -119.938095338746393, 39.250925176441193 ], [ -119.938062008961595, 39.251158517246331 ], [ -119.937943145870065, 39.251227456304832 ], [ -119.937425677650978, 39.250871518879705 ], [ -119.937594749587248, 39.250713818021381 ], [ -119.937781482336106, 39.250682699016636 ] ] ] } }
]
}
