{
"type": "FeatureCollection",
"name": "X01838",
"crs": { "type": "name", "properties": { "name": "urn:ogc:def:crs:OGC:1.3:CRS84" } },
"features": [
{ "type": "Feature", "properties": { "part": "direct", "crossing_id": "X01838", "area_ac": 0.6 }, "geometry": { "type": "Polygon", "coordinates": [ [ [ -119.934065788265329, 39.237576749076482 ], [ -119.934316423163168, 39.237673436223652 ], [ -119.934235239175067, 39.237941549046305 ], [ -119.934071680902065, 39.237973273405558 ], [ -119.93372888131843, 39.238396643656138 ], [ -119.933545316931756, 39.238355772994858 ], [ -119.933649645594613, 39.23808827059451 ], [ -119.934061868106824, 39.2376667296733 ], [ -119.934065788265329, 39.237576749076482 ] ] ] } }
]
}
