{
"type": "FeatureCollection",
"name": "X01819",
"crs": { "type": "name", "properties": { "name": "urn:ogc:def:crs:OGC:1.3:CRS84" } },
"features": [
{ "type": "Feature", "properties": { "part": "direct", "crossing_id": "X01819", "area_ac": 0.5, "n_upstream": null }, "geometry": { "type": "Polygon", "coordinates": [ [ [ -119.935957592333281, 39.248400606432611 ], [ -119.935939563636296, 39.248814517126767 ], [ -119.935748915708231, 39.248935613910241 ], [ -119.935658687112607, 39.248879187451507 ], [ -119.935559835066016, 39.249020718134531 ], [ -119.935442916106723, 39.248513169665365 ], [ -119.9356327794046, 39.248410069464121 ], [ -119.935957592333281, 39.248400606432611 ] ] ] } },
{ "type": "Feature", "properties": { "part": "upstream", "crossing_id": "X01819", "area_ac": 14.2, "n_upstream": 6.0 }, "geometry": { "type": "MultiPolygon", "coordinates": [ [ [ [ -119.935774824157619, 39.249404731873689 ], [ -119.935669898016727, 39.249317428468196 ], [ -119.936011393130684, 39.249825346998136 ], [ -119.936521792624504, 39.250343255281479 ], [ -119.936355070742906, 39.250446966173769 ], [ -119.936216197067949, 39.250443309564652 ], [ -119.935976118077008, 39.250635172077494 ], [ -119.935672498496231, 39.251221729243518 ], [ -119.935694860356804, 39.25124033491268 ], [ -119.935719862704715, 39.25127020971869 ], [ -119.935763513965966, 39.251260159685472 ], [ -119.935761946009279, 39.251296151896966 ], [ -119.935785091890523, 39.251296761444578 ], [ -119.935765526768719, 39.251324772720409 ], [ -119.936003224099565, 39.251608790527214 ], [ -119.935632104345956, 39.251617033945905 ], [ -119.934938913458723, 39.252103244726122 ], [ -119.934775322069271, 39.252134968719226 ], [ -119.934429698803925, 39.252089829688799 ], [ -119.934448528833784, 39.252044464990149 ], [ -119.933903225946054, 39.252472326000699 ], [ -119.933462270204245, 39.251956236603235 ], [ -119.933481291627018, 39.251893435843215 ], [ -119.93310998097202, 39.251532566401004 ], [ -119.933204918498646, 39.251481018498694 ], [ -119.93323512604384, 39.251319663992795 ], [ -119.933423431044901, 39.251252560000012 ], [ -119.933308878764691, 39.250691021814305 ], [ -119.933447752549938, 39.250694681909302 ], [ -119.933982167291163, 39.250391617408766 ], [ -119.933902423969158, 39.250364345665112 ], [ -119.933752172212294, 39.250090135075638 ], [ -119.934063259914979, 39.249864114773082 ], [ -119.934411224878076, 39.249855266204207 ], [ -119.934986344090845, 39.250482986718964 ], [ -119.934412009161846, 39.249837270116835 ], [ -119.93491060859229, 39.249562137352491 ], [ -119.935120484441441, 39.249531632236405 ], [ -119.935432349401864, 39.249287611876376 ], [ -119.93563578920066, 39.249275439998698 ], [ -119.935580628307662, 39.249075316021681 ], [ -119.935658687112607, 39.248879187451507 ], [ -119.935875244160059, 39.249227208792284 ], [ -119.935774824157619, 39.249404731873689 ] ], [ [ -119.935444176216052, 39.25114364894398 ], [ -119.935481059284001, 39.251360821370767 ], [ -119.935466537989811, 39.251162254653941 ], [ -119.935672028096207, 39.251232526906129 ], [ -119.935672498496231, 39.251221729243518 ], [ -119.935444176216052, 39.25114364894398 ] ], [ [ -119.934812559983641, 39.25184651937618 ], [ -119.934812559983669, 39.251846519376187 ], [ -119.935481059284001, 39.251360821370767 ], [ -119.934812559983641, 39.25184651937618 ] ], [ [ -119.935735081535356, 39.251288394380971 ], [ -119.935760938035628, 39.251319289747002 ], [ -119.935761946009279, 39.251296151896966 ], [ -119.935735081535356, 39.251288394380971 ] ], [ [ -119.934740037339949, 39.251711761707043 ], [ -119.934731848674176, 39.251702353429735 ], [ -119.934737717671098, 39.251712836609379 ], [ -119.934740037339949, 39.251711761707043 ] ], [ [ -119.934016582850106, 39.250403387303002 ], [ -119.934001809340373, 39.250398334861785 ], [ -119.93411179082301, 39.250594790337217 ], [ -119.934016582850106, 39.250403387303002 ] ], [ [ -119.934412566002393, 39.25195124991005 ], [ -119.934473196133553, 39.251985037228351 ], [ -119.934481481323445, 39.251965076757067 ], [ -119.934412566002393, 39.25195124991005 ] ], [ [ -119.93354347678617, 39.251688125631013 ], [ -119.933445792291081, 39.251271166078517 ], [ -119.933500940090312, 39.251828564723176 ], [ -119.93354347678617, 39.251688125631013 ] ] ], [ [ [ -119.933066827866782, 39.251459361993504 ], [ -119.933089189076284, 39.251477968138893 ], [ -119.933066043193946, 39.251477358053165 ], [ -119.933066827866782, 39.251459361993504 ] ] ], [ [ [ -119.933111550297625, 39.251496574280424 ], [ -119.933088404408636, 39.251495964198902 ], [ -119.933089189076284, 39.251477968138893 ], [ -119.933111550297625, 39.251496574280424 ] ] ] ] } }
]
}
