{
"type": "FeatureCollection",
"name": "X01803",
"crs": { "type": "name", "properties": { "name": "urn:ogc:def:crs:OGC:1.3:CRS84" } },
"features": [
{ "type": "Feature", "properties": { "part": "direct", "crossing_id": "X01803", "area_ac": 0.5 }, "geometry": { "type": "MultiPolygon", "coordinates": [ [ [ [ -119.934863533848386, 39.249578914045784 ], [ -119.934885894990401, 39.249597519845949 ], [ -119.934862749687227, 39.249596910141577 ], [ -119.934863533848386, 39.249578914045784 ] ] ], [ [ [ -119.934887463300214, 39.249561527653491 ], [ -119.934909824443636, 39.249580133449157 ], [ -119.934886679145649, 39.249579523749773 ], [ -119.934887463300214, 39.249561527653491 ] ] ], [ [ [ -119.935474310446907, 39.248856314882481 ], [ -119.935641440305517, 39.249275101885857 ], [ -119.935432349401864, 39.249287611876376 ], [ -119.935120484441441, 39.249531632236405 ], [ -119.93491060859229, 39.249562137352491 ], [ -119.935224042508949, 39.249282125385122 ], [ -119.935099284888679, 39.248954537697379 ], [ -119.93544802940724, 39.248927689735986 ], [ -119.935474310446907, 39.248856314882481 ] ] ] ] } }
]
}
