{
"type": "FeatureCollection",
"name": "X01897",
"crs": { "type": "name", "properties": { "name": "urn:ogc:def:crs:OGC:1.3:CRS84" } },
"features": [
{ "type": "Feature", "properties": { "part": "direct", "crossing_id": "X01897", "area_ac": 0.4 }, "geometry": { "type": "Polygon", "coordinates": [ [ [ -119.935604183472151, 39.23949101639618 ], [ -119.935806976002112, 39.239622474068945 ], [ -119.935566151120952, 39.23983233359678 ], [ -119.935627740497893, 39.240014123285071 ], [ -119.935550476790553, 39.24019225634003 ], [ -119.935339845443679, 39.240240759516148 ], [ -119.935273553911898, 39.240166946495535 ], [ -119.935390832510535, 39.240134001686428 ], [ -119.935389635552255, 39.239629500437523 ], [ -119.935604183472151, 39.23949101639618 ] ] ] } }
]
}
