{
"type": "FeatureCollection",
"name": "X01857",
"crs": { "type": "name", "properties": { "name": "urn:ogc:def:crs:OGC:1.3:CRS84" } },
"features": [
{ "type": "Feature", "properties": { "part": "direct", "crossing_id": "X01857", "area_ac": 0.0, "n_upstream": null }, "geometry": { "type": "Polygon", "coordinates": [ [ [ -119.93670538989636, 39.250384122476312 ], [ -119.936818766860668, 39.250441157550831 ], [ -119.936723833246134, 39.250492708572125 ], [ -119.93670538989636, 39.250384122476312 ] ] ] } },
{ "type": "Feature", "properties": { "part": "upstream", "crossing_id": "X01857", "area_ac": 1.2, "n_upstream": 1.0 }, "geometry": { "type": "Polygon", "coordinates": [ [ [ -119.936565732551585, 39.25039846241183 ], [ -119.936836426712205, 39.250567739761294 ], [ -119.936619494606447, 39.250760212976282 ], [ -119.936660299905441, 39.250887404568452 ], [ -119.935849041833137, 39.251424562808729 ], [ -119.935672498496231, 39.251221729243518 ], [ -119.935848630634979, 39.250902066159014 ], [ -119.936255433815418, 39.250606493500591 ], [ -119.936442950513211, 39.250557380539171 ], [ -119.936565732551585, 39.25039846241183 ] ] ] } }
]
}
