{
"type": "FeatureCollection",
"name": "X01879",
"crs": { "type": "name", "properties": { "name": "urn:ogc:def:crs:OGC:1.3:CRS84" } },
"features": [
{ "type": "Feature", "properties": { "part": "direct", "crossing_id": "X01879", "area_ac": 0.4 }, "geometry": { "type": "MultiPolygon", "coordinates": [ [ [ [ -119.936025441036506, 39.239394008490201 ], [ -119.936047799437375, 39.239412613979034 ], [ -119.936024657456201, 39.23941200463711 ], [ -119.936025441036506, 39.239394008490201 ] ] ], [ [ [ -119.936106984843818, 39.238585400451193 ], [ -119.936446276072033, 39.238774501255683 ], [ -119.936139948244715, 39.238892553643709 ], [ -119.935990127303398, 39.239140843740195 ], [ -119.936028575350619, 39.239322023901885 ], [ -119.936002299061897, 39.239393399144078 ], [ -119.935870499791477, 39.239227777670067 ], [ -119.9358653809673, 39.238813256954373 ], [ -119.936106984843818, 39.238585400451193 ] ] ] ] } }
]
}
