{
"type": "FeatureCollection",
"name": "X01882",
"crs": { "type": "name", "properties": { "name": "urn:ogc:def:crs:OGC:1.3:CRS84" } },
"features": [
{ "type": "Feature", "properties": { "part": "direct", "crossing_id": "X01882", "area_ac": 0.1 }, "geometry": { "type": "Polygon", "coordinates": [ [ [ -119.933353138879141, 39.239575849023062 ], [ -119.933557495616029, 39.239671318254608 ], [ -119.93335981120191, 39.239954377018783 ], [ -119.93329352207293, 39.239880562959051 ], [ -119.933372359538069, 39.239666439405639 ], [ -119.93325900239364, 39.239609401677214 ], [ -119.933353138879141, 39.239575849023062 ] ] ] } }
]
}
