{
"type": "FeatureCollection",
"name": "X01898",
"crs": { "type": "name", "properties": { "name": "urn:ogc:def:crs:OGC:1.3:CRS84" } },
"features": [
{ "type": "Feature", "properties": { "part": "direct", "crossing_id": "X01898", "area_ac": 0.4 }, "geometry": { "type": "Polygon", "coordinates": [ [ [ -119.937901911444754, 39.250577767800024 ], [ -119.938258926090754, 39.250893447600667 ], [ -119.938228730240681, 39.251054803884486 ], [ -119.938336626366407, 39.251237810605623 ], [ -119.938188350566847, 39.251450110055913 ], [ -119.937940795608085, 39.251281444732427 ], [ -119.938062008961595, 39.251158517246331 ], [ -119.938095338746393, 39.250925176441193 ], [ -119.938031385033725, 39.250797376159852 ], [ -119.937805411498942, 39.250665312012977 ], [ -119.937901911444754, 39.250577767800024 ] ] ] } }
]
}
