{
"type": "FeatureCollection",
"name": "X01886",
"crs": { "type": "name", "properties": { "name": "urn:ogc:def:crs:OGC:1.3:CRS84" } },
"features": [
{ "type": "Feature", "properties": { "part": "direct", "crossing_id": "X01886", "area_ac": 0.1 }, "geometry": { "type": "MultiPolygon", "coordinates": [ [ [ [ -119.933556278241525, 39.237040837302906 ], [ -119.933578635250583, 39.237059443217582 ], [ -119.933555494096026, 39.237058833415489 ], [ -119.933556278241525, 39.237040837302906 ] ] ], [ [ [ -119.933555494096026, 39.237058833415489 ], [ -119.933664926922191, 39.237205851293659 ], [ -119.933384095737537, 39.237270517985181 ], [ -119.933319377347459, 39.237160711792789 ], [ -119.933555494096026, 39.237058833415489 ] ] ] ] } }
]
}
