{
"type": "FeatureCollection",
"name": "X01830",
"crs": { "type": "name", "properties": { "name": "urn:ogc:def:crs:OGC:1.3:CRS84" } },
"features": [
{ "type": "Feature", "properties": { "part": "direct", "crossing_id": "X01830", "area_ac": 0.4 }, "geometry": { "type": "MultiPolygon", "coordinates": [ [ [ [ -119.933971699616251, 39.239736282924781 ], [ -119.933994057550819, 39.239754888790401 ], [ -119.933970915501689, 39.239754279035999 ], [ -119.933971699616251, 39.239736282924781 ] ] ], [ [ [ -119.934427456028359, 39.238847451795586 ], [ -119.934310584760311, 39.239402892833354 ], [ -119.934072892747778, 39.239540764668064 ], [ -119.933948557573714, 39.23973567316618 ], [ -119.933990518154999, 39.2393043762345 ], [ -119.934427456028359, 39.238847451795586 ] ] ] ] } }
]
}
