{
"type": "FeatureCollection",
"name": "X01865",
"crs": { "type": "name", "properties": { "name": "urn:ogc:def:crs:OGC:1.3:CRS84" } },
"features": [
{ "type": "Feature", "properties": { "part": "direct", "crossing_id": "X01865", "area_ac": 0.4, "n_upstream": null }, "geometry": { "type": "MultiPolygon", "coordinates": [ [ [ [ -119.934027817372083, 39.241107036053748 ], [ -119.934050175734384, 39.241125641922658 ], [ -119.934027033233633, 39.241125032161705 ], [ -119.934027817372083, 39.241107036053748 ] ] ], [ [ [ -119.934051743998765, 39.241089649705948 ], [ -119.934074102362459, 39.24110825557031 ], [ -119.934050959866923, 39.241107645814324 ], [ -119.934051743998765, 39.241089649705948 ] ] ], [ [ [ -119.935100584684022, 39.240414625662233 ], [ -119.935166876244281, 39.240488438780794 ], [ -119.934949188784344, 39.240698906340114 ], [ -119.934715413161882, 39.240746798727656 ], [ -119.934685999082674, 39.240890158063891 ], [ -119.934544792469424, 39.240940488557463 ], [ -119.934516945962628, 39.241047855596811 ], [ -119.93437495486836, 39.241116181980388 ], [ -119.934216093708528, 39.24103992956497 ], [ -119.934074886488403, 39.241090259461537 ], [ -119.934818173746464, 39.24051528758244 ], [ -119.934957027662207, 39.240518945088937 ], [ -119.935100584684022, 39.240414625662233 ] ] ] ] } },
{ "type": "Feature", "properties": { "part": "upstream", "crossing_id": "X01865", "area_ac": 0.4, "n_upstream": 1.0 }, "geometry": { "type": "Polygon", "coordinates": [ [ [ -119.934215309620043, 39.241057925676273 ], [ -119.934351812363715, 39.241115572284073 ], [ -119.934158831289309, 39.241290655647902 ], [ -119.933805419395455, 39.241425477871395 ], [ -119.933674021626544, 39.24178235077018 ], [ -119.933579882254065, 39.241815903562468 ], [ -119.933569287898322, 39.241527356124998 ], [ -119.933759134208231, 39.24142425823986 ], [ -119.933933679074983, 39.241140589178237 ], [ -119.934215309620043, 39.241057925676273 ] ] ] } }
]
}
