{
"type": "FeatureCollection",
"name": "X01888",
"crs": { "type": "name", "properties": { "name": "urn:ogc:def:crs:OGC:1.3:CRS84" } },
"features": [
{ "type": "Feature", "properties": { "part": "direct", "crossing_id": "X01888", "area_ac": 0.2 }, "geometry": { "type": "Polygon", "coordinates": [ [ [ -119.947496132728972, 39.247352617098436 ], [ -119.947538518106612, 39.247443813002981 ], [ -119.946971040698628, 39.248239680847107 ], [ -119.946905510570517, 39.248147877464035 ], [ -119.947496132728972, 39.247352617098436 ] ] ] } }
]
}
