{
"type": "FeatureCollection",
"name": "X01858",
"crs": { "type": "name", "properties": { "name": "urn:ogc:def:crs:OGC:1.3:CRS84" } },
"features": [
{ "type": "Feature", "properties": { "part": "direct", "crossing_id": "X01858", "area_ac": 1.1, "n_upstream": null }, "geometry": { "type": "Polygon", "coordinates": [ [ [ -119.936413007687875, 39.240070833584092 ], [ -119.936494607780944, 39.240325216784029 ], [ -119.936000783689664, 39.240492382691222 ], [ -119.935782314932254, 39.240720848048575 ], [ -119.935504606115202, 39.240713534806758 ], [ -119.934756618234914, 39.241396487913548 ], [ -119.934464388784178, 39.241190605180584 ], [ -119.934371034611303, 39.241206162548508 ], [ -119.934351028307802, 39.241133568397466 ], [ -119.934516945962628, 39.241047855596811 ], [ -119.934544792469424, 39.240940488557463 ], [ -119.935054710432013, 39.240935903796768 ], [ -119.935508524855379, 39.240623554135432 ], [ -119.935584221768011, 39.240481413415068 ], [ -119.935983126696769, 39.240365800325065 ], [ -119.936413007687875, 39.240070833584092 ] ] ] } },
{ "type": "Feature", "properties": { "part": "upstream", "crossing_id": "X01858", "area_ac": 2.4, "n_upstream": 5.0 }, "geometry": { "type": "Polygon", "coordinates": [ [ [ -119.935109244478184, 39.241279658846189 ], [ -119.934984124810285, 39.241492564517436 ], [ -119.934778233543739, 39.241469264047865 ], [ -119.934798983697533, 39.241487687747814 ], [ -119.934630713294737, 39.241627389267819 ], [ -119.934515783938494, 39.241606344846822 ], [ -119.934487153019873, 39.241731707970331 ], [ -119.93420159942977, 39.241904352571481 ], [ -119.934172967799896, 39.242029715585154 ], [ -119.934019835221989, 39.242140988188112 ], [ -119.934028621855589, 39.242152029761741 ], [ -119.93388192278168, 39.242328332042561 ], [ -119.933527720761802, 39.242481149271839 ], [ -119.933299428892369, 39.242403065876161 ], [ -119.933414226646235, 39.242249945993684 ], [ -119.933350420781665, 39.242296309159748 ], [ -119.93343475147644, 39.241956213078566 ], [ -119.933600672169661, 39.241870501716733 ], [ -119.933592829449196, 39.242050462697357 ], [ -119.933643820610669, 39.241943705818954 ], [ -119.933603024972086, 39.241816513421213 ], [ -119.933805419395455, 39.241425477871395 ], [ -119.934158831289309, 39.241290655647902 ], [ -119.934161967722645, 39.241218671208927 ], [ -119.93437495486836, 39.241116181980388 ], [ -119.934324360027787, 39.241320240208587 ], [ -119.934370250557791, 39.241224158661936 ], [ -119.934464388784178, 39.241190605180584 ], [ -119.934775083967764, 39.241466467593114 ], [ -119.934733475629855, 39.241395878289445 ], [ -119.934976660236202, 39.241132032473232 ], [ -119.935189646021186, 39.241029541693749 ], [ -119.935504606115202, 39.240713534806758 ], [ -119.93559717570966, 39.240715972627477 ], [ -119.935396360924145, 39.241071019549508 ], [ -119.935109244478184, 39.241279658846189 ] ], [ [ -119.933819935770586, 39.241624044815971 ], [ -119.93424277653537, 39.241491051786696 ], [ -119.934252974494896, 39.241469700343657 ], [ -119.933819935770586, 39.241624044815971 ] ], [ [ -119.933705603419881, 39.241848658553195 ], [ -119.933788950960704, 39.241803396024139 ], [ -119.933819935770586, 39.241624044815971 ], [ -119.933705603419881, 39.241848658553195 ] ], [ [ -119.933693243119635, 39.241872941110451 ], [ -119.933850537074449, 39.241985186487561 ], [ -119.933666986525736, 39.242087476520538 ], [ -119.933886847356064, 39.241990792741476 ], [ -119.933700192530068, 39.241859288575824 ], [ -119.933693243119635, 39.241872941110451 ] ], [ [ -119.933997241033723, 39.242112595567633 ], [ -119.933986257066607, 39.242060829679389 ], [ -119.933917496981834, 39.242012386288394 ], [ -119.933997241033723, 39.242112595567633 ] ] ] } }
]
}
