{
"type": "FeatureCollection",
"name": "X01851",
"crs": { "type": "name", "properties": { "name": "urn:ogc:def:crs:OGC:1.3:CRS84" } },
"features": [
{ "type": "Feature", "properties": { "part": "direct", "crossing_id": "X01851", "area_ac": 2.1 }, "geometry": { "type": "Polygon", "coordinates": [ [ [ -119.947658146615353, 39.247356867156114 ], [ -119.94767504485273, 39.247501444833588 ], [ -119.947531490321339, 39.247605779841528 ], [ -119.947427978083837, 39.247855299533967 ], [ -119.94758530794229, 39.247967527622208 ], [ -119.947582184478819, 39.2480395128811 ], [ -119.947442533191804, 39.248053866157292 ], [ -119.947531209061069, 39.248146276435762 ], [ -119.94748023347934, 39.24825303996036 ], [ -119.947753290155347, 39.24836830371261 ], [ -119.947629755618181, 39.248545231151247 ], [ -119.947615699860123, 39.248869164788985 ], [ -119.947498411347297, 39.248902121538173 ], [ -119.947494506775399, 39.248992103089897 ], [ -119.947719713704188, 39.249142145256272 ], [ -119.947512185764324, 39.249118684448426 ], [ -119.947252900301365, 39.249219982950585 ], [ -119.947029256263122, 39.249033947306813 ], [ -119.947038628647206, 39.248817991675097 ], [ -119.946949952660091, 39.2487255810222 ], [ -119.946698479090358, 39.248646915326368 ], [ -119.94739340170247, 39.247584140465676 ], [ -119.947658146615353, 39.247356867156114 ] ] ] } }
]
}
