{
"type": "FeatureCollection",
"name": "X01831",
"crs": { "type": "name", "properties": { "name": "urn:ogc:def:crs:OGC:1.3:CRS84" } },
"features": [
{ "type": "Feature", "properties": { "part": "direct", "crossing_id": "X01831", "area_ac": 0.3 }, "geometry": { "type": "Polygon", "coordinates": [ [ [ -119.931988926602955, 39.24110734736842 ], [ -119.932568272592746, 39.241104604050228 ], [ -119.932565919056685, 39.241158592299996 ], [ -119.932426279642272, 39.241172927974141 ], [ -119.932349791071218, 39.241333062421141 ], [ -119.932163081592833, 39.241364173632185 ], [ -119.932015595103564, 39.241558469532414 ], [ -119.931988926602955, 39.24110734736842 ] ] ] } }
]
}
