{
"type": "FeatureCollection",
"name": "X01987",
"crs": { "type": "name", "properties": { "name": "urn:ogc:def:crs:OGC:1.3:CRS84" } },
"features": [
{ "type": "Feature", "properties": { "part": "direct", "crossing_id": "X01987", "area_ac": 0.5, "n_upstream": null }, "geometry": { "type": "Polygon", "coordinates": [ [ [ -119.93229175232328, 39.237349826923705 ], [ -119.932496885652498, 39.237427301645518 ], [ -119.932485119174444, 39.237697243040785 ], [ -119.932842831140931, 39.23799494042877 ], [ -119.932860482133265, 39.238121523068862 ], [ -119.932589844110737, 39.237952238425379 ], [ -119.932505122784903, 39.237769837434818 ], [ -119.932228995463646, 39.237726524661134 ], [ -119.932188988874415, 39.237581335798147 ], [ -119.931953653096073, 39.237665215161329 ], [ -119.931862657016822, 39.237626782438412 ], [ -119.931916000839578, 39.237466037975651 ], [ -119.932100346352101, 39.237488914998487 ], [ -119.93229175232328, 39.237349826923705 ] ] ] } },
{ "type": "Feature", "properties": { "part": "upstream", "crossing_id": "X01987", "area_ac": 2.7, "n_upstream": 7.0 }, "geometry": { "type": "Polygon", "coordinates": [ [ [ -119.932159478560877, 39.237738995352082 ], [ -119.932228995463646, 39.237726524661134 ], [ -119.932549836670404, 39.237807049656809 ], [ -119.932589844110737, 39.237952238425379 ], [ -119.932882839274356, 39.238140129120673 ], [ -119.932854207286198, 39.238265491846832 ], [ -119.932761276563497, 39.238252656224518 ], [ -119.932752543024591, 39.238310427909596 ], [ -119.932831065751117, 39.238264881885208 ], [ -119.932861661625481, 39.23862602373724 ], [ -119.932789883509798, 39.238678182113212 ], [ -119.932848327287559, 39.238931957358957 ], [ -119.932714967656622, 39.238802324812667 ], [ -119.932847542908419, 39.238949953453705 ], [ -119.93275026944238, 39.239055490096916 ], [ -119.932922069582901, 39.239366303491458 ], [ -119.932868726303994, 39.239527048404746 ], [ -119.932359212587215, 39.238991131341734 ], [ -119.932011301625906, 39.238999975900192 ], [ -119.931973260280756, 39.238278302243181 ], [ -119.932025819879357, 39.238135553838063 ], [ -119.931976398611639, 39.238206317914383 ], [ -119.932033665511341, 39.23795559300067 ], [ -119.931903525511771, 39.237815955045143 ], [ -119.931877167807372, 39.237825349488652 ], [ -119.931716747510492, 39.237785086183642 ], [ -119.931790879268974, 39.237678940216419 ], [ -119.932112504215297, 39.237741470307036 ], [ -119.932078884761196, 39.237753453077893 ], [ -119.9321492336842, 39.237740833184482 ], [ -119.931837161909684, 39.23768016053323 ], [ -119.931862657016822, 39.237626782438412 ], [ -119.931953653096073, 39.237665215161329 ], [ -119.932188988874415, 39.237581335798147 ], [ -119.932159478560877, 39.237738995352082 ] ], [ [ -119.932230955120346, 39.238213029099185 ], [ -119.932234177933353, 39.238300847893427 ], [ -119.932254096625385, 39.238213639179364 ], [ -119.932319598671512, 39.238305449832488 ], [ -119.932254881135577, 39.238195643092297 ], [ -119.932025819879357, 39.238135553838063 ], [ -119.932230955120346, 39.238213029099185 ] ], [ [ -119.932531794740271, 39.238220959783398 ], [ -119.932512575446637, 39.238130369301054 ], [ -119.932469744097276, 39.238156265384127 ], [ -119.932531794740271, 39.238220959783398 ] ], [ [ -119.932407517364396, 39.238193887964876 ], [ -119.932369804160956, 39.238216689511361 ], [ -119.932351583216004, 39.238296465688094 ], [ -119.932407517364396, 39.238193887964876 ] ], [ [ -119.932729871305497, 39.238460399034011 ], [ -119.932563957950833, 39.238546109472658 ], [ -119.932520812513872, 39.238472905059979 ], [ -119.932549023034213, 39.238575281762742 ], [ -119.932729871305497, 39.238460399034011 ] ], [ [ -119.932358036865566, 39.238486630837791 ], [ -119.932351761212786, 39.238467062724311 ], [ -119.932340109615964, 39.238491457286379 ], [ -119.932520812513872, 39.238472905059979 ], [ -119.932358036865566, 39.238486630837791 ] ], [ [ -119.932241544366335, 39.238501576562626 ], [ -119.932303603970638, 39.238495205176349 ], [ -119.932240643153548, 39.238477019332066 ], [ -119.932241544366335, 39.238501576562626 ] ], [ [ -119.932721242908116, 39.238658356066814 ], [ -119.932552247098315, 39.238586981957027 ], [ -119.932560820182502, 39.238618093836919 ], [ -119.932721242908116, 39.238658356066814 ] ] ] } }
]
}
