{
"type": "FeatureCollection",
"name": "X01983",
"crs": { "type": "name", "properties": { "name": "urn:ogc:def:crs:OGC:1.3:CRS84" } },
"features": [
{ "type": "Feature", "properties": { "part": "direct", "crossing_id": "X01983", "area_ac": 0.1 }, "geometry": { "type": "Polygon", "coordinates": [ [ [ -119.930961312784206, 39.23810748335989 ], [ -119.931189588122237, 39.238185570740995 ], [ -119.931207236147387, 39.238312153512616 ], [ -119.930976605871862, 39.238288054346548 ], [ -119.930961312784206, 39.23810748335989 ] ] ] } }
]
}
