{
"type": "FeatureCollection",
"name": "X01912",
"crs": { "type": "name", "properties": { "name": "urn:ogc:def:crs:OGC:1.3:CRS84" } },
"features": [
{ "type": "Feature", "properties": { "part": "direct", "crossing_id": "X01912", "area_ac": 7.4 }, "geometry": { "type": "MultiPolygon", "coordinates": [ [ [ [ -119.926096210566101, 39.245528083306084 ], [ -119.926118568058712, 39.245546690660582 ], [ -119.92609542427742, 39.24554607926639 ], [ -119.926096210566101, 39.245528083306084 ] ] ], [ [ [ -119.929346714687568, 39.242190725544049 ], [ -119.930611307800817, 39.242944759778361 ], [ -119.930767813822726, 39.243075005254077 ], [ -119.930763888683884, 39.243164985487574 ], [ -119.930314748163212, 39.243369338801436 ], [ -119.930060958689921, 39.243344626660701 ], [ -119.929985247384749, 39.2434867631613 ], [ -119.929631031670908, 39.243639567927623 ], [ -119.929645536269959, 39.243838134879915 ], [ -119.929034384890414, 39.244038208116166 ], [ -119.929002600979572, 39.244235553473231 ], [ -119.92856287625068, 39.244223947409637 ], [ -119.928113722922134, 39.244428291668036 ], [ -119.927951718736949, 39.244424014688853 ], [ -119.927688496428743, 39.244615249162244 ], [ -119.927504920178492, 39.244574368498235 ], [ -119.92630686327297, 39.245479597793171 ], [ -119.926119354341523, 39.245528694699892 ], [ -119.926858822242707, 39.245043758364908 ], [ -119.927296628776574, 39.24456886837789 ], [ -119.927403349372995, 39.244247385177466 ], [ -119.928553513441571, 39.243376913297034 ], [ -119.928655512802862, 39.24316340465397 ], [ -119.92891872692951, 39.242972167631009 ], [ -119.928926581850703, 39.242792207467922 ], [ -119.929165080099139, 39.242636351033269 ], [ -119.929253358308898, 39.242206278703343 ], [ -119.929346714687568, 39.242190725544049 ] ] ] ] } }
]
}
