{
"type": "FeatureCollection",
"name": "X01916",
"crs": { "type": "name", "properties": { "name": "urn:ogc:def:crs:OGC:1.3:CRS84" } },
"features": [
{ "type": "Feature", "properties": { "part": "direct", "crossing_id": "X01916", "area_ac": 0.8, "n_upstream": null }, "geometry": { "type": "Polygon", "coordinates": [ [ [ -119.93379438549924, 39.23848845355873 ], [ -119.93420152666242, 39.238715382197014 ], [ -119.933962268678229, 39.238889246133809 ], [ -119.933759099176285, 39.239298278535188 ], [ -119.933542980026658, 39.239472751265303 ], [ -119.933546901099859, 39.239382770740185 ], [ -119.933406481109458, 39.239415103846348 ], [ -119.933508459477835, 39.239201590011099 ], [ -119.933495512467815, 39.238967030800175 ], [ -119.933641420742262, 39.238808724789074 ], [ -119.933580621604563, 39.238608938153007 ], [ -119.93379438549924, 39.23848845355873 ] ] ] } },
{ "type": "Feature", "properties": { "part": "upstream", "crossing_id": "X01916", "area_ac": 3.6, "n_upstream": 6.0 }, "geometry": { "type": "MultiPolygon", "coordinates": [ [ [ [ -119.933870907653159, 39.240454297984137 ], [ -119.93366654824861, 39.240358829207636 ], [ -119.933893265775694, 39.240472903875165 ], [ -119.933746570152309, 39.240649206153996 ], [ -119.933431988796059, 39.240424715129031 ], [ -119.933648111288107, 39.240250242756304 ], [ -119.933386488565461, 39.240405499275695 ], [ -119.933347262685956, 39.240242314614306 ], [ -119.933364130603664, 39.24038689329317 ], [ -119.933268394030463, 39.240376891575565 ], [ -119.933384135715102, 39.240459487573354 ], [ -119.933191938582056, 39.240616573228607 ], [ -119.933083779494353, 39.240508393823873 ], [ -119.933057006561555, 39.240522933144142 ], [ -119.932975418880474, 39.240268548021938 ], [ -119.933164478145599, 39.240183447083638 ], [ -119.933553574516139, 39.239761298776095 ], [ -119.933557495616029, 39.239671318254608 ], [ -119.933307639206276, 39.239556633159005 ], [ -119.933454333435392, 39.239380331358923 ], [ -119.933546901099859, 39.239382770740185 ], [ -119.933565337763142, 39.23949135720634 ], [ -119.934355706228359, 39.239962601528113 ], [ -119.933870907653159, 39.240454297984137 ] ] ], [ [ [ -119.933364130603664, 39.24038689329317 ], [ -119.933386488565461, 39.240405499275695 ], [ -119.93336334631573, 39.240404889392174 ], [ -119.933364130603664, 39.24038689329317 ] ] ], [ [ [ -119.933386488565461, 39.240405499275695 ], [ -119.933408846539038, 39.240424105254291 ], [ -119.933385704282713, 39.240423495374976 ], [ -119.933386488565461, 39.240405499275695 ] ] ], [ [ [ -119.93327707035408, 39.242384459858208 ], [ -119.933074275214096, 39.242252997698614 ], [ -119.93307976609286, 39.242127025078531 ], [ -119.933155469629611, 39.241984886229055 ], [ -119.933117028040613, 39.241803705423692 ], [ -119.933334202329718, 39.241693821527221 ], [ -119.933307660076608, 39.241682612242926 ], [ -119.933510839950102, 39.241273581150551 ], [ -119.933474750542317, 39.241038412126578 ], [ -119.933294316820621, 39.240925556429005 ], [ -119.933346876106725, 39.240782807454636 ], [ -119.933262149850762, 39.240600406879203 ], [ -119.933431988796059, 39.240424715129031 ], [ -119.934195303511245, 39.240985331504881 ], [ -119.933885825718264, 39.24117536181592 ], [ -119.933759134208231, 39.24142425823986 ], [ -119.933569287898322, 39.241527356124998 ], [ -119.933609299081027, 39.241672544630134 ], [ -119.933535165386886, 39.241778691636192 ], [ -119.93342466272739, 39.24173202455502 ], [ -119.933601456437827, 39.241852505618311 ], [ -119.93343475147644, 39.241956213078566 ], [ -119.93327707035408, 39.242384459858208 ] ] ], [ [ [ -119.933534381103826, 39.241796687733761 ], [ -119.933535165386886, 39.241778691636192 ], [ -119.933557523814599, 39.241797297601288 ], [ -119.933534381103826, 39.241796687733761 ] ] ], [ [ [ -119.933557523814599, 39.241797297601288 ], [ -119.933579882254065, 39.241815903562468 ], [ -119.933556739536712, 39.241815293699148 ], [ -119.933557523814599, 39.241797297601288 ] ] ] ] } }
]
}
