{
"type": "FeatureCollection",
"name": "X01985",
"crs": { "type": "name", "properties": { "name": "urn:ogc:def:crs:OGC:1.3:CRS84" } },
"features": [
{ "type": "Feature", "properties": { "part": "direct", "crossing_id": "X01985", "area_ac": 0.0, "n_upstream": null }, "geometry": { "type": "MultiPolygon", "coordinates": [ [ [ [ -119.936011336483958, 39.239717939124148 ], [ -119.936033694978335, 39.239736544618779 ], [ -119.936010552891034, 39.239735935269863 ], [ -119.936011336483958, 39.239717939124148 ] ] ], [ [ [ -119.935988978001333, 39.239699333625701 ], [ -119.936011336483958, 39.239717939124148 ], [ -119.935988194403251, 39.239717329771032 ], [ -119.935988978001333, 39.239699333625701 ] ] ], [ [ [ -119.935966619530518, 39.239680728123332 ], [ -119.935988978001333, 39.239699333625701 ], [ -119.93596583592722, 39.239698724268379 ], [ -119.935966619530518, 39.239680728123332 ] ] ], [ [ [ -119.935902678657371, 39.239552927016007 ], [ -119.935968970336219, 39.2396267396878 ], [ -119.935966619530518, 39.239680728123332 ], [ -119.935806192359649, 39.239640470211512 ], [ -119.935902678657371, 39.239552927016007 ] ] ] ] } },
{ "type": "Feature", "properties": { "part": "upstream", "crossing_id": "X01985", "area_ac": 1.3, "n_upstream": 3.0 }, "geometry": { "type": "Polygon", "coordinates": [ [ [ -119.936033694978335, 39.239736544618779 ], [ -119.935860729512058, 39.23998422507961 ], [ -119.935953298178859, 39.239986662579604 ], [ -119.935926237898428, 39.24007603392819 ], [ -119.936040381700593, 39.24011507302265 ], [ -119.936037247310111, 39.240187057601965 ], [ -119.93579563737444, 39.240414913679913 ], [ -119.935560295716471, 39.240498800102941 ], [ -119.935508524855379, 39.240623554135432 ], [ -119.935415955390084, 39.240621116249038 ], [ -119.935292405545709, 39.240798030093714 ], [ -119.935169883595719, 39.240781110390827 ], [ -119.935150415663514, 39.240866357476548 ], [ -119.934868002932689, 39.240967019442195 ], [ -119.934662072675408, 39.240907544551625 ], [ -119.934715413161882, 39.240746798727656 ], [ -119.934949188784344, 39.240698906340114 ], [ -119.935143733928697, 39.240487829249943 ], [ -119.935166876244281, 39.240488438780794 ], [ -119.935244925086081, 39.240292309908838 ], [ -119.935294344758631, 39.240221544392938 ], [ -119.935550476790553, 39.24019225634003 ], [ -119.93562538939824, 39.240068111699749 ], [ -119.935566151120952, 39.23983233359678 ], [ -119.935806192359649, 39.239640470211512 ], [ -119.936033694978335, 39.239736544618779 ] ], [ [ -119.93532338593603, 39.240618678289195 ], [ -119.935191407570514, 39.240686859929191 ], [ -119.935189780912083, 39.240693982848256 ], [ -119.935415955390084, 39.240621116249038 ], [ -119.93532338593603, 39.240618678289195 ] ], [ [ -119.935258661707024, 39.240508872988919 ], [ -119.935233341573607, 39.24050323597303 ], [ -119.935211042265081, 39.240600882102619 ], [ -119.935258661707024, 39.240508872988919 ] ] ] } }
]
}
