{
"type": "FeatureCollection",
"name": "X01940",
"crs": { "type": "name", "properties": { "name": "urn:ogc:def:crs:OGC:1.3:CRS84" } },
"features": [
{ "type": "Feature", "properties": { "part": "direct", "crossing_id": "X01940", "area_ac": 0.3 }, "geometry": { "type": "Polygon", "coordinates": [ [ [ -119.936497079511028, 39.250378638134535 ], [ -119.936442950513211, 39.250557380539171 ], [ -119.935992992523339, 39.250779750465504 ], [ -119.935748991873695, 39.251061592970224 ], [ -119.935879615753493, 39.250722714593479 ], [ -119.936216197067949, 39.250443309564652 ], [ -119.936497079511028, 39.250378638134535 ] ] ] } }
]
}
