{
"type": "FeatureCollection",
"name": "X01959",
"crs": { "type": "name", "properties": { "name": "urn:ogc:def:crs:OGC:1.3:CRS84" } },
"features": [
{ "type": "Feature", "properties": { "part": "direct", "crossing_id": "X01959", "area_ac": 2.4 }, "geometry": { "type": "Polygon", "coordinates": [ [ [ -119.938587411633961, 39.238020095525854 ], [ -119.939388757799563, 39.238239359595184 ], [ -119.939427997019337, 39.238402542776171 ], [ -119.939326037604033, 39.238616062583851 ], [ -119.939277405840244, 39.238668833830857 ], [ -119.939094619730596, 39.238609975574221 ], [ -119.938789862338282, 39.238692042754828 ], [ -119.938735750037438, 39.238870787120327 ], [ -119.93842864227517, 39.239006841862221 ], [ -119.938278828953031, 39.23925513521305 ], [ -119.937680270367338, 39.239167317707597 ], [ -119.93798773018996, 39.23849077062556 ], [ -119.938130495608263, 39.23840444327017 ], [ -119.938290138570508, 39.238462694111718 ], [ -119.938477621118665, 39.238413576446007 ], [ -119.938388969040162, 39.238321160083842 ], [ -119.93860742168296, 39.238092689119071 ], [ -119.938587411633961, 39.238020095525854 ] ] ] } }
]
}
