{
"type": "FeatureCollection",
"name": "X01931",
"crs": { "type": "name", "properties": { "name": "urn:ogc:def:crs:OGC:1.3:CRS84" } },
"features": [
{ "type": "Feature", "properties": { "part": "direct", "crossing_id": "X01931", "area_ac": 0.4 }, "geometry": { "type": "Polygon", "coordinates": [ [ [ -119.93927358898712, 39.248343744827032 ], [ -119.939636079776491, 39.248533447060581 ], [ -119.939466234830391, 39.24870914750182 ], [ -119.939463102984107, 39.248781132205579 ], [ -119.939599625016797, 39.248838773348503 ], [ -119.939567084583373, 39.249054118716103 ], [ -119.939430562173172, 39.248996477521352 ], [ -119.939348160313401, 39.24876009206465 ], [ -119.939102177562432, 39.24855543706699 ], [ -119.939130803899175, 39.248430072718087 ], [ -119.93927358898712, 39.248343744827032 ] ] ] } }
]
}
