{
"type": "FeatureCollection",
"name": "X01962",
"crs": { "type": "name", "properties": { "name": "urn:ogc:def:crs:OGC:1.3:CRS84" } },
"features": [
{ "type": "Feature", "properties": { "part": "direct", "crossing_id": "X01962", "area_ac": 0.3 }, "geometry": { "type": "Polygon", "coordinates": [ [ [ -119.935909278571103, 39.246849892777171 ], [ -119.935974792834429, 39.24694170176069 ], [ -119.935920665741918, 39.24712044406489 ], [ -119.936264698556755, 39.247201570022838 ], [ -119.936236851544791, 39.247308937380758 ], [ -119.93598069357725, 39.247338225901821 ], [ -119.935871241378834, 39.247191209608211 ], [ -119.935733158059691, 39.247169556556578 ], [ -119.935791204923177, 39.246900833763306 ], [ -119.935909278571103, 39.246849892777171 ] ] ] } }
]
}
