{
"type": "FeatureCollection",
"name": "X01981",
"crs": { "type": "name", "properties": { "name": "urn:ogc:def:crs:OGC:1.3:CRS84" } },
"features": [
{ "type": "Feature", "properties": { "part": "direct", "crossing_id": "X01981", "area_ac": 16.8, "n_upstream": null }, "geometry": { "type": "MultiPolygon", "coordinates": [ [ [ [ -119.934177018599684, 39.249380659945807 ], [ -119.934199379491687, 39.249399265868874 ], [ -119.934176234268577, 39.249398656030635 ], [ -119.934177018599684, 39.249380659945807 ] ] ], [ [ [ -119.935540609794913, 39.248930128026089 ], [ -119.935562970929482, 39.248948733696778 ], [ -119.935539825824904, 39.248948124135339 ], [ -119.935540609794913, 39.248930128026089 ] ] ], [ [ [ -119.935355415314362, 39.247862261825716 ], [ -119.935538221459993, 39.247921126706963 ], [ -119.935424475068686, 39.24840458343337 ], [ -119.935540609794913, 39.248930128026089 ], [ -119.935497455519851, 39.248856924455744 ], [ -119.93544802940724, 39.248927689735986 ], [ -119.935170288311667, 39.248920374424848 ], [ -119.935048290114352, 39.249061294990035 ], [ -119.934463388069389, 39.249190020707886 ], [ -119.934223309034749, 39.249381879616912 ], [ -119.934179371588712, 39.249326671690859 ], [ -119.934103661201348, 39.249468810822407 ], [ -119.933706269880972, 39.249548422992163 ], [ -119.933490117430026, 39.249722894109198 ], [ -119.93293149145029, 39.249780237492011 ], [ -119.932639622374708, 39.250096845079696 ], [ -119.933133913970451, 39.250452192604747 ], [ -119.933375177362592, 39.250764836151284 ], [ -119.933423431044901, 39.251252560000012 ], [ -119.93323512604384, 39.251319663992795 ], [ -119.933204918498646, 39.251481018498694 ], [ -119.933043681991009, 39.251458751903556 ], [ -119.932846355312719, 39.251201316099035 ], [ -119.932126882829778, 39.250695896425157 ], [ -119.931966433477953, 39.250655632373508 ], [ -119.931847565697808, 39.250724565002649 ], [ -119.931583163934846, 39.250411308191822 ], [ -119.930620476773427, 39.25016971638199 ], [ -119.930372945337893, 39.250001035809603 ], [ -119.930332937297393, 39.249855846445968 ], [ -119.930476520781824, 39.24975153389812 ], [ -119.930363935758251, 39.24967649686117 ], [ -119.930484373615585, 39.249571573681798 ], [ -119.932200659519097, 39.249004267775597 ], [ -119.93253332241953, 39.248814853874379 ], [ -119.932742412086426, 39.248802349061265 ], [ -119.932773403800894, 39.24862299854469 ], [ -119.93296091718247, 39.248573891071786 ], [ -119.933130777419024, 39.248398200759738 ], [ -119.933724303334145, 39.248071524676817 ], [ -119.934248790606532, 39.248265512364668 ], [ -119.934610862999861, 39.247932733195817 ], [ -119.935355415314362, 39.247862261825716 ] ], [ [ -119.930448663754319, 39.249858899439658 ], [ -119.930377657247206, 39.249893059695722 ], [ -119.930376871930747, 39.249911055714904 ], [ -119.930447878456974, 39.249876895460119 ], [ -119.930448663754319, 39.249858899439658 ] ] ] ] } },
{ "type": "Feature", "properties": { "part": "upstream", "crossing_id": "X01981", "area_ac": 539.3, "n_upstream": 12.0 }, "geometry": { "type": "MultiPolygon", "coordinates": [ [ [ [ -119.934924086862608, 39.249560178319946 ], [ -119.934901224002459, 39.249572977374356 ], [ -119.934909824443636, 39.249580133449157 ], [ -119.93488940212184, 39.249579595479346 ], [ -119.934874427736617, 39.24958797841046 ], [ -119.934885894990401, 39.249597519845949 ], [ -119.934862749687227, 39.249596910141577 ], [ -119.934862856618338, 39.249594456128534 ], [ -119.93445908417857, 39.249820493618095 ], [ -119.934699948381663, 39.249610638175461 ], [ -119.934388079500479, 39.249854656402185 ], [ -119.934063259914979, 39.249864114773082 ], [ -119.9338008164342, 39.250037366704731 ], [ -119.933922818869021, 39.249896447634548 ], [ -119.933753741129109, 39.250054142924469 ], [ -119.93377610210635, 39.250072748931125 ], [ -119.933758743029813, 39.250072291483249 ], [ -119.933773748745651, 39.250126737158723 ], [ -119.933634876038184, 39.250123077496497 ], [ -119.933818470766752, 39.250163949162349 ], [ -119.933947146204588, 39.250401557626603 ], [ -119.933447752549938, 39.250694681909302 ], [ -119.933308878764691, 39.250691021814305 ], [ -119.933075872017227, 39.250389076988249 ], [ -119.933066831265862, 39.250396374211519 ], [ -119.932638052885977, 39.250132837193014 ], [ -119.93293149145029, 39.249780237492011 ], [ -119.933443042274533, 39.249739670209266 ], [ -119.933706269880972, 39.249548422992163 ], [ -119.934103661201348, 39.249468810822407 ], [ -119.934224877671227, 39.24934588744545 ], [ -119.934219320778396, 39.249384777325979 ], [ -119.934223309034778, 39.249381879616912 ], [ -119.934223309034749, 39.249381879616912 ], [ -119.934224093353336, 39.249363883531252 ], [ -119.934235273801889, 39.24937318648891 ], [ -119.934247238566044, 39.249364493359522 ], [ -119.934248022878037, 39.249346497273336 ], [ -119.934259203327287, 39.24935580022877 ], [ -119.934271168085587, 39.249347107096639 ], [ -119.934271168085559, 39.249347107096639 ], [ -119.93427195239093, 39.249329111010056 ], [ -119.934283132840889, 39.249338413963194 ], [ -119.934295097593264, 39.249329720828371 ], [ -119.934295097593264, 39.249329720828371 ], [ -119.934295881892041, 39.24931172474129 ], [ -119.934307062342697, 39.24932102769219 ], [ -119.934319027089188, 39.249312334554631 ], [ -119.93431902708916, 39.249312334554631 ], [ -119.934319811381329, 39.249294338467138 ], [ -119.934330991832681, 39.24930364141575 ], [ -119.934342956573289, 39.249294948275484 ], [ -119.934342956573232, 39.249294948275484 ], [ -119.934343740858836, 39.249276952187522 ], [ -119.934354921310884, 39.249286255133896 ], [ -119.934366886045567, 39.249277561990915 ], [ -119.934656549669299, 39.249320064466723 ], [ -119.934644628341076, 39.249284879273304 ], [ -119.934531255083286, 39.249227842212299 ], [ -119.934413176421131, 39.249278781583889 ], [ -119.934367670324534, 39.249259565902449 ], [ -119.935120077750966, 39.249009135652543 ], [ -119.935099284888679, 39.248954537697379 ], [ -119.93544802940724, 39.248927689735986 ], [ -119.935474310446907, 39.248856314882481 ], [ -119.935641440305517, 39.249275101885857 ], [ -119.935432349401864, 39.249287611876376 ], [ -119.935120484441441, 39.249531632236405 ], [ -119.934924086862608, 39.249560178319946 ] ], [ [ -119.934706221987142, 39.249466669429339 ], [ -119.934671025582446, 39.249362789343195 ], [ -119.934699948381663, 39.249610638175461 ], [ -119.934706221987142, 39.249466669429339 ] ], [ [ -119.933615653060158, 39.250032487170628 ], [ -119.933499141451946, 39.250047433384012 ], [ -119.933614868567403, 39.250050483243996 ], [ -119.933634876038184, 39.250123077496497 ], [ -119.933615653060158, 39.250032487170628 ] ], [ [ -119.935212700862806, 39.249252344690525 ], [ -119.935202672094519, 39.249301217140527 ], [ -119.935224042508949, 39.249282125385122 ], [ -119.935212700862806, 39.249252344690525 ] ], [ [ -119.934197197921463, 39.249587160909805 ], [ -119.934191536201197, 39.249579226717387 ], [ -119.933931447337528, 39.249698490761467 ], [ -119.934197197921463, 39.249587160909805 ] ] ], [ [ [ -119.930424733158247, 39.249876284870183 ], [ -119.930425518461533, 39.249858288850099 ], [ -119.930447878456974, 39.249876895460119 ], [ -119.930424733158247, 39.249876284870183 ] ] ], [ [ [ -119.930423947854294, 39.24989428089016 ], [ -119.930400802550409, 39.249893670295236 ], [ -119.930401587860274, 39.249875674275643 ], [ -119.930423947854294, 39.24989428089016 ] ] ], [ [ [ -119.930376871930747, 39.249911055714904 ], [ -119.930377657247206, 39.249893059695722 ], [ -119.930400017239847, 39.249911666314809 ], [ -119.930376871930747, 39.249911055714904 ] ] ], [ [ [ -119.933777671009963, 39.250036756779025 ], [ -119.933800031988625, 39.250055362781204 ], [ -119.933776886558519, 39.250054752855128 ], [ -119.933777671009963, 39.250036756779025 ] ] ], [ [ [ -119.930253291897642, 39.250087962814739 ], [ -119.930314315189008, 39.250043630059096 ], [ -119.930210927987531, 39.24999676146809 ], [ -119.930331366642974, 39.249891838482924 ], [ -119.930372945337893, 39.250001035809603 ], [ -119.930506320368067, 39.250130671497807 ], [ -119.930324540304568, 39.250048265409539 ], [ -119.930321942657415, 39.250107790698806 ], [ -119.930253291897642, 39.250087962814739 ] ] ], [ [ [ -119.929989635793973, 39.250819692752849 ], [ -119.930536492034946, 39.251032304218164 ], [ -119.930058287170368, 39.250839520815809 ], [ -119.930056347919361, 39.250353017828118 ], [ -119.93015992506912, 39.250103516276667 ], [ -119.931492152033712, 39.25037287460642 ], [ -119.93184992058552, 39.250670576878065 ], [ -119.932039392922761, 39.251107974628844 ], [ -119.932541137759713, 39.251823856013424 ], [ -119.932894598130318, 39.252752027478998 ], [ -119.93300562127466, 39.252863054441782 ], [ -119.933322996966211, 39.254619043370838 ], [ -119.933434023570769, 39.254730070037269 ], [ -119.933586244495501, 39.255490784758699 ], [ -119.932976569107566, 39.255654882712406 ], [ -119.932784327334232, 39.255811965663014 ], [ -119.932315101557592, 39.255943729010831 ], [ -119.931956115369658, 39.256204514470973 ], [ -119.931508462620414, 39.256372876802487 ], [ -119.930672382965099, 39.256945375972585 ], [ -119.930226712603982, 39.256537250467822 ], [ -119.930010164058388, 39.256189219196607 ], [ -119.929872851123022, 39.256149562593635 ], [ -119.929880707287026, 39.255969602677283 ], [ -119.929675524365138, 39.25589212152402 ], [ -119.92972810407484, 39.255749375234323 ], [ -119.929532350267664, 39.255455941993993 ], [ -119.929483337030334, 39.254986213775126 ], [ -119.929368387965937, 39.25496516350406 ], [ -119.929221288601696, 39.25461896361233 ], [ -119.929257792874736, 39.254313642740826 ], [ -119.929101266122046, 39.25418339456855 ], [ -119.929046755760041, 39.253839638122059 ], [ -119.928932594502555, 39.253800591512523 ], [ -119.929014606515096, 39.253514488560164 ], [ -119.928934951883349, 39.253746603564167 ], [ -119.928549319725832, 39.253556257181614 ], [ -119.928291564818508, 39.253621519655603 ], [ -119.928262130637762, 39.253764876362595 ], [ -119.928421798588943, 39.253823141678829 ], [ -119.928569678436929, 39.254151346425509 ], [ -119.928553960351664, 39.254511265920968 ], [ -119.928679481061351, 39.254820863571602 ], [ -119.928603753139356, 39.25496299833214 ], [ -119.92864218797385, 39.255144180102498 ], [ -119.928520951456164, 39.255267096771739 ], [ -119.928382069292894, 39.255263430446895 ], [ -119.928045082778212, 39.255020316386457 ], [ -119.928116529697007, 39.254445667735339 ], [ -119.927822696854193, 39.254275759256586 ], [ -119.927480561094526, 39.254681109471214 ], [ -119.927376180554106, 39.254948603776477 ], [ -119.927385961634357, 39.255255146232685 ], [ -119.927290228614339, 39.255324684934223 ], [ -119.926912799168406, 39.25547686726798 ], [ -119.925983770817268, 39.255524392796502 ], [ -119.925691846034212, 39.255840980490156 ], [ -119.925154740712884, 39.255934887718013 ], [ -119.924918547703754, 39.256036745756575 ], [ -119.924699992662639, 39.256265186425125 ], [ -119.924350422520064, 39.25630999641038 ], [ -119.924439076580114, 39.256402423398939 ], [ -119.924487732219077, 39.256349659423812 ], [ -119.924647402433578, 39.256407930010106 ], [ -119.92489258017045, 39.256630610680006 ], [ -119.924886284895294, 39.256774577922847 ], [ -119.924766612956759, 39.256861498468766 ], [ -119.923602942294877, 39.256974869431808 ], [ -119.923325172538597, 39.256967524621601 ], [ -119.922983472305333, 39.256832371571541 ], [ -119.92282852730338, 39.256666123497816 ], [ -119.922842701023626, 39.256342197815869 ], [ -119.923496805539983, 39.255692877384206 ], [ -119.923649070240913, 39.255390619474753 ], [ -119.923817396171287, 39.255250936302502 ], [ -119.923935958414432, 39.25465951965014 ], [ -119.924079561156859, 39.254555215841449 ], [ -119.924066374485705, 39.254374497745111 ], [ -119.92388619584942, 39.254207786417162 ], [ -119.923282810501604, 39.254227865994231 ], [ -119.923012924849218, 39.254040562032955 ], [ -119.922750439493143, 39.254213787216287 ], [ -119.92256369218704, 39.254244881427944 ], [ -119.922176808983195, 39.254612998661926 ], [ -119.9216765507947, 39.254924064928957 ], [ -119.921627106484195, 39.254994823549602 ], [ -119.921714179928003, 39.255123244138048 ], [ -119.921593719515926, 39.255228157250009 ], [ -119.920827509608984, 39.255261932523609 ], [ -119.919684932939447, 39.255952356741581 ], [ -119.919537379737946, 39.256146633811746 ], [ -119.919530285350689, 39.256308596157204 ], [ -119.919168887249043, 39.256623327597566 ], [ -119.918987145869863, 39.257068932197029 ], [ -119.918652831433363, 39.257294295705449 ], [ -119.918090194102916, 39.257441543805477 ], [ -119.917799015278419, 39.257740114079461 ], [ -119.916681094836463, 39.258395127414971 ], [ -119.916484075839861, 39.258660156156239 ], [ -119.915868024207398, 39.258968127638198 ], [ -119.915714928615458, 39.259288369302205 ], [ -119.915451616498444, 39.259479572118067 ], [ -119.915123595325667, 39.259560958627041 ], [ -119.914875533258041, 39.259932731063294 ], [ -119.91480712843466, 39.260435383698685 ], [ -119.914415431856582, 39.260911446106405 ], [ -119.914379647809284, 39.261198763609599 ], [ -119.914211288989605, 39.261338431683349 ], [ -119.914222591171196, 39.261608981293662 ], [ -119.914151565178713, 39.261643130795498 ], [ -119.913088300649662, 39.261578891512443 ], [ -119.912830503716719, 39.261644117891073 ], [ -119.912321230625849, 39.261630603459913 ], [ -119.912254945430774, 39.261556777706517 ], [ -119.911998728613938, 39.261586010866502 ], [ -119.911632300920914, 39.261486201448228 ], [ -119.911077522742559, 39.261453456998865 ], [ -119.910941793085414, 39.261377786772442 ], [ -119.910427778398656, 39.261472238031836 ], [ -119.909572068844739, 39.261431494721805 ], [ -119.909161721870106, 39.261276461022895 ], [ -119.908814493196871, 39.261267236012102 ], [ -119.908060086731425, 39.261030990077273 ], [ -119.907828601979872, 39.261024838027147 ], [ -119.907565262759064, 39.261216021818505 ], [ -119.907165405325017, 39.261349526071683 ], [ -119.906910771165087, 39.261342756789411 ], [ -119.906624279722237, 39.261533322874129 ], [ -119.905461305896608, 39.261628512357781 ], [ -119.904578663418505, 39.262199581055341 ], [ -119.90439188853712, 39.262230644874911 ], [ -119.904198774655015, 39.262405672682313 ], [ -119.903988850239912, 39.262436119854712 ], [ -119.90372708057312, 39.262591303225285 ], [ -119.903477362926736, 39.262999039393051 ], [ -119.903604369132552, 39.263272668886231 ], [ -119.902582002428701, 39.263858019663758 ], [ -119.901864374822551, 39.263838911913787 ], [ -119.901815697261242, 39.263891665478511 ], [ -119.901514756643607, 39.263883651102581 ], [ -119.901112493983447, 39.264071119864695 ], [ -119.900113899796381, 39.26411658354786 ], [ -119.899454608410011, 39.264351247598533 ], [ -119.899096255659643, 39.264593929248868 ], [ -119.89884161170572, 39.264587141857099 ], [ -119.89919282198602, 39.264506420030685 ], [ -119.899935053236902, 39.263967685315968 ], [ -119.900275011124037, 39.263616411256635 ], [ -119.900559147665547, 39.263479848317523 ], [ -119.900685999279375, 39.263230995153798 ], [ -119.900803330994108, 39.263198087526682 ], [ -119.900763379003791, 39.263052890405994 ], [ -119.900871839457466, 39.262695447438858 ], [ -119.90044549759827, 39.262377807564647 ], [ -119.900249852688944, 39.262084329444512 ], [ -119.90046929683551, 39.261837943352795 ], [ -119.900436485832472, 39.261530786873074 ], [ -119.900535425906781, 39.261389289835961 ], [ -119.900412401248985, 39.261025680146432 ], [ -119.900387523491062, 39.26053856886859 ], [ -119.900523095321304, 39.260091765309006 ], [ -119.900762507120675, 39.259917976904831 ], [ -119.900890143892909, 39.259651127614788 ], [ -119.901487872136926, 39.25923464892491 ], [ -119.901455850088865, 39.258909496985332 ], [ -119.901364052534817, 39.258889035581163 ], [ -119.901237062012726, 39.258615404128506 ], [ -119.901275276498652, 39.258274106154211 ], [ -119.901624073732904, 39.258247362046504 ], [ -119.901629624020629, 39.258121393505846 ], [ -119.901821145856957, 39.257982360661067 ], [ -119.902146794198046, 39.257954998533421 ], [ -119.902978350103112, 39.257490687513823 ], [ -119.903442086722549, 39.257485013975192 ], [ -119.903725399698928, 39.257366437481963 ], [ -119.90412048631373, 39.257340917645912 ], [ -119.904150763543768, 39.257179573596154 ], [ -119.905783362780639, 39.25588977177604 ], [ -119.906255797469967, 39.255686135105094 ], [ -119.906674812463834, 39.255643226040519 ], [ -119.906866317788072, 39.255504184166512 ], [ -119.907194327742872, 39.255422820533575 ], [ -119.907412143388299, 39.255212410519739 ], [ -119.907875865768474, 39.255206718679922 ], [ -119.908113660637255, 39.255068904873099 ], [ -119.908793610741569, 39.254888788645687 ], [ -119.909013792767141, 39.254624388434969 ], [ -119.909153462010224, 39.254610082161491 ], [ -119.909870783961679, 39.254106652452847 ], [ -119.909904208853774, 39.253873323607962 ], [ -119.910430816172664, 39.253490941659827 ], [ -119.911256734431802, 39.253152536598336 ], [ -119.911425868407264, 39.252994876399761 ], [ -119.912005306470832, 39.252992239476846 ], [ -119.912287797736326, 39.252891636444829 ], [ -119.912623689370861, 39.252630299652289 ], [ -119.912944571466355, 39.252710880382644 ], [ -119.913087395645363, 39.252624586328402 ], [ -119.913571089043486, 39.252691468035401 ], [ -119.914478514746278, 39.252607435241863 ], [ -119.914715245461792, 39.251965112355776 ], [ -119.916270207919609, 39.250853266223707 ], [ -119.91663395358097, 39.250484555509452 ], [ -119.917258085502112, 39.250519109831266 ], [ -119.917518203336073, 39.250399884343764 ], [ -119.917559762072315, 39.250509085466064 ], [ -119.91779042582084, 39.25053321261155 ], [ -119.917872477988411, 39.25024711903017 ], [ -119.918415853901678, 39.250009277497298 ], [ -119.918618357648697, 39.249618273146446 ], [ -119.918756439122433, 39.249639946498021 ], [ -119.918789043319421, 39.24942460951354 ], [ -119.918960516246472, 39.249212949759055 ], [ -119.918988390320592, 39.249105587646106 ], [ -119.918858192157956, 39.248903956336754 ], [ -119.919179065800307, 39.248984519512462 ], [ -119.919445479450033, 39.248721322644272 ], [ -119.919609856331533, 39.248671624323443 ], [ -119.919863659742774, 39.2486963598747 ], [ -119.920334431982653, 39.248528653938259 ], [ -119.920540370355795, 39.248588154542922 ], [ -119.920774967924288, 39.248522296267893 ], [ -119.921205748771627, 39.248209394750006 ], [ -119.921334860351337, 39.247906526884748 ], [ -119.921713833900924, 39.247718369596996 ], [ -119.921894264573069, 39.247831243106774 ], [ -119.921928432835443, 39.247579913003413 ], [ -119.922044154638073, 39.247582974200498 ], [ -119.922072023240972, 39.247475611109913 ], [ -119.922878926474056, 39.247569019632117 ], [ -119.923125643588307, 39.247755711070518 ], [ -119.92342416029912, 39.247817654605555 ], [ -119.924742609504094, 39.247870524612132 ], [ -119.925340434405015, 39.247976406842412 ], [ -119.927472095231508, 39.247978664660934 ], [ -119.92862382664326, 39.248135188610213 ], [ -119.929413467648857, 39.248624464464399 ], [ -119.92942482961675, 39.248895015339585 ], [ -119.929578989372501, 39.249079250760438 ], [ -119.929615068036142, 39.24931442036231 ], [ -119.929861809800428, 39.249501098409397 ], [ -119.92985709716568, 39.249609074478244 ], [ -119.93015641407095, 39.249653005243395 ], [ -119.930153403496277, 39.249721989971619 ], [ -119.930225064382824, 39.249672833168098 ], [ -119.930431800862294, 39.249714320687119 ], [ -119.930474950206658, 39.249787525940576 ], [ -119.930022623702754, 39.250063860282012 ], [ -119.929881762479141, 39.250636679159257 ], [ -119.929989635793973, 39.250819692752849 ] ], [ [ -119.924938479377332, 39.253460883340779 ], [ -119.925017529839991, 39.253308226246979 ], [ -119.924722293560279, 39.253635336717728 ], [ -119.924938479377332, 39.253460883340779 ] ], [ [ -119.926415243352807, 39.251086528925832 ], [ -119.926147028783362, 39.251258744580824 ], [ -119.926058364892015, 39.251355750441355 ], [ -119.926415243352807, 39.251086528925832 ] ], [ [ -119.928208643812312, 39.250214169498172 ], [ -119.926766900482875, 39.250860734044259 ], [ -119.926712696732636, 39.250895537800126 ], [ -119.928208643812312, 39.250214169498172 ] ] ] ] } }
]
}
