{
"type": "FeatureCollection",
"name": "X01902",
"crs": { "type": "name", "properties": { "name": "urn:ogc:def:crs:OGC:1.3:CRS84" } },
"features": [
{ "type": "Feature", "properties": { "part": "direct", "crossing_id": "X01902", "area_ac": 0.0 }, "geometry": { "type": "Polygon", "coordinates": [ [ [ -119.936649851700025, 39.238887961295205 ], [ -119.936693001762222, 39.238961164351196 ], [ -119.936525524761691, 39.239082872895573 ], [ -119.936528658530065, 39.23901088826964 ], [ -119.936649851700025, 39.238887961295205 ] ] ] } }
]
}
