{
"type": "FeatureCollection",
"name": "X01922",
"crs": { "type": "name", "properties": { "name": "urn:ogc:def:crs:OGC:1.3:CRS84" } },
"features": [
{ "type": "Feature", "properties": { "part": "direct", "crossing_id": "X01922", "area_ac": 1.1, "n_upstream": null }, "geometry": { "type": "Polygon", "coordinates": [ [ [ -119.948772493378456, 39.246773521961998 ], [ -119.949036961664831, 39.247086742327653 ], [ -119.949317040318817, 39.247040035247544 ], [ -119.949348502441694, 39.247383179432575 ], [ -119.9492767265303, 39.247435348048562 ], [ -119.949116273134692, 39.247395107550794 ], [ -119.948647911482382, 39.247508944057927 ], [ -119.948562357234536, 39.247344549264021 ], [ -119.948425049358448, 39.247304914788387 ], [ -119.948529337774659, 39.2470373976833 ], [ -119.948414394624066, 39.247016366505207 ], [ -119.948247697389519, 39.247120095503114 ], [ -119.948134315607206, 39.247063071391253 ], [ -119.948256284735336, 39.246922135884233 ], [ -119.948772493378456, 39.246773521961998 ] ] ] } },
{ "type": "Feature", "properties": { "part": "upstream", "crossing_id": "X01922", "area_ac": 10.3, "n_upstream": 8.0 }, "geometry": { "type": "MultiPolygon", "coordinates": [ [ [ [ -119.948223771933684, 39.247137484814161 ], [ -119.948154337586445, 39.247135663734092 ], [ -119.948180605122744, 39.247064285455309 ], [ -119.948201407834361, 39.247118881464282 ], [ -119.948223771933684, 39.247137484814161 ] ] ], [ [ [ -119.948510603236343, 39.247469309669746 ], [ -119.948550648693981, 39.24759406757336 ], [ -119.948882482743571, 39.247443027878745 ], [ -119.948738149473982, 39.247565360789054 ], [ -119.949208852689935, 39.247397534897097 ], [ -119.949502713080122, 39.247567390402594 ], [ -119.949417670466119, 39.24792549699724 ], [ -119.94948710567401, 39.247927317354616 ], [ -119.949486325296363, 39.247945313701507 ], [ -119.949764066261622, 39.247952594722435 ], [ -119.949736239286096, 39.248059966101266 ], [ -119.949483789064203, 39.248003801828368 ], [ -119.949482423397654, 39.248035295434875 ], [ -119.949843381683266, 39.248260959574012 ], [ -119.949925038564558, 39.248515335327767 ], [ -119.950245951654139, 39.248595814100803 ], [ -119.950216564663293, 39.248739178317123 ], [ -119.950383783501891, 39.249157947580834 ], [ -119.95004882287499, 39.249401403430909 ], [ -119.949971583218797, 39.249579546854264 ], [ -119.949393723285951, 39.24954638148219 ], [ -119.949422331951112, 39.24942101391143 ], [ -119.949538059759547, 39.249424047908967 ], [ -119.949100635730943, 39.24935852909995 ], [ -119.949092788109198, 39.24935090465285 ], [ -119.949143804775659, 39.249431728185492 ], [ -119.948799743868037, 39.249350639348464 ], [ -119.948035161189992, 39.249348604350644 ], [ -119.947852339664735, 39.249289758572417 ], [ -119.947494506775399, 39.248992103089897 ], [ -119.947498411347297, 39.248902121538173 ], [ -119.947615699860123, 39.248869164788985 ], [ -119.947629755618181, 39.248545231151247 ], [ -119.947728583299295, 39.248403689213184 ], [ -119.947776803419416, 39.248373244526498 ], [ -119.947524961972604, 39.248290246940847 ], [ -119.947531209061069, 39.248146276435762 ], [ -119.947440971383685, 39.248089858781526 ], [ -119.947490385110513, 39.248019087895678 ], [ -119.947582184478819, 39.2480395128811 ], [ -119.947541360484337, 39.247912324355681 ], [ -119.947685696491732, 39.247789993047299 ], [ -119.948014410864005, 39.247690514552701 ], [ -119.94811245575994, 39.247566968517063 ], [ -119.948070850286783, 39.247457776466611 ], [ -119.948471339045511, 39.247306128743112 ], [ -119.94860552460537, 39.24741774850051 ], [ -119.948670275822792, 39.247527547330392 ], [ -119.948575354344328, 39.247579108547704 ], [ -119.948510603236343, 39.247469309669746 ] ], [ [ -119.948433362189888, 39.247647452052256 ], [ -119.948542434557638, 39.247597806351081 ], [ -119.948341563035115, 39.247627027748109 ], [ -119.948433362189888, 39.247647452052256 ] ], [ [ -119.948759336287608, 39.247740624762564 ], [ -119.948772731064153, 39.247836519661881 ], [ -119.948760554425135, 39.247741041186757 ], [ -119.948759336287608, 39.247740624762564 ] ], [ [ -119.948716649454084, 39.24772603212174 ], [ -119.948662470038244, 39.247707510671376 ], [ -119.948403368268302, 39.247816100056333 ], [ -119.948471845797144, 39.247828629317752 ], [ -119.948716649454084, 39.24772603212174 ] ], [ [ -119.948970348569546, 39.249156928097989 ], [ -119.948989923499354, 39.249187940030922 ], [ -119.949193486959857, 39.248820459555915 ], [ -119.948970348569546, 39.249156928097989 ] ] ] ] } }
]
}
