{
"type": "FeatureCollection",
"name": "X01951",
"crs": { "type": "name", "properties": { "name": "urn:ogc:def:crs:OGC:1.3:CRS84" } },
"features": [
{ "type": "Feature", "properties": { "part": "direct", "crossing_id": "X01951", "area_ac": 1.3, "n_upstream": null }, "geometry": { "type": "Polygon", "coordinates": [ [ [ -119.93319980415383, 39.243625580039932 ], [ -119.933657180245746, 39.243763750976903 ], [ -119.933937253315065, 39.243717080801815 ], [ -119.933926273969774, 39.243969026172209 ], [ -119.933640709645886, 39.244141668925174 ], [ -119.932859323257873, 39.243994957831696 ], [ -119.932265829268786, 39.244321630897666 ], [ -119.93187082009814, 39.244347249730474 ], [ -119.931700967283547, 39.244522938569375 ], [ -119.931686456847487, 39.244324371658251 ], [ -119.932154819946902, 39.24421060366825 ], [ -119.932181102204908, 39.244139229571921 ], [ -119.932676529625397, 39.243936089196815 ], [ -119.932941305418211, 39.243708850611561 ], [ -119.933056237597242, 39.243729896699605 ], [ -119.93319980415383, 39.243625580039932 ] ] ] } },
{ "type": "Feature", "properties": { "part": "upstream", "crossing_id": "X01951", "area_ac": 1.2, "n_upstream": 1.0 }, "geometry": { "type": "Polygon", "coordinates": [ [ [ -119.932998183779262, 39.24399861794334 ], [ -119.932964057459884, 39.244249953067147 ], [ -119.93241527959654, 39.244613838994383 ], [ -119.93233643272545, 39.244827961407914 ], [ -119.932294068786476, 39.244736760768035 ], [ -119.932081067542754, 39.24483924557623 ], [ -119.931644477175496, 39.244755666761357 ], [ -119.93187082009814, 39.244347249730474 ], [ -119.932265829268786, 39.244321630897666 ], [ -119.932576894750241, 39.24409561355931 ], [ -119.932998183779262, 39.24399861794334 ] ] ] } }
]
}
