{
"type": "FeatureCollection",
"name": "X01926",
"crs": { "type": "name", "properties": { "name": "urn:ogc:def:crs:OGC:1.3:CRS84" } },
"features": [
{ "type": "Feature", "properties": { "part": "direct", "crossing_id": "X01926", "area_ac": 0.2 }, "geometry": { "type": "Polygon", "coordinates": [ [ [ -119.934064168414324, 39.235486760051046 ], [ -119.934175951945349, 39.235579789047456 ], [ -119.934077901418689, 39.235703323243214 ], [ -119.9341210470037, 39.235776527104925 ], [ -119.933841005999227, 39.235823199032893 ], [ -119.933756283572308, 39.235640798869767 ], [ -119.934064168414324, 39.235486760051046 ] ] ] } }
]
}
