{
"type": "FeatureCollection",
"name": "X01961",
"crs": { "type": "name", "properties": { "name": "urn:ogc:def:crs:OGC:1.3:CRS84" } },
"features": [
{ "type": "Feature", "properties": { "part": "direct", "crossing_id": "X01961", "area_ac": 16.2 }, "geometry": { "type": "MultiPolygon", "coordinates": [ [ [ [ -119.932108079323754, 39.249001826826728 ], [ -119.932130439528123, 39.249020433122332 ], [ -119.932107294474434, 39.249019822877834 ], [ -119.932108079323754, 39.249001826826728 ] ] ], [ [ [ -119.934126741749708, 39.245217464766171 ], [ -119.934260899681561, 39.245329100055777 ], [ -119.933960429048284, 39.245843669173759 ], [ -119.934472354190731, 39.246325592826878 ], [ -119.934573176497622, 39.246670567390829 ], [ -119.934708906038495, 39.246746210075138 ], [ -119.934851692646717, 39.246659887672415 ], [ -119.934895629107416, 39.246715095321143 ], [ -119.935243578514417, 39.246706243637028 ], [ -119.93533223615502, 39.246798662537479 ], [ -119.935588392318579, 39.246769375375749 ], [ -119.935614672267661, 39.246698000430278 ], [ -119.93591241383524, 39.246777908288941 ], [ -119.935713149039657, 39.247096962581082 ], [ -119.93586967370409, 39.24722720184851 ], [ -119.935699039185849, 39.247420892691174 ], [ -119.935562150162838, 39.247903740142689 ], [ -119.935031388977066, 39.247853727166813 ], [ -119.934657936669225, 39.247915956559623 ], [ -119.934248790606532, 39.248265512364668 ], [ -119.933724303334145, 39.248071524676817 ], [ -119.933130777419024, 39.248398200759738 ], [ -119.93296091718247, 39.248573891071786 ], [ -119.932773403800894, 39.24862299854469 ], [ -119.932742412086426, 39.248802349061265 ], [ -119.93253332241953, 39.248814853874379 ], [ -119.932131224371517, 39.249002437070828 ], [ -119.932395237231034, 39.24879319677823 ], [ -119.932619236317777, 39.248438767055454 ], [ -119.932400363061689, 39.246018752546732 ], [ -119.932847161762894, 39.245868379906113 ], [ -119.933499504963095, 39.245254986850597 ], [ -119.934126741749708, 39.245217464766171 ] ] ] ] } }
]
}
