{
"type": "FeatureCollection",
"name": "X01918",
"crs": { "type": "name", "properties": { "name": "urn:ogc:def:crs:OGC:1.3:CRS84" } },
"features": [
{ "type": "Feature", "properties": { "part": "direct", "crossing_id": "X01918", "area_ac": 1.5 }, "geometry": { "type": "Polygon", "coordinates": [ [ [ -119.938330558746728, 39.248715304065364 ], [ -119.938398427547128, 39.248753123379203 ], [ -119.938325075975328, 39.248841277162221 ], [ -119.938458464206647, 39.248970904242462 ], [ -119.939181883196383, 39.249386305118925 ], [ -119.939045796221137, 39.249851161158716 ], [ -119.93917840456119, 39.249998783688085 ], [ -119.939166658437514, 39.250268726188892 ], [ -119.939003856014509, 39.250282460219687 ], [ -119.939001506644871, 39.250336448709632 ], [ -119.938836703803418, 39.249863677226784 ], [ -119.938769616886347, 39.249807861962509 ], [ -119.938651540012955, 39.24985880571689 ], [ -119.938478124902531, 39.249583991569907 ], [ -119.938556176407232, 39.249387860772345 ], [ -119.938443582804425, 39.249312831237631 ], [ -119.938469861016046, 39.24924145559666 ], [ -119.938108153401629, 39.249033753574956 ], [ -119.938205433903022, 39.248928212832261 ], [ -119.938095191343464, 39.248799194538812 ], [ -119.938330558746728, 39.248715304065364 ] ] ] } }
]
}
