{
"type": "FeatureCollection",
"name": "X01933",
"crs": { "type": "name", "properties": { "name": "urn:ogc:def:crs:OGC:1.3:CRS84" } },
"features": [
{ "type": "Feature", "properties": { "part": "direct", "crossing_id": "X01933", "area_ac": 1.7 }, "geometry": { "type": "Polygon", "coordinates": [ [ [ -119.934924817206294, 39.239130805024587 ], [ -119.935197033133605, 39.239264092338814 ], [ -119.934827955683431, 39.239758840766058 ], [ -119.934837771518389, 39.240065384482669 ], [ -119.934645578610642, 39.240222472720895 ], [ -119.934459656892116, 39.240235591662405 ], [ -119.934209417051832, 39.240661401492623 ], [ -119.93401800522436, 39.240800492449736 ], [ -119.934085864178016, 39.24083831393137 ], [ -119.934059585278661, 39.240909688618203 ], [ -119.933747354349165, 39.240631210049287 ], [ -119.933994460314949, 39.240277385758496 ], [ -119.9343549222056, 39.23998059764515 ], [ -119.93441375056112, 39.239693879109801 ], [ -119.934580448588264, 39.239590169942126 ], [ -119.934734194987882, 39.239251901285897 ], [ -119.934924817206294, 39.239130805024587 ] ] ] } }
]
}
