{
"type": "FeatureCollection",
"name": "X01913",
"crs": { "type": "name", "properties": { "name": "urn:ogc:def:crs:OGC:1.3:CRS84" } },
"features": [
{ "type": "Feature", "properties": { "part": "direct", "crossing_id": "X01913", "area_ac": 0.6 }, "geometry": { "type": "Polygon", "coordinates": [ [ [ -119.936631935239419, 39.234509410358115 ], [ -119.936837065769708, 39.234586877317035 ], [ -119.936648026047877, 39.234671985067358 ], [ -119.936547631140911, 39.234849510095636 ], [ -119.936240537592425, 39.234985559665766 ], [ -119.936080904217206, 39.234927306359417 ], [ -119.935982857916514, 39.235050842341657 ], [ -119.935820874103229, 39.235046577155885 ], [ -119.935778510625425, 39.234955377708303 ], [ -119.935973036354738, 39.23474429832531 ], [ -119.936631935239419, 39.234509410358115 ] ] ] } }
]
}
