{
"type": "FeatureCollection",
"name": "X01991",
"crs": { "type": "name", "properties": { "name": "urn:ogc:def:crs:OGC:1.3:CRS84" } },
"features": [
{ "type": "Feature", "properties": { "part": "direct", "crossing_id": "X01991", "area_ac": 0.8, "n_upstream": null }, "geometry": { "type": "Polygon", "coordinates": [ [ [ -119.947882846371755, 39.246984408419529 ], [ -119.948080999668576, 39.247223824241019 ], [ -119.947941350075709, 39.247238178185839 ], [ -119.947773090041167, 39.247377899093749 ], [ -119.948072411737826, 39.247421783817259 ], [ -119.94811245575994, 39.247566968517063 ], [ -119.947966559424756, 39.247725293050657 ], [ -119.947685696491732, 39.247789993047299 ], [ -119.947517434580831, 39.247929713501897 ], [ -119.947432663480626, 39.247747321657307 ], [ -119.947702874667868, 39.247394074054355 ], [ -119.947635782606781, 39.247338263701188 ], [ -119.947539298968124, 39.247425816687247 ], [ -119.947499256204111, 39.247280631836816 ], [ -119.947882846371755, 39.246984408419529 ] ] ] } },
{ "type": "Feature", "properties": { "part": "upstream", "crossing_id": "X01991", "area_ac": 2.2, "n_upstream": 2.0 }, "geometry": { "type": "Polygon", "coordinates": [ [ [ -119.947538518106612, 39.247443813002981 ], [ -119.947509565498549, 39.247484418586758 ], [ -119.947658146615353, 39.247356867156114 ], [ -119.94767504485273, 39.247501444833588 ], [ -119.947531490321339, 39.247605779841528 ], [ -119.947427978083837, 39.247855299533967 ], [ -119.94758530794229, 39.247967527622208 ], [ -119.947582184478819, 39.2480395128811 ], [ -119.947442533191804, 39.248053866157292 ], [ -119.947531209061069, 39.248146276435762 ], [ -119.94748023347934, 39.24825303996036 ], [ -119.947753290155347, 39.24836830371261 ], [ -119.947629755618181, 39.248545231151247 ], [ -119.947615699860123, 39.248869164788985 ], [ -119.947498411347297, 39.248902121538173 ], [ -119.947494506775399, 39.248992103089897 ], [ -119.947719713704188, 39.249142145256272 ], [ -119.947512185764324, 39.249118684448426 ], [ -119.947252900301365, 39.249219982950585 ], [ -119.947029256263122, 39.249033947306813 ], [ -119.947038628647206, 39.248817991675097 ], [ -119.946949952660091, 39.2487255810222 ], [ -119.946698479090358, 39.248646915326368 ], [ -119.946967764188273, 39.248235090678683 ], [ -119.946905510570517, 39.248147877464035 ], [ -119.947496132728972, 39.247352617098436 ], [ -119.947538518106612, 39.247443813002981 ] ] ] } }
]
}
