{
"type": "FeatureCollection",
"name": "X01942",
"crs": { "type": "name", "properties": { "name": "urn:ogc:def:crs:OGC:1.3:CRS84" } },
"features": [
{ "type": "Feature", "properties": { "part": "direct", "crossing_id": "X01942", "area_ac": 0.1 }, "geometry": { "type": "Polygon", "coordinates": [ [ [ -119.939391757165112, 39.249355792197989 ], [ -119.939523582423035, 39.249521410509956 ], [ -119.939396893501439, 39.249770312964728 ], [ -119.939337636397994, 39.249534536298775 ], [ -119.939391757165112, 39.249355792197989 ] ] ] } }
]
}
