{
"type": "FeatureCollection",
"name": "X01914",
"crs": { "type": "name", "properties": { "name": "urn:ogc:def:crs:OGC:1.3:CRS84" } },
"features": [
{ "type": "Feature", "properties": { "part": "direct", "crossing_id": "X01914", "area_ac": 1.2 }, "geometry": { "type": "Polygon", "coordinates": [ [ [ -119.932998183779262, 39.24399861794334 ], [ -119.932964057459884, 39.244249953067147 ], [ -119.93241527959654, 39.244613838994383 ], [ -119.93233643272545, 39.244827961407914 ], [ -119.932294068786476, 39.244736760768035 ], [ -119.932081067542754, 39.24483924557623 ], [ -119.931644477175496, 39.244755666761357 ], [ -119.93187082009814, 39.244347249730474 ], [ -119.932265829268786, 39.244321630897666 ], [ -119.932576894750241, 39.24409561355931 ], [ -119.932998183779262, 39.24399861794334 ] ] ] } }
]
}
