{
"type": "FeatureCollection",
"name": "X01952",
"crs": { "type": "name", "properties": { "name": "urn:ogc:def:crs:OGC:1.3:CRS84" } },
"features": [
{ "type": "Feature", "properties": { "part": "direct", "crossing_id": "X01952", "area_ac": 0.2, "n_upstream": null }, "geometry": { "type": "Polygon", "coordinates": [ [ [ -119.948690395922398, 39.242789654169975 ], [ -119.948701832722719, 39.243060206278543 ], [ -119.948635524201251, 39.242986400249706 ], [ -119.948587676405893, 39.243021179165503 ], [ -119.948624597723807, 39.243238349113767 ], [ -119.948415525635241, 39.243250883261325 ], [ -119.948444913247016, 39.243107519438212 ], [ -119.948354680994669, 39.243051102676674 ], [ -119.948590017815675, 39.242967190124141 ], [ -119.94857467910802, 39.242786619756821 ], [ -119.948690395922398, 39.242789654169975 ] ] ] } },
{ "type": "Feature", "properties": { "part": "upstream", "crossing_id": "X01952", "area_ac": 0.1, "n_upstream": 2.0 }, "geometry": { "type": "Polygon", "coordinates": [ [ [ -119.948815208756997, 39.243117229634876 ], [ -119.948809745831383, 39.243243204086859 ], [ -119.948772799199958, 39.243204700263526 ], [ -119.948787382741415, 39.243224600881604 ], [ -119.948645399846612, 39.243292945043216 ], [ -119.948612380773483, 39.242985793362827 ], [ -119.948716085504174, 39.243127308956694 ], [ -119.948682591504451, 39.242969617660933 ], [ -119.948815208756997, 39.243117229634876 ] ] ] } }
]
}
