{
"type": "FeatureCollection",
"name": "X02003",
"crs": { "type": "name", "properties": { "name": "urn:ogc:def:crs:OGC:1.3:CRS84" } },
"features": [
{ "type": "Feature", "properties": { "part": "direct", "crossing_id": "X02003", "area_ac": 0.2, "n_upstream": null }, "geometry": { "type": "Polygon", "coordinates": [ [ [ -119.945553730748003, 39.262201519816706 ], [ -119.945684029609026, 39.262403124824836 ], [ -119.945332092412599, 39.262501985886225 ], [ -119.945218689174723, 39.262444958176971 ], [ -119.945295956938949, 39.262266819280384 ], [ -119.945553730748003, 39.262201519816706 ] ] ] } },
{ "type": "Feature", "properties": { "part": "upstream", "crossing_id": "X02003", "area_ac": 0.9, "n_upstream": 3.0 }, "geometry": { "type": "MultiPolygon", "coordinates": [ [ [ [ -119.945913182044222, 39.262463190531321 ], [ -119.945732775261391, 39.262594273410386 ], [ -119.946050517373806, 39.262502828994378 ], [ -119.946020332557765, 39.262664187533204 ], [ -119.946133736839528, 39.262721214498193 ], [ -119.946095735475026, 39.263062535491969 ], [ -119.945999227134806, 39.263150086071626 ], [ -119.945837177147581, 39.263145832283271 ], [ -119.945702967784314, 39.263034208581345 ], [ -119.945752394702424, 39.262963439072784 ], [ -119.945545670665283, 39.262667847476749 ], [ -119.945531840652208, 39.262705414416885 ], [ -119.945685290202974, 39.262907627198402 ], [ -119.94541530961088, 39.262720371816457 ], [ -119.945330528722479, 39.262537978350139 ], [ -119.945356805861465, 39.26246660121123 ], [ -119.945586156009028, 39.262440366660201 ], [ -119.945567499095745, 39.262418082398618 ], [ -119.945941803621764, 39.262337824507455 ], [ -119.945913182044222, 39.262463190531321 ] ], [ [ -119.945558117663339, 39.262634037228594 ], [ -119.945553793602201, 39.262645782842455 ], [ -119.945670062910352, 39.262612321543813 ], [ -119.945558117663339, 39.262634037228594 ] ] ], [ [ [ -119.946051299034124, 39.26248483275026 ], [ -119.946073667162992, 39.262503436641524 ], [ -119.946050517373806, 39.262502828994378 ], [ -119.946051299034124, 39.26248483275026 ] ] ] ] } }
]
}
