{
"type": "FeatureCollection",
"name": "X02048",
"crs": { "type": "name", "properties": { "name": "urn:ogc:def:crs:OGC:1.3:CRS84" } },
"features": [
{ "type": "Feature", "properties": { "part": "direct", "crossing_id": "X02048", "area_ac": 2.0, "n_upstream": null }, "geometry": { "type": "Polygon", "coordinates": [ [ [ -119.949208852689935, 39.247397534897097 ], [ -119.949502713080122, 39.247567390402594 ], [ -119.949417670466119, 39.24792549699724 ], [ -119.949163074757678, 39.247918821999924 ], [ -119.949160733374896, 39.247972811024127 ], [ -119.949361234983741, 39.248158235881633 ], [ -119.949361747944423, 39.248680736646996 ], [ -119.949611664250199, 39.248795389396911 ], [ -119.949718026919811, 39.249014379340124 ], [ -119.949683176093743, 39.249283717788657 ], [ -119.949538059759547, 39.249424047908967 ], [ -119.949100635730943, 39.24935852909995 ], [ -119.948967226389954, 39.249228913435161 ], [ -119.949193486959857, 39.248820459555915 ], [ -119.949194536240569, 39.248261966167917 ], [ -119.949042666514828, 39.248023765762753 ], [ -119.948772731064153, 39.247836519661881 ], [ -119.948738149473982, 39.247565360789054 ], [ -119.949208852689935, 39.247397534897097 ] ] ] } },
{ "type": "Feature", "properties": { "part": "upstream", "crossing_id": "X02048", "area_ac": 2.2, "n_upstream": 2.0 }, "geometry": { "type": "Polygon", "coordinates": [ [ [ -119.949736239286096, 39.248059966101266 ], [ -119.949483789064203, 39.248003801828368 ], [ -119.949482423397654, 39.248035295434875 ], [ -119.949843381683266, 39.248260959574012 ], [ -119.949925038564558, 39.248515335327767 ], [ -119.950245951654139, 39.248595814100803 ], [ -119.950216564663293, 39.248739178317123 ], [ -119.950383783501891, 39.249157947580834 ], [ -119.95004882287499, 39.249401403430909 ], [ -119.949971583218797, 39.249579546854264 ], [ -119.949393723285951, 39.24954638148219 ], [ -119.949422331951112, 39.24942101391143 ], [ -119.949538059759547, 39.249424047908967 ], [ -119.949683176093743, 39.249283717788657 ], [ -119.949718026919811, 39.249014379340124 ], [ -119.949611664250199, 39.248795389396911 ], [ -119.949361747944423, 39.248680736646996 ], [ -119.949361234983741, 39.248158235881633 ], [ -119.949160733374896, 39.247972811024127 ], [ -119.949163074757678, 39.247918821999924 ], [ -119.94948710567401, 39.247927317354616 ], [ -119.949486325296363, 39.247945313701507 ], [ -119.949764066261622, 39.247952594722435 ], [ -119.949736239286096, 39.248059966101266 ] ] ] } }
]
}
