{
"type": "FeatureCollection",
"name": "X02033",
"crs": { "type": "name", "properties": { "name": "urn:ogc:def:crs:OGC:1.3:CRS84" } },
"features": [
{ "type": "Feature", "properties": { "part": "direct", "crossing_id": "X02033", "area_ac": 1.1 }, "geometry": { "type": "MultiPolygon", "coordinates": [ [ [ [ -119.943433382514854, 39.259263154263728 ], [ -119.94345574894767, 39.259281758599933 ], [ -119.943432600274718, 39.259281150473868 ], [ -119.943433382514854, 39.259263154263728 ] ] ], [ [ [ -119.943711948734162, 39.259252455253701 ], [ -119.943682542649626, 39.259395816892543 ], [ -119.943853653898344, 39.259724613281918 ], [ -119.944020388318791, 39.25962089220976 ], [ -119.944203232557044, 39.259679744855546 ], [ -119.944260948390124, 39.259951512112423 ], [ -119.944550936634897, 39.260211362535181 ], [ -119.944545462754888, 39.260337336115477 ], [ -119.944722835713506, 39.260522161617082 ], [ -119.944883315682262, 39.260562409180693 ], [ -119.944917103550608, 39.260851564575979 ], [ -119.944822160883731, 39.26090312181082 ], [ -119.944759750682266, 39.260739332123016 ], [ -119.944531386905794, 39.260661268163567 ], [ -119.944536860874067, 39.260535294591939 ], [ -119.944374817128576, 39.260531039004391 ], [ -119.944359488392209, 39.26035046882491 ], [ -119.944290041262391, 39.260348644930595 ], [ -119.944097341851759, 39.259983248631848 ], [ -119.943801098966532, 39.259867366889857 ], [ -119.94349500626231, 39.259444940736579 ], [ -119.94345574894767, 39.259281758599933 ], [ -119.943711948734162, 39.259252455253701 ] ] ] ] } }
]
}
