{
"type": "FeatureCollection",
"name": "X02071",
"crs": { "type": "name", "properties": { "name": "urn:ogc:def:crs:OGC:1.3:CRS84" } },
"features": [
{ "type": "Feature", "properties": { "part": "direct", "crossing_id": "X02071", "area_ac": 0.0, "n_upstream": null }, "geometry": { "type": "Polygon", "coordinates": [ [ [ -119.930358096698498, 39.23706461700101 ], [ -119.930352601941024, 39.237190589409252 ], [ -119.930283178560231, 39.237188758061322 ], [ -119.930288673441481, 39.237062785661251 ], [ -119.930358096698498, 39.23706461700101 ] ] ] } },
{ "type": "Feature", "properties": { "part": "upstream", "crossing_id": "X02071", "area_ac": 0.3, "n_upstream": 2.0 }, "geometry": { "type": "MultiPolygon", "coordinates": [ [ [ [ -119.929854488591474, 39.236925213865135 ], [ -119.929921556471541, 39.23698103361297 ], [ -119.929620722883712, 39.23697309639558 ], [ -119.929578366597553, 39.236881894987462 ], [ -119.929854488591474, 39.236925213865135 ] ] ], [ [ [ -119.930345160146899, 39.236830057796986 ], [ -119.930358096698498, 39.23706461700101 ], [ -119.930286318496584, 39.237116773833115 ], [ -119.929871348945213, 39.237069792805571 ], [ -119.929851348235232, 39.236997198066547 ], [ -119.930061972854944, 39.236948704574772 ], [ -119.930231025085561, 39.236791013429041 ], [ -119.930345160146899, 39.236830057796986 ] ] ] ] } }
]
}
