{
"type": "FeatureCollection",
"name": "X02011",
"crs": { "type": "name", "properties": { "name": "urn:ogc:def:crs:OGC:1.3:CRS84" } },
"features": [
{ "type": "Feature", "properties": { "part": "direct", "crossing_id": "X02011", "area_ac": 0.1 }, "geometry": { "type": "Polygon", "coordinates": [ [ [ -119.930519732988458, 39.235483405166121 ], [ -119.93056287466321, 39.235556610198493 ], [ -119.93090527498606, 39.235673741808611 ], [ -119.930785647708831, 39.23576067053618 ], [ -119.930693869884337, 39.235740233079639 ], [ -119.930651512818713, 39.235649032020127 ], [ -119.930467957606353, 39.235608156838822 ], [ -119.930519732988458, 39.235483405166121 ] ] ] } }
]
}
