{
"type": "FeatureCollection",
"name": "X02027",
"crs": { "type": "name", "properties": { "name": "urn:ogc:def:crs:OGC:1.3:CRS84" } },
"features": [
{ "type": "Feature", "properties": { "part": "direct", "crossing_id": "X02027", "area_ac": 0.7, "n_upstream": null }, "geometry": { "type": "Polygon", "coordinates": [ [ [ -119.948200865664958, 39.255676844159339 ], [ -119.948395919147288, 39.255988245353031 ], [ -119.948137389789906, 39.256071548477507 ], [ -119.948173532993764, 39.256306714663992 ], [ -119.948039050411737, 39.256735589976024 ], [ -119.947829156933537, 39.256766117753791 ], [ -119.947787547391187, 39.256656925553479 ], [ -119.947965202850298, 39.256301250148404 ], [ -119.94781410282657, 39.256045051607281 ], [ -119.947909817665689, 39.255975495252187 ], [ -119.947941556284221, 39.255778143186568 ], [ -119.948200865664958, 39.255676844159339 ] ] ] } },
{ "type": "Feature", "properties": { "part": "upstream", "crossing_id": "X02027", "area_ac": 11.1, "n_upstream": 3.0 }, "geometry": { "type": "MultiPolygon", "coordinates": [ [ [ [ -119.94826326437628, 39.256757803478806 ], [ -119.949316091222599, 39.25667899634373 ], [ -119.949637551090902, 39.257281978321672 ], [ -119.950126518120484, 39.257763232864583 ], [ -119.949980603496527, 39.257921559033306 ], [ -119.949897108453271, 39.258243672389277 ], [ -119.949909329115187, 39.258496227721736 ], [ -119.950083590286965, 39.258753030756161 ], [ -119.949566513733117, 39.258919643200443 ], [ -119.949894498297439, 39.258838157813635 ], [ -119.949957431473393, 39.259524445297806 ], [ -119.949887204198845, 39.259540621091254 ], [ -119.949880178794245, 39.259702587947594 ], [ -119.949716574866656, 39.259734332498418 ], [ -119.949713285051615, 39.259720464758651 ], [ -119.949596146020568, 39.259839275887934 ], [ -119.949143316690538, 39.259593184801886 ], [ -119.949012231520896, 39.259409579705213 ], [ -119.948847847110954, 39.259459319347947 ], [ -119.948877242776703, 39.259315955990701 ], [ -119.948770869273062, 39.25909696510162 ], [ -119.948444444296129, 39.259142454627501 ], [ -119.948355754245895, 39.259050044602731 ], [ -119.948327419359813, 39.258634915549123 ], [ -119.9479596688154, 39.2580307158523 ], [ -119.948124332026381, 39.257440481359964 ], [ -119.948000282379283, 39.257094908679107 ], [ -119.947933181311072, 39.257039098203961 ], [ -119.947969606609917, 39.256733768415423 ], [ -119.948270529796616, 39.25674166154613 ], [ -119.94826326437628, 39.256757803478806 ] ] ], [ [ [ -119.947976353309144, 39.257112297777695 ], [ -119.947977134327303, 39.2570943014845 ], [ -119.947999501367036, 39.257112904972679 ], [ -119.947976353309144, 39.257112297777695 ] ] ] ] } }
]
}
