{
"type": "FeatureCollection",
"name": "X02026",
"crs": { "type": "name", "properties": { "name": "urn:ogc:def:crs:OGC:1.3:CRS84" } },
"features": [
{ "type": "Feature", "properties": { "part": "direct", "crossing_id": "X02026", "area_ac": 1.7, "n_upstream": null }, "geometry": { "type": "Polygon", "coordinates": [ [ [ -119.92911822013059, 39.238401177351129 ], [ -119.929230001187548, 39.238494210986737 ], [ -119.929649689609406, 39.238433218356313 ], [ -119.929887758765474, 39.238817851622571 ], [ -119.929386078961144, 39.239164949664541 ], [ -119.929175447216863, 39.239213441634682 ], [ -119.929099739154694, 39.239355577750516 ], [ -119.928856960383627, 39.239078919162992 ], [ -119.928796960232631, 39.238861134535675 ], [ -119.928573398510906, 39.238675066344086 ], [ -119.928745600001236, 39.238445393591704 ], [ -119.92911822013059, 39.238401177351129 ] ] ] } },
{ "type": "Feature", "properties": { "part": "upstream", "crossing_id": "X02026", "area_ac": 69.1, "n_upstream": 10.0 }, "geometry": { "type": "MultiPolygon", "coordinates": [ [ [ [ -119.929886188500049, 39.238853843712832 ], [ -119.929906974778945, 39.238908442403158 ], [ -119.929692418179329, 39.239046915570178 ], [ -119.929482572212024, 39.239077412080988 ], [ -119.929886188500049, 39.238853843712832 ] ] ], [ [ [ -119.929699441922807, 39.239947938768047 ], [ -119.929697871498036, 39.239983930844943 ], [ -119.929631586324206, 39.239910114848904 ], [ -119.929699441922807, 39.239947938768047 ] ] ], [ [ [ -119.930010082970625, 39.24026241956583 ], [ -119.930072443223978, 39.240426215588641 ], [ -119.930719232824146, 39.24100179697701 ], [ -119.931280526247477, 39.241412969366451 ], [ -119.931848888677251, 39.241662174658515 ], [ -119.93412827143483, 39.243055493604274 ], [ -119.934143572928264, 39.243236064406858 ], [ -119.93369287233179, 39.243476423334485 ], [ -119.933645406690204, 39.243461137376173 ], [ -119.933669729066338, 39.243475813472145 ], [ -119.933937253315065, 39.243717080801815 ], [ -119.933657180245746, 39.243763750976903 ], [ -119.933199019733564, 39.24364357612609 ], [ -119.933148676879995, 39.243613450032292 ], [ -119.933056237597242, 39.243729896699605 ], [ -119.932941305418211, 39.243708850611561 ], [ -119.932296819467823, 39.24414228035959 ], [ -119.931638600169762, 39.244359143224997 ], [ -119.931746469601421, 39.244542155157816 ], [ -119.931668405660233, 39.244738280985807 ], [ -119.931025094143919, 39.244613215106888 ], [ -119.930506139214188, 39.244293241933498 ], [ -119.929882051199129, 39.244258760628583 ], [ -119.92966904822228, 39.244361240943462 ], [ -119.929612551617282, 39.244593967892648 ], [ -119.930013430241715, 39.244964880063435 ], [ -119.930028721225383, 39.245145450954858 ], [ -119.93018601598493, 39.245257701293433 ], [ -119.930245239420685, 39.245493481415679 ], [ -119.930031447786035, 39.245613958276742 ], [ -119.929891799144997, 39.245628290526845 ], [ -119.929621926393921, 39.245441002279613 ], [ -119.929391273641826, 39.245416899089953 ], [ -119.92938891730914, 39.245470887138772 ], [ -119.929179837388347, 39.245483386295852 ], [ -119.928981755088572, 39.24524394094081 ], [ -119.928843678212829, 39.245222279936272 ], [ -119.928724031505539, 39.245309205675987 ], [ -119.928778536395683, 39.245652962381726 ], [ -119.928159509015074, 39.246032990224769 ], [ -119.927622482048633, 39.246126912086723 ], [ -119.926725715132733, 39.246499598262758 ], [ -119.926052963642221, 39.246517861021118 ], [ -119.925717936515127, 39.246761244034666 ], [ -119.925483348909339, 39.246827112717042 ], [ -119.924647798488834, 39.246859082287749 ], [ -119.924528930686037, 39.24692800744311 ], [ -119.923707077509704, 39.247029865936604 ], [ -119.92368323400369, 39.247044780829214 ], [ -119.923689444357947, 39.247049949665204 ], [ -119.923675557824311, 39.247049582527936 ], [ -119.923261042598298, 39.247308873438975 ], [ -119.923051169705701, 39.247339357216553 ], [ -119.924630617824107, 39.246192009383513 ], [ -119.925192030835518, 39.245540227256974 ], [ -119.925958580037701, 39.244965928701326 ], [ -119.926662761490078, 39.244227826994319 ], [ -119.927142134451813, 39.243862135777881 ], [ -119.927271211675475, 39.243559259796669 ], [ -119.927973793343867, 39.242857140883544 ], [ -119.928117365163686, 39.242752830714046 ], [ -119.928608079775444, 39.242657683762232 ], [ -119.928217793468974, 39.242575314461419 ], [ -119.927696509206882, 39.242309317756231 ], [ -119.928029936236996, 39.242101919777504 ], [ -119.928033079025084, 39.242029935762389 ], [ -119.927790296051924, 39.24175327485716 ], [ -119.927491800159487, 39.241691343344542 ], [ -119.927225878024174, 39.241414070309958 ], [ -119.927487517341063, 39.241258828362938 ], [ -119.927288666095919, 39.241037376670043 ], [ -119.927480091185515, 39.2408982973486 ], [ -119.92764287295266, 39.240884578663305 ], [ -119.928176357647502, 39.240340143856692 ], [ -119.928183428125095, 39.240178179749797 ], [ -119.928046147043489, 39.240138522174874 ], [ -119.92798222048998, 39.240010717274224 ], [ -119.928034789598073, 39.239867971081921 ], [ -119.928557266312595, 39.239575478261727 ], [ -119.928766328633458, 39.239562979521878 ], [ -119.928637688520169, 39.239325366422747 ], [ -119.928500408780735, 39.239285709434981 ], [ -119.928596903261663, 39.239198172638233 ], [ -119.928563187421759, 39.238909014642879 ], [ -119.928708320834787, 39.238768711280223 ], [ -119.929142096088569, 39.239446779334173 ], [ -119.929256234689447, 39.23948582490253 ], [ -119.929630015866849, 39.239946106923732 ], [ -119.929697086284605, 39.240001926883259 ], [ -119.929697871498036, 39.239983930844943 ], [ -119.929720228322353, 39.240002537490021 ], [ -119.929697086284605, 39.240001926883259 ], [ -119.930010082970625, 39.24026241956583 ] ], [ [ -119.931797815243115, 39.241877029106256 ], [ -119.931773390079371, 39.241899187533257 ], [ -119.931841427299702, 39.242364631532197 ], [ -119.931817114126929, 39.241859521209221 ], [ -119.931806392525999, 39.241869247819139 ], [ -119.931816329402622, 39.241877517277516 ], [ -119.931797815243115, 39.241877029106256 ] ], [ [ -119.931592349438773, 39.242231946463228 ], [ -119.931841276389719, 39.242368092314315 ], [ -119.931841427299702, 39.242364631532197 ], [ -119.931592349438773, 39.242231946463228 ] ], [ [ -119.931736699596783, 39.242109635486749 ], [ -119.931578624149424, 39.242015383438527 ], [ -119.931538770486796, 39.242079192841786 ], [ -119.931600982105905, 39.242033989761687 ], [ -119.931666486507737, 39.242125800837933 ], [ -119.931536685894315, 39.242204272444347 ], [ -119.931569206627827, 39.242231336199602 ], [ -119.931400143391912, 39.242389028765537 ], [ -119.931592349438773, 39.242231946463228 ], [ -119.931736699596783, 39.242109635486749 ] ], [ [ -119.931765787286849, 39.241906084757204 ], [ -119.931720619610914, 39.241947060658184 ], [ -119.931736699596783, 39.242109635486749 ], [ -119.931765787286849, 39.241906084757204 ] ], [ [ -119.931362873098379, 39.242712347517582 ], [ -119.931365686998973, 39.242717121747461 ], [ -119.931400143391912, 39.242389028765537 ], [ -119.931362873098379, 39.242712347517582 ] ], [ [ -119.931853848483996, 39.242374968354198 ], [ -119.931883564353029, 39.242391220807008 ], [ -119.931841427299702, 39.242364631532197 ], [ -119.931853848483996, 39.242374968354198 ] ], [ [ -119.930810959902459, 39.243148210307091 ], [ -119.930763888683884, 39.243164985487574 ], [ -119.930749400319584, 39.243171577558748 ], [ -119.930758632039129, 39.243179260237014 ], [ -119.931213026668175, 39.24296063032925 ], [ -119.931427592904512, 39.242822154790325 ], [ -119.93081174491914, 39.243130214259658 ], [ -119.93078722954796, 39.243107947529516 ], [ -119.930810959902459, 39.243148210307091 ] ], [ [ -119.93073996054855, 39.243182371093354 ], [ -119.930740249772342, 39.243175740971132 ], [ -119.930720423583054, 39.243184761695332 ], [ -119.930730232283338, 39.243192924543337 ], [ -119.930751532101212, 39.243182676314291 ], [ -119.93073996054855, 39.243182371093354 ] ], [ [ -119.930716610853779, 39.243186496449582 ], [ -119.93038484540574, 39.243337445631141 ], [ -119.930432034198162, 39.243336399312909 ], [ -119.93069236592558, 39.243211143606935 ], [ -119.930692889291493, 39.243199146243469 ], [ -119.930701832516817, 39.24320658884227 ], [ -119.930716032401435, 39.243199756693741 ], [ -119.930716610853779, 39.243186496449582 ] ], [ [ -119.932200824986666, 39.242591417140666 ], [ -119.93217966347494, 39.242578063962441 ], [ -119.932178369859557, 39.242607733162508 ], [ -119.932200824986666, 39.242591417140666 ] ], [ [ -119.931502132642208, 39.242175517195349 ], [ -119.931509585302038, 39.242181719308661 ], [ -119.931494721614271, 39.242149719004374 ], [ -119.931478989851811, 39.242174906914521 ], [ -119.931408972857014, 39.242186573089853 ], [ -119.931502132642208, 39.242175517195349 ] ], [ [ -119.93111380294593, 39.242235753551348 ], [ -119.931105565640877, 39.242237126018352 ], [ -119.930596015424456, 39.242764188864697 ], [ -119.93111380294593, 39.242235753551348 ] ], [ [ -119.929295560512003, 39.242199247832609 ], [ -119.929277286443821, 39.242188893402407 ], [ -119.929273780019884, 39.242202876456297 ], [ -119.929295560512003, 39.242199247832609 ] ], [ [ -119.928926581850703, 39.242792207467922 ], [ -119.92889697375, 39.242987972368596 ], [ -119.92891872692951, 39.242972167631009 ], [ -119.928926581850703, 39.242792207467922 ] ], [ [ -119.92609542427742, 39.24554607926639 ], [ -119.925435601794334, 39.245798897597957 ], [ -119.92630686327297, 39.245479597793171 ], [ -119.926123490570575, 39.245527611683272 ], [ -119.926107939085355, 39.245537844541715 ], [ -119.926118568058712, 39.245546690660582 ], [ -119.92609542427742, 39.24554607926639 ] ], [ [ -119.931905450669561, 39.242865489814207 ], [ -119.931923205791321, 39.24288026538354 ], [ -119.931949154374905, 39.242874291190645 ], [ -119.931920514303656, 39.242845645800472 ], [ -119.931905450669561, 39.242865489814207 ] ], [ [ -119.932035588738941, 39.242694052529522 ], [ -119.932006090833724, 39.242732911662706 ], [ -119.932082659365093, 39.242677276808557 ], [ -119.932035588738941, 39.242694052529522 ] ] ], [ [ [ -119.929810440924271, 39.240058967991544 ], [ -119.929719443114124, 39.240020533528657 ], [ -119.929765727203474, 39.240021754729163 ], [ -119.929810440924271, 39.240058967991544 ] ] ] ] } }
]
}
