{
"type": "FeatureCollection",
"name": "X02054",
"crs": { "type": "name", "properties": { "name": "urn:ogc:def:crs:OGC:1.3:CRS84" } },
"features": [
{ "type": "Feature", "properties": { "part": "direct", "crossing_id": "X02054", "area_ac": 0.7 }, "geometry": { "type": "Polygon", "coordinates": [ [ [ -119.942858524989077, 39.261824447024701 ], [ -119.94306608808229, 39.261847917511666 ], [ -119.943243460556957, 39.262032745225994 ], [ -119.943314473974596, 39.261998577410303 ], [ -119.943438507337177, 39.262344154274189 ], [ -119.943551908859618, 39.262401183657481 ], [ -119.943500133281105, 39.262525940768526 ], [ -119.943682202163259, 39.262602790691751 ], [ -119.943634019235603, 39.263178061047988 ], [ -119.943491527790457, 39.262723898977185 ], [ -119.942896999486607, 39.262005625495789 ], [ -119.942858524989077, 39.261824447024701 ] ] ] } }
]
}
