{
"type": "FeatureCollection",
"name": "X02080",
"crs": { "type": "name", "properties": { "name": "urn:ogc:def:crs:OGC:1.3:CRS84" } },
"features": [
{ "type": "Feature", "properties": { "part": "direct", "crossing_id": "X02080", "area_ac": 0.3 }, "geometry": { "type": "Polygon", "coordinates": [ [ [ -119.947258794971745, 39.261363448454873 ], [ -119.947466069980294, 39.261927406563451 ], [ -119.947474375224971, 39.262269943040117 ], [ -119.947384120196674, 39.262213524747892 ], [ -119.94739427718865, 39.26197957326599 ], [ -119.947194525275066, 39.261776147782591 ], [ -119.947201557378278, 39.261614181389731 ], [ -119.947070473998224, 39.261430574209783 ], [ -119.947258794971745, 39.261363448454873 ] ] ] } }
]
}
