{
"type": "FeatureCollection",
"name": "X02051",
"crs": { "type": "name", "properties": { "name": "urn:ogc:def:crs:OGC:1.3:CRS84" } },
"features": [
{ "type": "Feature", "properties": { "part": "direct", "crossing_id": "X02051", "area_ac": 0.2 }, "geometry": { "type": "Polygon", "coordinates": [ [ [ -119.931886207542263, 39.234960921116567 ], [ -119.932087411255068, 39.235128376757238 ], [ -119.932278026105408, 39.23500728449946 ], [ -119.93231646294474, 39.235188465531245 ], [ -119.93199092684587, 39.235215916896237 ], [ -119.931766582681774, 39.235047850958452 ], [ -119.931886207542263, 39.234960921116567 ] ] ] } }
]
}
