{
"type": "FeatureCollection",
"name": "X02039",
"crs": { "type": "name", "properties": { "name": "urn:ogc:def:crs:OGC:1.3:CRS84" } },
"features": [
{ "type": "Feature", "properties": { "part": "direct", "crossing_id": "X02039", "area_ac": 0.9 }, "geometry": { "type": "Polygon", "coordinates": [ [ [ -119.947941065046251, 39.261129113051886 ], [ -119.94804900081337, 39.261312112091183 ], [ -119.948020383498971, 39.26143747881703 ], [ -119.94773165293455, 39.261682139411242 ], [ -119.947472812643369, 39.262305935577452 ], [ -119.947466069980294, 39.261927406563451 ], [ -119.947258794971745, 39.261363448454873 ], [ -119.947941065046251, 39.261129113051886 ] ] ] } }
]
}
