{
"type": "FeatureCollection",
"name": "X02032",
"crs": { "type": "name", "properties": { "name": "urn:ogc:def:crs:OGC:1.3:CRS84" } },
"features": [
{ "type": "Feature", "properties": { "part": "direct", "crossing_id": "X02032", "area_ac": 0.3 }, "geometry": { "type": "Polygon", "coordinates": [ [ [ -119.937088427388971, 39.253294903587758 ], [ -119.937270465346032, 39.253371762436835 ], [ -119.937266547080725, 39.253461743059283 ], [ -119.937143760774788, 39.253620661706215 ], [ -119.936933089493124, 39.253669166126919 ], [ -119.936713379657164, 39.253393130698846 ], [ -119.937088427388971, 39.253294903587758 ] ] ] } }
]
}
