{
"type": "FeatureCollection",
"name": "X02031",
"crs": { "type": "name", "properties": { "name": "urn:ogc:def:crs:OGC:1.3:CRS84" } },
"features": [
{ "type": "Feature", "properties": { "part": "direct", "crossing_id": "X02031", "area_ac": 0.1 }, "geometry": { "type": "Polygon", "coordinates": [ [ [ -119.940770187998908, 39.256022211353937 ], [ -119.940859646944503, 39.256096630486539 ], [ -119.940853384444665, 39.256240599897609 ], [ -119.940727469327527, 39.256471507089465 ], [ -119.94069917967451, 39.256056377834952 ], [ -119.940770187998908, 39.256022211353937 ] ] ] } }
]
}
