{
"type": "FeatureCollection",
"name": "X02061",
"crs": { "type": "name", "properties": { "name": "urn:ogc:def:crs:OGC:1.3:CRS84" } },
"features": [
{ "type": "Feature", "properties": { "part": "direct", "crossing_id": "X02061", "area_ac": 0.8, "n_upstream": null }, "geometry": { "type": "Polygon", "coordinates": [ [ [ -119.950520561900746, 39.245468086175471 ], [ -119.950943924684964, 39.245857533591405 ], [ -119.951045608162872, 39.246184500671305 ], [ -119.950838867377001, 39.246143049714064 ], [ -119.950937685082224, 39.246001504611279 ], [ -119.950801158245241, 39.245943876608294 ], [ -119.950680755912032, 39.246048822327239 ], [ -119.950700000311272, 39.246139410707336 ], [ -119.950441510334457, 39.24622272060757 ], [ -119.95037675735567, 39.246112922681419 ], [ -119.950348152107381, 39.246238290668096 ], [ -119.950230869166177, 39.246271250409464 ], [ -119.950289640233621, 39.245984521766474 ], [ -119.950228788342898, 39.245784741940753 ], [ -119.950323706187945, 39.245733179217034 ], [ -119.950356211665635, 39.245517829376681 ], [ -119.950520561900746, 39.245468086175471 ] ] ] } },
{ "type": "Feature", "properties": { "part": "upstream", "crossing_id": "X02061", "area_ac": 3.1, "n_upstream": 3.0 }, "geometry": { "type": "Polygon", "coordinates": [ [ [ -119.950698556769311, 39.246139985695287 ], [ -119.950678415848571, 39.246102811445198 ], [ -119.95084744714022, 39.245945089583678 ], [ -119.950937685082224, 39.246001504611279 ], [ -119.950838867377001, 39.246143049714064 ], [ -119.951000099044052, 39.246165291390831 ], [ -119.951064073133352, 39.246293085387585 ], [ -119.950908826338051, 39.246667370520875 ], [ -119.951015190337046, 39.2468863593786 ], [ -119.950940296210604, 39.247010514592965 ], [ -119.951043540916245, 39.247301488935427 ], [ -119.950872166554362, 39.247513200054108 ], [ -119.950839661327748, 39.247728550001071 ], [ -119.951059412119363, 39.248004560450617 ], [ -119.951008441912535, 39.248111325738989 ], [ -119.950822500584565, 39.248124470129198 ], [ -119.950591829079983, 39.248100408374079 ], [ -119.950595729570011, 39.248010426548667 ], [ -119.950526294208416, 39.248008606849005 ], [ -119.950605090674841, 39.247794470160649 ], [ -119.9503967852459, 39.24778901097941 ], [ -119.950362197371049, 39.247517852342327 ], [ -119.950436312973054, 39.24741169393554 ], [ -119.950397044293155, 39.247248513483306 ], [ -119.950515108922289, 39.247197557273743 ], [ -119.950506416639953, 39.247017962111023 ], [ -119.950468039111911, 39.247214340499731 ], [ -119.950360116162912, 39.247031343928377 ], [ -119.950178078528182, 39.246954505584689 ], [ -119.950185100063209, 39.246792538328279 ], [ -119.949949233642783, 39.246353952559652 ], [ -119.950324227457344, 39.24625568044592 ], [ -119.950423046343417, 39.246114135829828 ], [ -119.950502916628963, 39.246217912317292 ], [ -119.950698556769311, 39.246139985695287 ] ], [ [ -119.950731469092034, 39.246482554813355 ], [ -119.950595652978876, 39.246338405414221 ], [ -119.950739233489031, 39.246524959825628 ], [ -119.950807142951689, 39.246340403342259 ], [ -119.950731469092034, 39.246482554813355 ] ], [ [ -119.950860976982725, 39.246702150298987 ], [ -119.950853723876321, 39.246694077880704 ], [ -119.950690383708476, 39.246895864832929 ], [ -119.950860976982725, 39.246702150298987 ] ], [ [ -119.950527590341849, 39.246909615402252 ], [ -119.950521635245863, 39.246940087914886 ], [ -119.950690383708476, 39.246895864832929 ], [ -119.950527590341849, 39.246909615402252 ] ] ] } }
]
}
