{
"type": "FeatureCollection",
"name": "X02096",
"crs": { "type": "name", "properties": { "name": "urn:ogc:def:crs:OGC:1.3:CRS84" } },
"features": [
{ "type": "Feature", "properties": { "part": "direct", "crossing_id": "X02096", "area_ac": 1.3 }, "geometry": { "type": "Polygon", "coordinates": [ [ [ -119.944556732333496, 39.267544333420787 ], [ -119.945042912204741, 39.2675571006449 ], [ -119.945083740719085, 39.267684289949749 ], [ -119.944933100506731, 39.267950585551702 ], [ -119.944922933174766, 39.268184536255831 ], [ -119.944550942721747, 39.268210800922489 ], [ -119.944291581167832, 39.268312089593721 ], [ -119.944161276548343, 39.268110482926893 ], [ -119.944085881127378, 39.267712134228866 ], [ -119.944556732333496, 39.267544333420787 ] ] ] } }
]
}
