{
"type": "FeatureCollection",
"name": "X02022",
"crs": { "type": "name", "properties": { "name": "urn:ogc:def:crs:OGC:1.3:CRS84" } },
"features": [
{ "type": "Feature", "properties": { "part": "direct", "crossing_id": "X02022", "area_ac": 0.1 }, "geometry": { "type": "Polygon", "coordinates": [ [ [ -119.931193564373245, 39.234906623625939 ], [ -119.931350839261839, 39.235018871725238 ], [ -119.93104765946039, 39.235064926758859 ], [ -119.931007656491303, 39.234919737588925 ], [ -119.931193564373245, 39.234906623625939 ] ] ] } }
]
}
