{
"type": "FeatureCollection",
"name": "X02046",
"crs": { "type": "name", "properties": { "name": "urn:ogc:def:crs:OGC:1.3:CRS84" } },
"features": [
{ "type": "Feature", "properties": { "part": "direct", "crossing_id": "X02046", "area_ac": 4.1, "n_upstream": null }, "geometry": { "type": "Polygon", "coordinates": [ [ [ -119.939785299942983, 39.258951058919209 ], [ -119.940218953037856, 39.260169586160316 ], [ -119.940417896667839, 39.260391018857618 ], [ -119.940715701500721, 39.260470916757384 ], [ -119.940774970102709, 39.260706692886217 ], [ -119.940718493247786, 39.260939425603659 ], [ -119.940144901630134, 39.261338727171115 ], [ -119.939945173218888, 39.261135290111497 ], [ -119.939777993713165, 39.260716507903567 ], [ -119.93985057369612, 39.260646349920918 ], [ -119.939692446574256, 39.260552107087449 ], [ -119.939351045113085, 39.259876507171988 ], [ -119.93912930930918, 39.259113970730212 ], [ -119.939202671468948, 39.259025816956566 ], [ -119.939503601990211, 39.259033733124305 ], [ -119.939785299942983, 39.258951058919209 ] ] ] } },
{ "type": "Feature", "properties": { "part": "upstream", "crossing_id": "X02046", "area_ac": 15.6, "n_upstream": 4.0 }, "geometry": { "type": "Polygon", "coordinates": [ [ [ -119.939562951689254, 39.260332499980088 ], [ -119.939736394930762, 39.260607313286286 ], [ -119.93985057369612, 39.260646349920918 ], [ -119.939777993713165, 39.260716507903567 ], [ -119.939945173218888, 39.261135290111497 ], [ -119.941083168797974, 39.262678621551139 ], [ -119.94077987320658, 39.262724697318795 ], [ -119.9403777132881, 39.262912306380635 ], [ -119.939785566148544, 39.262140029767743 ], [ -119.940354563487617, 39.262911697595953 ], [ -119.939389754720196, 39.263246656077946 ], [ -119.93936347126342, 39.263318031609579 ], [ -119.93920063845934, 39.263331764698762 ], [ -119.938843987501343, 39.263538582296462 ], [ -119.938561844318571, 39.263098756897278 ], [ -119.938449229694442, 39.26302372665306 ], [ -119.938354279586477, 39.263075278286536 ], [ -119.938309123352923, 39.262515571209384 ], [ -119.937995940220318, 39.261192107564092 ], [ -119.938121620781146, 39.261141768267592 ], [ -119.937973574726556, 39.261173502215833 ], [ -119.93793746442519, 39.26093833427457 ], [ -119.938318036798577, 39.260714132009895 ], [ -119.938392968876869, 39.260589986632688 ], [ -119.938819052342595, 39.260384996990368 ], [ -119.938531009106555, 39.259548647946779 ], [ -119.938674601827984, 39.259444325724779 ], [ -119.938928453329524, 39.259469021418823 ], [ -119.939210936969303, 39.259368352569389 ], [ -119.939562951689254, 39.260332499980088 ] ], [ [ -119.939769465912832, 39.261977455617128 ], [ -119.9395478930319, 39.26174341541067 ], [ -119.939700800745058, 39.261957632783762 ], [ -119.939688598044896, 39.261963784894107 ], [ -119.939747099690734, 39.261958850583852 ], [ -119.939785566148544, 39.262140029767743 ], [ -119.939769465912832, 39.261977455617128 ] ], [ [ -119.939098837210764, 39.260878809972304 ], [ -119.939307611306859, 39.261406787764201 ], [ -119.939389906276588, 39.261522081001402 ], [ -119.939098837210764, 39.260878809972304 ] ], [ [ -119.9389838751204, 39.260857768732663 ], [ -119.938993448126112, 39.260850813893271 ], [ -119.938922547898571, 39.260874171990828 ], [ -119.939098837210764, 39.260878809972304 ], [ -119.9389838751204, 39.260857768732663 ] ], [ [ -119.939103537556377, 39.26077083317773 ], [ -119.938919128463695, 39.260747964836781 ], [ -119.939073621975041, 39.260792567079221 ], [ -119.939103537556377, 39.26077083317773 ] ], [ [ -119.938554447915251, 39.26096840479746 ], [ -119.938565638380425, 39.260963922563747 ], [ -119.938919128463695, 39.260747964836781 ], [ -119.938554447915251, 39.26096840479746 ] ] ] } }
]
}
