{
"type": "FeatureCollection",
"name": "X02157",
"crs": { "type": "name", "properties": { "name": "urn:ogc:def:crs:OGC:1.3:CRS84" } },
"features": [
{ "type": "Feature", "properties": { "part": "direct", "crossing_id": "X02157", "area_ac": 0.1 }, "geometry": { "type": "Polygon", "coordinates": [ [ [ -119.94131074158588, 39.255315752372788 ], [ -119.941488093900489, 39.255500582111985 ], [ -119.941413955828438, 39.255606733819171 ], [ -119.941144796766054, 39.255401473686241 ], [ -119.94131074158588, 39.255315752372788 ] ] ] } }
]
}
