{
"type": "FeatureCollection",
"name": "X02197",
"crs": { "type": "name", "properties": { "name": "urn:ogc:def:crs:OGC:1.3:CRS84" } },
"features": [
{ "type": "Feature", "properties": { "part": "direct", "crossing_id": "X02197", "area_ac": 0.3 }, "geometry": { "type": "Polygon", "coordinates": [ [ [ -119.946428954503716, 39.254855633996577 ], [ -119.946449757746493, 39.254910230293333 ], [ -119.946023728956035, 39.255115250249752 ], [ -119.946179995013807, 39.255785972508789 ], [ -119.946132918397069, 39.255802753691327 ], [ -119.945917072669275, 39.255436752732543 ], [ -119.945982123071516, 39.255006057525463 ], [ -119.946428954503716, 39.254855633996577 ] ] ] } }
]
}
