{
"type": "FeatureCollection",
"name": "X02177",
"crs": { "type": "name", "properties": { "name": "urn:ogc:def:crs:OGC:1.3:CRS84" } },
"features": [
{ "type": "Feature", "properties": { "part": "direct", "crossing_id": "X02177", "area_ac": 0.2, "n_upstream": null }, "geometry": { "type": "Polygon", "coordinates": [ [ [ -119.949768766975154, 39.244637624883929 ], [ -119.94988292658941, 39.244676650957118 ], [ -119.949968481147593, 39.244841044837862 ], [ -119.949731578908612, 39.244960952695692 ], [ -119.949690752401622, 39.244833764784481 ], [ -119.949788009921363, 39.244728213372468 ], [ -119.949598956437995, 39.244813341594721 ], [ -119.949556569702494, 39.244722146363102 ], [ -119.949768766975154, 39.244637624883929 ] ] ] } },
{ "type": "Feature", "properties": { "part": "upstream", "crossing_id": "X02177", "area_ac": 0.9, "n_upstream": 1.0 }, "geometry": { "type": "Polygon", "coordinates": [ [ [ -119.949788009921363, 39.244728213372468 ], [ -119.949690752401622, 39.244833764784481 ], [ -119.949730798675773, 39.244978949055827 ], [ -119.949466069612086, 39.245206227780429 ], [ -119.949522237120036, 39.245513986048508 ], [ -119.949380250112782, 39.245582330930574 ], [ -119.949366203888161, 39.245906265262249 ], [ -119.949220313964318, 39.24606459165453 ], [ -119.949034377926651, 39.246077733388915 ], [ -119.948859368623758, 39.24583892603011 ], [ -119.94921511852003, 39.245650068826286 ], [ -119.949191461062085, 39.245126961070724 ], [ -119.949335007961906, 39.245022623679084 ], [ -119.949339689962613, 39.244914645557721 ], [ -119.949788009921363, 39.244728213372468 ] ] ] } }
]
}
