{
"type": "FeatureCollection",
"name": "X02171",
"crs": { "type": "name", "properties": { "name": "urn:ogc:def:crs:OGC:1.3:CRS84" } },
"features": [
{ "type": "Feature", "properties": { "part": "direct", "crossing_id": "X02171", "area_ac": 2.4, "n_upstream": null }, "geometry": { "type": "MultiPolygon", "coordinates": [ [ [ [ -119.940710690858054, 39.257389920484137 ], [ -119.940733055971933, 39.257408525297322 ], [ -119.94070990797394, 39.257407916654238 ], [ -119.940710690858054, 39.257389920484137 ] ] ], [ [ [ -119.940688325755971, 39.257371315667058 ], [ -119.940710690858054, 39.257389920484137 ], [ -119.940687542866655, 39.257389311836853 ], [ -119.940688325755971, 39.257371315667058 ] ] ], [ [ [ -119.940665960665712, 39.257352710846064 ], [ -119.940688325755971, 39.257371315667058 ], [ -119.940665177771209, 39.257370707015554 ], [ -119.940665960665712, 39.257352710846064 ] ] ], [ [ [ -119.940643595587233, 39.257334106021219 ], [ -119.940665960665712, 39.257352710846064 ], [ -119.940642812687528, 39.257352102190367 ], [ -119.940643595587233, 39.257334106021219 ] ] ], [ [ [ -119.940770187998908, 39.256022211353937 ], [ -119.94079255271761, 39.256040816142928 ], [ -119.940769405168069, 39.256040207529303 ], [ -119.940770187998908, 39.256022211353937 ] ] ], [ [ [ -119.940571254690354, 39.255800779560431 ], [ -119.940770970829007, 39.256004215178542 ], [ -119.94069917967451, 39.256056377834952 ], [ -119.940711812109257, 39.256831430541176 ], [ -119.940617655097995, 39.256864988294687 ], [ -119.940795009164972, 39.257049819131126 ], [ -119.940700069011484, 39.257101373111873 ], [ -119.940643595587233, 39.257334106021219 ], [ -119.940081340338139, 39.256940968780853 ], [ -119.939581486130649, 39.25671162102082 ], [ -119.9396866071028, 39.256426117941317 ], [ -119.940454734463358, 39.255815732412643 ], [ -119.940571254690354, 39.255800779560431 ] ] ] ] } },
{ "type": "Feature", "properties": { "part": "upstream", "crossing_id": "X02171", "area_ac": 0.1, "n_upstream": 1.0 }, "geometry": { "type": "Polygon", "coordinates": [ [ [ -119.940770187998908, 39.256022211353937 ], [ -119.940859646944503, 39.256096630486539 ], [ -119.940853384444665, 39.256240599897609 ], [ -119.940727469327527, 39.256471507089465 ], [ -119.94069917967451, 39.256056377834952 ], [ -119.940770187998908, 39.256022211353937 ] ] ] } }
]
}
