{
"type": "FeatureCollection",
"name": "X02121",
"crs": { "type": "name", "properties": { "name": "urn:ogc:def:crs:OGC:1.3:CRS84" } },
"features": [
{ "type": "Feature", "properties": { "part": "direct", "crossing_id": "X02121", "area_ac": 0.9 }, "geometry": { "type": "Polygon", "coordinates": [ [ [ -119.948899703380832, 39.256127574612456 ], [ -119.949079420460038, 39.256258404675883 ], [ -119.949316091222599, 39.25667899634373 ], [ -119.94841019835836, 39.256727307966145 ], [ -119.948472892672726, 39.256350599804151 ], [ -119.94838654853686, 39.256204200991867 ], [ -119.948899703380832, 39.256127574612456 ] ] ] } }
]
}
