{
"type": "FeatureCollection",
"name": "X02196",
"crs": { "type": "name", "properties": { "name": "urn:ogc:def:crs:OGC:1.3:CRS84" } },
"features": [
{ "type": "Feature", "properties": { "part": "direct", "crossing_id": "X02196", "area_ac": 0.8, "n_upstream": null }, "geometry": { "type": "MultiPolygon", "coordinates": [ [ [ [ -119.946156065984482, 39.25580336123587 ], [ -119.946178432130637, 39.255821965042806 ], [ -119.94615528453663, 39.255821357502477 ], [ -119.946156065984482, 39.25580336123587 ] ] ], [ [ [ -119.946853619008806, 39.255749600322879 ], [ -119.946875985332213, 39.255768204002322 ], [ -119.946852837740792, 39.255767596601324 ], [ -119.946853619008806, 39.255749600322879 ] ] ], [ [ [ -119.946831252697194, 39.255730996639556 ], [ -119.946853619008806, 39.255749600322879 ], [ -119.946830471423979, 39.255748992917681 ], [ -119.946831252697194, 39.255730996639556 ] ] ], [ [ [ -119.9464650915954, 39.255090800506899 ], [ -119.946831252697194, 39.255730996639556 ], [ -119.946558169854285, 39.255615729781063 ], [ -119.946318099116027, 39.255807613919018 ], [ -119.946179213572563, 39.255803968775808 ], [ -119.946053613062105, 39.255494386957871 ], [ -119.94613555858578, 39.255208269332179 ], [ -119.9464650915954, 39.255090800506899 ] ] ] ] } },
{ "type": "Feature", "properties": { "part": "upstream", "crossing_id": "X02196", "area_ac": 0.5, "n_upstream": 2.0 }, "geometry": { "type": "MultiPolygon", "coordinates": [ [ [ [ -119.946875985332213, 39.255768204002322 ], [ -119.946615111223764, 39.255905492532989 ], [ -119.946688950128063, 39.256339832898952 ], [ -119.946550444191629, 39.256257292554807 ], [ -119.946552407568078, 39.256282199341847 ], [ -119.946177650688, 39.255839961309682 ], [ -119.94638988605945, 39.255755447616899 ], [ -119.94640589366, 39.255773263235831 ], [ -119.946558169854285, 39.255615729781063 ], [ -119.946875985332213, 39.255768204002322 ] ] ], [ [ [ -119.946551626208262, 39.256300195613598 ], [ -119.946552407568078, 39.256282199341847 ], [ -119.946574773968322, 39.256300803081317 ], [ -119.946551626208262, 39.256300195613598 ] ] ] ] } }
]
}
