{
"type": "FeatureCollection",
"name": "X02124",
"crs": { "type": "name", "properties": { "name": "urn:ogc:def:crs:OGC:1.3:CRS84" } },
"features": [
{ "type": "Feature", "properties": { "part": "direct", "crossing_id": "X02124", "area_ac": 0.2 }, "geometry": { "type": "Polygon", "coordinates": [ [ [ -119.945613016827807, 39.262437294115159 ], [ -119.945721729926348, 39.262602298882754 ], [ -119.945558117663339, 39.262634037228594 ], [ -119.945531840652208, 39.262705414416885 ], [ -119.945685290202974, 39.262907627198402 ], [ -119.94541530961088, 39.262720371816457 ], [ -119.945330528722479, 39.262537978350139 ], [ -119.945356805861465, 39.26246660121123 ], [ -119.945613016827807, 39.262437294115159 ] ] ] } }
]
}
