{
"type": "FeatureCollection",
"name": "X02127",
"crs": { "type": "name", "properties": { "name": "urn:ogc:def:crs:OGC:1.3:CRS84" } },
"features": [
{ "type": "Feature", "properties": { "part": "direct", "crossing_id": "X02127", "area_ac": 0.6 }, "geometry": { "type": "Polygon", "coordinates": [ [ [ -119.941138187912145, 39.252356466784782 ], [ -119.941226077624322, 39.252466877894157 ], [ -119.94145441127128, 39.252544947246633 ], [ -119.941493661151057, 39.252708129890017 ], [ -119.941737317449125, 39.252966769153744 ], [ -119.941686329258829, 39.253073529577506 ], [ -119.941312070799981, 39.253153775630381 ], [ -119.941197903031352, 39.25311474083567 ], [ -119.94117587171489, 39.252555641892357 ], [ -119.941064835608458, 39.252444622236595 ], [ -119.941138187912145, 39.252356466784782 ] ] ] } }
]
}
