{
"type": "FeatureCollection",
"name": "X02162",
"crs": { "type": "name", "properties": { "name": "urn:ogc:def:crs:OGC:1.3:CRS84" } },
"features": [
{ "type": "Feature", "properties": { "part": "direct", "crossing_id": "X02162", "area_ac": 1.1, "n_upstream": null }, "geometry": { "type": "Polygon", "coordinates": [ [ [ -119.936283125761122, 39.256354565507152 ], [ -119.936485182295414, 39.25650401974216 ], [ -119.936809248888679, 39.256512551920061 ], [ -119.936944215498144, 39.256606188838795 ], [ -119.936203902088963, 39.257109182530641 ], [ -119.935687185970309, 39.256735240223705 ], [ -119.936048514053496, 39.256420454540041 ], [ -119.936283125761122, 39.256354565507152 ] ] ] } },
{ "type": "Feature", "properties": { "part": "upstream", "crossing_id": "X02162", "area_ac": 16.5, "n_upstream": 8.0 }, "geometry": { "type": "MultiPolygon", "coordinates": [ [ [ [ -119.936708865051088, 39.257753064269785 ], [ -119.936709648967735, 39.257735068168124 ], [ -119.936732013075897, 39.257753673712585 ], [ -119.936708865051088, 39.257753064269785 ] ] ], [ [ [ -119.936776741327705, 39.257790884789891 ], [ -119.936799105471295, 39.257809490322686 ], [ -119.936821469626679, 39.257828095851629 ], [ -119.936843833793858, 39.257846701376664 ], [ -119.936866197972876, 39.257865306897855 ], [ -119.936857669738572, 39.257865082376121 ], [ -119.937180081524886, 39.258107787677595 ], [ -119.937078866752444, 39.258303307388822 ], [ -119.936916045396075, 39.258317037729107 ], [ -119.936724588264823, 39.258456131092572 ], [ -119.936542538152565, 39.258379270950194 ], [ -119.936929003191466, 39.258551596481219 ], [ -119.937918894968803, 39.258703769770904 ], [ -119.938346961090261, 39.258985285951113 ], [ -119.938819052342595, 39.260384996990368 ], [ -119.938392968876869, 39.260589986632688 ], [ -119.938030844493241, 39.260922775091736 ], [ -119.937915099024039, 39.260919728918125 ], [ -119.937691025229157, 39.260211178671909 ], [ -119.937362604043543, 39.259770132397151 ], [ -119.936909037182602, 39.259541991465909 ], [ -119.935988582103548, 39.259391638065779 ], [ -119.93605605059048, 39.258906962949794 ], [ -119.935859383444679, 39.258766658234201 ], [ -119.935875568461555, 39.25879410957976 ], [ -119.935806907594809, 39.258774284603369 ], [ -119.935849032564036, 39.258759273766991 ], [ -119.935796450124556, 39.258721760660848 ], [ -119.935785327616927, 39.25873768279758 ], [ -119.935786335848505, 39.258714544976506 ], [ -119.935741383535728, 39.258682475258595 ], [ -119.935658200820626, 39.25846408364842 ], [ -119.93494020478208, 39.257922686038334 ], [ -119.934895084034181, 39.257818544626474 ], [ -119.934873898220346, 39.257848872340041 ], [ -119.934875466996559, 39.257812880199111 ], [ -119.934892828000059, 39.257813337555532 ], [ -119.934877035769958, 39.257776888057847 ], [ -119.934877349524299, 39.257769689629562 ], [ -119.934853887777692, 39.257776278246055 ], [ -119.934676548220921, 39.257591438910907 ], [ -119.934568254367619, 39.256885933137475 ], [ -119.934576490949809, 39.256696974417103 ], [ -119.934551382220462, 39.256741354730728 ], [ -119.934568639738515, 39.256345441209156 ], [ -119.935068070727908, 39.256052313757564 ], [ -119.935335645037497, 39.256293579502938 ], [ -119.935573800175746, 39.256678203733991 ], [ -119.935799265081414, 39.256822270091732 ], [ -119.935799787830319, 39.256810272698885 ], [ -119.935822151407805, 39.256828878399801 ], [ -119.935809067924552, 39.256828533837229 ], [ -119.936250197693937, 39.25711040159576 ], [ -119.936377324732689, 39.257384000146523 ], [ -119.936708865051088, 39.257753064269785 ], [ -119.936731303822711, 39.257769955900081 ], [ -119.936732013075897, 39.257753673712585 ], [ -119.936754377195911, 39.257772279253189 ], [ -119.936776741327705, 39.257790884789891 ] ], [ [ -119.93673366579938, 39.257771733966251 ], [ -119.936753742605177, 39.257786847526468 ], [ -119.936754377195911, 39.257772279253189 ], [ -119.93673366579938, 39.257771733966251 ] ], [ [ -119.936758466560775, 39.257790403657857 ], [ -119.936776181398429, 39.257803739148898 ], [ -119.936776741327705, 39.257790884789891 ], [ -119.936758466560775, 39.257790403657857 ] ], [ [ -119.936783267335386, 39.257809073344639 ], [ -119.936798620202524, 39.257820630767384 ], [ -119.936799105471295, 39.257809490322686 ], [ -119.936783267335386, 39.257809073344639 ] ], [ [ -119.936808068123256, 39.257827743026624 ], [ -119.936821059017376, 39.257837522381912 ], [ -119.936821469626679, 39.257828095851629 ], [ -119.936808068123256, 39.257827743026624 ] ], [ [ -119.93683286892427, 39.257846412703756 ], [ -119.936843497843043, 39.257854413992483 ], [ -119.936843833793858, 39.257846701376664 ], [ -119.93683286892427, 39.257846412703756 ] ], [ [ -119.934667455551306, 39.256660763673622 ], [ -119.934601599645944, 39.256652594096515 ], [ -119.934592632258273, 39.256668444211797 ], [ -119.934667455551306, 39.256660763673622 ] ], [ [ -119.934978638260489, 39.257040878461652 ], [ -119.934785996225514, 39.256675468819921 ], [ -119.934725712713075, 39.256667990576631 ], [ -119.934978638260489, 39.257040878461652 ] ], [ [ -119.935332372333647, 39.257343611754301 ], [ -119.935226989364352, 39.257191554391014 ], [ -119.935068092008038, 39.257115301848494 ], [ -119.935092808411738, 39.257079919456373 ], [ -119.935069660644018, 39.257079309696472 ], [ -119.935070444960971, 39.257061313620298 ], [ -119.935092808411738, 39.257079919456373 ], [ -119.935105166604004, 39.257062228257858 ], [ -119.935093592722808, 39.25706192337983 ], [ -119.935094377033138, 39.257043927303243 ], [ -119.934978638260489, 39.257040878461652 ], [ -119.935332372333647, 39.257343611754301 ] ], [ [ -119.935109285999971, 39.257056331191343 ], [ -119.935117524789788, 39.257044537057787 ], [ -119.935094377033138, 39.257043927303243 ], [ -119.935109285999971, 39.257056331191343 ] ], [ [ -119.934912542136487, 39.257759806695617 ], [ -119.934887404557301, 39.257766865935281 ], [ -119.934892729225822, 39.257771295906174 ], [ -119.934924116130446, 39.257760111596156 ], [ -119.934912542136487, 39.257759806695617 ] ], [ [ -119.934942948268585, 39.257753401005886 ], [ -119.934971196469363, 39.25774333511449 ], [ -119.934939203200074, 39.25775231961709 ], [ -119.934942948268585, 39.257753401005886 ] ] ], [ [ [ -119.935897932657184, 39.258812715286375 ], [ -119.935874784302129, 39.25881210566412 ], [ -119.935875568461555, 39.25879410957976 ], [ -119.935897932657184, 39.258812715286375 ] ] ], [ [ [ -119.934831524183593, 39.257757672359695 ], [ -119.934853495581663, 39.257785276281183 ], [ -119.934853887777692, 39.257776278246055 ], [ -119.934876251383599, 39.257794884128494 ], [ -119.934860819384724, 39.257794477587545 ], [ -119.934875466996559, 39.257812880199111 ], [ -119.934829170989147, 39.257811660569367 ], [ -119.934831524183593, 39.257757672359695 ] ] ] ] } }
]
}
