{
"type": "FeatureCollection",
"name": "X02179",
"crs": { "type": "name", "properties": { "name": "urn:ogc:def:crs:OGC:1.3:CRS84" } },
"features": [
{ "type": "Feature", "properties": { "part": "direct", "crossing_id": "X02179", "area_ac": 0.5, "n_upstream": null }, "geometry": { "type": "Polygon", "coordinates": [ [ [ -119.949806734798884, 39.244296300667905 ], [ -119.950024131113366, 39.244626301727095 ], [ -119.950298738811171, 39.244705566436068 ], [ -119.950337226148818, 39.24488674328861 ], [ -119.950240749292064, 39.2449742988127 ], [ -119.950330205439556, 39.245048710621127 ], [ -119.950302380757833, 39.245156082260721 ], [ -119.950034792740482, 39.244914850210186 ], [ -119.950110466085675, 39.244772699148655 ], [ -119.949969261315871, 39.2448230484733 ], [ -119.949613781295355, 39.244471410772157 ], [ -119.949806734798884, 39.244296300667905 ] ] ] } },
{ "type": "Feature", "properties": { "part": "upstream", "crossing_id": "X02179", "area_ac": 1.9, "n_upstream": 3.0 }, "geometry": { "type": "Polygon", "coordinates": [ [ [ -119.94988292658941, 39.244676650957118 ], [ -119.949965479226847, 39.244835276632394 ], [ -119.950110466085675, 39.244772699148655 ], [ -119.950034792740482, 39.244914850210186 ], [ -119.950278456482806, 39.245173472045899 ], [ -119.949545381398281, 39.245514592787117 ], [ -119.949700369049808, 39.245680807048558 ], [ -119.949393250014225, 39.245816890278405 ], [ -119.949380250112782, 39.245582330930574 ], [ -119.949366203888161, 39.245906265262249 ], [ -119.949220313964318, 39.24606459165453 ], [ -119.949034377926651, 39.246077733388915 ], [ -119.948859368623758, 39.24583892603011 ], [ -119.94921511852003, 39.245650068826286 ], [ -119.949191461062085, 39.245126961070724 ], [ -119.949335007961906, 39.245022623679084 ], [ -119.949339689962613, 39.244914645557721 ], [ -119.949596420476524, 39.244807885470095 ], [ -119.949556569702494, 39.244722146363102 ], [ -119.949768766975154, 39.244637624883929 ], [ -119.94988292658941, 39.244676650957118 ] ], [ [ -119.949690752401622, 39.244833764784481 ], [ -119.949723773003015, 39.244953478131812 ], [ -119.94972801153861, 39.244949839189317 ], [ -119.949690752401622, 39.244833764784481 ] ], [ [ -119.949466069612086, 39.245206227780429 ], [ -119.949522237120036, 39.245513986048508 ], [ -119.949494049187919, 39.245182206483832 ], [ -119.949466069612086, 39.245206227780429 ] ] ] } }
]
}
