{
"type": "FeatureCollection",
"name": "X02117",
"crs": { "type": "name", "properties": { "name": "urn:ogc:def:crs:OGC:1.3:CRS84" } },
"features": [
{ "type": "Feature", "properties": { "part": "direct", "crossing_id": "X02117", "area_ac": 0.9 }, "geometry": { "type": "Polygon", "coordinates": [ [ [ -119.935466537989811, 39.251162254653941 ], [ -119.935694860356804, 39.25124033491268 ], [ -119.936003224099565, 39.251608790527214 ], [ -119.935632104345956, 39.251617033945905 ], [ -119.934938913458723, 39.252103244726122 ], [ -119.934775322069271, 39.252134968719226 ], [ -119.934871043534514, 39.252065423357315 ], [ -119.934811016094713, 39.251847641075692 ], [ -119.935481059284001, 39.251360821370767 ], [ -119.935466537989811, 39.251162254653941 ] ] ] } }
]
}
