{
"type": "FeatureCollection",
"name": "X02170",
"crs": { "type": "name", "properties": { "name": "urn:ogc:def:crs:OGC:1.3:CRS84" } },
"features": [
{ "type": "Feature", "properties": { "part": "direct", "crossing_id": "X02170", "area_ac": 1.8, "n_upstream": null }, "geometry": { "type": "Polygon", "coordinates": [ [ [ -119.92893942378555, 39.237189335950774 ], [ -119.929051202773323, 39.237282369689204 ], [ -119.929020993836616, 39.237443723300785 ], [ -119.929208479117548, 39.23739462072195 ], [ -119.929622664812314, 39.237459600216212 ], [ -119.929684236940659, 39.237641392425736 ], [ -119.929588531195449, 39.237710934239608 ], [ -119.92958067938487, 39.237890894671786 ], [ -119.929301412827911, 39.237919559159401 ], [ -119.9290025126449, 39.238398123777067 ], [ -119.928769526914081, 39.238428008339874 ], [ -119.928574969437165, 39.238639074297097 ], [ -119.928584394935527, 39.238423122009287 ], [ -119.928679317207184, 39.238371577133115 ], [ -119.928545966570411, 39.238241940141108 ], [ -119.92851539297331, 39.237880798017599 ], [ -119.928754660096729, 39.237706945660349 ], [ -119.92893942378555, 39.237189335950774 ] ] ] } },
{ "type": "Feature", "properties": { "part": "upstream", "crossing_id": "X02170", "area_ac": 62.0, "n_upstream": 6.0 }, "geometry": { "type": "Polygon", "coordinates": [ [ [ -119.928613034549741, 39.238297760641515 ], [ -119.928678531778544, 39.238389573159232 ], [ -119.928584394935527, 39.238423122009287 ], [ -119.928634183295131, 39.23887485503522 ], [ -119.928558791749012, 39.238956643020195 ], [ -119.928601616083611, 39.239090196503753 ], [ -119.928500408780735, 39.239285709434981 ], [ -119.928637688520169, 39.239325366422747 ], [ -119.928766328633458, 39.239562979521878 ], [ -119.928415272970611, 39.239643797270766 ], [ -119.927961435458371, 39.239956118294991 ], [ -119.927963792423114, 39.239902130267296 ], [ -119.927939079135598, 39.239937511330638 ], [ -119.928202642181304, 39.24026877072162 ], [ -119.92764287295266, 39.240884578663305 ], [ -119.927480091185515, 39.2408982973486 ], [ -119.927288666095919, 39.241037376670043 ], [ -119.927487517341063, 39.241258828362938 ], [ -119.927225878024174, 39.241414070309958 ], [ -119.927491800159487, 39.241691343344542 ], [ -119.927790296051924, 39.24175327485716 ], [ -119.928033079025084, 39.242029935762389 ], [ -119.928029936236996, 39.242101919777504 ], [ -119.927696509206882, 39.242309317756231 ], [ -119.928217793468974, 39.242575314461419 ], [ -119.928608079775444, 39.242657683762232 ], [ -119.928117365163686, 39.242752830714046 ], [ -119.927973793343867, 39.242857140883544 ], [ -119.927271211675475, 39.243559259796669 ], [ -119.927142134451813, 39.243862135777881 ], [ -119.926662761490078, 39.244227826994319 ], [ -119.925958580037701, 39.244965928701326 ], [ -119.925192030835518, 39.245540227256974 ], [ -119.924944861561428, 39.245894030076961 ], [ -119.924438385569218, 39.246349079039909 ], [ -119.923051169705701, 39.247339357216553 ], [ -119.922072023240972, 39.247475611109913 ], [ -119.922312126944689, 39.247283778294758 ], [ -119.922319212656859, 39.247121815273886 ], [ -119.922560888909203, 39.246893990071065 ], [ -119.922792801252982, 39.246359621906187 ], [ -119.922939687609627, 39.245120352619978 ], [ -119.92303698425215, 39.245014825195533 ], [ -119.923104521263454, 39.244530159559652 ], [ -119.923148593554714, 39.243522388332707 ], [ -119.923526427858903, 39.242829726121599 ], [ -119.923587663694974, 39.242489027249128 ], [ -119.923759104350992, 39.242277358957161 ], [ -119.923868197016915, 39.241901891597294 ], [ -119.924061204374624, 39.241726826411352 ], [ -119.924238148190497, 39.241389185676596 ], [ -119.924268370310074, 39.241227833904027 ], [ -119.92416209863255, 39.24100882403431 ], [ -119.92446609422737, 39.240944792242871 ], [ -119.924948149012749, 39.241047615878209 ], [ -119.925083070578083, 39.241141264977351 ], [ -119.925179571825552, 39.241053731310217 ], [ -119.925114077041144, 39.240961916940286 ], [ -119.925328648194338, 39.240823452849774 ], [ -119.925441213965698, 39.240898494085606 ], [ -119.925880130428425, 39.240928107086837 ], [ -119.926014266903707, 39.24103975111921 ], [ -119.926336686945902, 39.241084301584941 ], [ -119.926699890052959, 39.241256045506049 ], [ -119.926755606806466, 39.241041316118768 ], [ -119.926463403509956, 39.240835414252835 ], [ -119.925959777712478, 39.24069599356126 ], [ -119.925613536713669, 39.239605841660783 ], [ -119.925289551323544, 39.239597281397316 ], [ -119.925015781658345, 39.239499963509743 ], [ -119.924511835792799, 39.238838042735914 ], [ -119.924587552307329, 39.238695909942138 ], [ -119.924838963142378, 39.238774621185399 ], [ -119.924821326583199, 39.238648037905804 ], [ -119.924916251726344, 39.238596496224815 ], [ -119.925008031246151, 39.238616938314365 ], [ -119.925071164824715, 39.238762740575808 ], [ -119.925234728188158, 39.238731029114497 ], [ -119.925232369229832, 39.238785017014635 ], [ -119.92562420307884, 39.238831403463763 ], [ -119.92576619721693, 39.23876308789746 ], [ -119.926229814321914, 39.238757318476118 ], [ -119.926258458271064, 39.238631957866232 ], [ -119.926444376400696, 39.238618851927832 ], [ -119.926440446360914, 39.23870883186509 ], [ -119.926466731912697, 39.238637459150901 ], [ -119.926904063228761, 39.238703059738874 ], [ -119.927144908698722, 39.238493218987685 ], [ -119.927211975739425, 39.238549040259549 ], [ -119.927816012096045, 39.238510938858703 ], [ -119.928213345564828, 39.238431344485001 ], [ -119.928474185838709, 39.238294095744685 ], [ -119.928613034549741, 39.238297760641515 ] ], [ [ -119.928412361548737, 39.239198167073901 ], [ -119.92843569654633, 39.239175900785646 ], [ -119.928450621166292, 39.238833976401644 ], [ -119.928412361548737, 39.239198167073901 ] ], [ [ -119.928369065859528, 39.239176394078171 ], [ -119.928385410290247, 39.239223883979129 ], [ -119.928404378519815, 39.239205784487062 ], [ -119.928369065859528, 39.239176394078171 ] ], [ [ -119.928199205568788, 39.238755272799679 ], [ -119.927620665907057, 39.238739999102506 ], [ -119.928203878314775, 39.238772234238375 ], [ -119.928199205568788, 39.238755272799679 ] ], [ [ -119.927039769112639, 39.23877871052855 ], [ -119.927446317165249, 39.238860317491273 ], [ -119.927474080235129, 39.238841158192095 ], [ -119.927039769112639, 39.23877871052855 ] ], [ [ -119.925939880729246, 39.239560413096342 ], [ -119.926004706842605, 39.239526655158592 ], [ -119.925686057637563, 39.239595746504854 ], [ -119.925939880729246, 39.239560413096342 ] ], [ [ -119.927978719719434, 39.239560206077506 ], [ -119.92798432795054, 39.239604286607502 ], [ -119.928245849286441, 39.239278989944374 ], [ -119.927978719719434, 39.239560206077506 ] ], [ [ -119.928012860390112, 39.239308872858736 ], [ -119.927974433175493, 39.2391276908645 ], [ -119.927960403965102, 39.239449048209011 ], [ -119.927982647913083, 39.239470226023414 ], [ -119.928012860390112, 39.239308872858736 ] ] ] } }
]
}
