{
"type": "FeatureCollection",
"name": "X02191",
"crs": { "type": "name", "properties": { "name": "urn:ogc:def:crs:OGC:1.3:CRS84" } },
"features": [
{ "type": "Feature", "properties": { "part": "direct", "crossing_id": "X02191", "area_ac": 0.1 }, "geometry": { "type": "Polygon", "coordinates": [ [ [ -119.931778343373168, 39.23584089908168 ], [ -119.932007397039854, 39.235900988539626 ], [ -119.932027399762163, 39.235973582995292 ], [ -119.93179599215182, 39.235967481826378 ], [ -119.931778343373168, 39.23584089908168 ] ] ] } }
]
}
