{
"type": "FeatureCollection",
"name": "X02104",
"crs": { "type": "name", "properties": { "name": "urn:ogc:def:crs:OGC:1.3:CRS84" } },
"features": [
{ "type": "Feature", "properties": { "part": "direct", "crossing_id": "X02104", "area_ac": 0.4 }, "geometry": { "type": "MultiPolygon", "coordinates": [ [ [ [ -119.945112383455722, 39.272891880233082 ], [ -119.945134754458934, 39.272910484396959 ], [ -119.945111601265879, 39.272909876429203 ], [ -119.945112383455722, 39.272891880233082 ] ] ], [ [ [ -119.945136318826073, 39.272874492003872 ], [ -119.945158689830691, 39.272893096163237 ], [ -119.945135536642852, 39.272892488200462 ], [ -119.945136318826073, 39.272874492003872 ] ] ], [ [ [ -119.945676188522384, 39.272186014061681 ], [ -119.945737827311433, 39.272367799672942 ], [ -119.945551821048753, 39.272380933022532 ], [ -119.945159472007987, 39.272875099966271 ], [ -119.945281023936843, 39.272211672375761 ], [ -119.945676188522384, 39.272186014061681 ] ] ] ] } }
]
}
