{
"type": "FeatureCollection",
"name": "X02131",
"crs": { "type": "name", "properties": { "name": "urn:ogc:def:crs:OGC:1.3:CRS84" } },
"features": [
{ "type": "Feature", "properties": { "part": "direct", "crossing_id": "X02131", "area_ac": 0.1 }, "geometry": { "type": "Polygon", "coordinates": [ [ [ -119.940978851549971, 39.255487194745783 ], [ -119.94106909282398, 39.255543617523685 ], [ -119.941151507017068, 39.255780002065734 ], [ -119.940903929960854, 39.255611342277611 ], [ -119.940978851549971, 39.255487194745783 ] ] ] } }
]
}
