{
"type": "FeatureCollection",
"name": "X02190",
"crs": { "type": "name", "properties": { "name": "urn:ogc:def:crs:OGC:1.3:CRS84" } },
"features": [
{ "type": "Feature", "properties": { "part": "direct", "crossing_id": "X02190", "area_ac": 0.1 }, "geometry": { "type": "Polygon", "coordinates": [ [ [ -119.928243132107895, 39.238810482624139 ], [ -119.928387056493023, 39.239228667134533 ], [ -119.927976362794809, 39.239614194109095 ], [ -119.928245849286441, 39.239278989944374 ], [ -119.928243132107895, 39.238810482624139 ] ] ] } }
]
}
