{
"type": "FeatureCollection",
"name": "X02187",
"crs": { "type": "name", "properties": { "name": "urn:ogc:def:crs:OGC:1.3:CRS84" } },
"features": [
{ "type": "Feature", "properties": { "part": "direct", "crossing_id": "X02187", "area_ac": 0.3 }, "geometry": { "type": "Polygon", "coordinates": [ [ [ -119.940171181978855, 39.25274542667789 ], [ -119.940274388356372, 39.253036408911477 ], [ -119.940168492796772, 39.25333990913289 ], [ -119.93996565371242, 39.253208457449901 ], [ -119.940086867205466, 39.253085527879144 ], [ -119.939909524395731, 39.252900696322179 ], [ -119.939937368627795, 39.252793328039303 ], [ -119.940171181978855, 39.25274542667789 ] ] ] } }
]
}
