{
"type": "FeatureCollection",
"name": "X02133",
"crs": { "type": "name", "properties": { "name": "urn:ogc:def:crs:OGC:1.3:CRS84" } },
"features": [
{ "type": "Feature", "properties": { "part": "direct", "crossing_id": "X02133", "area_ac": 0.5, "n_upstream": null }, "geometry": { "type": "MultiPolygon", "coordinates": [ [ [ [ -119.941506996525376, 39.256131665637639 ], [ -119.941551726449092, 39.256168874945772 ], [ -119.941505431233665, 39.256167658012401 ], [ -119.941506996525376, 39.256131665637639 ] ] ], [ [ [ -119.941484631581233, 39.256113060977775 ], [ -119.941506996525376, 39.256131665637639 ], [ -119.941483848930503, 39.256131057164843 ], [ -119.941484631581233, 39.256113060977775 ] ] ], [ [ [ -119.941167944113673, 39.255402082217017 ], [ -119.941413955828438, 39.255606733819171 ], [ -119.94153718784581, 39.255970308412628 ], [ -119.941484631581233, 39.256113060977775 ], [ -119.94114681064697, 39.255887979159766 ], [ -119.94106909282398, 39.255543617523685 ], [ -119.940978068787402, 39.255505190926279 ], [ -119.941004347188041, 39.255433814767493 ], [ -119.941167944113673, 39.255402082217017 ] ] ] ] } },
{ "type": "Feature", "properties": { "part": "upstream", "crossing_id": "X02133", "area_ac": 0.1, "n_upstream": 1.0 }, "geometry": { "type": "Polygon", "coordinates": [ [ [ -119.940978851549971, 39.255487194745783 ], [ -119.94106909282398, 39.255543617523685 ], [ -119.941151507017068, 39.255780002065734 ], [ -119.940903929960854, 39.255611342277611 ], [ -119.940978851549971, 39.255487194745783 ] ] ] } }
]
}
