{
"type": "FeatureCollection",
"name": "X02116",
"crs": { "type": "name", "properties": { "name": "urn:ogc:def:crs:OGC:1.3:CRS84" } },
"features": [
{ "type": "Feature", "properties": { "part": "direct", "crossing_id": "X02116", "area_ac": 1.1, "n_upstream": null }, "geometry": { "type": "Polygon", "coordinates": [ [ [ -119.944657000888611, 39.268970289454494 ], [ -119.94516556049247, 39.269001660765596 ], [ -119.945187620240702, 39.269560759047785 ], [ -119.944851758535876, 39.269822190859067 ], [ -119.944493840044316, 39.269524523428849 ], [ -119.944491026500913, 39.269056014262745 ], [ -119.944657000888611, 39.268970289454494 ] ] ] } },
{ "type": "Feature", "properties": { "part": "upstream", "crossing_id": "X02116", "area_ac": 0.2, "n_upstream": 1.0 }, "geometry": { "type": "Polygon", "coordinates": [ [ [ -119.944808582920047, 39.269748990083279 ], [ -119.944850976364748, 39.269840187060311 ], [ -119.944606156611087, 39.270140042352104 ], [ -119.944272636944689, 39.270347483697464 ], [ -119.944352263987795, 39.270115357498284 ], [ -119.944808582920047, 39.269748990083279 ] ] ] } }
]
}
