{
"type": "FeatureCollection",
"name": "X02168",
"crs": { "type": "name", "properties": { "name": "urn:ogc:def:crs:OGC:1.3:CRS84" } },
"features": [
{ "type": "Feature", "properties": { "part": "direct", "crossing_id": "X02168", "area_ac": 1.9, "n_upstream": null }, "geometry": { "type": "MultiPolygon", "coordinates": [ [ [ [ -119.930653487168897, 39.235072547459282 ], [ -119.930790760219736, 39.235112201652065 ], [ -119.930789975421533, 39.235130197723961 ], [ -119.93055700113382, 39.235160086341516 ], [ -119.930653487168897, 39.235072547459282 ] ] ], [ [ [ -119.931522237613194, 39.234807190107432 ], [ -119.93199092684587, 39.235215916896237 ], [ -119.93231646294474, 39.235188465531245 ], [ -119.932287831502109, 39.235313828180118 ], [ -119.932356468762009, 39.235333654358151 ], [ -119.93211408063145, 39.235579499231683 ], [ -119.932002299958143, 39.235486468361053 ], [ -119.931794819102208, 39.235462981253747 ], [ -119.931811683309817, 39.235607560088056 ], [ -119.931719120756938, 39.235605119523072 ], [ -119.931689703455191, 39.235748478053452 ], [ -119.931550074746511, 39.23576281310487 ], [ -119.931521441649181, 39.235888175491091 ], [ -119.930908414117553, 39.23560175751966 ], [ -119.931158653471897, 39.235175954554393 ], [ -119.930790760219736, 39.235112201652065 ], [ -119.931350839261839, 39.235018871725238 ], [ -119.931308481701777, 39.234927670878847 ], [ -119.931522237613194, 39.234807190107432 ] ] ] ] } },
{ "type": "Feature", "properties": { "part": "upstream", "crossing_id": "X02168", "area_ac": 1.6, "n_upstream": 4.0 }, "geometry": { "type": "Polygon", "coordinates": [ [ [ -119.93120141123029, 39.234726662829111 ], [ -119.931378687563452, 39.234911505445474 ], [ -119.931205779880528, 39.234915341931902 ], [ -119.931350839261839, 39.235018871725238 ], [ -119.93104765946039, 39.235064926758859 ], [ -119.931007656491303, 39.234919737588925 ], [ -119.931001378572219, 39.235063706196023 ], [ -119.930790760219736, 39.235112201652065 ], [ -119.930631131567864, 39.235053941032405 ], [ -119.930509542897525, 39.235185859681735 ], [ -119.930674273127096, 39.235127146022251 ], [ -119.931158653471897, 39.235175954554393 ], [ -119.93107981529343, 39.235390076681178 ], [ -119.930985683577731, 39.235423627694459 ], [ -119.930980569983134, 39.235419843865543 ], [ -119.930882919134575, 39.235655135421581 ], [ -119.93056287466321, 39.235556610198493 ], [ -119.930341672737541, 39.235316557351815 ], [ -119.930414846338678, 39.235195303142184 ], [ -119.930359129838905, 39.235181892080305 ], [ -119.930370307619512, 39.235191195319601 ], [ -119.930347167148298, 39.235190584904267 ], [ -119.930347666638482, 39.235179132863408 ], [ -119.930233034687006, 39.235151540634199 ], [ -119.930265594318698, 39.234936198313662 ], [ -119.930582116258918, 39.234584212136284 ], [ -119.931060999784279, 39.234758993450271 ], [ -119.93120141123029, 39.234726662829111 ] ], [ [ -119.930485225107802, 39.23521224339386 ], [ -119.9304243515151, 39.235197591052135 ], [ -119.930641714612634, 39.235342488497203 ], [ -119.930494426435828, 39.235202260368354 ], [ -119.930485225107802, 39.23521224339386 ] ] ] } }
]
}
