{
"type": "FeatureCollection",
"name": "X02135",
"crs": { "type": "name", "properties": { "name": "urn:ogc:def:crs:OGC:1.3:CRS84" } },
"features": [
{ "type": "Feature", "properties": { "part": "direct", "crossing_id": "X02135", "area_ac": 0.0, "n_upstream": null }, "geometry": { "type": "Polygon", "coordinates": [ [ [ -119.945618381558262, 39.256978354746082 ], [ -119.945615255082231, 39.2570503397613 ], [ -119.945520318208096, 39.257101897817471 ], [ -119.945478712142304, 39.256992704929601 ], [ -119.945618381558262, 39.256978354746082 ] ] ] } },
{ "type": "Feature", "properties": { "part": "upstream", "crossing_id": "X02135", "area_ac": 3.4, "n_upstream": 4.0 }, "geometry": { "type": "Polygon", "coordinates": [ [ [ -119.945986404475718, 39.257042065565983 ], [ -119.946000955711909, 39.257240632014899 ], [ -119.945831885185768, 39.257398345070193 ], [ -119.945991577336471, 39.257456587124587 ], [ -119.94598845118891, 39.257528572158975 ], [ -119.945840964939691, 39.257722885302996 ], [ -119.945931213117504, 39.257779304554994 ], [ -119.945919489640403, 39.258049248398009 ], [ -119.946044311837227, 39.258376826657312 ], [ -119.946011003151526, 39.258610170384536 ], [ -119.945650487445448, 39.258906991994408 ], [ -119.94544293181221, 39.258883526419218 ], [ -119.945399846392434, 39.258784122004975 ], [ -119.945400543270438, 39.258792329740302 ], [ -119.945100393922829, 39.258766432610983 ], [ -119.945014054335402, 39.258620031505956 ], [ -119.945108993677692, 39.258568473970094 ], [ -119.945237548188459, 39.257743077871972 ], [ -119.945240386467873, 39.257740502865289 ], [ -119.945122588933657, 39.257722042822436 ], [ -119.945112040193365, 39.257556105173727 ], [ -119.94508020141771, 39.257630846055015 ], [ -119.945098182019279, 39.257216932450618 ], [ -119.945217830806669, 39.257129990013858 ], [ -119.945449310879113, 39.257136067242214 ], [ -119.945504173842835, 39.257172617141414 ], [ -119.945494825248204, 39.257155278884106 ], [ -119.945640747909096, 39.256996958662327 ], [ -119.945986404475718, 39.257042065565983 ] ], [ [ -119.945431394368114, 39.258567111141751 ], [ -119.94538521197768, 39.2586117595609 ], [ -119.945392366574893, 39.258696025645087 ], [ -119.945431394368114, 39.258567111141751 ] ], [ [ -119.945618260285059, 39.258581844149482 ], [ -119.945457784278872, 39.258541597749975 ], [ -119.945439122843993, 39.258559639363455 ], [ -119.945618260285059, 39.258581844149482 ] ], [ [ -119.945619376759979, 39.25738627611269 ], [ -119.945502926409063, 39.257502314405208 ], [ -119.945623138101382, 39.257393251992944 ], [ -119.945619376759979, 39.25738627611269 ] ], [ [ -119.945530527471433, 39.257221493531098 ], [ -119.945209231797818, 39.257327948723841 ], [ -119.945514065016809, 39.257245867830527 ], [ -119.94556774440251, 39.257290517274804 ], [ -119.945530527471433, 39.257221493531098 ] ] ] } }
]
}
