{
"type": "FeatureCollection",
"name": "X02205",
"crs": { "type": "name", "properties": { "name": "urn:ogc:def:crs:OGC:1.3:CRS84" } },
"features": [
{ "type": "Feature", "properties": { "part": "direct", "crossing_id": "X02205", "area_ac": 0.1 }, "geometry": { "type": "Polygon", "coordinates": [ [ [ -119.936863179417898, 39.252081851506333 ], [ -119.936923997148384, 39.252281636857653 ], [ -119.936802779816659, 39.25240456298188 ], [ -119.936687048486135, 39.252401516137589 ], [ -119.936626231355831, 39.252201730688355 ], [ -119.936863179417898, 39.252081851506333 ] ] ] } }
]
}
