{
"type": "FeatureCollection",
"name": "X02223",
"crs": { "type": "name", "properties": { "name": "urn:ogc:def:crs:OGC:1.3:CRS84" } },
"features": [
{ "type": "Feature", "properties": { "part": "direct", "crossing_id": "X02223", "area_ac": 0.0, "n_upstream": null }, "geometry": { "type": "Polygon", "coordinates": [ [ [ -119.946402405326396, 39.273610383281799 ], [ -119.946376906216372, 39.273663764202468 ], [ -119.946261138884353, 39.273660725504143 ], [ -119.946261920801007, 39.273642729291019 ], [ -119.946402405326396, 39.273610383281799 ] ] ] } },
{ "type": "Feature", "properties": { "part": "upstream", "crossing_id": "X02223", "area_ac": 4.1, "n_upstream": 2.0 }, "geometry": { "type": "Polygon", "coordinates": [ [ [ -119.946034772232153, 39.27406916836042 ], [ -119.945957491377925, 39.274247307000671 ], [ -119.946019914366758, 39.274411096300454 ], [ -119.945731902965363, 39.274637752885418 ], [ -119.945725337436173, 39.275322216361786 ], [ -119.945529155325289, 39.275569299917315 ], [ -119.945350180345855, 39.275420466863629 ], [ -119.94495969122849, 39.275338146222055 ], [ -119.944853309157068, 39.275119151792858 ], [ -119.944537760788421, 39.27491268066585 ], [ -119.944547149450202, 39.274696726497744 ], [ -119.94480575253472, 39.274613434450316 ], [ -119.944767268283726, 39.274432256482918 ], [ -119.944983474128193, 39.274257766925466 ], [ -119.945022272712748, 39.273898451118953 ], [ -119.945165104838722, 39.273812118069294 ], [ -119.946353752748593, 39.273663156472004 ], [ -119.946034772232153, 39.27406916836042 ] ], [ [ -119.94515149435901, 39.274658547108046 ], [ -119.945126776119878, 39.274693931502938 ], [ -119.945187867676893, 39.274642178432806 ], [ -119.94515149435901, 39.274658547108046 ] ] ] } }
]
}
