{
"type": "FeatureCollection",
"name": "X02210",
"crs": { "type": "name", "properties": { "name": "urn:ogc:def:crs:OGC:1.3:CRS84" } },
"features": [
{ "type": "Feature", "properties": { "part": "direct", "crossing_id": "X02210", "area_ac": 2.2 }, "geometry": { "type": "Polygon", "coordinates": [ [ [ -119.946251486827947, 39.256274301848585 ], [ -119.946475150503133, 39.256460339615117 ], [ -119.946470462185516, 39.256568317233473 ], [ -119.946630934429891, 39.256608562092445 ], [ -119.946692564678884, 39.25679034717556 ], [ -119.946877748092604, 39.256795206615045 ], [ -119.947305553350787, 39.257617186610879 ], [ -119.946963799324095, 39.257482102114338 ], [ -119.946432954737531, 39.257432138091275 ], [ -119.946224136132912, 39.256904171142835 ], [ -119.945832184183729, 39.256857849734551 ], [ -119.945861584518795, 39.256714487283865 ], [ -119.945654035218823, 39.256691022329989 ], [ -119.945692814840072, 39.25633170485105 ], [ -119.946251486827947, 39.256274301848585 ] ] ] } }
]
}
