{
"type": "FeatureCollection",
"name": "X02212",
"crs": { "type": "name", "properties": { "name": "urn:ogc:def:crs:OGC:1.3:CRS84" } },
"features": [
{ "type": "Feature", "properties": { "part": "direct", "crossing_id": "X02212", "area_ac": 11.9, "n_upstream": null }, "geometry": { "type": "MultiPolygon", "coordinates": [ [ [ [ -119.93513000269968, 39.253567634764202 ], [ -119.935152365115655, 39.253586240555123 ], [ -119.935129218495433, 39.253585630852186 ], [ -119.93513000269968, 39.253567634764202 ] ] ], [ [ [ -119.935107640295513, 39.253549028969452 ], [ -119.93513000269968, 39.253567634764202 ], [ -119.935106856086037, 39.253567025057052 ], [ -119.935107640295513, 39.253549028969452 ] ] ], [ [ [ -119.932035870245159, 39.250657463240657 ], [ -119.932846355312719, 39.251201316099035 ], [ -119.933333593938016, 39.251718627609144 ], [ -119.934011112481443, 39.252655336338741 ], [ -119.934411274132245, 39.253044231715059 ], [ -119.935128434290434, 39.25360362694007 ], [ -119.936015473585471, 39.253987324012996 ], [ -119.936306190747374, 39.254229196951393 ], [ -119.936478823544007, 39.254522010374529 ], [ -119.936056690470437, 39.25463701225047 ], [ -119.935982545416564, 39.254743160219874 ], [ -119.935342676649668, 39.255068626343906 ], [ -119.934847558020991, 39.254731282807121 ], [ -119.933556819176857, 39.253508168155207 ], [ -119.933183729837793, 39.253029899752711 ], [ -119.932976981789068, 39.252988416697526 ], [ -119.93300562127466, 39.252863054441782 ], [ -119.932894598130318, 39.252752027478998 ], [ -119.932541137759713, 39.251823856013424 ], [ -119.93186914138937, 39.250761167404278 ], [ -119.932035870245159, 39.250657463240657 ] ] ] ] } },
{ "type": "Feature", "properties": { "part": "upstream", "crossing_id": "X02212", "area_ac": 0.0, "n_upstream": 1.0 }, "geometry": { "type": "MultiPolygon", "coordinates": [ [ [ [ -119.934949535304298, 39.253454780467962 ], [ -119.934950319550865, 39.253436784382643 ], [ -119.934972681877625, 39.25345539020492 ], [ -119.934949535304298, 39.253454780467962 ] ] ], [ [ [ -119.934972681877625, 39.25345539020492 ], [ -119.934995044216194, 39.253473996023303 ], [ -119.934971897636274, 39.253473386290544 ], [ -119.934972681877625, 39.25345539020492 ] ] ], [ [ [ -119.934995044216194, 39.253473996023303 ], [ -119.935017406566573, 39.253492601837841 ], [ -119.934994259980044, 39.253491992109296 ], [ -119.934995044216194, 39.253473996023303 ] ] ], [ [ [ -119.935106856086037, 39.253567025057052 ], [ -119.93501662233561, 39.253510597924112 ], [ -119.935108424504278, 39.253531032881718 ], [ -119.935106856086037, 39.253567025057052 ] ] ], [ [ [ -119.935106856086037, 39.253567025057052 ], [ -119.935129218495433, 39.253585630852186 ], [ -119.935106071875865, 39.253585021144652 ], [ -119.935106856086037, 39.253567025057052 ] ] ], [ [ [ -119.935129218495433, 39.253585630852186 ], [ -119.935151580916596, 39.25360423664339 ], [ -119.935128434290434, 39.25360362694007 ], [ -119.935129218495433, 39.253585630852186 ] ] ] ] } }
]
}
