{
"type": "FeatureCollection",
"name": "X02262",
"crs": { "type": "name", "properties": { "name": "urn:ogc:def:crs:OGC:1.3:CRS84" } },
"features": [
{ "type": "Feature", "properties": { "part": "direct", "crossing_id": "X02262", "area_ac": 0.4 }, "geometry": { "type": "Polygon", "coordinates": [ [ [ -119.951059877217347, 39.24371657056561 ], [ -119.951126968855903, 39.243772378943866 ], [ -119.95083598539064, 39.244071040312789 ], [ -119.950865894712663, 39.244450177238285 ], [ -119.95074159535551, 39.244645105043283 ], [ -119.950775658742188, 39.244393762222586 ], [ -119.950623791028804, 39.244155563864403 ], [ -119.950531995618931, 39.244135141433382 ], [ -119.95053979563437, 39.24395517766812 ], [ -119.951059877217347, 39.24371657056561 ] ] ] } }
]
}
