{
"type": "FeatureCollection",
"name": "X02261",
"crs": { "type": "name", "properties": { "name": "urn:ogc:def:crs:OGC:1.3:CRS84" } },
"features": [
{ "type": "Feature", "properties": { "part": "direct", "crossing_id": "X02261", "area_ac": 0.3 }, "geometry": { "type": "MultiPolygon", "coordinates": [ [ [ [ -119.949913092192233, 39.244515290334441 ], [ -119.949935455982484, 39.244533893347523 ], [ -119.949912312018142, 39.244533286699046 ], [ -119.949913092192233, 39.244515290334441 ] ] ], [ [ [ -119.950138550328987, 39.244124829887163 ], [ -119.950244908550985, 39.244343819286172 ], [ -119.95000254742402, 39.244589702363406 ], [ -119.949785151315481, 39.244259701270515 ], [ -119.950138550328987, 39.244124829887163 ] ] ] ] } }
]
}
