{
"type": "FeatureCollection",
"name": "X02253",
"crs": { "type": "name", "properties": { "name": "urn:ogc:def:crs:OGC:1.3:CRS84" } },
"features": [
{ "type": "Feature", "properties": { "part": "direct", "crossing_id": "X02253", "area_ac": 0.6 }, "geometry": { "type": "Polygon", "coordinates": [ [ [ -119.948670410357607, 39.260877991390416 ], [ -119.949069138577656, 39.261302833469408 ], [ -119.949259525101013, 39.261722211516215 ], [ -119.949008783936335, 39.261625552740142 ], [ -119.948989538792617, 39.261534964206405 ], [ -119.948340071824248, 39.261013461731068 ], [ -119.948670410357607, 39.260877991390416 ] ] ] } }
]
}
