{
"type": "FeatureCollection",
"name": "X02238",
"crs": { "type": "name", "properties": { "name": "urn:ogc:def:crs:OGC:1.3:CRS84" } },
"features": [
{ "type": "Feature", "properties": { "part": "direct", "crossing_id": "X02238", "area_ac": 0.4 }, "geometry": { "type": "Polygon", "coordinates": [ [ [ -119.942418937243787, 39.263938871935295 ], [ -119.942552360178382, 39.264068495456563 ], [ -119.942124698245109, 39.264309490564344 ], [ -119.942040375308736, 39.264649592427617 ], [ -119.941870494560888, 39.264825294665101 ], [ -119.941939495881613, 39.264304622792388 ], [ -119.942418937243787, 39.263938871935295 ] ] ] } }
]
}
