{
"type": "FeatureCollection",
"name": "X02267",
"crs": { "type": "name", "properties": { "name": "urn:ogc:def:crs:OGC:1.3:CRS84" } },
"features": [
{ "type": "Feature", "properties": { "part": "direct", "crossing_id": "X02267", "area_ac": 0.1 }, "geometry": { "type": "Polygon", "coordinates": [ [ [ -119.949635364745305, 39.244508010199233 ], [ -119.949745622980316, 39.244637018200997 ], [ -119.949556569702494, 39.244722146363102 ], [ -119.949467114805657, 39.244647734004417 ], [ -119.949635364745305, 39.244508010199233 ] ] ] } }
]
}
