{
"type": "FeatureCollection",
"name": "X02248",
"crs": { "type": "name", "properties": { "name": "urn:ogc:def:crs:OGC:1.3:CRS84" } },
"features": [
{ "type": "Feature", "properties": { "part": "direct", "crossing_id": "X02248", "area_ac": 1.6, "n_upstream": null }, "geometry": { "type": "Polygon", "coordinates": [ [ [ -119.931794819102208, 39.235462981253747 ], [ -119.932090939994808, 39.235578889157772 ], [ -119.93189326242296, 39.2358619458211 ], [ -119.931778343373168, 39.23584089908168 ], [ -119.931745787745811, 39.236056241963908 ], [ -119.931403384040294, 39.235939112706298 ], [ -119.931393968016508, 39.23615506565757 ], [ -119.931017436979843, 39.2362892700949 ], [ -119.930681692291131, 39.23655066645555 ], [ -119.93036478391835, 39.2363801562988 ], [ -119.930739366374951, 39.235759449851223 ], [ -119.93090527498606, 39.235673741808611 ], [ -119.930885273499797, 39.235601147205927 ], [ -119.931521441649181, 39.235888175491091 ], [ -119.931550074746511, 39.23576281310487 ], [ -119.931689703455191, 39.235748478053452 ], [ -119.931719120756938, 39.235605119523072 ], [ -119.931811683309817, 39.235607560088056 ], [ -119.931794819102208, 39.235462981253747 ] ] ] } },
{ "type": "Feature", "properties": { "part": "upstream", "crossing_id": "X02248", "area_ac": 164.8, "n_upstream": 18.0 }, "geometry": { "type": "MultiPolygon", "coordinates": [ [ [ [ -119.930203731085186, 39.23104294327608 ], [ -119.93040727436312, 39.231156413089501 ], [ -119.930412767843634, 39.231030440544082 ], [ -119.930552387236418, 39.231016106485455 ], [ -119.930814362923257, 39.231383351719742 ], [ -119.930711604700292, 39.231614859644807 ], [ -119.930946921077407, 39.231530981977606 ], [ -119.93130381199272, 39.231846678959592 ], [ -119.931008876933262, 39.232235270293039 ], [ -119.931017892527322, 39.232559810055342 ], [ -119.930389578262194, 39.233155808455869 ], [ -119.930141697110145, 39.233527621795822 ], [ -119.929922038561571, 39.234314564847452 ], [ -119.929647869913182, 39.234757750535813 ], [ -119.929658518138424, 39.234849063575666 ], [ -119.929722001217613, 39.234651605837541 ], [ -119.929715720730982, 39.234795574277619 ], [ -119.929907337710617, 39.234955059215274 ], [ -119.929917703598875, 39.234945037397033 ], [ -119.929984769745914, 39.235000857051894 ], [ -119.930045282902171, 39.234979289069841 ], [ -119.929783571623034, 39.234833397982513 ], [ -119.929900058355884, 39.234818454492228 ], [ -119.930019810232324, 39.234905692047569 ], [ -119.929990264733192, 39.234874884639716 ], [ -119.9302463785897, 39.234845607563997 ], [ -119.930312660006123, 39.23491942310114 ], [ -119.930166561904699, 39.235114299503969 ], [ -119.930392663189508, 39.235209801795243 ], [ -119.930341672737541, 39.235316557351815 ], [ -119.930514282957503, 39.235496536922696 ], [ -119.930519732988458, 39.235483405166121 ], [ -119.93056287466321, 39.235556610198493 ], [ -119.93090527498606, 39.235673741808611 ], [ -119.930785647708831, 39.23576067053618 ], [ -119.930737255757847, 39.2357498944315 ], [ -119.930660526167955, 39.235973571598834 ], [ -119.930294984184158, 39.235855828797241 ], [ -119.930055727259429, 39.236029684771729 ], [ -119.930317339933055, 39.235874435293113 ], [ -119.930637385433457, 39.235972961231042 ], [ -119.930366353801077, 39.236344164177062 ], [ -119.930410280713176, 39.236399373210169 ], [ -119.930152591204234, 39.236464642532852 ], [ -119.930451068001602, 39.236526566476691 ], [ -119.93031614733097, 39.236432923610288 ], [ -119.930456562453202, 39.236400594042443 ], [ -119.930658551366562, 39.236550056084504 ], [ -119.930423217497236, 39.236633932427303 ], [ -119.930431572658563, 39.236601722643385 ], [ -119.930284371829998, 39.236630269817546 ], [ -119.930061972854944, 39.236948704574772 ], [ -119.929578366597553, 39.236881894987462 ], [ -119.929605433354354, 39.236792525344818 ], [ -119.92955208493099, 39.236953268574638 ], [ -119.929041411790834, 39.236975826372586 ], [ -119.92884057656201, 39.237330861280434 ], [ -119.928754660096729, 39.237706945660349 ], [ -119.928519380768364, 39.237877900482786 ], [ -119.928554606573911, 39.238043983869524 ], [ -119.928565966187932, 39.238314535052034 ], [ -119.928474185838709, 39.238294095744685 ], [ -119.928469463418068, 39.238279368039066 ], [ -119.928213345564828, 39.238431344485001 ], [ -119.927816012096045, 39.238510938858703 ], [ -119.927376323596448, 39.238499329724064 ], [ -119.927327683278492, 39.238552095622097 ], [ -119.927144908698722, 39.238493218987685 ], [ -119.926904063228761, 39.238703059738874 ], [ -119.926351810357104, 39.238616406941517 ], [ -119.926234530698537, 39.238649342573474 ], [ -119.926229814321914, 39.238757318476118 ], [ -119.92576619721693, 39.23876308789746 ], [ -119.92562420307884, 39.238831403463763 ], [ -119.925232369229832, 39.238785017014635 ], [ -119.925234728188158, 39.238731029114497 ], [ -119.925071164824715, 39.238762740575808 ], [ -119.924974105407856, 39.238598025062259 ], [ -119.924754261441478, 39.238592215327358 ], [ -119.924830763592638, 39.238432086379802 ], [ -119.924697420233144, 39.238302445252032 ], [ -119.924702138882495, 39.238194469496442 ], [ -119.925010053533683, 39.238040455939498 ], [ -119.924743819183917, 39.237240683547327 ], [ -119.924518700659547, 39.237090600067752 ], [ -119.924632762300405, 39.237124872552279 ], [ -119.924314364506486, 39.236995115698015 ], [ -119.924011172694989, 39.237041151850626 ], [ -119.923806837428884, 39.236945666621331 ], [ -119.923517345977587, 39.237208264559172 ], [ -119.922431294432059, 39.237143513011191 ], [ -119.922367380652133, 39.237015705480189 ], [ -119.922184614646326, 39.236956821358604 ], [ -119.921421753442971, 39.236918624900419 ], [ -119.920835839485662, 39.236542787836207 ], [ -119.919858117470298, 39.236120544200062 ], [ -119.918763625958775, 39.235190732203648 ], [ -119.918746788744428, 39.235046152537613 ], [ -119.917940537520877, 39.234412232544294 ], [ -119.91777855792111, 39.234407942325916 ], [ -119.917689938785188, 39.234315511408802 ], [ -119.917089877963662, 39.234263582231492 ], [ -119.916725158568312, 39.234127802157673 ], [ -119.916951547976467, 39.233719415613088 ], [ -119.917108796337118, 39.233831681986381 ], [ -119.91697468767299, 39.233720028670547 ], [ -119.917765092832894, 39.233128397870978 ], [ -119.918070634595693, 39.233028389881284 ], [ -119.918623327083196, 39.232574591022839 ], [ -119.918811593104266, 39.232507509069286 ], [ -119.919110533247988, 39.23202897199306 ], [ -119.920194926184976, 39.232129743151013 ], [ -119.920383977026333, 39.232044662636277 ], [ -119.921119709352737, 39.232172231188883 ], [ -119.922346878994063, 39.232186676021875 ], [ -119.922432879137645, 39.232339090019536 ], [ -119.922347665866724, 39.232168680083646 ], [ -119.922796753850804, 39.231964355287332 ], [ -119.923378053744401, 39.231385172403208 ], [ -119.924290700576748, 39.231175079613003 ], [ -119.924592294172115, 39.231165033639918 ], [ -119.924751122430465, 39.23124129801645 ], [ -119.92484839588522, 39.231135767990835 ], [ -119.924860492495128, 39.23114440307527 ], [ -119.925015086007349, 39.23103207216036 ], [ -119.925193909024131, 39.231180931315862 ], [ -119.925746102322378, 39.231267587335331 ], [ -119.926718297175881, 39.231815752584822 ], [ -119.92726892654342, 39.231938393673836 ], [ -119.927390907843687, 39.231797480355979 ], [ -119.927574451148956, 39.23183835995254 ], [ -119.928235703162329, 39.23154953138873 ], [ -119.928605930917854, 39.231559303440527 ], [ -119.928662417524976, 39.23132657625041 ], [ -119.928879307007719, 39.231134115818058 ], [ -119.928992277140509, 39.230668660994034 ], [ -119.929249160903552, 39.230621389448153 ], [ -119.929538192340942, 39.230899267520932 ], [ -119.929506418187984, 39.231096613689161 ], [ -119.929669176933075, 39.231082891232901 ], [ -119.929837430121481, 39.230943196066995 ], [ -119.930208440077806, 39.230934966827313 ], [ -119.930203731085186, 39.23104294327608 ] ], [ [ -119.9288131429537, 39.23689773501026 ], [ -119.928726066577681, 39.237100728716953 ], [ -119.929017433434169, 39.236656550028506 ], [ -119.9288131429537, 39.23689773501026 ] ], [ [ -119.92860680893078, 39.237378741688886 ], [ -119.928574692449502, 39.237603437116817 ], [ -119.928638552822846, 39.237304740694668 ], [ -119.92860680893078, 39.237378741688886 ] ], [ [ -119.928421256758128, 39.237914346761947 ], [ -119.928516178429405, 39.237862801992634 ], [ -119.928517703352583, 39.237869991749854 ], [ -119.928520530168456, 39.237856769963322 ], [ -119.928421256758128, 39.237914346761947 ] ], [ [ -119.930022340510718, 39.235095535429046 ], [ -119.93014843099067, 39.235165824149 ], [ -119.930163820346451, 39.235117956383426 ], [ -119.930140472870349, 39.235149098838313 ], [ -119.930022340510718, 39.235095535429046 ] ], [ [ -119.929930638786544, 39.235179596643583 ], [ -119.930120898973541, 39.23525146082526 ], [ -119.930142736403539, 39.235183536837937 ], [ -119.92986754224097, 39.235165545462017 ], [ -119.929930638786544, 39.235179596643583 ] ], [ [ -119.930087127146649, 39.235309842450363 ], [ -119.929921218502386, 39.235395549324728 ], [ -119.930084772194121, 39.235363830628295 ], [ -119.930118814903309, 39.23525794319017 ], [ -119.929980969823305, 39.235265002735275 ], [ -119.930087127146649, 39.235309842450363 ] ], [ [ -119.929845927354521, 39.234997194046308 ], [ -119.929857235875147, 39.235003497988593 ], [ -119.9299000206112, 39.234962133439282 ], [ -119.929621992744643, 39.234947324835929 ], [ -119.929845927354521, 39.234997194046308 ] ], [ [ -119.929522632743783, 39.234942032460189 ], [ -119.929246632848802, 39.23492733097406 ], [ -119.929479996985904, 39.234947501844111 ], [ -119.929522632743783, 39.234942032460189 ] ], [ [ -119.929061131761372, 39.23461254741099 ], [ -119.929063079308861, 39.234611853284918 ], [ -119.929060592516336, 39.234611632342151 ], [ -119.929061131761372, 39.23461254741099 ] ], [ [ -119.928809568196769, 39.234543803587513 ], [ -119.928790137689433, 39.234516565141021 ], [ -119.928777176807898, 39.234536589854052 ], [ -119.928809568196769, 39.234543803587513 ] ], [ [ -119.929647332984018, 39.2348838537429 ], [ -119.929636627371039, 39.234872484035833 ], [ -119.929641589251361, 39.234901718963243 ], [ -119.929647332984018, 39.2348838537429 ] ], [ [ -119.929421177633742, 39.234643668496751 ], [ -119.929206741126222, 39.234624617040673 ], [ -119.929280765678314, 39.234675996942784 ], [ -119.929421177633742, 39.234643668496751 ] ], [ [ -119.930072083100839, 39.234960197445147 ], [ -119.93006321271946, 39.234972898550268 ], [ -119.930078901306985, 39.234967306843295 ], [ -119.930072083100839, 39.234960197445147 ] ], [ [ -119.929723159763228, 39.235156105901936 ], [ -119.929874812639895, 39.235220162928343 ], [ -119.929841627433547, 39.23516385119509 ], [ -119.929723159763228, 39.235156105901936 ] ], [ [ -119.924977443470425, 39.238559505965199 ], [ -119.925086891905039, 39.23840282128284 ], [ -119.924966466583385, 39.23850773948304 ], [ -119.924977443470425, 39.238559505965199 ] ], [ [ -119.927328467005694, 39.237018118467063 ], [ -119.927349761366287, 39.236985221057203 ], [ -119.927344039282886, 39.236982225215051 ], [ -119.927328467005694, 39.237018118467063 ] ], [ [ -119.927181058770913, 39.236896895255391 ], [ -119.92716699075244, 39.236926344604612 ], [ -119.927005789780992, 39.236904070986419 ], [ -119.926982231519844, 39.236923627624918 ], [ -119.927305118071601, 39.236961847692321 ], [ -119.927181058770913, 39.236896895255391 ] ], [ [ -119.927549460562133, 39.236125689605736 ], [ -119.927847933210302, 39.23618762008693 ], [ -119.927885840045306, 39.236150973881337 ], [ -119.927549460562133, 39.236125689605736 ] ], [ [ -119.927897582605638, 39.236139621820804 ], [ -119.927945117745494, 39.236093667414174 ], [ -119.927716159265159, 39.236021990290403 ], [ -119.927897582605638, 39.236139621820804 ] ], [ [ -119.924349995577757, 39.234059327510202 ], [ -119.922565187744695, 39.232573572991271 ], [ -119.922604880490724, 39.232643917858603 ], [ -119.924349995577757, 39.234059327510202 ] ], [ [ -119.925949511592535, 39.237218490376364 ], [ -119.925953442051096, 39.237128510457545 ], [ -119.925890185036891, 39.237250704535384 ], [ -119.925949511592535, 39.237218490376364 ] ], [ [ -119.9257596664267, 39.237321575570569 ], [ -119.925798609069346, 39.237300429916893 ], [ -119.925475121881846, 39.237158109683371 ], [ -119.9257596664267, 39.237321575570569 ] ], [ [ -119.925378281782372, 39.237115503988299 ], [ -119.925329421232121, 39.237094007289357 ], [ -119.925144293357803, 39.237089115629274 ], [ -119.925113894513075, 39.23713778208085 ], [ -119.925378281782372, 39.237115503988299 ] ], [ [ -119.923032142533529, 39.234642205913232 ], [ -119.922959319820265, 39.234604642817743 ], [ -119.923004268595164, 39.234636321234767 ], [ -119.923032142533529, 39.234642205913232 ] ], [ [ -119.922127774824801, 39.234018589231297 ], [ -119.921684356497465, 39.233798666791017 ], [ -119.921763832973582, 39.233864828695658 ], [ -119.922127774824801, 39.234018589231297 ] ], [ [ -119.930680978592591, 39.235712476236742 ], [ -119.930651512818713, 39.235649032020127 ], [ -119.930467957606353, 39.235608156838822 ], [ -119.930680978592591, 39.235712476236742 ] ] ], [ [ [ -119.93179599215182, 39.235967481826378 ], [ -119.931778343373168, 39.23584089908168 ], [ -119.932007397039854, 39.235900988539626 ], [ -119.932027399762163, 39.235973582995292 ], [ -119.93179599215182, 39.235967481826378 ] ] ] ] } }
]
}
