{
"type": "FeatureCollection",
"name": "X02213",
"crs": { "type": "name", "properties": { "name": "urn:ogc:def:crs:OGC:1.3:CRS84" } },
"features": [
{ "type": "Feature", "properties": { "part": "direct", "crossing_id": "X02213", "area_ac": 0.9 }, "geometry": { "type": "Polygon", "coordinates": [ [ [ -119.930582116258918, 39.234584212136284 ], [ -119.931060999784279, 39.234758993450271 ], [ -119.93120141123029, 39.234726662829111 ], [ -119.931378687563452, 39.234911505445474 ], [ -119.931007656491303, 39.234919737588925 ], [ -119.931001378572219, 39.235063706196023 ], [ -119.930790760219736, 39.235112201652065 ], [ -119.930631131567864, 39.235053941032405 ], [ -119.930485225107802, 39.23521224339386 ], [ -119.930233034687006, 39.235151540634199 ], [ -119.930265594318698, 39.234936198313662 ], [ -119.930582116258918, 39.234584212136284 ] ] ] } }
]
}
