{
"type": "FeatureCollection",
"name": "X02240",
"crs": { "type": "name", "properties": { "name": "urn:ogc:def:crs:OGC:1.3:CRS84" } },
"features": [
{ "type": "Feature", "properties": { "part": "direct", "crossing_id": "X02240", "area_ac": 0.1 }, "geometry": { "type": "Polygon", "coordinates": [ [ [ -119.941843646939105, 39.263311182476308 ], [ -119.941863665885563, 39.263383775654631 ], [ -119.941696919190775, 39.263487493098978 ], [ -119.941465419040028, 39.263481407593659 ], [ -119.94172789712907, 39.263308139938268 ], [ -119.941843646939105, 39.263311182476308 ] ] ] } }
]
}
