{
"type": "FeatureCollection",
"name": "X02207",
"crs": { "type": "name", "properties": { "name": "urn:ogc:def:crs:OGC:1.3:CRS84" } },
"features": [
{ "type": "Feature", "properties": { "part": "direct", "crossing_id": "X02207", "area_ac": 0.4 }, "geometry": { "type": "Polygon", "coordinates": [ [ [ -119.930706450485502, 39.234389307098681 ], [ -119.931066492799786, 39.234633020905676 ], [ -119.931504589484504, 39.23468060733056 ], [ -119.931449678018765, 39.234877343884719 ], [ -119.931333191415192, 39.234892288936422 ], [ -119.93120141123029, 39.234726662829111 ], [ -119.931060999784279, 39.234758993450271 ], [ -119.930535835706749, 39.234582991400899 ], [ -119.930706450485502, 39.234389307098681 ] ] ] } }
]
}
