{
"type": "FeatureCollection",
"name": "X02298",
"crs": { "type": "name", "properties": { "name": "urn:ogc:def:crs:OGC:1.3:CRS84" } },
"features": [
{ "type": "Feature", "properties": { "part": "direct", "crossing_id": "X02298", "area_ac": 0.1 }, "geometry": { "type": "Polygon", "coordinates": [ [ [ -119.936199715460333, 39.241776811697648 ], [ -119.936126369072241, 39.241864964362946 ], [ -119.935870231058217, 39.241894253445899 ], [ -119.935875716865979, 39.241768280488053 ], [ -119.936199715460333, 39.241776811697648 ] ] ] } }
]
}
