{
"type": "FeatureCollection",
"name": "X02366",
"crs": { "type": "name", "properties": { "name": "urn:ogc:def:crs:OGC:1.3:CRS84" } },
"features": [
{ "type": "Feature", "properties": { "part": "direct", "crossing_id": "X02366", "area_ac": 0.1, "n_upstream": null }, "geometry": { "type": "Polygon", "coordinates": [ [ [ -119.944575817115634, 39.239366595797684 ], [ -119.944687621045134, 39.239459615426973 ], [ -119.944608036415744, 39.239691744317398 ], [ -119.944523281541805, 39.239509350818309 ], [ -119.944431494195555, 39.239488923865835 ], [ -119.944436182792003, 39.239380946135796 ], [ -119.944575817115634, 39.239366595797684 ] ] ] } },
{ "type": "Feature", "properties": { "part": "upstream", "crossing_id": "X02366", "area_ac": 0.0, "n_upstream": 1.0 }, "geometry": { "type": "Polygon", "coordinates": [ [ [ -119.944477778573088, 39.239490139206417 ], [ -119.94458801975702, 39.239619151511775 ], [ -119.944540172468024, 39.239653928790723 ], [ -119.944356597449683, 39.239613074827609 ], [ -119.944477778573088, 39.239490139206417 ] ] ] } }
]
}
