{
"type": "FeatureCollection",
"name": "X02310",
"crs": { "type": "name", "properties": { "name": "urn:ogc:def:crs:OGC:1.3:CRS84" } },
"features": [
{ "type": "Feature", "properties": { "part": "direct", "crossing_id": "X02310", "area_ac": 1.3, "n_upstream": null }, "geometry": { "type": "Polygon", "coordinates": [ [ [ -119.941834880939467, 39.239528812955967 ], [ -119.941854894705273, 39.239601406123363 ], [ -119.942130254707621, 39.239662692799179 ], [ -119.942218913465794, 39.239755106551272 ], [ -119.942168718906345, 39.23984387155204 ], [ -119.942004376937646, 39.239893603274808 ], [ -119.941714937632085, 39.240156248609757 ], [ -119.941767479393746, 39.240013495115541 ], [ -119.941551376830262, 39.240187983409875 ], [ -119.941318388810942, 39.24021789308614 ], [ -119.941194854183394, 39.240394813827116 ], [ -119.940887743906586, 39.240530874958537 ], [ -119.940827705141373, 39.240313095065829 ], [ -119.940968124124453, 39.24028075293775 ], [ -119.941046156770028, 39.240084619517951 ], [ -119.9411865752067, 39.240052277102976 ], [ -119.94119361569463, 39.239890311013788 ], [ -119.941308544708875, 39.239911348807681 ], [ -119.941340291550858, 39.239713998520386 ], [ -119.941435989160823, 39.239644446702954 ], [ -119.94155091786611, 39.23966548424508 ], [ -119.94162660166262, 39.239523339048219 ], [ -119.941834880939467, 39.239528812955967 ] ] ] } },
{ "type": "Feature", "properties": { "part": "upstream", "crossing_id": "X02310", "area_ac": 0.2, "n_upstream": 1.0 }, "geometry": { "type": "Polygon", "coordinates": [ [ [ -119.941766697263319, 39.240031491357243 ], [ -119.941691013130111, 39.24017363662422 ], [ -119.94090619216793, 39.240639460701608 ], [ -119.940910886360754, 39.240531483348654 ], [ -119.941242703565223, 39.240360038013726 ], [ -119.941318388810942, 39.24021789308614 ], [ -119.941551376830262, 39.240187983409875 ], [ -119.941766697263319, 39.240031491357243 ] ] ] } }
]
}
