{
"type": "FeatureCollection",
"name": "X02315",
"crs": { "type": "name", "properties": { "name": "urn:ogc:def:crs:OGC:1.3:CRS84" } },
"features": [
{ "type": "Feature", "properties": { "part": "direct", "crossing_id": "X02315", "area_ac": 0.7 }, "geometry": { "type": "Polygon", "coordinates": [ [ [ -119.934730370341981, 39.242530852940703 ], [ -119.934977887708541, 39.242699523795743 ], [ -119.934970048276014, 39.242879484982907 ], [ -119.934616629590721, 39.243014309386282 ], [ -119.934470714085151, 39.243172616264729 ], [ -119.93433577558153, 39.243078977438266 ], [ -119.93414906208632, 39.243110091681835 ], [ -119.934083553518093, 39.243018281853054 ], [ -119.934185535810926, 39.242804767662754 ], [ -119.934535817947719, 39.242741929003103 ], [ -119.934730370341981, 39.242530852940703 ] ] ] } }
]
}
