{
"type": "FeatureCollection",
"name": "X02328",
"crs": { "type": "name", "properties": { "name": "urn:ogc:def:crs:OGC:1.3:CRS84" } },
"features": [
{ "type": "Feature", "properties": { "part": "direct", "crossing_id": "X02328", "area_ac": 0.9, "n_upstream": null }, "geometry": { "type": "Polygon", "coordinates": [ [ [ -119.935596391983125, 39.240733968763067 ], [ -119.936072979374472, 39.240962719844745 ], [ -119.935907847335059, 39.241030438809922 ], [ -119.935904712707099, 39.241102423368972 ], [ -119.935719572460272, 39.241097548102985 ], [ -119.935692511366454, 39.241186919353893 ], [ -119.935576798591086, 39.241183872130811 ], [ -119.935568961111471, 39.241363833465854 ], [ -119.935091215360899, 39.2416935697184 ], [ -119.93493783952789, 39.241491345352564 ], [ -119.935109244478184, 39.241279658846189 ], [ -119.935298304186261, 39.241194554456392 ], [ -119.935253586740075, 39.241157343167245 ], [ -119.935396360924145, 39.241071019549508 ], [ -119.935596391983125, 39.240733968763067 ] ] ] } },
{ "type": "Feature", "properties": { "part": "upstream", "crossing_id": "X02328", "area_ac": 1.8, "n_upstream": 3.0 }, "geometry": { "type": "Polygon", "coordinates": [ [ [ -119.935112790316467, 39.24173017152404 ], [ -119.934795471772134, 39.242100165406548 ], [ -119.934831565937102, 39.242335334179934 ], [ -119.934549930803897, 39.242417998985346 ], [ -119.934355578133008, 39.242344604744268 ], [ -119.934367139595807, 39.242359133100706 ], [ -119.934197297909094, 39.242534826074376 ], [ -119.933964299882405, 39.242564720573277 ], [ -119.933748954901091, 39.242721197125654 ], [ -119.933660304212339, 39.242628777247887 ], [ -119.933614018240647, 39.242627557527577 ], [ -119.933434364698641, 39.24249670580879 ], [ -119.93388192278168, 39.242328332042561 ], [ -119.934098834521379, 39.242135862963799 ], [ -119.934154927130649, 39.242169306096642 ], [ -119.93407725999532, 39.242099260988113 ], [ -119.93420159942977, 39.241904352571481 ], [ -119.934487153019873, 39.241731707970331 ], [ -119.934515783938494, 39.241606344846822 ], [ -119.934630713294737, 39.241627389267819 ], [ -119.934846052911041, 39.24147091084717 ], [ -119.935112790316467, 39.24173017152404 ] ], [ [ -119.934244940270716, 39.242250485377433 ], [ -119.934131789763015, 39.242443016283687 ], [ -119.934264524349587, 39.24226814744847 ], [ -119.934244940270716, 39.242250485377433 ] ] ] } }
]
}
