{
"type": "FeatureCollection",
"name": "X02348",
"crs": { "type": "name", "properties": { "name": "urn:ogc:def:crs:OGC:1.3:CRS84" } },
"features": [
{ "type": "Feature", "properties": { "part": "direct", "crossing_id": "X02348", "area_ac": 1.6, "n_upstream": null }, "geometry": { "type": "MultiPolygon", "coordinates": [ [ [ [ -119.935632105202671, 39.267039357946366 ], [ -119.935654471812981, 39.267057963778228 ], [ -119.935631320751028, 39.267057354001096 ], [ -119.935632105202671, 39.267039357946366 ] ] ], [ [ [ -119.935631320751028, 39.267057354001096 ], [ -119.935411193568982, 39.267321806560183 ], [ -119.935792212381031, 39.267620109847634 ], [ -119.93592013835061, 39.267875713098057 ], [ -119.935898174848361, 39.268379602667359 ], [ -119.935422977007889, 39.268114852378133 ], [ -119.934715485061901, 39.267861996828962 ], [ -119.93514868518794, 39.267495058644897 ], [ -119.935324080757042, 39.26719339487515 ], [ -119.935631320751028, 39.267057354001096 ] ] ] ] } },
{ "type": "Feature", "properties": { "part": "upstream", "crossing_id": "X02348", "area_ac": 15.7, "n_upstream": 2.0 }, "geometry": { "type": "MultiPolygon", "coordinates": [ [ [ [ -119.934761787676294, 39.267863216763537 ], [ -119.934804166859394, 39.267954416870403 ], [ -119.934705283789754, 39.26809594530085 ], [ -119.932740128021393, 39.269575571834231 ], [ -119.932074597562973, 39.26995439090674 ], [ -119.931991415361139, 39.269735996959156 ], [ -119.931877227023051, 39.269696952247102 ], [ -119.931505641835344, 39.269182684694059 ], [ -119.932171952950668, 39.268785872677178 ], [ -119.933036815731455, 39.268088007067369 ], [ -119.933291480562715, 39.268094720183292 ], [ -119.93403114963958, 39.267609747272672 ], [ -119.934761787676294, 39.267863216763537 ] ] ], [ [ [ -119.93276834344698, 39.271053685086436 ], [ -119.93227193448179, 39.271274813478541 ], [ -119.931625609431606, 39.271744219540658 ], [ -119.931333636957419, 39.272060818985153 ], [ -119.930983990473948, 39.272105645872834 ], [ -119.930791697033314, 39.272262723192078 ], [ -119.930605689817781, 39.272275832527832 ], [ -119.930531516394254, 39.272381975683288 ], [ -119.930276050733397, 39.272393251869588 ], [ -119.930314922590327, 39.272033943802498 ], [ -119.930412248481005, 39.271928411660447 ], [ -119.930238817567016, 39.271653585239186 ], [ -119.93026711165524, 39.271005731013354 ], [ -119.93082161554139, 39.270515893494441 ], [ -119.930826330200944, 39.270407917716149 ], [ -119.931640995289726, 39.269798822293254 ], [ -119.931922745247405, 39.269716169341635 ], [ -119.93276834344698, 39.271053685086436 ] ] ] ] } }
]
}
