{
"type": "FeatureCollection",
"name": "X02377",
"crs": { "type": "name", "properties": { "name": "urn:ogc:def:crs:OGC:1.3:CRS84" } },
"features": [
{ "type": "Feature", "properties": { "part": "direct", "crossing_id": "X02377", "area_ac": 0.7, "n_upstream": null }, "geometry": { "type": "Polygon", "coordinates": [ [ [ -119.936705661386242, 39.240799209209854 ], [ -119.936835898555628, 39.24100082220437 ], [ -119.936479358704247, 39.241207637427408 ], [ -119.936270291938541, 39.241220149893387 ], [ -119.936100457763331, 39.241395845973194 ], [ -119.935892174082895, 39.241390361594235 ], [ -119.93589609242224, 39.241300380900739 ], [ -119.936036515286105, 39.241268044900501 ], [ -119.936043567921701, 39.241106079625659 ], [ -119.935904712707099, 39.241102423368972 ], [ -119.935907847335059, 39.241030438809922 ], [ -119.936096121866214, 39.240963329197093 ], [ -119.935913332906992, 39.240904465828905 ], [ -119.936540530291794, 39.240866929114446 ], [ -119.936705661386242, 39.240799209209854 ] ] ] } },
{ "type": "Feature", "properties": { "part": "upstream", "crossing_id": "X02377", "area_ac": 3.2, "n_upstream": 10.0 }, "geometry": { "type": "MultiPolygon", "coordinates": [ [ [ [ -119.936072979374472, 39.240962719844745 ], [ -119.935907847335059, 39.241030438809922 ], [ -119.935904712707099, 39.241102423368972 ], [ -119.936043567921701, 39.241106079625659 ], [ -119.936015723598032, 39.241213447109217 ], [ -119.935858059057125, 39.241200506851825 ], [ -119.93589609242224, 39.241300380900739 ], [ -119.935892957752174, 39.241372365455639 ], [ -119.935707033081329, 39.241385486278567 ], [ -119.935493263102032, 39.241505974119043 ], [ -119.935536413360538, 39.241579177591909 ], [ -119.935390503040225, 39.241737485857676 ], [ -119.935138284653462, 39.241676792702606 ], [ -119.935568961111471, 39.241363833465854 ], [ -119.935091215360899, 39.2416935697184 ], [ -119.93493783952789, 39.241491345352564 ], [ -119.935109244478184, 39.241279658846189 ], [ -119.935298304186261, 39.241194554456392 ], [ -119.935253586740075, 39.241157343167245 ], [ -119.935396360924145, 39.241071019549508 ], [ -119.935596391983125, 39.240733968763067 ], [ -119.935861162363437, 39.240861052924302 ], [ -119.935756821469042, 39.240774227051752 ], [ -119.936089435061433, 39.240584800828742 ], [ -119.936145541221492, 39.240892563311263 ], [ -119.935947917127166, 39.240902693143106 ], [ -119.936072979374472, 39.240962719844745 ] ], [ [ -119.935572096111727, 39.241291848932704 ], [ -119.935595238700785, 39.241292458388827 ], [ -119.935576798591086, 39.241183872130811 ], [ -119.935572096111727, 39.241291848932704 ] ] ], [ [ [ -119.936073762985615, 39.240944723701823 ], [ -119.936096121866214, 39.240963329197093 ], [ -119.936072979374472, 39.240962719844745 ], [ -119.936073762985615, 39.240944723701823 ] ] ], [ [ [ -119.935900010744064, 39.241210400205532 ], [ -119.936015723598032, 39.241213447109217 ], [ -119.936038866170946, 39.241214056476196 ], [ -119.936036515286105, 39.241268044900501 ], [ -119.93589609242224, 39.241300380900739 ], [ -119.935900010744064, 39.241210400205532 ] ] ], [ [ [ -119.934355578133008, 39.242344604744268 ], [ -119.934367139595807, 39.242359133100706 ], [ -119.934197297909094, 39.242534826074376 ], [ -119.933964299882405, 39.242564720573277 ], [ -119.933748954901091, 39.242721197125654 ], [ -119.933660304212339, 39.242628777247887 ], [ -119.933614018240647, 39.242627557527577 ], [ -119.933434364698641, 39.24249670580879 ], [ -119.93388192278168, 39.242328332042561 ], [ -119.934098834521379, 39.242135862963799 ], [ -119.934154927130649, 39.242169306096642 ], [ -119.93407725999532, 39.242099260988113 ], [ -119.93420159942977, 39.241904352571481 ], [ -119.934487153019873, 39.241731707970331 ], [ -119.934515783938494, 39.241606344846822 ], [ -119.934630713294737, 39.241627389267819 ], [ -119.934846052911041, 39.24147091084717 ], [ -119.935112790316467, 39.24173017152404 ], [ -119.934795471772134, 39.242100165406548 ], [ -119.934831565937102, 39.242335334179934 ], [ -119.934549930803897, 39.242417998985346 ], [ -119.934355578133008, 39.242344604744268 ] ], [ [ -119.934131789763015, 39.242443016283687 ], [ -119.934264524349587, 39.24226814744847 ], [ -119.934244940270716, 39.242250485377433 ], [ -119.934131789763015, 39.242443016283687 ] ] ] ] } }
]
}
