{
"type": "FeatureCollection",
"name": "X02314",
"crs": { "type": "name", "properties": { "name": "urn:ogc:def:crs:OGC:1.3:CRS84" } },
"features": [
{ "type": "Feature", "properties": { "part": "direct", "crossing_id": "X02314", "area_ac": 0.0, "n_upstream": null }, "geometry": { "type": "Polygon", "coordinates": [ [ [ -119.936038866170946, 39.241214056476196 ], [ -119.936036515286105, 39.241268044900501 ], [ -119.93589609242224, 39.241300380900739 ], [ -119.935900010744064, 39.241210400205532 ], [ -119.936038866170946, 39.241214056476196 ] ] ] } },
{ "type": "Feature", "properties": { "part": "upstream", "crossing_id": "X02314", "area_ac": 0.1, "n_upstream": 1.0 }, "geometry": { "type": "Polygon", "coordinates": [ [ [ -119.935854509281469, 39.241191185273415 ], [ -119.93589609242224, 39.241300380900739 ], [ -119.935595238700785, 39.241292458388827 ], [ -119.935576798591086, 39.241183872130811 ], [ -119.935854509281469, 39.241191185273415 ] ] ] } }
]
}
