{
"type": "FeatureCollection",
"name": "X02369",
"crs": { "type": "name", "properties": { "name": "urn:ogc:def:crs:OGC:1.3:CRS84" } },
"features": [
{ "type": "Feature", "properties": { "part": "direct", "crossing_id": "X02369", "area_ac": 30.0 }, "geometry": { "type": "Polygon", "coordinates": [ [ [ -119.943391082477504, 39.27835978598295 ], [ -119.943705859395152, 39.278584256748985 ], [ -119.944191332596532, 39.278615026673641 ], [ -119.944229034359196, 39.278814200914503 ], [ -119.944058339677298, 39.279007901009933 ], [ -119.943938325692883, 39.27963533342816 ], [ -119.944275482773975, 39.279878407352051 ], [ -119.944357931127783, 39.280114790319892 ], [ -119.94435056561953, 39.280817248777161 ], [ -119.943623015094346, 39.281554838135577 ], [ -119.943613621305175, 39.281770791862485 ], [ -119.943862076133797, 39.281921452966202 ], [ -119.943680412958358, 39.282367098102618 ], [ -119.943248724406047, 39.282698073150456 ], [ -119.942587033313842, 39.28298696837804 ], [ -119.941117992604816, 39.283182566608943 ], [ -119.940812256859616, 39.283282627117522 ], [ -119.940518275106129, 39.283112745484814 ], [ -119.940214890107612, 39.283158816149665 ], [ -119.940045740944967, 39.28331651721755 ], [ -119.938728590532847, 39.283750297225424 ], [ -119.938631259140379, 39.283855835993187 ], [ -119.938399692617409, 39.283849741766232 ], [ -119.938382809690552, 39.283705163924537 ], [ -119.938524886010214, 39.28363683631698 ], [ -119.938725821080439, 39.283281790396366 ], [ -119.939009971069794, 39.283145134055275 ], [ -119.939060988065364, 39.283038376299928 ], [ -119.939670109368606, 39.282892251982034 ], [ -119.939979763697295, 39.282702214072359 ], [ -119.940014676471847, 39.282432881980888 ], [ -119.940254859339575, 39.282241015876629 ], [ -119.940390231499961, 39.281794158890641 ], [ -119.940970264339242, 39.28125089503947 ], [ -119.941303847030056, 39.281043465924711 ], [ -119.941605215812544, 39.280510888199679 ], [ -119.941589893206057, 39.28033031829645 ], [ -119.941781403682143, 39.280191219338079 ], [ -119.94208119853667, 39.279694632269972 ], [ -119.942534462124684, 39.279400261734523 ], [ -119.942869147081211, 39.278634338719158 ], [ -119.943157184492975, 39.278407690368837 ], [ -119.943391082477504, 39.27835978598295 ] ] ] } }
]
}
