{
"type": "FeatureCollection",
"name": "X02370",
"crs": { "type": "name", "properties": { "name": "urn:ogc:def:crs:OGC:1.3:CRS84" } },
"features": [
{ "type": "Feature", "properties": { "part": "direct", "crossing_id": "X02370", "area_ac": 0.0 }, "geometry": { "type": "MultiPolygon", "coordinates": [ [ [ [ -119.935775856006558, 39.256827659171805 ], [ -119.935798219582665, 39.256846264877225 ], [ -119.935775071876478, 39.256845655260555 ], [ -119.935775856006558, 39.256827659171805 ] ] ], [ [ [ -119.935799787830319, 39.256810272698885 ], [ -119.935822151407805, 39.256828878399801 ], [ -119.935799003706848, 39.256828268788105 ], [ -119.935799787830319, 39.256810272698885 ] ] ], [ [ [ -119.935753492442217, 39.256809053462476 ], [ -119.935775856006558, 39.256827659171805 ], [ -119.93575270830695, 39.256827049550914 ], [ -119.935753492442217, 39.256809053462476 ] ] ], [ [ [ -119.935731128889728, 39.256790447749289 ], [ -119.935753492442217, 39.256809053462476 ], [ -119.935730344749231, 39.256808443837379 ], [ -119.935731128889728, 39.256790447749289 ] ] ], [ [ [ -119.935708765349005, 39.256771842032165 ], [ -119.935731128889728, 39.256790447749289 ], [ -119.935707981203322, 39.256789838119985 ], [ -119.935708765349005, 39.256771842032165 ] ] ] ] } }
]
}
