{
"type": "FeatureCollection",
"name": "X02360",
"crs": { "type": "name", "properties": { "name": "urn:ogc:def:crs:OGC:1.3:CRS84" } },
"features": [
{ "type": "Feature", "properties": { "part": "direct", "crossing_id": "X02360", "area_ac": 38.9, "n_upstream": null }, "geometry": { "type": "MultiPolygon", "coordinates": [ [ [ [ -119.935551112596883, 39.259326066426262 ], [ -119.935573476862615, 39.259344672197074 ], [ -119.935550328339687, 39.259344062503452 ], [ -119.935551112596883, 39.259326066426262 ] ] ], [ [ [ -119.935528748342961, 39.259307460651527 ], [ -119.935551112596883, 39.259326066426262 ], [ -119.935527964080535, 39.259325456728433 ], [ -119.935528748342961, 39.259307460651527 ] ] ], [ [ [ -119.935506384100819, 39.259288854872892 ], [ -119.935528748342961, 39.259307460651527 ], [ -119.935505599833206, 39.259306850949507 ], [ -119.935506384100819, 39.259288854872892 ] ] ], [ [ [ -119.935431044321604, 39.25889050235228 ], [ -119.935453408422944, 39.258909108140664 ], [ -119.935430260045862, 39.258908498428802 ], [ -119.935431044321604, 39.25889050235228 ] ] ], [ [ [ -119.935454976961978, 39.258873115986702 ], [ -119.935477341064725, 39.258891721770624 ], [ -119.935454192692816, 39.258891112063736 ], [ -119.935454976961978, 39.258873115986702 ] ] ], [ [ [ -119.935478909590557, 39.258855729615739 ], [ -119.935501273694683, 39.258874335395099 ], [ -119.935478125327975, 39.258873725693199 ], [ -119.935478909590557, 39.258855729615739 ] ] ], [ [ [ -119.935716666833216, 39.258717857770897 ], [ -119.93605605059048, 39.258906962949794 ], [ -119.935988582103548, 39.259391638065779 ], [ -119.936909037182602, 39.259541991465909 ], [ -119.937362604043543, 39.259770132397151 ], [ -119.937605483611705, 39.260046776524725 ], [ -119.937836609515998, 39.260593361894507 ], [ -119.938189033634075, 39.262080009299396 ], [ -119.938277713371846, 39.262172426662332 ], [ -119.93848811810409, 39.263727402597837 ], [ -119.938011010130751, 39.26403914819371 ], [ -119.937563319223443, 39.26420753224798 ], [ -119.934342314141929, 39.264194771193857 ], [ -119.933618778985505, 39.263779336220324 ], [ -119.933501459485726, 39.263812277534846 ], [ -119.933231509896729, 39.263624995028216 ], [ -119.933068675739776, 39.263638719452672 ], [ -119.933934248110802, 39.262922847749493 ], [ -119.934210081262307, 39.262443664978974 ], [ -119.934400769848281, 39.26232257251246 ], [ -119.934432550198977, 39.262125225930113 ], [ -119.934747614310822, 39.261809225946983 ], [ -119.934832752398833, 39.261451134430672 ], [ -119.935412648167954, 39.260907891748325 ], [ -119.935520930424445, 39.260550409240132 ], [ -119.935536211589678, 39.259667991881706 ], [ -119.935710799581145, 39.259384322422022 ], [ -119.935531101125974, 39.259253472420383 ], [ -119.935416142961927, 39.259232427794892 ], [ -119.935309812324505, 39.259013426246781 ], [ -119.935524422062073, 39.258874945092394 ], [ -119.935622505113997, 39.258751411275668 ], [ -119.935716666833216, 39.258717857770897 ] ] ] ] } },
{ "type": "Feature", "properties": { "part": "upstream", "crossing_id": "X02360", "area_ac": 0.0, "n_upstream": 2.0 }, "geometry": { "type": "MultiPolygon", "coordinates": [ [ [ [ -119.935502057951325, 39.258856339317262 ], [ -119.935524422062073, 39.258874945092394 ], [ -119.935501273694683, 39.258874335395099 ], [ -119.935502057951325, 39.258856339317262 ] ] ], [ [ [ -119.935531101125974, 39.259253472420383 ], [ -119.935506384100819, 39.259288854872892 ], [ -119.935507952633955, 39.259252862719514 ], [ -119.935531101125974, 39.259253472420383 ] ] ], [ [ [ -119.935529532604676, 39.259289464574529 ], [ -119.935551896853411, 39.259308070348979 ], [ -119.935528748342961, 39.259307460651527 ], [ -119.935529532604676, 39.259289464574529 ] ] ], [ [ [ -119.935574261113942, 39.259326676119493 ], [ -119.935551112596883, 39.259326066426262 ], [ -119.935551896853411, 39.259308070348979 ], [ -119.935574261113942, 39.259326676119493 ] ] ], [ [ [ -119.935596625386268, 39.259345281886105 ], [ -119.935573476862615, 39.259344672197074 ], [ -119.935574261113942, 39.259326676119493 ], [ -119.935596625386268, 39.259345281886105 ] ] ], [ [ [ -119.935596625386268, 39.259345281886105 ], [ -119.935618989670417, 39.259363887648867 ], [ -119.935595841140128, 39.259363277964049 ], [ -119.935596625386268, 39.259345281886105 ] ] ], [ [ [ -119.935500489437331, 39.258892331472907 ], [ -119.935477341064725, 39.258891721770624 ], [ -119.935478125327975, 39.258873725693199 ], [ -119.935500489437331, 39.258892331472907 ] ] ], [ [ [ -119.935476556800751, 39.258909717847935 ], [ -119.935453408422944, 39.258909108140664 ], [ -119.935454192692816, 39.258891112063736 ], [ -119.935476556800751, 39.258909717847935 ] ] ], [ [ [ -119.935430260045862, 39.258908498428802 ], [ -119.935452624152376, 39.258927104217513 ], [ -119.935429475769368, 39.258926494505261 ], [ -119.935430260045862, 39.258908498428802 ] ] ], [ [ [ -119.93542869149222, 39.258944490581698 ], [ -119.935405543104011, 39.258943880864464 ], [ -119.935406327387057, 39.258925884788432 ], [ -119.93542869149222, 39.258944490581698 ] ] ], [ [ [ -119.935404758820212, 39.258961876940404 ], [ -119.935381610426845, 39.258961267218197 ], [ -119.935382394716513, 39.258943271142641 ], [ -119.935404758820212, 39.258961876940404 ] ] ] ] } }
]
}
