{
"type": "FeatureCollection",
"name": "X02325",
"crs": { "type": "name", "properties": { "name": "urn:ogc:def:crs:OGC:1.3:CRS84" } },
"features": [
{ "type": "Feature", "properties": { "part": "direct", "crossing_id": "X02325", "area_ac": 0.8 }, "geometry": { "type": "MultiPolygon", "coordinates": [ [ [ [ -119.940550116334933, 39.241368787745991 ], [ -119.940525408642586, 39.241404171706556 ], [ -119.940526973613473, 39.241368179273387 ], [ -119.940550116334933, 39.241368787745991 ] ] ], [ [ [ -119.940504613383055, 39.241349574579907 ], [ -119.940526973613473, 39.241368179273387 ], [ -119.940503830892766, 39.2413675707962 ], [ -119.940504613383055, 39.241349574579907 ] ] ], [ [ [ -119.941927911351584, 39.240053744968485 ], [ -119.941825174540554, 39.24028526336317 ], [ -119.941446291904455, 39.240473490115605 ], [ -119.941271778443337, 39.240757171744235 ], [ -119.941035659082956, 39.24085906568633 ], [ -119.940983897470815, 39.240983822522992 ], [ -119.940532450989508, 39.241242205755164 ], [ -119.9404814706689, 39.241348966098514 ], [ -119.940420650137028, 39.24114918226001 ], [ -119.940710098396522, 39.240886540537346 ], [ -119.941016428242193, 39.240768476183888 ], [ -119.940929334658151, 39.240640069089459 ], [ -119.941835342079159, 39.240051312213367 ], [ -119.941927911351584, 39.240053744968485 ] ] ] ] } }
]
}
