{
"type": "FeatureCollection",
"name": "X02312",
"crs": { "type": "name", "properties": { "name": "urn:ogc:def:crs:OGC:1.3:CRS84" } },
"features": [
{ "type": "Feature", "properties": { "part": "direct", "crossing_id": "X02312", "area_ac": 1.2, "n_upstream": null }, "geometry": { "type": "MultiPolygon", "coordinates": [ [ [ [ -119.943073612789135, 39.239813596301374 ], [ -119.943095973269621, 39.239832200512637 ], [ -119.943072830997977, 39.239831592565686 ], [ -119.943073612789135, 39.239813596301374 ] ] ], [ [ [ -119.943218248814631, 39.239150774090461 ], [ -119.943539892631719, 39.23921327322514 ], [ -119.94377365823388, 39.239165362646553 ], [ -119.94392940028014, 39.239313587388146 ], [ -119.944138460889747, 39.239301060869963 ], [ -119.944341269821024, 39.239432504269487 ], [ -119.944422116927115, 39.23970487931846 ], [ -119.944209147635746, 39.239807387718464 ], [ -119.943748646869992, 39.239741243509741 ], [ -119.943720033241448, 39.239866609620378 ], [ -119.943561163849125, 39.239790369670402 ], [ -119.943096755054881, 39.239814204247956 ], [ -119.943737228868628, 39.239470691553606 ], [ -119.943096284428094, 39.23929170460773 ], [ -119.943214340128776, 39.239240755433521 ], [ -119.943218248814631, 39.239150774090461 ] ] ] ] } },
{ "type": "Feature", "properties": { "part": "upstream", "crossing_id": "X02312", "area_ac": 5.5, "n_upstream": 7.0 }, "geometry": { "type": "MultiPolygon", "coordinates": [ [ [ [ -119.942911147695327, 39.239286840959771 ], [ -119.942966813494408, 39.239072101726642 ], [ -119.943059381577811, 39.239074533532047 ], [ -119.943214340128776, 39.239240755433521 ], [ -119.942911147695327, 39.239286840959771 ] ] ], [ [ [ -119.944382084028717, 39.239559693655771 ], [ -119.944341269821024, 39.239432504269487 ], [ -119.944138460889747, 39.239301060869963 ], [ -119.94392940028014, 39.239313587388146 ], [ -119.944166291989077, 39.239193690892066 ], [ -119.944277313622365, 39.23930470717147 ], [ -119.944462450638426, 39.239309568649766 ], [ -119.944382084028717, 39.239559693655771 ] ] ], [ [ [ -119.94281201118298, 39.239968874923754 ], [ -119.942820611622224, 39.23977091606595 ], [ -119.942761817185357, 39.240057640201265 ], [ -119.942477853563389, 39.240194313730271 ], [ -119.942424531092598, 39.240355063844959 ], [ -119.942213121152975, 39.240421575888135 ], [ -119.941733847152392, 39.240787333445631 ], [ -119.941359655059003, 39.240867582378158 ], [ -119.941260826490605, 39.241009118972514 ], [ -119.941144331087358, 39.24102407352099 ], [ -119.940712897841891, 39.241355050705934 ], [ -119.940753706292185, 39.241482241114824 ], [ -119.940659570335342, 39.241515799789809 ], [ -119.94053829961571, 39.241385710510542 ], [ -119.940525408642586, 39.241404171706556 ], [ -119.940526750046388, 39.241373321049572 ], [ -119.940521830786608, 39.241368044056635 ], [ -119.940503830892766, 39.2413675707962 ], [ -119.940504613383055, 39.241349574579907 ], [ -119.940532450989508, 39.241242205755164 ], [ -119.9404814706689, 39.241348966098514 ], [ -119.940420650137028, 39.24114918226001 ], [ -119.940710098396522, 39.240886540537346 ], [ -119.941016428242193, 39.240768476183888 ], [ -119.940929334658151, 39.240640069089459 ], [ -119.941184150764769, 39.240474481997317 ], [ -119.94090619216793, 39.240639460701608 ], [ -119.940910886360754, 39.240531483348654 ], [ -119.941058360869249, 39.240455285547391 ], [ -119.940887743906586, 39.240530874958537 ], [ -119.940827705141373, 39.240313095065829 ], [ -119.940968124124453, 39.24028075293775 ], [ -119.941046156770028, 39.240084619517951 ], [ -119.9411865752067, 39.240052277102976 ], [ -119.94119361569463, 39.239890311013788 ], [ -119.941308544708875, 39.239911348807681 ], [ -119.941340291550858, 39.239713998520386 ], [ -119.941435989160823, 39.239644446702954 ], [ -119.94155091786611, 39.23966548424508 ], [ -119.94162660166262, 39.239523339048219 ], [ -119.941834880939467, 39.239528812955967 ], [ -119.941854894705273, 39.239601406123363 ], [ -119.942130254707621, 39.239662692799179 ], [ -119.942218913465794, 39.239755106551272 ], [ -119.942184163400285, 39.239816559247096 ], [ -119.942739770733169, 39.239498540147729 ], [ -119.942911147695327, 39.239286840959771 ], [ -119.943232791798579, 39.239349340956473 ], [ -119.943224192646724, 39.239547299904835 ], [ -119.943279076032539, 39.239350556769793 ], [ -119.943487355120098, 39.239356027702577 ], [ -119.943737228868628, 39.239470691553606 ], [ -119.94281201118298, 39.239968874923754 ] ], [ [ -119.940625021714411, 39.241244639607196 ], [ -119.94062749262541, 39.241187809442579 ], [ -119.940532450989508, 39.241242205755164 ], [ -119.940625021714411, 39.241244639607196 ] ], [ [ -119.941825174540554, 39.24028526336317 ], [ -119.941948707415349, 39.240108341879498 ], [ -119.941915824705319, 39.240080982433192 ], [ -119.941825174540554, 39.24028526336317 ] ], [ [ -119.941835342079159, 39.240051312213367 ], [ -119.941881626713979, 39.24005252860011 ], [ -119.941854297569762, 39.240029789846631 ], [ -119.941818564300604, 39.240062215188523 ], [ -119.941835342079159, 39.240051312213367 ] ], [ [ -119.941927193335971, 39.239963642110524 ], [ -119.942100243112719, 39.239864593132573 ], [ -119.942004376937646, 39.239893603274808 ], [ -119.941927193335971, 39.239963642110524 ] ], [ [ -119.941747776260158, 39.240067027680013 ], [ -119.941714242947768, 39.240130007885739 ], [ -119.941727850459316, 39.240121165127157 ], [ -119.941747776260158, 39.240067027680013 ] ], [ [ -119.941551376830262, 39.240187983409875 ], [ -119.941758722449478, 39.240037287367038 ], [ -119.941767479393746, 39.240013495115541 ], [ -119.941551376830262, 39.240187983409875 ] ], [ [ -119.941242703565223, 39.240360038013726 ], [ -119.941318388810942, 39.24021789308614 ], [ -119.94120583506519, 39.240379087545485 ], [ -119.941242703565223, 39.240360038013726 ] ] ] ] } }
]
}
