{
"type": "FeatureCollection",
"name": "X02356",
"crs": { "type": "name", "properties": { "name": "urn:ogc:def:crs:OGC:1.3:CRS84" } },
"features": [
{ "type": "Feature", "properties": { "part": "direct", "crossing_id": "X02356", "area_ac": 0.0 }, "geometry": { "type": "MultiPolygon", "coordinates": [ [ [ [ -119.934029191129738, 39.257556365338608 ], [ -119.934002904812743, 39.257627739587356 ], [ -119.934006043228379, 39.257555755361139 ], [ -119.934029191129738, 39.257556365338608 ] ] ], [ [ [ -119.934029975725977, 39.257538369281491 ], [ -119.934075486934546, 39.25755758527977 ], [ -119.934029191129738, 39.257556365338608 ], [ -119.934029975725977, 39.257538369281491 ] ] ] ] } }
]
}
