{
"type": "FeatureCollection",
"name": "X02308",
"crs": { "type": "name", "properties": { "name": "urn:ogc:def:crs:OGC:1.3:CRS84" } },
"features": [
{ "type": "Feature", "properties": { "part": "direct", "crossing_id": "X02308", "area_ac": 0.1 }, "geometry": { "type": "Polygon", "coordinates": [ [ [ -119.940486257697657, 39.238574505849051 ], [ -119.940527846857435, 39.238683700084849 ], [ -119.940378823988908, 39.238914000250212 ], [ -119.940168981797484, 39.238944516246569 ], [ -119.940125828041459, 39.238871314337871 ], [ -119.940266244369553, 39.238838972949623 ], [ -119.940270156765635, 39.238748991848297 ], [ -119.940486257697657, 39.238574505849051 ] ] ] } }
]
}
