{
"type": "FeatureCollection",
"name": "X02305",
"crs": { "type": "name", "properties": { "name": "urn:ogc:def:crs:OGC:1.3:CRS84" } },
"features": [
{ "type": "Feature", "properties": { "part": "direct", "crossing_id": "X02305", "area_ac": 0.8 }, "geometry": { "type": "Polygon", "coordinates": [ [ [ -119.941471187654841, 39.238834615955604 ], [ -119.941511996328799, 39.238961806142093 ], [ -119.941409260002246, 39.239193324215506 ], [ -119.94152184145608, 39.239268350475989 ], [ -119.941420669055901, 39.239463876056256 ], [ -119.941599548723772, 39.239612712014811 ], [ -119.941340291550858, 39.239713998520386 ], [ -119.941308544708875, 39.239911348807681 ], [ -119.941168908885288, 39.239925695152074 ], [ -119.9411865752067, 39.240052277102976 ], [ -119.940951240510302, 39.240136174743576 ], [ -119.94091590874595, 39.239883010802636 ], [ -119.941065714460265, 39.239634713762435 ], [ -119.94099863492039, 39.239578900015204 ], [ -119.941051959904001, 39.23941815064137 ], [ -119.941195506020151, 39.239313823227093 ], [ -119.941471187654841, 39.238834615955604 ] ] ] } }
]
}
