{
"type": "FeatureCollection",
"name": "X02340",
"crs": { "type": "name", "properties": { "name": "urn:ogc:def:crs:OGC:1.3:CRS84" } },
"features": [
{ "type": "Feature", "properties": { "part": "direct", "crossing_id": "X02340", "area_ac": 0.0 }, "geometry": { "type": "MultiPolygon", "coordinates": [ [ [ [ -119.941701013127783, 39.276711880621527 ], [ -119.941723384335518, 39.276730485443721 ], [ -119.941700229958968, 39.276729876748469 ], [ -119.941701013127783, 39.276711880621527 ] ] ], [ [ [ -119.941678641931901, 39.276693275795395 ], [ -119.941701013127783, 39.276711880621527 ], [ -119.941677858757842, 39.276711271922053 ], [ -119.941678641931901, 39.276693275795395 ] ] ] ] } }
]
}
