{
"type": "FeatureCollection",
"name": "X02303",
"crs": { "type": "name", "properties": { "name": "urn:ogc:def:crs:OGC:1.3:CRS84" } },
"features": [
{ "type": "Feature", "properties": { "part": "direct", "crossing_id": "X02303", "area_ac": 1.2, "n_upstream": null }, "geometry": { "type": "Polygon", "coordinates": [ [ [ -119.934846052911041, 39.24147091084717 ], [ -119.935112790316467, 39.24173017152404 ], [ -119.934795471772134, 39.242100165406548 ], [ -119.934831565937102, 39.242335334179934 ], [ -119.934549930803897, 39.242417998985346 ], [ -119.934344780774751, 39.242340527277335 ], [ -119.93407725999532, 39.242099260988113 ], [ -119.93420159942977, 39.241904352571481 ], [ -119.934487153019873, 39.241731707970331 ], [ -119.934515783938494, 39.241606344846822 ], [ -119.934630713294737, 39.241627389267819 ], [ -119.934846052911041, 39.24147091084717 ] ] ] } },
{ "type": "Feature", "properties": { "part": "upstream", "crossing_id": "X02303", "area_ac": 0.6, "n_upstream": 2.0 }, "geometry": { "type": "Polygon", "coordinates": [ [ [ -119.934256913831575, 39.242230111728382 ], [ -119.934131789763015, 39.242443016283687 ], [ -119.934279272595106, 39.242248717566646 ], [ -119.934367139595807, 39.242359133100706 ], [ -119.934197297909094, 39.242534826074376 ], [ -119.933964299882405, 39.242564720573277 ], [ -119.933748954901091, 39.242721197125654 ], [ -119.933660304212339, 39.242628777247887 ], [ -119.933614018240647, 39.242627557527577 ], [ -119.933434364698641, 39.24249670580879 ], [ -119.93388192278168, 39.242328332042561 ], [ -119.934098834521379, 39.242135862963799 ], [ -119.934256913831575, 39.242230111728382 ] ] ] } }
]
}
