{
"type": "FeatureCollection",
"name": "X02436",
"crs": { "type": "name", "properties": { "name": "urn:ogc:def:crs:OGC:1.3:CRS84" } },
"features": [
{ "type": "Feature", "properties": { "part": "direct", "crossing_id": "X02436", "area_ac": 0.5 }, "geometry": { "type": "Polygon", "coordinates": [ [ [ -119.938858775363741, 39.256278223869728 ], [ -119.939241319196313, 39.25654052226411 ], [ -119.939235836528781, 39.256666495298731 ], [ -119.938426450138465, 39.256627183843186 ], [ -119.938503727468913, 39.2564490497344 ], [ -119.938858775363741, 39.256278223869728 ] ] ] } }
]
}
