{
"type": "FeatureCollection",
"name": "X02485",
"crs": { "type": "name", "properties": { "name": "urn:ogc:def:crs:OGC:1.3:CRS84" } },
"features": [
{ "type": "Feature", "properties": { "part": "direct", "crossing_id": "X02485", "area_ac": 8.9 }, "geometry": { "type": "Polygon", "coordinates": [ [ [ -119.944192115180513, 39.278597030510603 ], [ -119.944676806354437, 39.278645794587348 ], [ -119.944858134869889, 39.278740640352844 ], [ -119.944854222775035, 39.278830621220962 ], [ -119.945017091123049, 39.278816881614254 ], [ -119.945010832071304, 39.278960851021886 ], [ -119.945189814833057, 39.279109684846617 ], [ -119.945971618222018, 39.279256328694011 ], [ -119.946125884252965, 39.279440545679179 ], [ -119.946181272532726, 39.279766300698171 ], [ -119.946028261027934, 39.280086584960173 ], [ -119.945839105430252, 39.280171702702013 ], [ -119.945834412181469, 39.28027967981582 ], [ -119.945690002651816, 39.280402005486103 ], [ -119.945286185717308, 39.28062561992968 ], [ -119.944852168145999, 39.281010590244605 ], [ -119.944798813968333, 39.281171339473822 ], [ -119.944679121793541, 39.281258279539216 ], [ -119.944541751353157, 39.281218638153923 ], [ -119.943703897227152, 39.281827213788524 ], [ -119.943592030878762, 39.281734191191809 ], [ -119.943623015094346, 39.281554838135577 ], [ -119.944377634385035, 39.280727876201063 ], [ -119.944340253688353, 39.279988208978018 ], [ -119.943938325692883, 39.27963533342816 ], [ -119.944058339677298, 39.279007901009933 ], [ -119.944229034359196, 39.278814200914503 ], [ -119.944192115180513, 39.278597030510603 ] ] ] } }
]
}
