{
"type": "FeatureCollection",
"name": "X02424",
"crs": { "type": "name", "properties": { "name": "urn:ogc:def:crs:OGC:1.3:CRS84" } },
"features": [
{ "type": "Feature", "properties": { "part": "direct", "crossing_id": "X02424", "area_ac": 1.0, "n_upstream": null }, "geometry": { "type": "Polygon", "coordinates": [ [ [ -119.943315487785966, 39.266773042326108 ], [ -119.944057889026567, 39.266756511519063 ], [ -119.943914288212241, 39.266860840003908 ], [ -119.943908029564525, 39.267004809559374 ], [ -119.944059600406533, 39.267783510897246 ], [ -119.943906145938044, 39.267581295880582 ], [ -119.943310145704345, 39.26796200691868 ], [ -119.943282299051262, 39.268069375735145 ], [ -119.943287776698028, 39.267943402471097 ], [ -119.943408229222868, 39.267838466659384 ], [ -119.943573419417433, 39.267770739506638 ], [ -119.943884559236196, 39.267544695353152 ], [ -119.943744086062978, 39.26757703878021 ], [ -119.943676979066126, 39.267521225673974 ], [ -119.943463461755371, 39.267101231316559 ], [ -119.9431255835634, 39.266876153283718 ], [ -119.943315487785966, 39.266773042326108 ] ] ] } },
{ "type": "Feature", "properties": { "part": "upstream", "crossing_id": "X02424", "area_ac": 107.7, "n_upstream": 12.0 }, "geometry": { "type": "MultiPolygon", "coordinates": [ [ [ [ -119.943861407835882, 39.267544087205927 ], [ -119.943883776881066, 39.267562691545201 ], [ -119.943860625474827, 39.267562083397578 ], [ -119.943861407835882, 39.267544087205927 ] ] ], [ [ [ -119.94383747406934, 39.267561475245365 ], [ -119.943859843113074, 39.267580079589159 ], [ -119.943836691701691, 39.267579471436562 ], [ -119.94383747406934, 39.267561475245365 ] ] ], [ [ [ -119.944059600406533, 39.267783510897246 ], [ -119.944292363439516, 39.268294093397152 ], [ -119.944492590982932, 39.269020021867391 ], [ -119.944493840044316, 39.269524523428849 ], [ -119.944760714244993, 39.269783766494761 ], [ -119.944278895590301, 39.270203514175755 ], [ -119.944271854610832, 39.270365479887388 ], [ -119.94412433449186, 39.270559789237957 ], [ -119.943753113742105, 39.270568054652841 ], [ -119.943468242161984, 39.270722721382029 ], [ -119.943143325474637, 39.270732201340614 ], [ -119.943020519324307, 39.270891125124052 ], [ -119.942791342708929, 39.270831052805825 ], [ -119.942488012398115, 39.270877131632773 ], [ -119.942461728683384, 39.270948507796035 ], [ -119.942456580853033, 39.270533987687244 ], [ -119.942436344882822, 39.270497075924752 ], [ -119.942455466153532, 39.271092477054871 ], [ -119.942327177809759, 39.271377373097145 ], [ -119.941867703483155, 39.271815714338345 ], [ -119.941478805149956, 39.27169739062699 ], [ -119.941177819913179, 39.271689477441178 ], [ -119.940848199365277, 39.271806927576741 ], [ -119.940648878022898, 39.272125987235476 ], [ -119.940351024727264, 39.272046087358369 ], [ -119.939770990796518, 39.271526363194319 ], [ -119.939820119532214, 39.271527655482153 ], [ -119.939750624032584, 39.271461768007981 ], [ -119.939750188742948, 39.271471765847096 ], [ -119.939616758017053, 39.271342138901183 ], [ -119.939645393876773, 39.271362000824489 ], [ -119.939038302603066, 39.270786419261675 ], [ -119.939110894355451, 39.270716262284296 ], [ -119.938713385829928, 39.270795886803469 ], [ -119.938560142965429, 39.270738044445778 ], [ -119.938620776401365, 39.270793449906989 ], [ -119.938357478066663, 39.270984705039673 ], [ -119.937937598859392, 39.271045721434298 ], [ -119.937581687855683, 39.271234537156282 ], [ -119.937255200767325, 39.271279992674863 ], [ -119.936780387015958, 39.27153774244433 ], [ -119.936810222287676, 39.271916878917501 ], [ -119.936686238601396, 39.272634282712318 ], [ -119.935408905764987, 39.272690725636856 ], [ -119.934274018070283, 39.273201325730525 ], [ -119.934215152155289, 39.27348804164717 ], [ -119.933462737912848, 39.273695819515858 ], [ -119.933524464702771, 39.274442739712853 ], [ -119.932988794289002, 39.274500685691081 ], [ -119.93282279323688, 39.27458639269269 ], [ -119.93238523375193, 39.274520805666654 ], [ -119.931373921141741, 39.274854468193602 ], [ -119.930868472975362, 39.274751051344047 ], [ -119.930720906879841, 39.274945341732511 ], [ -119.930459143896641, 39.27510058550596 ], [ -119.930414767897091, 39.275585865004487 ], [ -119.930090615396978, 39.275577311579013 ], [ -119.93004116342675, 39.275648073323183 ], [ -119.929341046614752, 39.275755712651559 ], [ -119.929150311861903, 39.275876794792453 ], [ -119.928879891287366, 39.276229989773626 ], [ -119.928353986896781, 39.276594455338874 ], [ -119.928181682483753, 39.276824122468284 ], [ -119.92805849098778, 39.27646053612299 ], [ -119.927810877544104, 39.276291847327926 ], [ -119.927814811087018, 39.27620186785655 ], [ -119.927980821731211, 39.276116168419321 ], [ -119.927938447339486, 39.276024966090347 ], [ -119.928041289074258, 39.275793465064808 ], [ -119.928135477392914, 39.275759918831362 ], [ -119.928174363145459, 39.275400612164994 ], [ -119.928228523616923, 39.275354748487622 ], [ -119.928199089962703, 39.27536523172563 ], [ -119.928256409189601, 39.27511451177832 ], [ -119.928519749754614, 39.274923281339326 ], [ -119.928619882156212, 39.274223274603223 ], [ -119.929123399830871, 39.273840199868459 ], [ -119.929476986911851, 39.273705399326239 ], [ -119.929765044122831, 39.273478784902544 ], [ -119.930230463247824, 39.273437016726774 ], [ -119.930350944354501, 39.273332095671769 ], [ -119.93048986243781, 39.273335761051037 ], [ -119.931158577125842, 39.272884968999151 ], [ -119.931415615950229, 39.272837699008093 ], [ -119.931609480995974, 39.27264462873822 ], [ -119.93217771653579, 39.272371347372939 ], [ -119.933249024775492, 39.2722554591221 ], [ -119.933274733275809, 39.27242847043329 ], [ -119.933250395512303, 39.272241950527309 ], [ -119.933225872055473, 39.272254848799605 ], [ -119.933101406549738, 39.271648217862193 ], [ -119.933065778265757, 39.27167409418152 ], [ -119.932832303429777, 39.271181488231164 ], [ -119.9334083736574, 39.270728240119652 ], [ -119.93388083823119, 39.270524492408121 ], [ -119.934097057137734, 39.270350023589259 ], [ -119.934449047966481, 39.270251198829087 ], [ -119.935195794952037, 39.269604254935913 ], [ -119.935383749390397, 39.269014654686515 ], [ -119.935789879818742, 39.268737084713592 ], [ -119.936068483669004, 39.26872640556104 ], [ -119.936223857500664, 39.268613546729917 ], [ -119.93621288384513, 39.268604091346582 ], [ -119.936480099715396, 39.268322860557952 ], [ -119.936810494211556, 39.268187426319791 ], [ -119.937836265673198, 39.269115265558618 ], [ -119.93788838065845, 39.269195910807163 ], [ -119.937901801388449, 39.269207074073087 ], [ -119.937924169281231, 39.269225679513227 ], [ -119.938206694347244, 39.269125014852555 ], [ -119.938925967749071, 39.269107908554602 ], [ -119.939070790495862, 39.26950808682566 ], [ -119.939088298284048, 39.269515476962681 ], [ -119.939074708690299, 39.269418106299632 ], [ -119.939515378688355, 39.269411682738557 ], [ -119.939719045161283, 39.269525140587703 ], [ -119.940025504501378, 39.269407084332961 ], [ -119.940053576313531, 39.269544602709324 ], [ -119.94006710805904, 39.269516278928009 ], [ -119.940692994644181, 39.269514722211511 ], [ -119.940860540795043, 39.269393010785841 ], [ -119.941467848768852, 39.269304738431124 ], [ -119.941398516968604, 39.269281038266698 ], [ -119.940919277297368, 39.268043300428737 ], [ -119.94113625460156, 39.267850821320543 ], [ -119.941295965634467, 39.267909070517383 ], [ -119.94139326950588, 39.267803528242524 ], [ -119.941718172537804, 39.267794052647105 ], [ -119.941291945778829, 39.266936061159782 ], [ -119.94136453114217, 39.266865902489933 ], [ -119.941549740147153, 39.26687077144036 ], [ -119.941626239746327, 39.266710631813481 ], [ -119.941934249274894, 39.266556577547775 ], [ -119.942069241525729, 39.266650209407224 ], [ -119.942325468763329, 39.26662091022925 ], [ -119.94292191860113, 39.266762701443959 ], [ -119.943216623211441, 39.266914578761536 ], [ -119.943463461755371, 39.267101231316559 ], [ -119.943676979066126, 39.267521225673974 ], [ -119.943836691701691, 39.267579471436562 ], [ -119.943287776698028, 39.267943402471097 ], [ -119.943318429463034, 39.268304542617528 ], [ -119.943348073688753, 39.268086089730026 ], [ -119.943303885575432, 39.268105976365611 ], [ -119.943334079737312, 39.267944618999337 ], [ -119.943906145938044, 39.267581295880582 ], [ -119.943925385620929, 39.267671884982192 ], [ -119.943823650692536, 39.267753997251504 ], [ -119.943924603272691, 39.267689881174562 ], [ -119.944059600406533, 39.267783510897246 ] ], [ [ -119.937895487256242, 39.269206907884971 ], [ -119.93790140942275, 39.26921607211623 ], [ -119.937901801388449, 39.269207074073087 ], [ -119.937895487256242, 39.269206907884971 ] ], [ [ -119.937907331590722, 39.269225236347239 ], [ -119.937966553352183, 39.269316878643153 ], [ -119.938069294865102, 39.269376908624785 ], [ -119.937924169281231, 39.269225679513227 ], [ -119.937907331590722, 39.269225236347239 ] ], [ [ -119.942306256985773, 39.270259785953812 ], [ -119.942267909415875, 39.27022789226092 ], [ -119.942384686690204, 39.27040284774759 ], [ -119.942306256985773, 39.270259785953812 ] ], [ [ -119.941809323132645, 39.269827835359841 ], [ -119.941613593452999, 39.269665043761769 ], [ -119.941809323132617, 39.269827835359841 ], [ -119.941809323132645, 39.269827835359841 ] ], [ [ -119.941512710548125, 39.269320073810597 ], [ -119.941494543378866, 39.269313863617612 ], [ -119.941613593452999, 39.269665043761769 ], [ -119.941512710548125, 39.269320073810597 ] ], [ [ -119.940746879848177, 39.270939460569295 ], [ -119.940272116267039, 39.271414394165532 ], [ -119.940477319797438, 39.271274689707944 ], [ -119.940746879848177, 39.270939460569295 ] ], [ [ -119.93714666242515, 39.269952822603557 ], [ -119.937481476062231, 39.269756026514521 ], [ -119.937461547333854, 39.269735987272291 ], [ -119.937557291404303, 39.269666440720414 ], [ -119.93741445929922, 39.269752764439225 ], [ -119.937436432737371, 39.269721313153994 ], [ -119.93714666242515, 39.269952822603557 ] ], [ [ -119.937811180076309, 39.269712833883922 ], [ -119.937776197884546, 39.269723832797396 ], [ -119.937786459135168, 39.269726523041221 ], [ -119.937811180076309, 39.269712833883922 ] ], [ [ -119.938162880848495, 39.269474430116674 ], [ -119.938019406089552, 39.269597528833998 ], [ -119.938190233321919, 39.269502932762364 ], [ -119.938162880848495, 39.269474430116674 ] ], [ [ -119.936115619490053, 39.27083560221817 ], [ -119.936612798530703, 39.270596460738481 ], [ -119.936612644652413, 39.270590933315127 ], [ -119.936115619490053, 39.27083560221817 ] ], [ [ -119.935830731189114, 39.270990249519819 ], [ -119.935738121754625, 39.270987810320804 ], [ -119.93562079084829, 39.271020753303247 ], [ -119.935853099044309, 39.271008855354275 ], [ -119.935829946678041, 39.271008245565625 ], [ -119.935830731189114, 39.270990249519819 ], [ -119.935830731189114, 39.270990249519819 ] ], [ [ -119.934410980583337, 39.271655498641969 ], [ -119.93502236388872, 39.271455406841312 ], [ -119.935070238317195, 39.271420634683338 ], [ -119.934410980583337, 39.271655498641969 ] ], [ [ -119.936816019334699, 39.269124441071547 ], [ -119.937455844648284, 39.269693528236253 ], [ -119.937463899506469, 39.269681999040309 ], [ -119.93680576263435, 39.2691149367745 ], [ -119.936409106069121, 39.269420010745613 ], [ -119.936816019334699, 39.269124441071547 ] ], [ [ -119.936411836551983, 39.268825531067733 ], [ -119.936709606079916, 39.269032085558194 ], [ -119.936285056787398, 39.268666278658337 ], [ -119.936411836551983, 39.268825531067733 ] ], [ [ -119.936079893300857, 39.27005994278899 ], [ -119.936342409521075, 39.269886688954557 ], [ -119.93643815485467, 39.269817143377743 ], [ -119.936079893300857, 39.27005994278899 ] ], [ [ -119.933131666638488, 39.273351383844684 ], [ -119.933394018261296, 39.273342636609101 ], [ -119.933393849268583, 39.273341341509727 ], [ -119.933131666638488, 39.273351383844684 ] ] ], [ [ [ -119.939572020029132, 39.271304928591626 ], [ -119.939594389017174, 39.271323533748344 ], [ -119.939571236466278, 39.271322924699476 ], [ -119.939572020029132, 39.271304928591626 ] ] ], [ [ [ -119.939594389017174, 39.271323533748344 ], [ -119.939616758017053, 39.271342138901183 ], [ -119.939593605459535, 39.271341529856528 ], [ -119.939594389017174, 39.271323533748344 ] ] ], [ [ [ -119.939750188742948, 39.271471765847096 ], [ -119.939772557830679, 39.271490370973083 ], [ -119.939749405221008, 39.271489761957476 ], [ -119.939750188742948, 39.271471765847096 ] ] ], [ [ [ -119.928157741733472, 39.276841506977426 ], [ -119.928158528370119, 39.276823511079144 ], [ -119.928180895853018, 39.27684211836695 ], [ -119.928157741733472, 39.276841506977426 ] ] ] ] } }
]
}
