{
"type": "FeatureCollection",
"name": "X02480",
"crs": { "type": "name", "properties": { "name": "urn:ogc:def:crs:OGC:1.3:CRS84" } },
"features": [
{ "type": "Feature", "properties": { "part": "direct", "crossing_id": "X02480", "area_ac": 12.3, "n_upstream": null }, "geometry": { "type": "MultiPolygon", "coordinates": [ [ [ [ -119.942375957471157, 39.276117053613945 ], [ -119.942398328686934, 39.276135658307467 ], [ -119.942375174491559, 39.276135049754089 ], [ -119.942375957471157, 39.276117053613945 ] ] ], [ [ [ -119.942375174491559, 39.276135049754089 ], [ -119.943030207305412, 39.276530615099489 ], [ -119.943882222701347, 39.276661100867209 ], [ -119.944314331439443, 39.27685261873912 ], [ -119.944685585508765, 39.276844352843483 ], [ -119.944818253384454, 39.276991970823694 ], [ -119.944876763853983, 39.277245741554864 ], [ -119.944856421974677, 39.277713642178682 ], [ -119.943630785641233, 39.277645415030662 ], [ -119.943588389758048, 39.277554217590762 ], [ -119.943156278982713, 39.277362696948309 ], [ -119.942346650872182, 39.277323403430849 ], [ -119.942249334259103, 39.277428945892609 ], [ -119.941919687739656, 39.277546397977225 ], [ -119.941765879473948, 39.277884672284891 ], [ -119.940934658837648, 39.27780876779687 ], [ -119.94084595706903, 39.277716351758727 ], [ -119.940605792019994, 39.277908219885177 ], [ -119.938914713927488, 39.2778817517978 ], [ -119.937775842031428, 39.278482363703347 ], [ -119.937663616202741, 39.278929826990172 ], [ -119.937336308700466, 39.278993277325796 ], [ -119.937104758467882, 39.278987181150974 ], [ -119.937038431108476, 39.278913368042701 ], [ -119.937111818110026, 39.278825216765021 ], [ -119.937459142687743, 39.278834360802456 ], [ -119.937671458800182, 39.278749866465077 ], [ -119.93775974518698, 39.278319789702266 ], [ -119.938111772265145, 39.278220955339052 ], [ -119.938592116257283, 39.277837229477029 ], [ -119.938731828269866, 39.277822889299934 ], [ -119.938831502353125, 39.277663361791767 ], [ -119.939042245598642, 39.27761485688778 ], [ -119.939425259827871, 39.27733666671994 ], [ -119.939707032676139, 39.277253995823969 ], [ -119.940563749862946, 39.277276529401753 ], [ -119.940867892420329, 39.27721246066578 ], [ -119.941418461285849, 39.276812552657368 ], [ -119.941723384335518, 39.276730485443721 ], [ -119.941754370251488, 39.276551132853953 ], [ -119.941894079289938, 39.2765367887474 ], [ -119.942375174491559, 39.276135049754089 ] ] ] ] } },
{ "type": "Feature", "properties": { "part": "upstream", "crossing_id": "X02480", "area_ac": 240.8, "n_upstream": 17.0 }, "geometry": { "type": "MultiPolygon", "coordinates": [ [ [ [ -119.942375174491559, 39.276135049754089 ], [ -119.94235202029688, 39.276134441196106 ], [ -119.942352803282404, 39.276116445056346 ], [ -119.942375174491559, 39.276135049754089 ] ] ], [ [ [ -119.942397545712538, 39.276153654447924 ], [ -119.942374391511265, 39.276153045894162 ], [ -119.942375174491559, 39.276135049754089 ], [ -119.942397545712538, 39.276153654447924 ] ] ], [ [ [ -119.941701013127783, 39.276711880621527 ], [ -119.941677858757842, 39.276711271922053 ], [ -119.941678641931901, 39.276693275795395 ], [ -119.941701013127783, 39.276711880621527 ] ] ], [ [ [ -119.941723384335518, 39.276730485443721 ], [ -119.941700229958968, 39.276729876748469 ], [ -119.941701013127783, 39.276711880621527 ], [ -119.941723384335518, 39.276730485443721 ] ] ], [ [ [ -119.942416114632024, 39.277325229140146 ], [ -119.942418031954972, 39.277343075860848 ], [ -119.942856834814478, 39.277318794860605 ], [ -119.943361539505176, 39.277440157118996 ], [ -119.943721839168589, 39.277683840611829 ], [ -119.943723404524249, 39.27764784829575 ], [ -119.943816023418492, 39.277650281487304 ], [ -119.943768148637915, 39.277685057218342 ], [ -119.944347017241341, 39.277700263248498 ], [ -119.94429209985509, 39.277897004711782 ], [ -119.94448797337563, 39.278190417017704 ], [ -119.944472323303117, 39.278550340389451 ], [ -119.944143969332799, 39.278612024818287 ], [ -119.944191332596532, 39.278615026673641 ], [ -119.944229034359196, 39.278814200914503 ], [ -119.944058339677298, 39.279007901009933 ], [ -119.943938325692883, 39.27963533342816 ], [ -119.944275482773975, 39.279878407352051 ], [ -119.944357931127783, 39.280114790319892 ], [ -119.94435056561953, 39.280817248777161 ], [ -119.943623015094346, 39.281554838135577 ], [ -119.943613621305175, 39.281770791862485 ], [ -119.943862076133797, 39.281921452966202 ], [ -119.943680412958358, 39.282367098102618 ], [ -119.943248724406047, 39.282698073150456 ], [ -119.942587033313842, 39.28298696837804 ], [ -119.941117992604816, 39.283182566608943 ], [ -119.940812256859616, 39.283282627117522 ], [ -119.940518275106129, 39.283112745484814 ], [ -119.940214890107612, 39.283158816149665 ], [ -119.940045740944967, 39.28331651721755 ], [ -119.938728590532847, 39.283750297225424 ], [ -119.938631259140379, 39.283855835993187 ], [ -119.938399692617409, 39.283849741766232 ], [ -119.938382809690552, 39.283705163924537 ], [ -119.938372614870147, 39.283939112562102 ], [ -119.938202675480028, 39.284114806739289 ], [ -119.937713246685533, 39.284173990619195 ], [ -119.937172011933427, 39.28435792521843 ], [ -119.936341506973292, 39.284263989116241 ], [ -119.935731582880905, 39.28442809122263 ], [ -119.935503547552258, 39.284872501138331 ], [ -119.935069450946784, 39.285257431537765 ], [ -119.934806871826638, 39.285430679714359 ], [ -119.934552143862859, 39.285423967449489 ], [ -119.933962221482773, 39.285660653805024 ], [ -119.93376518255252, 39.28592571032511 ], [ -119.933601510950169, 39.285957429377255 ], [ -119.933311840510058, 39.286220043271953 ], [ -119.933030024467968, 39.286302696840252 ], [ -119.932575891213077, 39.28661502262851 ], [ -119.932295644511683, 39.286661682435629 ], [ -119.931872158342969, 39.286272163830368 ], [ -119.931547170110122, 39.286281608454132 ], [ -119.93135483696831, 39.286438684893518 ], [ -119.930981174749547, 39.28650089388686 ], [ -119.930960375957412, 39.286446295181996 ], [ -119.931007459739106, 39.286421991373331 ], [ -119.930937218615313, 39.286445684220965 ], [ -119.930854023818782, 39.286227289358983 ], [ -119.930651898514199, 39.286077823087169 ], [ -119.930512168947644, 39.286092152821972 ], [ -119.930473717532053, 39.285910971636632 ], [ -119.930382661557232, 39.285872535589839 ], [ -119.93066369229085, 39.285807884402544 ], [ -119.930243718724256, 39.285868869109848 ], [ -119.930191899862493, 39.285993618244774 ], [ -119.929977193873569, 39.286132085311245 ], [ -119.929724824008105, 39.28607137469271 ], [ -119.929641633407769, 39.28585297911728 ], [ -119.929462668913274, 39.285704122122802 ], [ -119.928927696529627, 39.285744049877273 ], [ -119.928211739190644, 39.28621159571081 ], [ -119.926862978987103, 39.28736507021155 ], [ -119.926551695345182, 39.287591062508973 ], [ -119.926437481991059, 39.287552011527787 ], [ -119.926176448785057, 39.287689247303113 ], [ -119.926051998264413, 39.287884141731809 ], [ -119.925765442647943, 39.288074752016072 ], [ -119.925806245301828, 39.288201946797933 ], [ -119.925274718180688, 39.288692364328099 ], [ -119.924871102671204, 39.289438393658372 ], [ -119.924746955160458, 39.290155776817848 ], [ -119.924278576866172, 39.290791991846227 ], [ -119.924179943097883, 39.291455998914245 ], [ -119.924026804135096, 39.291776248689011 ], [ -119.923267884794043, 39.292693041821401 ], [ -119.923083399334459, 39.292670145354158 ], [ -119.922581781693879, 39.292476709357487 ], [ -119.921750132451109, 39.291878172438146 ], [ -119.921471436558946, 39.291888813514738 ], [ -119.921634051845302, 39.291352618672164 ], [ -119.921922997879321, 39.29110803239314 ], [ -119.922449543323538, 39.290203116838214 ], [ -119.922505816664696, 39.289447907523652 ], [ -119.92278341879512, 39.288932769416292 ], [ -119.922743409707735, 39.288787578017171 ], [ -119.922922858040423, 39.288395959256988 ], [ -119.922838110008698, 39.288213551162649 ], [ -119.922903344617524, 39.287782877754587 ], [ -119.923669910320783, 39.287749102974452 ], [ -119.923956469902066, 39.287558498019685 ], [ -119.924237512388657, 39.287493862886286 ], [ -119.924456960610826, 39.287247432242353 ], [ -119.924814563829116, 39.287022670135833 ], [ -119.925063467482886, 39.28663288386344 ], [ -119.925278971810442, 39.286476430507484 ], [ -119.925315518772635, 39.286171113641579 ], [ -119.925567566583226, 39.285709342710597 ], [ -119.925975409327833, 39.285395821398566 ], [ -119.926230922509376, 39.28538455658321 ], [ -119.92614616884687, 39.285202150623761 ], [ -119.926258479994715, 39.284754702167263 ], [ -119.926862587226381, 39.284194130249041 ], [ -119.927065155962254, 39.283803115193592 ], [ -119.927228824829584, 39.28377140525329 ], [ -119.927354838188279, 39.283540517301446 ], [ -119.927544023572466, 39.283455430923659 ], [ -119.927526376166938, 39.283328848251053 ], [ -119.927893391929231, 39.282888124898598 ], [ -119.928053572944236, 39.282405905236416 ], [ -119.928168885348512, 39.282373543612302 ], [ -119.927997481228417, 39.282098140824296 ], [ -119.928046940169551, 39.282027380277754 ], [ -119.928393490887117, 39.282054547861286 ], [ -119.929048147131368, 39.281927698428404 ], [ -119.929417853771824, 39.281955474233015 ], [ -119.929513622828253, 39.281885935404247 ], [ -119.930048565511896, 39.281846003756407 ], [ -119.930286413475216, 39.281708146981309 ], [ -119.931285256024537, 39.281662433341587 ], [ -119.931973275423118, 39.281302230633116 ], [ -119.932578465617922, 39.281246123203417 ], [ -119.933074946248382, 39.281024996571489 ], [ -119.933797482149743, 39.280935942991256 ], [ -119.934084772075437, 39.280727314709431 ], [ -119.934319510906136, 39.280719488034933 ], [ -119.934293957023684, 39.280714810904698 ], [ -119.934275912248253, 39.28006573480085 ], [ -119.934932111229145, 39.279902859044832 ], [ -119.935315153930802, 39.279624683647413 ], [ -119.93616678849915, 39.279232732253057 ], [ -119.936585149152705, 39.279207716385002 ], [ -119.937151852904464, 39.278970404379315 ], [ -119.937663616202741, 39.278929826990172 ], [ -119.937775842031428, 39.278482363703347 ], [ -119.938651388513662, 39.27807300638063 ], [ -119.938225978020569, 39.278259994560806 ], [ -119.938442211731115, 39.278085518372343 ], [ -119.938652172499957, 39.278055010309167 ], [ -119.938914713927488, 39.2778817517978 ], [ -119.940605792019994, 39.277908219885177 ], [ -119.940892266435299, 39.277717569509804 ], [ -119.940958596941627, 39.277791380547143 ], [ -119.940941330717607, 39.27781111683457 ], [ -119.941327505795286, 39.277837113932662 ], [ -119.941326722499525, 39.277855110049877 ], [ -119.941765879473948, 39.277884672284891 ], [ -119.941919687739656, 39.277546397977225 ], [ -119.942201458902687, 39.277463720954991 ], [ -119.942303771576888, 39.277598532726429 ], [ -119.942203025024071, 39.277427728688671 ], [ -119.942416114632024, 39.277325229140146 ] ], [ [ -119.94367164441492, 39.278559857790526 ], [ -119.943705859395152, 39.278584256748985 ], [ -119.943857569710701, 39.278593872566447 ], [ -119.94367164441492, 39.278559857790526 ] ], [ [ -119.943365948721919, 39.278359633119138 ], [ -119.943157184492975, 39.278407690368837 ], [ -119.943368997701683, 39.278364309164523 ], [ -119.943365948721919, 39.278359633119138 ] ], [ [ -119.943150469208845, 39.27802916285917 ], [ -119.943085649596469, 39.278004701655888 ], [ -119.943355367093062, 39.278343404676633 ], [ -119.943150469208845, 39.27802916285917 ] ], [ [ -119.94244363182753, 39.277758353546389 ], [ -119.942658288046886, 39.277619861307045 ], [ -119.942699508322463, 39.277738053250296 ], [ -119.942659070995404, 39.277601865166744 ], [ -119.942423235413997, 39.27775594290538 ], [ -119.942508398071112, 39.27786815603784 ], [ -119.94244363182753, 39.277758353546389 ] ], [ [ -119.942449112863798, 39.277632380590994 ], [ -119.942364372341046, 39.277678382739438 ], [ -119.942371980238633, 39.277688407198006 ], [ -119.942449112863798, 39.277632380590994 ] ], [ [ -119.940413386677179, 39.281772471774012 ], [ -119.940408382891817, 39.281745043927152 ], [ -119.940402042213776, 39.281783096989834 ], [ -119.940413386677179, 39.281772471774012 ] ], [ [ -119.940395455787282, 39.281674184961091 ], [ -119.940358025188118, 39.281469011231991 ], [ -119.940350188706844, 39.281648972125168 ], [ -119.940395455787282, 39.281674184961091 ] ], [ [ -119.93871823866354, 39.283295188363766 ], [ -119.938677939893537, 39.283316563751654 ], [ -119.938524886010214, 39.28363683631698 ], [ -119.93871823866354, 39.283295188363766 ] ], [ [ -119.939009971069794, 39.283145134055275 ], [ -119.93901297207411, 39.283138854188167 ], [ -119.938915254526719, 39.283190686251196 ], [ -119.939009971069794, 39.283145134055275 ] ], [ [ -119.940254859339575, 39.282241015876629 ], [ -119.940285801715021, 39.282138877159447 ], [ -119.940014676471847, 39.282432881980888 ], [ -119.940254859339575, 39.282241015876629 ] ], [ [ -119.931878445922024, 39.286128196373866 ], [ -119.931564704387768, 39.286234026541983 ], [ -119.932441292503967, 39.285980890100547 ], [ -119.931878445922024, 39.286128196373866 ] ], [ [ -119.932703879260089, 39.285807647593273 ], [ -119.932725464992089, 39.285844250089859 ], [ -119.933080679085919, 39.285673449034299 ], [ -119.932703879260089, 39.285807647593273 ] ], [ [ -119.933535589357675, 39.285343124939033 ], [ -119.933702523710565, 39.28517824780095 ], [ -119.933080679085919, 39.285673449034299 ], [ -119.933535589357675, 39.285343124939033 ] ], [ [ -119.93423807564217, 39.284564574047408 ], [ -119.933914851346117, 39.284968535254507 ], [ -119.934068605038931, 39.284816674167857 ], [ -119.93423807564217, 39.284564574047408 ] ], [ [ -119.934302897814646, 39.284468145670999 ], [ -119.934366119262151, 39.284374098199073 ], [ -119.934504338952721, 39.283953390460695 ], [ -119.93431942179086, 39.283850384007017 ], [ -119.934499963030916, 39.283963241817879 ], [ -119.934302897814646, 39.284468145670999 ] ], [ [ -119.934622824506107, 39.282741345364641 ], [ -119.934626750235637, 39.282651365418182 ], [ -119.934599668304543, 39.282740735179843 ], [ -119.934597483250627, 39.282593455601024 ], [ -119.934576512103646, 39.282740124990475 ], [ -119.934575857803864, 39.282755121647405 ], [ -119.934622824506107, 39.282741345364641 ] ], [ [ -119.934452559325194, 39.282267442267361 ], [ -119.934480887301305, 39.282266618231489 ], [ -119.934474859323331, 39.282206916324178 ], [ -119.934452559325194, 39.282267442267361 ] ], [ [ -119.93436695012953, 39.281167151518282 ], [ -119.934375501119362, 39.281222849271373 ], [ -119.934367833444412, 39.281146906029839 ], [ -119.93436695012953, 39.281167151518282 ] ], [ [ -119.934385951018044, 39.280731648547857 ], [ -119.93438029790417, 39.280861219683786 ], [ -119.934408949524212, 39.280735857947541 ], [ -119.934385951018044, 39.280731648547857 ] ], [ [ -119.934341024032051, 39.282824002765246 ], [ -119.934574858512121, 39.282755414759585 ], [ -119.934534910719179, 39.282630928671274 ], [ -119.934549090343978, 39.28264873781923 ], [ -119.934442704678887, 39.282294189395806 ], [ -119.934432478150555, 39.282321945848544 ], [ -119.934553355903518, 39.282739514796496 ], [ -119.934341024032051, 39.282824002765246 ] ], [ [ -119.926951345335539, 39.286935005248253 ], [ -119.927359103497238, 39.286368076789039 ], [ -119.927322320524894, 39.286404305561597 ], [ -119.926951345335539, 39.286935005248253 ] ], [ [ -119.927928008575563, 39.285807736742811 ], [ -119.928519236949711, 39.285395046126617 ], [ -119.928478717745151, 39.285407896101844 ], [ -119.927928008575563, 39.285807736742811 ] ], [ [ -119.928683251499407, 39.285343031511161 ], [ -119.929244941003901, 39.285213821662943 ], [ -119.929160495532386, 39.285191679339512 ], [ -119.928683251499407, 39.285343031511161 ] ], [ [ -119.929349256076577, 39.285241173862943 ], [ -119.929516848401803, 39.285525385667668 ], [ -119.929389704801551, 39.285251779793683 ], [ -119.929349256076577, 39.285241173862943 ] ], [ [ -119.931022369457239, 39.285373828185655 ], [ -119.93114727404479, 39.285352209713466 ], [ -119.931530796548302, 39.285206940606194 ], [ -119.931022369457239, 39.285373828185655 ] ], [ [ -119.932224112138201, 39.284944324479348 ], [ -119.933103872903033, 39.284611077119941 ], [ -119.932280027248709, 39.284895637538916 ], [ -119.932224112138201, 39.284944324479348 ] ], [ [ -119.931376847135155, 39.285934799035317 ], [ -119.931383880418267, 39.285931576010526 ], [ -119.931255377886501, 39.285901020977221 ], [ -119.931376847135155, 39.285934799035317 ] ], [ [ -119.931253625968466, 39.285571215280243 ], [ -119.931228425461242, 39.285584890272887 ], [ -119.931624925022703, 39.285562992987494 ], [ -119.931253625968466, 39.285571215280243 ] ], [ [ -119.932080626890325, 39.285214678887549 ], [ -119.932063749123969, 39.285227579445106 ], [ -119.932091812438742, 39.285223982216351 ], [ -119.932080626890325, 39.285214678887549 ] ] ], [ [ [ -119.943587607048642, 39.277572213746851 ], [ -119.943564452354664, 39.277571605411438 ], [ -119.943565235069983, 39.277553609255747 ], [ -119.943587607048642, 39.277572213746851 ] ] ], [ [ [ -119.922815444049888, 39.28767245275894 ], [ -119.922816232356809, 39.287654456984498 ], [ -119.922838601619375, 39.287673065351157 ], [ -119.922815444049888, 39.28767245275894 ] ] ], [ [ [ -119.92283781331767, 39.287691061125869 ], [ -119.922838601619375, 39.287673065351157 ], [ -119.922860970893737, 39.287691673713866 ], [ -119.92283781331767, 39.287691061125869 ] ] ], [ [ [ -119.922883340179908, 39.287710282072695 ], [ -119.922860182597233, 39.287709669488905 ], [ -119.922860970893737, 39.287691673713866 ], [ -119.922883340179908, 39.287710282072695 ] ] ], [ [ [ -119.922883340179908, 39.287710282072695 ], [ -119.922905709477917, 39.287728890427687 ], [ -119.92288255188862, 39.287728277848089 ], [ -119.922883340179908, 39.287710282072695 ] ] ], [ [ [ -119.922905709477917, 39.287728890427687 ], [ -119.922928078787734, 39.287747498778742 ], [ -119.922904921191815, 39.287746886203372 ], [ -119.922905709477917, 39.287728890427687 ] ] ] ] } }
]
}
