{
"type": "FeatureCollection",
"name": "X02442",
"crs": { "type": "name", "properties": { "name": "urn:ogc:def:crs:OGC:1.3:CRS84" } },
"features": [
{ "type": "Feature", "properties": { "part": "direct", "crossing_id": "X02442", "area_ac": 17.6, "n_upstream": null }, "geometry": { "type": "MultiPolygon", "coordinates": [ [ [ [ -119.946075608547488, 39.249117022619536 ], [ -119.94609797265889, 39.249135626375725 ], [ -119.94607482726488, 39.24913501890547 ], [ -119.946075608547488, 39.249117022619536 ] ] ], [ [ [ -119.94486946990061, 39.24540993466011 ], [ -119.945147981085952, 39.245399230017156 ], [ -119.945180203989452, 39.245724378301865 ], [ -119.94536301392597, 39.245783227859548 ], [ -119.945441526657874, 39.246109591240405 ], [ -119.945688301947428, 39.246296237001921 ], [ -119.945895820795485, 39.246319700722999 ], [ -119.945833125206022, 39.246696407862117 ], [ -119.946205782230024, 39.246652138214493 ], [ -119.946687132219452, 39.246772870730169 ], [ -119.946829905133185, 39.246686533040474 ], [ -119.946740945111159, 39.247134618750067 ], [ -119.947249348863807, 39.247165974868174 ], [ -119.947500037071151, 39.24726263552121 ], [ -119.946905510570517, 39.248147877464035 ], [ -119.946992623770043, 39.248276280735794 ], [ -119.946868306486323, 39.248471203600964 ], [ -119.9467216243374, 39.24864752266641 ], [ -119.946581971725905, 39.248661874853191 ], [ -119.946624356574731, 39.248753071057713 ], [ -119.94650159970287, 39.248912000854688 ], [ -119.946491444463902, 39.249145952667575 ], [ -119.946603265758725, 39.249238971032753 ], [ -119.946240751237127, 39.249049289657016 ], [ -119.94602931777338, 39.249115807666016 ], [ -119.944581321416777, 39.248843575832232 ], [ -119.943966563048235, 39.248593213215308 ], [ -119.943932781716597, 39.248304057406415 ], [ -119.944173613423416, 39.248094180971179 ], [ -119.944210047811808, 39.247788852417578 ], [ -119.944546582775843, 39.247509421293728 ], [ -119.944452744798753, 39.247002487060158 ], [ -119.944320911900022, 39.246836874003911 ], [ -119.944334981798789, 39.246512941249222 ], [ -119.944477756864529, 39.246426606537476 ], [ -119.944490262628591, 39.246138666249678 ], [ -119.944561258927848, 39.246104496936084 ], [ -119.944533728334562, 39.245671370980908 ], [ -119.94486946990061, 39.24540993466011 ] ] ] ] } },
{ "type": "Feature", "properties": { "part": "upstream", "crossing_id": "X02442", "area_ac": 495.4, "n_upstream": 145.0 }, "geometry": { "type": "MultiPolygon", "coordinates": [ [ [ [ -119.958842475251913, 39.266819608392119 ], [ -119.958864848233475, 39.26683820999726 ], [ -119.958841696742454, 39.266837604837256 ], [ -119.958842475251913, 39.266819608392119 ] ] ], [ [ [ -119.958864848233475, 39.26683820999726 ], [ -119.958887221226831, 39.266856811598466 ], [ -119.958864069729216, 39.266856206442689 ], [ -119.958864848233475, 39.26683820999726 ] ] ], [ [ [ -119.958931967249029, 39.266894014789273 ], [ -119.958954340277828, 39.266912616378811 ], [ -119.958931188760388, 39.266912011235654 ], [ -119.958931967249029, 39.266894014789273 ] ] ], [ [ [ -119.958976713318464, 39.266931217964498 ], [ -119.958953561794402, 39.266930612825547 ], [ -119.958954340277828, 39.266912616378811 ], [ -119.958976713318464, 39.266931217964498 ] ] ], [ [ [ -119.958975934840225, 39.266949214411497 ], [ -119.958976713318464, 39.266931217964498 ], [ -119.958999086370866, 39.266949819546241 ], [ -119.958975934840225, 39.266949214411497 ] ] ], [ [ [ -119.959043054048536, 39.26700501914609 ], [ -119.959043832511128, 39.266987022698125 ], [ -119.959066205598987, 39.267005624268201 ], [ -119.959043054048536, 39.26700501914609 ] ] ], [ [ [ -119.959065427141581, 39.267023620716515 ], [ -119.959066205598987, 39.267005624268201 ], [ -119.959088578698641, 39.267024225834419 ], [ -119.959065427141581, 39.267023620716515 ] ] ], [ [ [ -119.959088578698641, 39.267024225834419 ], [ -119.959110951810089, 39.2670428273967 ], [ -119.959087800246465, 39.267042222283017 ], [ -119.959088578698641, 39.267024225834419 ] ] ], [ [ [ -119.959110951810089, 39.2670428273967 ], [ -119.959133324933347, 39.267061428955117 ], [ -119.959110173363086, 39.267060823845632 ], [ -119.959110951810089, 39.2670428273967 ] ] ], [ [ [ -119.959155698068457, 39.267080030509653 ], [ -119.959178071215348, 39.267098632060261 ], [ -119.959154919631871, 39.267098026959204 ], [ -119.959155698068457, 39.267080030509653 ] ] ], [ [ [ -119.959177292783977, 39.267116628510166 ], [ -119.959178071215348, 39.267098632060261 ], [ -119.959200444374005, 39.26711723360701 ], [ -119.959177292783977, 39.267116628510166 ] ] ], [ [ [ -119.959245190726833, 39.267154436688791 ], [ -119.95922203912356, 39.267153831600353 ], [ -119.959222817544529, 39.267135835149858 ], [ -119.959245190726833, 39.267154436688791 ] ] ], [ [ [ -119.959289937126911, 39.267191639755005 ], [ -119.959266785510437, 39.267191034674987 ], [ -119.95926756392096, 39.267173038223852 ], [ -119.959289937126911, 39.267191639755005 ] ] ], [ [ [ -119.959334683574184, 39.267228842805665 ], [ -119.959311531944508, 39.267228237734074 ], [ -119.959312310344629, 39.267210241282299 ], [ -119.959334683574184, 39.267228842805665 ] ] ], [ [ [ -119.962452454058877, 39.269634451707525 ], [ -119.962474828889711, 39.269653052682649 ], [ -119.962451676394835, 39.269652448204305 ], [ -119.962452454058877, 39.269634451707525 ] ] ], [ [ [ -119.962474051230856, 39.269671049179713 ], [ -119.962474828889711, 39.269653052682649 ], [ -119.962497203732312, 39.269671653653845 ], [ -119.962474051230856, 39.269671049179713 ] ] ], [ [ [ -119.948428634896388, 39.249358924144481 ], [ -119.948799743868037, 39.249350639348464 ], [ -119.949051222551461, 39.249429300682841 ], [ -119.949143804775659, 39.249431728185492 ], [ -119.949146926797255, 39.24935974283899 ], [ -119.949422331951112, 39.24942101391143 ], [ -119.949493842825518, 39.249909342347806 ], [ -119.949607230237902, 39.249966365333833 ], [ -119.949504501663441, 39.250197890600198 ], [ -119.949532843360586, 39.250613020023955 ], [ -119.949324529801302, 39.250607558598809 ], [ -119.949058996534461, 39.250852831654669 ], [ -119.949099044110113, 39.250998016098102 ], [ -119.949237920550999, 39.251001657388514 ], [ -119.949325041322751, 39.25113005916522 ], [ -119.949290967945743, 39.251381400978431 ], [ -119.949441284065159, 39.251655593928831 ], [ -119.949360917972356, 39.25190572206175 ], [ -119.949383283833768, 39.251924325247437 ], [ -119.949428796095916, 39.251943535273668 ], [ -119.949428015591891, 39.251961531607101 ], [ -119.949495113317653, 39.252017341117494 ], [ -119.949581967930158, 39.252686239606369 ], [ -119.949799386549799, 39.253016241655544 ], [ -119.949474625613604, 39.253101338393009 ], [ -119.949496105849988, 39.253125603521283 ], [ -119.949844639023468, 39.25301777727735 ], [ -119.949846460477772, 39.25299945887371 ], [ -119.950127342890397, 39.252934754447409 ], [ -119.950188199358081, 39.253134534347161 ], [ -119.950465180703873, 39.253159810841936 ], [ -119.950549185175589, 39.253360197243602 ], [ -119.950522136975465, 39.253449572340415 ], [ -119.950336961733129, 39.253444719039834 ], [ -119.95035152521352, 39.253643285503564 ], [ -119.950225645844498, 39.253874204480617 ], [ -119.950025906932055, 39.253670784201589 ], [ -119.949700419972402, 39.253356405777104 ], [ -119.950222524424674, 39.25394618984366 ], [ -119.951002245749152, 39.254669279644546 ], [ -119.950836053979302, 39.255295512353001 ], [ -119.950650873827115, 39.255290659361755 ], [ -119.950691706937292, 39.255417847046367 ], [ -119.950599897007692, 39.255397424123984 ], [ -119.950695347494346, 39.255868362266362 ], [ -119.950596252223363, 39.256550403248241 ], [ -119.950655551855334, 39.256786175649566 ], [ -119.950629096989374, 39.256785482320197 ], [ -119.950854260205688, 39.25754808836907 ], [ -119.951063374841823, 39.257535551517229 ], [ -119.951304742686375, 39.257848161623585 ], [ -119.951222354136789, 39.257861899975495 ], [ -119.951415803588532, 39.257959172382563 ], [ -119.951383378699731, 39.25799435637434 ], [ -119.951436611525736, 39.258013767950274 ], [ -119.951458979801458, 39.258032370817823 ], [ -119.951481348088961, 39.25805097368147 ], [ -119.951503716388274, 39.258069576541246 ], [ -119.951754448963186, 39.258166229623683 ], [ -119.952010642379946, 39.258136907689313 ], [ -119.95253603869368, 39.258312821167529 ], [ -119.952599245379886, 39.258458611000343 ], [ -119.952450994830016, 39.258670929508689 ], [ -119.952102204895027, 39.258697826788278 ], [ -119.952657773127513, 39.258712379007392 ], [ -119.953266413876278, 39.25910667099577 ], [ -119.953168264965399, 39.259069633934487 ], [ -119.95331076225672, 39.259152874270313 ], [ -119.95328878298838, 39.259125273540953 ], [ -119.953334300953387, 39.259144482242931 ], [ -119.953333365306904, 39.259166077894903 ], [ -119.953423777593528, 39.259218892352251 ], [ -119.953098669446618, 39.25976889965203 ], [ -119.953076126907149, 39.259754296259409 ], [ -119.953071621454129, 39.259858275287755 ], [ -119.953024327487384, 39.259833536598194 ], [ -119.953048472383955, 39.259857669065667 ], [ -119.9529972613512, 39.259849647564387 ], [ -119.952983203259237, 39.259877274568716 ], [ -119.953415738771312, 39.25993935357085 ], [ -119.953316124761656, 39.260098896288149 ], [ -119.953176450072718, 39.260113255530847 ], [ -119.953218849576501, 39.260204449784425 ], [ -119.953519789073795, 39.260212329930937 ], [ -119.953744264393265, 39.260380358474329 ], [ -119.953715657637318, 39.260505727033042 ], [ -119.953938575155121, 39.26070974801025 ], [ -119.953797603888219, 39.260943408890533 ], [ -119.953902172488654, 39.261015080426731 ], [ -119.954372177420865, 39.260865233402917 ], [ -119.954480909429606, 39.261030230729965 ], [ -119.954666105342923, 39.261035078220608 ], [ -119.954859642761122, 39.261382462819853 ], [ -119.955130424351864, 39.261551700693225 ], [ -119.955316401014173, 39.261538550802072 ], [ -119.955426694718284, 39.261667554549661 ], [ -119.955165400891147, 39.261737931627941 ], [ -119.955214450825153, 39.26175208439119 ], [ -119.95521367152827, 39.261770080791308 ], [ -119.955161292361154, 39.261775466337646 ], [ -119.955189742479604, 39.261787471370077 ], [ -119.955875888938493, 39.261463106502966 ], [ -119.956192751164394, 39.262174051475839 ], [ -119.956013498442971, 39.262184804839414 ], [ -119.95602992278539, 39.262187808372062 ], [ -119.955698781775538, 39.262244660006203 ], [ -119.956239050964726, 39.262175262724845 ], [ -119.956741338676736, 39.262350553068472 ], [ -119.956866553092169, 39.262467772246559 ], [ -119.956944236325086, 39.262481977572691 ], [ -119.956941120821696, 39.262553963279473 ], [ -119.9569156990528, 39.262532824740866 ], [ -119.956835279249702, 39.262857480517198 ], [ -119.956585082380613, 39.263283339246001 ], [ -119.956393647912321, 39.26342246589612 ], [ -119.9565101785048, 39.263407497447901 ], [ -119.957286386104101, 39.263680034584823 ], [ -119.95744921782854, 39.263666276057769 ], [ -119.957553288616722, 39.263939249488111 ], [ -119.957449996606314, 39.263648279626111 ], [ -119.957751730714932, 39.263638152976185 ], [ -119.957816509855874, 39.263747947595697 ], [ -119.957977005746486, 39.263788177648884 ], [ -119.957922918191983, 39.263966931439057 ], [ -119.958128937119014, 39.264026368352269 ], [ -119.958121929562367, 39.264188336326384 ], [ -119.958282426644885, 39.26422856600157 ], [ -119.958262288529227, 39.26469404156596 ], [ -119.958574616394813, 39.264974893271798 ], [ -119.958584532315442, 39.265281438046372 ], [ -119.958351694127757, 39.265520379580934 ], [ -119.958437840774764, 39.265457771232391 ], [ -119.958553595923632, 39.265460797299433 ], [ -119.958706311062485, 39.265680990962245 ], [ -119.959021085424823, 39.265905420370089 ], [ -119.959018594419234, 39.265963009012914 ], [ -119.95918937090903, 39.265765684428672 ], [ -119.95930590500663, 39.265750713312251 ], [ -119.959365239917204, 39.265986482399981 ], [ -119.959813477918047, 39.266340515234404 ], [ -119.960154522923233, 39.266493560905602 ], [ -119.960211526705137, 39.266783319075159 ], [ -119.960462769655521, 39.267193093335372 ], [ -119.960431370200524, 39.267059314810751 ], [ -119.960711523537199, 39.26701258324195 ], [ -119.960824169455037, 39.267087593058939 ], [ -119.961240898648484, 39.267098478199188 ], [ -119.961711709169009, 39.266930606128888 ], [ -119.962222599459551, 39.266907913058269 ], [ -119.962241085186804, 39.267016496556522 ], [ -119.961163478226567, 39.267817128103182 ], [ -119.962264236809816, 39.267017101042995 ], [ -119.962329803565581, 39.267108896988546 ], [ -119.962111328821464, 39.267337411034234 ], [ -119.962495577160183, 39.267563645239797 ], [ -119.962508620246339, 39.267798204233046 ], [ -119.962736251431039, 39.2678942309946 ], [ -119.962729192284812, 39.267904342026441 ], [ -119.962760180890228, 39.267876838886522 ], [ -119.962895982394656, 39.267952451221518 ], [ -119.962974595423873, 39.268278805853079 ], [ -119.963203006256236, 39.26835683526798 ], [ -119.963088628770976, 39.268858320274745 ], [ -119.962893302911425, 39.269087439958973 ], [ -119.962392328722927, 39.269416680293382 ], [ -119.962413425294329, 39.26949309131858 ], [ -119.962483383090913, 39.269455091210205 ], [ -119.962706353876584, 39.269659097213314 ], [ -119.962961031442674, 39.269665745666288 ], [ -119.963200331295297, 39.269491824137965 ], [ -119.963528352692236, 39.269410301727468 ], [ -119.963663380589523, 39.269503909813643 ], [ -119.963655607051138, 39.269683874984558 ], [ -119.96314996680853, 39.270121097591222 ], [ -119.962915329969263, 39.270187039895234 ], [ -119.962433091626437, 39.269564321932698 ], [ -119.962452454058877, 39.269634451707525 ], [ -119.962318205321978, 39.2695228457751 ], [ -119.962914552408321, 39.270205036398046 ], [ -119.961778332880243, 39.270751907572922 ], [ -119.961769906629797, 39.270740600265015 ], [ -119.961713301271018, 39.270781738668617 ], [ -119.961800707860931, 39.27077050868165 ], [ -119.962246654438843, 39.271178523015514 ], [ -119.962613814612112, 39.271800680341968 ], [ -119.9625816591372, 39.271778514829812 ], [ -119.963186251579657, 39.272500262218699 ], [ -119.963105127567673, 39.272768396562689 ], [ -119.963010180613153, 39.272819968452623 ], [ -119.962972252253451, 39.273161297449384 ], [ -119.96181264548737, 39.274248061282186 ], [ -119.961775488086076, 39.274571393088195 ], [ -119.961584031130371, 39.2747105272515 ], [ -119.961449586897444, 39.27513941873633 ], [ -119.961105194792523, 39.275598859658785 ], [ -119.959880724478509, 39.276575807950529 ], [ -119.959755608330084, 39.276788739650492 ], [ -119.959854283250536, 39.276491217964775 ], [ -119.959737124877222, 39.27668015596376 ], [ -119.959645860372675, 39.277182240581475 ], [ -119.959631445516308, 39.277168142751748 ], [ -119.959765325765346, 39.277635782007742 ], [ -119.959822132042689, 39.27846603808436 ], [ -119.958704866600343, 39.27749996330494 ], [ -119.95807366491664, 39.277087091576689 ], [ -119.956840448815029, 39.276658470401919 ], [ -119.955565071013865, 39.275598146241414 ], [ -119.955068151954947, 39.275296873072165 ], [ -119.95449787572845, 39.275083761298916 ], [ -119.954301544886505, 39.274922521108024 ], [ -119.953610467394697, 39.274700192018067 ], [ -119.953364355213523, 39.274495562782299 ], [ -119.952973860026148, 39.274413268883286 ], [ -119.952588047730003, 39.274222995803541 ], [ -119.951916848879748, 39.273664909515098 ], [ -119.951594259818961, 39.273620423685955 ], [ -119.951348937977869, 39.27339779422865 ], [ -119.951058872214148, 39.273137958143678 ], [ -119.951303411622945, 39.273378584448608 ], [ -119.951191547463708, 39.273285569182143 ], [ -119.950797938954892, 39.273275253495818 ], [ -119.950687126021663, 39.272623745931526 ], [ -119.951022467135402, 39.271839797620942 ], [ -119.952382762727467, 39.270938567908111 ], [ -119.952797873941577, 39.270444519126883 ], [ -119.952535977241553, 39.270077776610243 ], [ -119.952708966532114, 39.269830073042961 ], [ -119.952699076930543, 39.269523528953975 ], [ -119.952335663365815, 39.269351858725848 ], [ -119.951685841842334, 39.269370867895162 ], [ -119.951151264610687, 39.268870407408102 ], [ -119.951012352660285, 39.268866767021585 ], [ -119.950736090112315, 39.268823493146016 ], [ -119.950446825210946, 39.268545659887586 ], [ -119.950263171760653, 39.268504812322746 ], [ -119.94997547166804, 39.26819098541479 ], [ -119.949631319181606, 39.268109895616043 ], [ -119.94963678546948, 39.267983921606344 ], [ -119.949840739012132, 39.26755686652519 ], [ -119.949751256300374, 39.267482453481911 ], [ -119.949809271849105, 39.267213723046829 ], [ -119.949999167915593, 39.267110600826811 ], [ -119.949857136325662, 39.267178944376354 ], [ -119.949841012295437, 39.267016370780176 ], [ -119.950059524390994, 39.266787881309881 ], [ -119.950140689222394, 39.266519757514857 ], [ -119.950131591090312, 39.266195217214545 ], [ -119.949813994999815, 39.265502254138923 ], [ -119.949388965702042, 39.265148791917198 ], [ -119.94959888396572, 39.265118262318587 ], [ -119.949815828985138, 39.264925765638104 ], [ -119.949873325457972, 39.264946731097218 ], [ -119.949842883439956, 39.264836391066062 ], [ -119.949685513758169, 39.264724164686243 ], [ -119.94958537708402, 39.264361203911704 ], [ -119.949296915021165, 39.264065372213516 ], [ -119.949326312316245, 39.263922008880009 ], [ -119.949235272786865, 39.263883588190737 ], [ -119.949314094078289, 39.263669453734018 ], [ -119.949181439761745, 39.263521841211286 ], [ -119.949257918147367, 39.2633616956563 ], [ -119.949075840685566, 39.263284854156709 ], [ -119.949014199584482, 39.263103070045148 ], [ -119.949211113014556, 39.262837982008229 ], [ -119.949019666003835, 39.262977095999496 ], [ -119.948964272648382, 39.262651341527913 ], [ -119.948807690071419, 39.262521117879679 ], [ -119.948462785465125, 39.262458021985005 ], [ -119.948376434673165, 39.26231162300305 ], [ -119.949040606853558, 39.261960390483885 ], [ -119.94904102732788, 39.261950700170644 ], [ -119.949047986507935, 39.261956487877441 ], [ -119.949088047474589, 39.261935302290915 ], [ -119.949088107541371, 39.261933917960405 ], [ -119.949089101710229, 39.261934744775274 ], [ -119.949111767772607, 39.261922758186664 ], [ -119.949112038070879, 39.261916528699082 ], [ -119.949116511831249, 39.261920249365161 ], [ -119.949145690334916, 39.261904818759724 ], [ -119.949330535508281, 39.261688039896811 ], [ -119.949313632336384, 39.261543462494949 ], [ -119.949357037732057, 39.26154460059022 ], [ -119.949337562673804, 39.26152607317885 ], [ -119.949409353615366, 39.261473905197867 ], [ -119.949455132154895, 39.261487116662039 ], [ -119.949364616139576, 39.261436698645689 ], [ -119.949437187729956, 39.261366534338478 ], [ -119.949381793210051, 39.261040779962158 ], [ -119.949474390735119, 39.261043207799169 ], [ -119.949480636669776, 39.260899237348184 ], [ -119.949574014732192, 39.260883668791116 ], [ -119.949702252276566, 39.260598762402807 ], [ -119.949709570245474, 39.260603336715867 ], [ -119.949618242948276, 39.260398375358356 ], [ -119.949649198927773, 39.26021901915685 ], [ -119.949789654914369, 39.260186667874571 ], [ -119.949807966421105, 39.260170572490054 ], [ -119.949673128714267, 39.260201629747293 ], [ -119.949606317463008, 39.259828959275019 ], [ -119.949596146020568, 39.259839275887934 ], [ -119.949143316690538, 39.259593184801886 ], [ -119.949012231520896, 39.259409579705213 ], [ -119.948847847110954, 39.259459319347947 ], [ -119.948877242776703, 39.259315955990701 ], [ -119.948770869273062, 39.25909696510162 ], [ -119.948444444296129, 39.259142454627501 ], [ -119.948355754245895, 39.259050044602731 ], [ -119.948327419359813, 39.258634915549123 ], [ -119.948341196294237, 39.258851478225253 ], [ -119.948205428512821, 39.258775850093052 ], [ -119.948254849704995, 39.258705079259222 ], [ -119.947991125716172, 39.258373859780228 ], [ -119.947631686192224, 39.258112195850451 ], [ -119.947394240281866, 39.257709597330944 ], [ -119.947559402553409, 39.257641863325738 ], [ -119.947302428529142, 39.257689171731542 ], [ -119.947307896959686, 39.257563197769691 ], [ -119.947132867630657, 39.257324387322939 ], [ -119.947134970966658, 39.257275935804195 ], [ -119.946873060336728, 39.256903184267756 ], [ -119.946877748092604, 39.256795206615045 ], [ -119.946763571092504, 39.256756176952209 ], [ -119.946816898655655, 39.256595425335988 ], [ -119.946756830839988, 39.256377647757972 ], [ -119.946687530142157, 39.256331480199961 ], [ -119.946688950128063, 39.256339832898952 ], [ -119.946550444191629, 39.256257292554807 ], [ -119.946552407568078, 39.256282199341847 ], [ -119.946177650688, 39.255839961309682 ], [ -119.94626254489566, 39.255806155881572 ], [ -119.946179213572563, 39.255803968775808 ], [ -119.946172933522675, 39.255788489687454 ], [ -119.94615217701562, 39.255795888664522 ], [ -119.946156065984482, 39.25580336123587 ], [ -119.946131355488873, 39.255838746223645 ], [ -119.945950082221515, 39.255743904380004 ], [ -119.946001847740149, 39.255619145685252 ], [ -119.945914728170919, 39.255490741523431 ], [ -119.945944824142359, 39.255483810017267 ], [ -119.945919950598167, 39.255441632747498 ], [ -119.945915509671067, 39.255472745259851 ], [ -119.94567104778298, 39.255232110161039 ], [ -119.945594871239777, 39.254851758151631 ], [ -119.945692023105792, 39.25472935876752 ], [ -119.945344941155881, 39.254737096280472 ], [ -119.945349460567314, 39.254723473320404 ], [ -119.945205276189697, 39.254751446313328 ], [ -119.945120504124105, 39.25456905287902 ], [ -119.94530724468278, 39.254537922077013 ], [ -119.945097356964922, 39.25456844514455 ], [ -119.944985529737352, 39.25447542514889 ], [ -119.944957249548693, 39.254272894721353 ], [ -119.944947052668269, 39.254294247117876 ], [ -119.944737947339732, 39.25430677331137 ], [ -119.944562934385843, 39.254067959543811 ], [ -119.944615482688022, 39.253925205237593 ], [ -119.9443231730489, 39.253719344473431 ], [ -119.944461667076339, 39.253564647631841 ], [ -119.944445161978763, 39.253578413858726 ], [ -119.944363064745218, 39.253498647165188 ], [ -119.944331773445839, 39.253521385804376 ], [ -119.944081850189335, 39.253406721462859 ], [ -119.943735744034825, 39.252839110841421 ], [ -119.943412474318237, 39.252812602370049 ], [ -119.943054644158124, 39.252514933412094 ], [ -119.942916866657995, 39.251952793571789 ], [ -119.942785028966824, 39.251787178671798 ], [ -119.942866200172304, 39.251519059771688 ], [ -119.942761420356277, 39.251264071885956 ], [ -119.942774717468808, 39.250958136074658 ], [ -119.942975527323014, 39.250603076571373 ], [ -119.943116748429574, 39.250552736437989 ], [ -119.943032768332145, 39.250352345549821 ], [ -119.943151625234933, 39.250283401024049 ], [ -119.943161009928858, 39.250067446220633 ], [ -119.94332928548252, 39.24992773265739 ], [ -119.943344925477021, 39.249567807897741 ], [ -119.943169146112623, 39.249346988753864 ], [ -119.943163205365906, 39.248950463489933 ], [ -119.943572313352263, 39.248600874760051 ], [ -119.944145470331719, 39.248742046184411 ], [ -119.944309050354676, 39.248710308513395 ], [ -119.944306705184133, 39.248764297285661 ], [ -119.944581321416777, 39.248843575832232 ], [ -119.946030099067102, 39.249097811380821 ], [ -119.946099498598528, 39.249167195810131 ], [ -119.946076389829386, 39.249099026333553 ], [ -119.946192897999111, 39.249084067347077 ], [ -119.946238483123381, 39.249101536947201 ], [ -119.946239188759421, 39.249085282234766 ], [ -119.946261552906577, 39.249103885960864 ], [ -119.946276023831672, 39.24911592366395 ], [ -119.946305949150357, 39.249127391924077 ], [ -119.946375717441441, 39.249142915660663 ], [ -119.946344305824041, 39.249142091310418 ], [ -119.946899470070733, 39.24935484423569 ], [ -119.946491444463902, 39.249145952667575 ], [ -119.94650159970287, 39.248912000854688 ], [ -119.946624356574731, 39.248753071057713 ], [ -119.946581971725905, 39.248661874853191 ], [ -119.946949952660091, 39.2487255810222 ], [ -119.947038628647206, 39.248817991675097 ], [ -119.947029256263122, 39.249033947306813 ], [ -119.947252900301365, 39.249219982950585 ], [ -119.947651058292848, 39.249122327485971 ], [ -119.947852339664735, 39.249289758572417 ], [ -119.948426104921694, 39.249376655543635 ], [ -119.948428634896388, 39.249358924144481 ] ], [ [ -119.951453192692668, 39.258032219188465 ], [ -119.951458719750192, 39.258038369600733 ], [ -119.951458979801458, 39.258032370817823 ], [ -119.951453192692668, 39.258032219188465 ] ], [ [ -119.951469773868112, 39.258050670424545 ], [ -119.951480827989855, 39.258062971247504 ], [ -119.951481348088961, 39.25805097368147 ], [ -119.951469773868112, 39.258050670424545 ] ], [ [ -119.951486355052126, 39.258069121658593 ], [ -119.951492572998347, 39.258076040870819 ], [ -119.951503716388274, 39.258069576541246 ], [ -119.951486355052126, 39.258069121658593 ] ], [ [ -119.957482342648518, 39.264225662984963 ], [ -119.95774918384565, 39.264232640700421 ], [ -119.957518456554652, 39.264208590578676 ], [ -119.957553288616722, 39.263939249488111 ], [ -119.957482342648518, 39.264225662984963 ] ], [ [ -119.950250980329642, 39.266648766011578 ], [ -119.950262426782388, 39.266598619112578 ], [ -119.949999167915593, 39.267110600826811 ], [ -119.950250980329642, 39.266648766011578 ] ], [ [ -119.947589494780757, 39.257389634554769 ], [ -119.947546409166037, 39.257407304337363 ], [ -119.947559402553409, 39.257641863325738 ], [ -119.947589494780757, 39.257389634554769 ] ], [ [ -119.945584874124805, 39.254351767200419 ], [ -119.945571242134292, 39.254328651309187 ], [ -119.94530724468278, 39.254537922077013 ], [ -119.945584874124805, 39.254351767200419 ] ], [ [ -119.946243367245188, 39.249103408689052 ], [ -119.94626127569434, 39.249110271740875 ], [ -119.946261552906577, 39.249103885960864 ], [ -119.946243367245188, 39.249103408689052 ] ], [ [ -119.948425412850938, 39.249381505939255 ], [ -119.948342711667152, 39.249536838698162 ], [ -119.948397682409038, 39.249538280374409 ], [ -119.948402517604734, 39.249541967387842 ], [ -119.948425412850938, 39.249381505939255 ] ], [ [ -119.949061847708805, 39.251321343138322 ], [ -119.949271454644858, 39.251831309280149 ], [ -119.949360917972356, 39.251905722061728 ], [ -119.949061847708805, 39.251321343138322 ] ], [ [ -119.948772422702973, 39.249980510890374 ], [ -119.948584714925303, 39.249991762673986 ], [ -119.948586476222133, 39.249993651490129 ], [ -119.948584641711022, 39.250007827168844 ], [ -119.948772422702973, 39.249980510890374 ] ], [ [ -119.94850091947481, 39.249829256598026 ], [ -119.948276489409125, 39.249661219486697 ], [ -119.948547727712821, 39.249952097529487 ], [ -119.94850091947481, 39.249829256598026 ] ], [ [ -119.948124332026381, 39.257440481359964 ], [ -119.948115471300213, 39.25741579760043 ], [ -119.9479596688154, 39.2580307158523 ], [ -119.948124332026381, 39.257440481359964 ] ], [ [ -119.948000282379283, 39.257094908679107 ], [ -119.947933181311072, 39.257039098203961 ], [ -119.947976353309144, 39.257112297777695 ], [ -119.948053446376861, 39.257243011269175 ], [ -119.948000282379283, 39.257094908679107 ] ], [ [ -119.947968159254728, 39.256745900725619 ], [ -119.947889126514923, 39.256757395570979 ], [ -119.947965362906473, 39.256769340819901 ], [ -119.947968159254728, 39.256745900725619 ] ], [ [ -119.947787547391187, 39.256656925553479 ], [ -119.94780231666924, 39.256743793534426 ], [ -119.947821814064483, 39.256746848542825 ], [ -119.947787547391187, 39.256656925553479 ] ], [ [ -119.947965202850298, 39.256301250148404 ], [ -119.947864020404737, 39.256496780584186 ], [ -119.947663500556146, 39.256311352592824 ], [ -119.947850740490097, 39.256530410182286 ], [ -119.947965202850298, 39.256301250148404 ] ], [ [ -119.947909817665689, 39.255975495252187 ], [ -119.947819482154856, 39.256027896608281 ], [ -119.947824571646294, 39.256037443885177 ], [ -119.947909817665689, 39.255975495252187 ] ], [ [ -119.947931790578224, 39.255838866901321 ], [ -119.947914503676643, 39.255867517477796 ], [ -119.947909817665689, 39.255975495252187 ], [ -119.947931790578224, 39.255838866901321 ] ], [ [ -119.947691618846889, 39.255663486095557 ], [ -119.947621395056117, 39.255679660660782 ], [ -119.9476139800082, 39.255664642200927 ], [ -119.94760974716057, 39.255692671843292 ], [ -119.947691618846889, 39.255663486095557 ] ], [ [ -119.947387080988847, 39.255205077145163 ], [ -119.947467954197876, 39.255477450620418 ], [ -119.947550696531508, 39.255536467398812 ], [ -119.947387080988847, 39.255205077145163 ] ], [ [ -119.947556142574797, 39.255047361432354 ], [ -119.947375240007375, 39.255195228191049 ], [ -119.947387080988847, 39.255205077145163 ], [ -119.947556142574797, 39.255047361432354 ] ], [ [ -119.947353923407931, 39.2551414487682 ], [ -119.947319982137529, 39.255149266390667 ], [ -119.947342348409506, 39.255167869979402 ], [ -119.947360521014161, 39.255182985392345 ], [ -119.947353923407931, 39.2551414487682 ] ], [ [ -119.947568639582215, 39.254759420744165 ], [ -119.947568639582272, 39.254759420744215 ], [ -119.947564750220977, 39.2547536884652 ], [ -119.947309332853109, 39.254860718472315 ], [ -119.947568639582215, 39.254759420744165 ] ], [ [ -119.947747852708559, 39.25436775283336 ], [ -119.947483080188135, 39.254595025084221 ], [ -119.947439129007563, 39.254539821673283 ], [ -119.947496838228076, 39.254615874135808 ], [ -119.947747852708559, 39.25436775283336 ] ], [ [ -119.947043283151231, 39.254583486259335 ], [ -119.947035728461273, 39.254570676286882 ], [ -119.946973596065803, 39.254609333010599 ], [ -119.947439129007563, 39.254539821673283 ], [ -119.947043283151231, 39.254583486259335 ] ], [ [ -119.948015191761144, 39.253280245655752 ], [ -119.947855534487644, 39.253272784501149 ], [ -119.947979885881054, 39.253292832168952 ], [ -119.948015191761144, 39.253280245655752 ] ], [ [ -119.948233719894944, 39.253317506822263 ], [ -119.948674290246316, 39.25331104452583 ], [ -119.948190054544696, 39.253288417146493 ], [ -119.948233719894944, 39.253317506822263 ] ], [ [ -119.950591570212282, 39.256658381279991 ], [ -119.950478028940097, 39.256587406636058 ], [ -119.950522126321303, 39.256656561244405 ], [ -119.950477497499278, 39.256660707987798 ], [ -119.950591570212282, 39.256658381279991 ] ], [ [ -119.950181930924174, 39.256485493460417 ], [ -119.950197274475471, 39.256666063530155 ], [ -119.950172775481477, 39.256666922763465 ], [ -119.950216115058936, 39.256666038905891 ], [ -119.950181930924174, 39.256485493460417 ] ], [ [ -119.949349232253766, 39.25669580320298 ], [ -119.949325494901103, 39.256696635549687 ], [ -119.949337521717496, 39.256719195164841 ], [ -119.949338458508507, 39.256697599584157 ], [ -119.949349232253766, 39.25669580320298 ] ], [ [ -119.949305558372302, 39.256679784806373 ], [ -119.949305433664065, 39.256679564757079 ], [ -119.94841019835836, 39.256727307966145 ], [ -119.948472892672726, 39.256350599804151 ], [ -119.948387831320872, 39.256708704556516 ], [ -119.948039050411737, 39.256735589976024 ], [ -119.948270529796616, 39.25674166154613 ], [ -119.94826326437628, 39.256757803478806 ], [ -119.949305558372302, 39.256679784806373 ] ], [ [ -119.948899703380832, 39.256127574612456 ], [ -119.949057854375056, 39.256242705081668 ], [ -119.94903546703091, 39.256203201791763 ], [ -119.948899703380832, 39.256127574612456 ] ], [ [ -119.948526996860537, 39.256171850923181 ], [ -119.948508970988613, 39.256145284899951 ], [ -119.94838654853686, 39.256204200991867 ], [ -119.948899703380832, 39.256127574612456 ], [ -119.948526996860537, 39.256171850923181 ] ], [ [ -119.948395919147288, 39.255988245353031 ], [ -119.94842244698647, 39.256017767955456 ], [ -119.948317897555086, 39.255863684908313 ], [ -119.948395919147288, 39.255988245353031 ] ], [ [ -119.948193163416519, 39.255679853050118 ], [ -119.948192835842008, 39.255679370272873 ], [ -119.947989413477359, 39.255743364956416 ], [ -119.947976716920365, 39.255764407760964 ], [ -119.948193163416519, 39.255679853050118 ] ], [ [ -119.948161074237987, 39.255632560188722 ], [ -119.948081495318078, 39.255515276900397 ], [ -119.947833628366084, 39.255595144243145 ], [ -119.9480682277662, 39.255529230877123 ], [ -119.948161074237987, 39.255632560188722 ] ], [ [ -119.947653915347331, 39.255464312399063 ], [ -119.94795608627247, 39.255330448383617 ], [ -119.947952888271558, 39.255325735139138 ], [ -119.947653915347331, 39.255464312399063 ] ], [ [ -119.947743618148593, 39.255036126586511 ], [ -119.947755886927638, 39.25503539134489 ], [ -119.947753606342459, 39.255032030165999 ], [ -119.947743618148593, 39.255036126586511 ] ], [ [ -119.949716574866656, 39.259734332498418 ], [ -119.949713285051615, 39.259720464758651 ], [ -119.94967010440584, 39.25976426184868 ], [ -119.949880178794245, 39.259702587947594 ], [ -119.949716574866656, 39.259734332498418 ] ], [ [ -119.949951823534306, 39.259463290969805 ], [ -119.949954434637448, 39.259491764942688 ], [ -119.950054710372768, 39.259418894675228 ], [ -119.949951823534306, 39.259463290969805 ] ], [ [ -119.94989646494713, 39.258859604298344 ], [ -119.949936941514792, 39.259301002867367 ], [ -119.949937673369448, 39.258911356763321 ], [ -119.94989646494713, 39.258859604298344 ] ], [ [ -119.949566513733117, 39.258919643200443 ], [ -119.949881883519552, 39.25884129188465 ], [ -119.94986713991986, 39.258822775792339 ], [ -119.949566513733117, 39.258919643200443 ] ], [ [ -119.949965505415264, 39.258803985665203 ], [ -119.949997411022991, 39.258780799663555 ], [ -119.949900111776302, 39.258812151575633 ], [ -119.950217018708742, 39.258882645749111 ], [ -119.949965505415264, 39.258803985665203 ] ], [ [ -119.950294577878267, 39.258798490309431 ], [ -119.950244850317802, 39.258775274566453 ], [ -119.950217018708742, 39.258882645749111 ], [ -119.950294577878267, 39.258798490309431 ] ], [ [ -119.950045707318921, 39.258697204028316 ], [ -119.95006774831144, 39.258729685034872 ], [ -119.950085151336154, 39.258717038109189 ], [ -119.950045707318921, 39.258697204028316 ] ], [ [ -119.949909329115187, 39.258496227721736 ], [ -119.949954255705904, 39.258562434775186 ], [ -119.949897108453271, 39.258243672389277 ], [ -119.949909329115187, 39.258496227721736 ] ], [ [ -119.951287842869249, 39.259307078623777 ], [ -119.951157961776929, 39.258783585565546 ], [ -119.951168456263076, 39.258853530626517 ], [ -119.951137172754912, 39.258837800429504 ], [ -119.951287842869249, 39.259307078623777 ] ], [ [ -119.951055053614098, 39.258796508624762 ], [ -119.950835010494771, 39.259060994009396 ], [ -119.951101027638302, 39.258819625665019 ], [ -119.951055053614098, 39.258796508624762 ] ], [ [ -119.950738513624728, 39.259148549022839 ], [ -119.950752298906707, 39.25913604116932 ], [ -119.95073135281207, 39.259106704048925 ], [ -119.950731255075794, 39.259189009163904 ], [ -119.950738513624728, 39.259148549022839 ] ], [ [ -119.950333542622815, 39.258867683237888 ], [ -119.950405163189643, 39.258850117892969 ], [ -119.950315616471713, 39.258808312348492 ], [ -119.950321500287572, 39.258947442190184 ], [ -119.950333542622815, 39.258867683237888 ] ], [ [ -119.950692721256587, 39.265556748202307 ], [ -119.950762400176458, 39.265545131125918 ], [ -119.950816116949142, 39.265375379629262 ], [ -119.950692721256587, 39.265556748202307 ] ], [ [ -119.95093752108329, 39.265196937171915 ], [ -119.950986367829373, 39.265190665348094 ], [ -119.950989402997337, 39.265120679664072 ], [ -119.95093752108329, 39.265196937171915 ] ], [ [ -119.951018526575311, 39.26507787291613 ], [ -119.951034073805374, 39.265065321927494 ], [ -119.951033434491009, 39.265055960769899 ], [ -119.951018526575311, 39.26507787291613 ] ], [ [ -119.951094161610115, 39.265016814100235 ], [ -119.951206431095159, 39.264926180648082 ], [ -119.951408024149842, 39.264553110880463 ], [ -119.951094161610115, 39.265016814100235 ] ], [ [ -119.950985527764217, 39.262772823212188 ], [ -119.951027738144163, 39.262633367445488 ], [ -119.950970757145129, 39.262616924108983 ], [ -119.95097597542636, 39.262758128396392 ], [ -119.950985527764217, 39.262772823212188 ] ], [ [ -119.950644911825606, 39.262531206219542 ], [ -119.950469017665426, 39.262690791512298 ], [ -119.950659680660863, 39.262569671306387 ], [ -119.95097597542636, 39.262758128396392 ], [ -119.950644911825606, 39.262531206219542 ] ], [ [ -119.950914294281375, 39.262195418007792 ], [ -119.950898556717917, 39.26215412717265 ], [ -119.950885199190509, 39.26217921256611 ], [ -119.950914294281375, 39.262195418007792 ] ], [ [ -119.950958580495922, 39.262041402453612 ], [ -119.950923968571601, 39.262106403735658 ], [ -119.951053490685382, 39.262039488609304 ], [ -119.951084848553236, 39.261910189165164 ], [ -119.950983261068671, 39.262055664970006 ], [ -119.950958580495922, 39.262041402453612 ] ], [ [ -119.951094182963161, 39.261871700025296 ], [ -119.951097391663893, 39.261858469383171 ], [ -119.951089841265642, 39.261869281778978 ], [ -119.951094182963161, 39.261871700025296 ] ], [ [ -119.951200155287154, 39.261711308403832 ], [ -119.951402140653556, 39.261497633793219 ], [ -119.951306056265835, 39.261559653843328 ], [ -119.951200155287154, 39.261711308403832 ] ], [ [ -119.951451048407762, 39.261466064995872 ], [ -119.95180077964396, 39.261374431494211 ], [ -119.95152064450015, 39.26142114227892 ], [ -119.951451048407762, 39.261466064995872 ] ], [ [ -119.952317869988875, 39.261207809674573 ], [ -119.95244141737949, 39.261030877996383 ], [ -119.952418267937247, 39.261030271633956 ], [ -119.952317869988875, 39.261207809674573 ] ], [ [ -119.952287171532788, 39.260846669827572 ], [ -119.952410634895813, 39.260849903833815 ], [ -119.952406352125692, 39.260824724819372 ], [ -119.952287171532788, 39.260846669827572 ] ], [ [ -119.952427099525693, 39.260820904536814 ], [ -119.952610222986053, 39.260879153960921 ], [ -119.952610482965426, 39.260873155174529 ], [ -119.952544154602748, 39.260799350747561 ], [ -119.952427099525693, 39.260820904536814 ] ], [ [ -119.952622325620467, 39.260883003653596 ], [ -119.952631028639303, 39.260885771971175 ], [ -119.952571983641377, 39.260691978928442 ], [ -119.952568863864428, 39.260763964364401 ], [ -119.952509732114095, 39.260702359604672 ], [ -119.952610482965426, 39.260873155174529 ], [ -119.952622325620467, 39.260883003653596 ] ], [ [ -119.952822726958928, 39.260788630094559 ], [ -119.952595132975688, 39.260692585255953 ], [ -119.952480946242602, 39.260653560857094 ], [ -119.952493283040013, 39.260674474606795 ], [ -119.952571983641377, 39.260691978928442 ], [ -119.952822726958928, 39.260788630094559 ] ], [ [ -119.953147598022028, 39.260779121212892 ], [ -119.953519547517843, 39.260752827339665 ], [ -119.952822726958928, 39.260788630094559 ], [ -119.953147598022028, 39.260779121212892 ] ], [ [ -119.952764528589796, 39.2603070114452 ], [ -119.952749626886998, 39.260336295874076 ], [ -119.952703328446773, 39.260335083285007 ], [ -119.952660149648409, 39.260261885230364 ], [ -119.952724917878214, 39.260371682307373 ], [ -119.952595132975688, 39.260692585255953 ], [ -119.952764528589796, 39.2603070114452 ] ], [ [ -119.952825014907788, 39.25990154332051 ], [ -119.952839350932422, 39.2598702092263 ], [ -119.952786095729721, 39.259895839663763 ], [ -119.952825014907788, 39.25990154332051 ] ], [ [ -119.952968511303482, 39.259845144255721 ], [ -119.952910357810495, 39.259836035269188 ], [ -119.952839350932422, 39.2598702092263 ], [ -119.952968511303482, 39.259845144255721 ] ], [ [ -119.952584591223626, 39.259866308692146 ], [ -119.952586531014333, 39.259821548509748 ], [ -119.952561562149398, 39.259862933702131 ], [ -119.952584591223626, 39.259866308692146 ] ], [ [ -119.95263646865223, 39.25973877810469 ], [ -119.952631635982939, 39.259746788145108 ], [ -119.952735246228485, 39.259682322208306 ], [ -119.952709035244126, 39.259668611540455 ], [ -119.952737643342303, 39.259543243271004 ], [ -119.95263646865223, 39.25973877810469 ] ], [ [ -119.952523843263847, 39.259663761078002 ], [ -119.952556806767078, 39.259685717291333 ], [ -119.952714494382917, 39.259542636986573 ], [ -119.952620338754798, 39.259576204529836 ], [ -119.952612887670924, 39.259567139570265 ], [ -119.952523843263847, 39.259663761078002 ] ], [ [ -119.952407155708329, 39.25931684580096 ], [ -119.952378179490566, 39.259281593132023 ], [ -119.95246527518411, 39.259258136170175 ], [ -119.952238506318622, 39.259295951305901 ], [ -119.952407155708329, 39.25931684580096 ] ], [ [ -119.95230348758048, 39.258996922808748 ], [ -119.952326494681273, 39.258853816057481 ], [ -119.952326494681245, 39.258853816057481 ], [ -119.95230348758048, 39.258996922808748 ] ], [ [ -119.955005765224371, 39.261709838710203 ], [ -119.955075942065989, 39.261739451200647 ], [ -119.955076623980872, 39.261723704352498 ], [ -119.954760029691073, 39.261542006788602 ], [ -119.955030811616822, 39.261711244904738 ], [ -119.955005765224371, 39.261709838710203 ] ], [ [ -119.954452493026935, 39.261517964662104 ], [ -119.954550903312537, 39.261554549840135 ], [ -119.954529736049494, 39.261591982992535 ], [ -119.954760029691073, 39.261542006788602 ], [ -119.954452493026935, 39.261517964662104 ] ], [ [ -119.954240798173899, 39.261758129648037 ], [ -119.954315509136535, 39.261638472063133 ], [ -119.954360523927136, 39.26162870350732 ], [ -119.954328895837605, 39.26162540573015 ], [ -119.95417427237274, 39.261688825157144 ], [ -119.954290800394276, 39.261673858835401 ], [ -119.954240798173899, 39.261758129648037 ] ], [ [ -119.954045508898474, 39.261451235976374 ], [ -119.953901311080415, 39.261436200358084 ], [ -119.954185809027649, 39.261556253336515 ], [ -119.954045508898474, 39.261451235976374 ] ], [ [ -119.953814792424595, 39.261427178902395 ], [ -119.953785141733931, 39.26146964289358 ], [ -119.953873698740551, 39.261433321176987 ], [ -119.953814792424595, 39.261427178902395 ] ], [ [ -119.95371044917708, 39.261517533734832 ], [ -119.953719075338071, 39.261496740000844 ], [ -119.953743245976426, 39.261486826429618 ], [ -119.953714157572762, 39.261472201398057 ], [ -119.953682986461502, 39.261527324484092 ], [ -119.95371044917708, 39.261517533734832 ] ], [ [ -119.953958604076973, 39.26196803913826 ], [ -119.954041934131723, 39.261860156587652 ], [ -119.95366731829003, 39.261621502391343 ], [ -119.954027578210145, 39.261865152732192 ], [ -119.953931081068205, 39.261952710364191 ], [ -119.953958604076973, 39.26196803913826 ] ], [ [ -119.954032916261738, 39.262009426797889 ], [ -119.954066861363401, 39.262028332257273 ], [ -119.954016663697288, 39.262117102043973 ], [ -119.954083074160721, 39.262010739909151 ], [ -119.954032916261738, 39.262009426797889 ] ], [ [ -119.954742649555129, 39.26247842506389 ], [ -119.954795033065125, 39.26246968914419 ], [ -119.954617836522374, 39.262389423101133 ], [ -119.954742649555129, 39.26247842506389 ] ], [ [ -119.954956454970883, 39.262357903413388 ], [ -119.954903140557334, 39.26251865918541 ], [ -119.954873501344935, 39.262505233365914 ], [ -119.954908401115105, 39.262544704626016 ], [ -119.954966961946511, 39.262329351533232 ], [ -119.954956454970883, 39.262357903413388 ] ], [ [ -119.955266631448879, 39.262949856189067 ], [ -119.955258733525341, 39.262870284398559 ], [ -119.955022824009916, 39.262674115305018 ], [ -119.955266631448879, 39.262949856189067 ] ], [ [ -119.956274582277729, 39.263555477999638 ], [ -119.956272442835939, 39.263545412700537 ], [ -119.955520949828951, 39.26323748197921 ], [ -119.956274582277729, 39.263555477999638 ] ], [ [ -119.956288408404163, 39.263711985243091 ], [ -119.956300675634409, 39.263678237596451 ], [ -119.956291697830906, 39.263636000391649 ], [ -119.956288408404163, 39.263711985243091 ] ], [ [ -119.95622725528581, 39.263880219393187 ], [ -119.956210560243122, 39.263904129646342 ], [ -119.956187937255763, 39.263844787385707 ], [ -119.956165933369689, 39.264048916987697 ], [ -119.95622725528581, 39.263880219393187 ] ], [ [ -119.956168933973601, 39.263794939884136 ], [ -119.955576374074155, 39.263563234509014 ], [ -119.95617321902526, 39.263806180007265 ], [ -119.956168933973601, 39.263794939884136 ] ], [ [ -119.953401512122852, 39.262407281168073 ], [ -119.953409926292551, 39.262443147610192 ], [ -119.953541971116096, 39.262374925466844 ], [ -119.953401512122852, 39.262407281168073 ] ], [ [ -119.953646623746735, 39.263935755037153 ], [ -119.95366404147039, 39.263940351371453 ], [ -119.95375661445415, 39.263839905173782 ], [ -119.953646623746735, 39.263935755037153 ] ], [ [ -119.953393322202075, 39.263868911353569 ], [ -119.953133113816449, 39.263787545143096 ], [ -119.952839710234443, 39.264140196788723 ], [ -119.953155484301433, 39.263806147758118 ], [ -119.953393322202075, 39.263868911353569 ] ], [ [ -119.952276044726759, 39.264846103900872 ], [ -119.952275303599365, 39.264863200425111 ], [ -119.952730728323772, 39.26451569483276 ], [ -119.952276044726759, 39.264846103900872 ] ], [ [ -119.953661909321369, 39.267229084420222 ], [ -119.953412568574123, 39.266965816377557 ], [ -119.953656316406025, 39.267224433781479 ], [ -119.953661909321369, 39.267229084420222 ] ], [ [ -119.953759785457819, 39.267310470557796 ], [ -119.953769696874573, 39.267267039385196 ], [ -119.953751565548515, 39.267303635534404 ], [ -119.953759785457819, 39.267310470557796 ] ], [ [ -119.95362746159941, 39.267890298946618 ], [ -119.953648504361482, 39.268387358720886 ], [ -119.953760337904555, 39.267926208343525 ], [ -119.95366050731657, 39.268197449392609 ], [ -119.95362746159941, 39.267890298946618 ] ], [ [ -119.954028395067269, 39.26861192915684 ], [ -119.953624877344481, 39.268484784831799 ], [ -119.95363513959326, 39.268442468441272 ], [ -119.953578573505297, 39.268483572381477 ], [ -119.953543886522837, 39.268392580235108 ], [ -119.953553848265045, 39.268492967087887 ], [ -119.954028395067269, 39.26861192915684 ] ], [ [ -119.953516136996541, 39.268319786512251 ], [ -119.95344576556748, 39.268283774046502 ], [ -119.953518805217911, 39.268326785908883 ], [ -119.953516136996541, 39.268319786512251 ] ], [ [ -119.953107983733162, 39.26811091365412 ], [ -119.9528494137368, 39.268194225575968 ], [ -119.953125500989657, 39.268119878182084 ], [ -119.953107983733162, 39.26811091365412 ] ], [ [ -119.951766483038014, 39.268580243054195 ], [ -119.951711075954506, 39.268607454387009 ], [ -119.952656397988221, 39.268369337832141 ], [ -119.951766483038014, 39.268580243054195 ] ], [ [ -119.953527090655143, 39.261454041759372 ], [ -119.953624137760585, 39.261548304638211 ], [ -119.953653109432921, 39.261537975950873 ], [ -119.953527090655143, 39.261454041759372 ] ], [ [ -119.953445178612341, 39.261399484467447 ], [ -119.953523605245294, 39.261356887716595 ], [ -119.9534938169637, 39.261346707671542 ], [ -119.953374170343821, 39.261433658691502 ], [ -119.95347671473364, 39.261420489031117 ], [ -119.953445178612341, 39.261399484467447 ] ], [ [ -119.953378069126529, 39.261343676839211 ], [ -119.953198331220307, 39.261212852694122 ], [ -119.953377982487098, 39.261345676435965 ], [ -119.953378069126529, 39.261343676839211 ] ], [ [ -119.952977804778712, 39.261142429127524 ], [ -119.952968395778257, 39.261170797615939 ], [ -119.952986548565292, 39.261174117769841 ], [ -119.952977804778712, 39.261142429127524 ] ], [ [ -119.953021713337932, 39.261010042832702 ], [ -119.9530131825463, 39.261035763600482 ], [ -119.95303416216224, 39.260995706907352 ], [ -119.952987101937794, 39.260999033542205 ], [ -119.953021713337932, 39.261010042832702 ] ], [ [ -119.954360935608278, 39.261483927010786 ], [ -119.954029375592228, 39.261288662494771 ], [ -119.954185965705818, 39.261418879405895 ], [ -119.954360935608278, 39.261483927010786 ] ], [ [ -119.95360781050114, 39.26139023023147 ], [ -119.953608005425451, 39.261385731137871 ], [ -119.953591692779867, 39.261380156363522 ], [ -119.95360781050114, 39.26139023023147 ] ], [ [ -119.953630375318653, 39.261404333643078 ], [ -119.953640404129402, 39.261410601824714 ], [ -119.953568723610374, 39.261222551498129 ], [ -119.953608005425451, 39.261385731137871 ], [ -119.953630375318653, 39.261404333643078 ] ], [ [ -119.952168340386365, 39.263588113604172 ], [ -119.952121519739663, 39.263598898262217 ], [ -119.952167040174743, 39.263618107509764 ], [ -119.952179395442954, 39.2636004143896 ], [ -119.952167820301938, 39.263600111166419 ], [ -119.952168340386365, 39.263588113604172 ] ], [ [ -119.952191750704728, 39.263582721267866 ], [ -119.952174192966254, 39.263586765520564 ], [ -119.952183513864256, 39.263594516682524 ], [ -119.952191750704728, 39.263582721267866 ] ], [ [ -119.952802202206954, 39.261797032617444 ], [ -119.952787560832746, 39.261822923633325 ], [ -119.952819892531551, 39.261923613431442 ], [ -119.952802202206954, 39.261797032617444 ] ], [ [ -119.958857688825702, 39.266066072458251 ], [ -119.958945404195319, 39.266047576601814 ], [ -119.958973994147968, 39.266014542393791 ], [ -119.958857688825702, 39.266066072458251 ] ], [ [ -119.957737858966496, 39.265565587433557 ], [ -119.958641324066988, 39.266111695279875 ], [ -119.958666754275043, 39.266106333073019 ], [ -119.957737858966496, 39.265565587433557 ] ], [ [ -119.956988417270978, 39.265334891984658 ], [ -119.956960749603724, 39.265313371038786 ], [ -119.956957854152051, 39.265380265913478 ], [ -119.956988417270978, 39.265334891984658 ] ], [ [ -119.955851488874586, 39.264673461016869 ], [ -119.95583078490175, 39.264729722237433 ], [ -119.956310508895172, 39.264807583987185 ], [ -119.955920062733995, 39.264725301841921 ], [ -119.955851488874586, 39.264673461016869 ] ], [ [ -119.95456664337037, 39.264401614510859 ], [ -119.954853405868221, 39.264321038269962 ], [ -119.954802826224451, 39.264299695779634 ], [ -119.954615283134558, 39.264348837317662 ], [ -119.954607341613041, 39.264343330391917 ], [ -119.95456664337037, 39.264401614510859 ] ], [ [ -119.954140815696888, 39.26406616530533 ], [ -119.954102581575654, 39.264146239892369 ], [ -119.954210267133078, 39.264067983468493 ], [ -119.953812371034957, 39.26397949368689 ], [ -119.954140815696888, 39.26406616530533 ] ], [ [ -119.953860429998613, 39.264653378550094 ], [ -119.954061228719667, 39.264298299954703 ], [ -119.954053018688626, 39.264250040257728 ], [ -119.953860429998613, 39.264653378550094 ] ], [ [ -119.954429698570664, 39.261677494757258 ], [ -119.954751456172659, 39.261739967109285 ], [ -119.954632589771165, 39.261808923063079 ], [ -119.954855942286784, 39.261701426998265 ], [ -119.954429698570664, 39.261677494757258 ] ], [ [ -119.954631985746829, 39.262090419621266 ], [ -119.954350895274786, 39.261891633444748 ], [ -119.954383269229581, 39.261861430679353 ], [ -119.95428222551584, 39.261871819065156 ], [ -119.954631985746829, 39.262090419621266 ] ], [ [ -119.954754512863261, 39.262177069811088 ], [ -119.954733178708224, 39.26216198249243 ], [ -119.954728852855567, 39.262261862460313 ], [ -119.954754512863261, 39.262177069811088 ] ], [ [ -119.954893529799676, 39.26193438281215 ], [ -119.954859410923788, 39.261922960542009 ], [ -119.95480056219651, 39.261943941291143 ], [ -119.954893529799676, 39.26193438281215 ] ], [ [ -119.954684546035637, 39.26198530324799 ], [ -119.954671094878094, 39.261990098829344 ], [ -119.954679309976214, 39.261999531746618 ], [ -119.954684546035637, 39.26198530324799 ] ], [ [ -119.954826320345632, 39.262200535800275 ], [ -119.954817760496965, 39.262203587543624 ], [ -119.954838380712133, 39.262213954576495 ], [ -119.954826320345632, 39.262200535800275 ] ], [ [ -119.955515214270804, 39.262276175170371 ], [ -119.955234554808754, 39.26232435861597 ], [ -119.955350783216815, 39.262350206261644 ], [ -119.955515214270804, 39.262276175170371 ] ], [ [ -119.957390407529161, 39.264596807025086 ], [ -119.957463588659692, 39.264405340515594 ], [ -119.957451694832102, 39.264349389379511 ], [ -119.957390407529161, 39.264596807025086 ] ], [ [ -119.957190238595444, 39.264830594969759 ], [ -119.957604616701516, 39.264895481884764 ], [ -119.957306771425124, 39.264815625811082 ], [ -119.957190238595444, 39.264830594969759 ] ], [ [ -119.958282006280925, 39.265571026120334 ], [ -119.957822886759217, 39.265207474860972 ], [ -119.958270333264949, 39.265579509623272 ], [ -119.958282006280925, 39.265571026120334 ] ], [ [ -119.96083234995379, 39.267970629943967 ], [ -119.960839187078548, 39.267965660888365 ], [ -119.960798400135687, 39.267951726292885 ], [ -119.96083234995379, 39.267970629943967 ] ], [ [ -119.960441102041486, 39.267906358596804 ], [ -119.960639784407661, 39.267897536069086 ], [ -119.96062709516049, 39.267893200842231 ], [ -119.960441102041486, 39.267906358596804 ] ], [ [ -119.959731758085056, 39.268230143458815 ], [ -119.960057442180343, 39.26820262013085 ], [ -119.959696494922966, 39.268208764183107 ], [ -119.959731758085056, 39.268230143458815 ] ], [ [ -119.959507808026643, 39.268094367096104 ], [ -119.959531790441389, 39.268108907190658 ], [ -119.959731955602507, 39.267689644763834 ], [ -119.959528839001123, 39.268098723076982 ], [ -119.959507808026643, 39.268094367096104 ] ], [ [ -119.959021459435078, 39.266968421124162 ], [ -119.959043832511128, 39.266987022698125 ], [ -119.959020680967271, 39.266986417571808 ], [ -119.959132546491574, 39.267079425404383 ], [ -119.959133324933347, 39.267061428955117 ], [ -119.959155698068457, 39.267080030509653 ], [ -119.959132546491574, 39.267079425404383 ], [ -119.95919966594785, 39.267135230057207 ], [ -119.959200444374005, 39.26711723360701 ], [ -119.959222817544529, 39.267135835149858 ], [ -119.95919966594785, 39.267135230057214 ], [ -119.959244412311108, 39.267172433139635 ], [ -119.959245190726833, 39.267154436688791 ], [ -119.95926756392096, 39.267173038223852 ], [ -119.959244412311108, 39.267172433139635 ], [ -119.959289158721575, 39.267209636206495 ], [ -119.959289937126911, 39.267191639755005 ], [ -119.959312310344629, 39.267210241282299 ], [ -119.959289158721589, 39.267209636206502 ], [ -119.959311531944508, 39.267228237734074 ], [ -119.95962942825858, 39.267380679973172 ], [ -119.959357056815563, 39.267247444325122 ], [ -119.958262339163554, 39.266299972418452 ], [ -119.958507660532291, 39.266522587407628 ], [ -119.95846135777397, 39.266521376949107 ], [ -119.958506103357863, 39.266558580288468 ], [ -119.958506881945439, 39.266540583848112 ], [ -119.958529254749891, 39.266559185511603 ], [ -119.958506103357863, 39.266558580288468 ], [ -119.958550848988963, 39.266595783612239 ], [ -119.958617967524177, 39.266651588568699 ], [ -119.958618746085719, 39.266633592126716 ], [ -119.958641118949203, 39.26665219377081 ], [ -119.958617967524191, 39.26665158856872 ], [ -119.95866271327337, 39.266688791853575 ], [ -119.958685086165659, 39.26670739349013 ], [ -119.958685864711555, 39.266689397047237 ], [ -119.95870823761048, 39.266707998679607 ], [ -119.958685086165659, 39.266707393490151 ], [ -119.958729831985707, 39.266744596751643 ], [ -119.958730610521201, 39.266726600308068 ], [ -119.95875298344373, 39.266745201932693 ], [ -119.958729831985707, 39.266744596751643 ], [ -119.958774577852978, 39.26678179999756 ], [ -119.958775356378084, 39.26676380355336 ], [ -119.958797729324218, 39.266782405170204 ], [ -119.958820102282147, 39.266801006783105 ], [ -119.958796950804313, 39.266800401614688 ], [ -119.958886442727788, 39.266874808044236 ], [ -119.958887221226831, 39.266856811598466 ], [ -119.95890959423204, 39.266875413195841 ], [ -119.958931967249029, 39.266894014789273 ], [ -119.958908815738184, 39.266893409641909 ], [ -119.958998307897843, 39.26696781599361 ], [ -119.958999086370866, 39.266949819546241 ], [ -119.959021459435078, 39.266968421124162 ] ], [ [ -119.958998307897872, 39.266967815993624 ], [ -119.959020680967271, 39.266986417571808 ], [ -119.959021459435078, 39.266968421124162 ], [ -119.958998307897872, 39.266967815993624 ] ], [ [ -119.958774577853006, 39.266781799997581 ], [ -119.958796950804313, 39.266800401614674 ], [ -119.958797729324218, 39.266782405170204 ], [ -119.958774577853006, 39.266781799997581 ] ], [ [ -119.958886442727831, 39.266874808044264 ], [ -119.958908815738184, 39.266893409641909 ], [ -119.95890959423204, 39.266875413195841 ], [ -119.958886442727831, 39.266874808044264 ] ], [ [ -119.957225983654183, 39.266146755650361 ], [ -119.958035498385428, 39.266185940882373 ], [ -119.957626563845039, 39.26599508021183 ], [ -119.957921299553021, 39.266146921390323 ], [ -119.957225983654183, 39.266146755650361 ] ], [ [ -119.957161942455286, 39.266267040574618 ], [ -119.957198158954512, 39.266254128691074 ], [ -119.957163813541513, 39.266314866828807 ], [ -119.957219752400604, 39.266290727009768 ], [ -119.957225983654183, 39.266146755650361 ], [ -119.957161942455286, 39.266267040574618 ] ], [ [ -119.957173838770117, 39.266469913835671 ], [ -119.95712509967322, 39.266383330212939 ], [ -119.9570977644957, 39.266431670903259 ], [ -119.957173838770117, 39.266469913835671 ] ], [ [ -119.956440215413608, 39.267375870365875 ], [ -119.957338409106839, 39.266762266741281 ], [ -119.956856598170589, 39.267070134165685 ], [ -119.956861358277322, 39.267074092031777 ], [ -119.95685083485661, 39.267073816777199 ], [ -119.956768679066656, 39.267126312168394 ], [ -119.956440215413608, 39.267375870365875 ] ], [ [ -119.955738168110017, 39.267855463302247 ], [ -119.956293095995576, 39.267476373682314 ], [ -119.956233260922303, 39.267484058856965 ], [ -119.956240718407116, 39.267490259552943 ], [ -119.956217566758028, 39.267489653862896 ], [ -119.956217722597827, 39.267486054583067 ], [ -119.956194415109664, 39.267489048168251 ], [ -119.956037029055452, 39.267376829799389 ], [ -119.95621678755866, 39.26750765026204 ], [ -119.955738168110017, 39.267855463302247 ] ], [ [ -119.954519313533098, 39.268622960751685 ], [ -119.95493674236937, 39.268699295682531 ], [ -119.954570208416655, 39.268599617854441 ], [ -119.954519313533098, 39.268622960751685 ] ], [ [ -119.954283028011659, 39.268808301471545 ], [ -119.954256349952061, 39.26879801967651 ], [ -119.954239091628466, 39.268831370530414 ], [ -119.95436146387307, 39.268781184788594 ], [ -119.954330891530617, 39.268773520923055 ], [ -119.954433298128905, 39.268662411559198 ], [ -119.954319595623645, 39.268714560834937 ], [ -119.954333230678884, 39.268719531831977 ], [ -119.954283028011659, 39.268808301471545 ] ], [ [ -119.95431305489862, 39.268712176250851 ], [ -119.954592818005167, 39.268077723149482 ], [ -119.954577262760608, 39.268021357981326 ], [ -119.954310858387018, 39.268700929383492 ], [ -119.954142302633585, 39.26864781993978 ], [ -119.954032254571473, 39.268711652367926 ], [ -119.954173505872362, 39.26866130005655 ], [ -119.95431305489862, 39.268712176250851 ] ], [ [ -119.955095526253515, 39.265568531463828 ], [ -119.955137986728843, 39.265530005772916 ], [ -119.955002142832427, 39.265584104248752 ], [ -119.955095526253515, 39.265568531463828 ] ], [ [ -119.955698783378537, 39.266088787921511 ], [ -119.95553180102759, 39.266214808031656 ], [ -119.955777144338526, 39.266064875246592 ], [ -119.955747423573285, 39.266036010280281 ], [ -119.955749761407063, 39.265982021092611 ], [ -119.955699562671043, 39.26607079152668 ], [ -119.955150299503444, 39.26559574050259 ], [ -119.955140269396665, 39.265605736010222 ], [ -119.955095526253515, 39.265568531463828 ], [ -119.955698783378537, 39.266088787921511 ] ], [ [ -119.954537327469325, 39.266148475179179 ], [ -119.954972756111218, 39.265727469409313 ], [ -119.954479782066713, 39.266172076103267 ], [ -119.954537327469325, 39.266148475179179 ] ], [ [ -119.954383607415409, 39.266486770113332 ], [ -119.954247038776401, 39.266429144658161 ], [ -119.954305992161196, 39.266328812978017 ], [ -119.954176805315853, 39.26644532279424 ], [ -119.954383607415409, 39.266486770113332 ] ], [ [ -119.954043894976365, 39.266838212355211 ], [ -119.954044674712904, 39.266820215990386 ], [ -119.953984165511883, 39.26683415395857 ], [ -119.953976594955421, 39.266849434542742 ], [ -119.954043894976365, 39.266838212355211 ] ], [ [ -119.953947390620485, 39.2669257696692 ], [ -119.953938886019372, 39.266925547006515 ], [ -119.953923152572358, 39.266957303651445 ], [ -119.954114908579129, 39.266804037950898 ], [ -119.954079791649747, 39.266812126976106 ], [ -119.95409097747762, 39.266821428212658 ], [ -119.954067826094899, 39.266820822103817 ], [ -119.954068086004966, 39.266814823315421 ], [ -119.954044674712932, 39.266820215990386 ], [ -119.954067046364287, 39.266838818469033 ], [ -119.954043894976365, 39.266838212355211 ], [ -119.953947390620485, 39.2669257696692 ] ], [ [ -119.95385993562958, 39.267101645855163 ], [ -119.953898375013821, 39.267046600078565 ], [ -119.953877589166012, 39.267049269383698 ], [ -119.953848785911745, 39.267107406078111 ], [ -119.95385993562958, 39.267101645855163 ] ], [ [ -119.954552751511102, 39.267932540137423 ], [ -119.953953145392646, 39.267862792750172 ], [ -119.954561363922664, 39.267963747701643 ], [ -119.954552751511102, 39.267932540137423 ] ], [ [ -119.953818134179897, 39.267769173993841 ], [ -119.953812603447915, 39.267784201206162 ], [ -119.953910740941467, 39.26777159864892 ], [ -119.953818134179897, 39.267769173993841 ] ], [ [ -119.953989014924758, 39.267034960113619 ], [ -119.953971086153203, 39.267037262529961 ], [ -119.953958840565591, 39.267050549002008 ], [ -119.953989014924758, 39.267034960113619 ] ], [ [ -119.954797212413624, 39.266569663675881 ], [ -119.954804812606667, 39.266561417236723 ], [ -119.954758193028709, 39.266561843589756 ], [ -119.954797212413624, 39.266569663675881 ] ], [ [ -119.955206012835617, 39.266474893870999 ], [ -119.955251937804334, 39.266426016734151 ], [ -119.955075807714749, 39.2665589385172 ], [ -119.955206012835617, 39.266474893870999 ] ], [ [ -119.955820446780862, 39.264884846548981 ], [ -119.955801958087477, 39.26480805639212 ], [ -119.955721609615253, 39.265026394750784 ], [ -119.955820446780862, 39.264884846548981 ] ], [ [ -119.95537541254636, 39.267288688386429 ], [ -119.955323226668341, 39.267268068137462 ], [ -119.955372647416425, 39.267197294319793 ], [ -119.955324785510143, 39.267232075367581 ], [ -119.955311508092819, 39.267221771259464 ], [ -119.955322447246388, 39.267286064522281 ], [ -119.955226723212846, 39.267355626547278 ], [ -119.95537541254636, 39.267288688386429 ] ], [ [ -119.95478640948501, 39.266963842450039 ], [ -119.954799316141404, 39.267056171833971 ], [ -119.954857312084059, 39.266787438091633 ], [ -119.95478640948501, 39.266963842450039 ] ], [ [ -119.954936445379175, 39.266999931674263 ], [ -119.954895040148031, 39.266986610158419 ], [ -119.954799316141404, 39.267056171833971 ], [ -119.954936445379175, 39.266999931674263 ] ], [ [ -119.954932084896242, 39.266766428689493 ], [ -119.955127413500236, 39.266558545552776 ], [ -119.954857312084059, 39.266787438091633 ], [ -119.954932084896242, 39.266766428689493 ] ], [ [ -119.957014506791154, 39.266213291858818 ], [ -119.957103996030071, 39.266287699563684 ], [ -119.957130899731567, 39.266278107893946 ], [ -119.957014506791154, 39.266213291858818 ] ], [ [ -119.956783992560702, 39.265648742076209 ], [ -119.956051505519952, 39.265971899261459 ], [ -119.956866555418443, 39.265642080122831 ], [ -119.956783992560702, 39.265648742076209 ] ], [ [ -119.955128575183963, 39.267079803407192 ], [ -119.955061151754833, 39.267027478223902 ], [ -119.955077913376797, 39.267045446746614 ], [ -119.955100285382471, 39.267064049039313 ], [ -119.955128575183963, 39.267079803407192 ] ], [ [ -119.955051788610106, 39.267037041536639 ], [ -119.955077653550703, 39.267051445540432 ], [ -119.955077913376797, 39.267045446746614 ], [ -119.955051788610106, 39.267037041536639 ] ], [ [ -119.954922868694993, 39.266879237829961 ], [ -119.954978684697295, 39.266939073060911 ], [ -119.954944535416942, 39.266827011550561 ], [ -119.954922868694993, 39.266879237829961 ] ], [ [ -119.956314292625351, 39.266861596865951 ], [ -119.956176163164841, 39.266839966392403 ], [ -119.956122935492786, 39.266903944465696 ], [ -119.956314292625351, 39.266861596865951 ] ], [ [ -119.955731844666957, 39.266990492255182 ], [ -119.955382000250225, 39.266981337683774 ], [ -119.955659038534179, 39.267006603967573 ], [ -119.955731844666957, 39.266990492255182 ] ], [ [ -119.955828340931703, 39.266672318373097 ], [ -119.955756504680323, 39.266758662870686 ], [ -119.955857498058833, 39.26670551148348 ], [ -119.955859835863819, 39.266651522296442 ], [ -119.955828340931703, 39.266672318373097 ] ], [ [ -119.955597377530964, 39.266824822650399 ], [ -119.955596598191406, 39.266842819041223 ], [ -119.955728606858045, 39.266738172554298 ], [ -119.955597377530964, 39.266824822650399 ] ], [ [ -119.953367038587743, 39.269066270814896 ], [ -119.953417043539289, 39.269001829028802 ], [ -119.953570774455187, 39.268663535896899 ], [ -119.953367038587743, 39.269066270814896 ] ], [ [ -119.953113227853649, 39.270128929290017 ], [ -119.952993565123833, 39.270215879200045 ], [ -119.953092415616851, 39.2700743339282 ], [ -119.953831977900137, 39.269589230623161 ], [ -119.953116348112772, 39.270056943933511 ], [ -119.953108950664017, 39.270049358705812 ], [ -119.952975384286049, 39.270219406764717 ], [ -119.952992785024293, 39.270233875536732 ], [ -119.952969632542434, 39.27023326916575 ], [ -119.952969932583059, 39.270226347497918 ], [ -119.952945077107344, 39.270257991758015 ], [ -119.95309892138242, 39.270191613303105 ], [ -119.953158752700872, 39.270148138307363 ], [ -119.953666547084808, 39.270197469252587 ], [ -119.953113227853649, 39.270128929290017 ] ], [ [ -119.95280849132827, 39.270431882621359 ], [ -119.952871561698927, 39.270356817977188 ], [ -119.952895494347416, 39.270339428034575 ], [ -119.952895494347374, 39.270339428034575 ], [ -119.95289627447471, 39.27032143169987 ], [ -119.952907460667177, 39.270330733061265 ], [ -119.95291942698428, 39.270322038086391 ], [ -119.95291942698401, 39.270322038086569 ], [ -119.952920867206387, 39.270288814083088 ], [ -119.95280849132827, 39.270431882621359 ] ], [ [ -119.954242582862719, 39.269044006577019 ], [ -119.954480480859004, 39.269065705249758 ], [ -119.95415947018212, 39.268985234548836 ], [ -119.954273671197228, 39.269024257818792 ], [ -119.954242582862719, 39.269044006577019 ] ], [ [ -119.954153244710284, 39.269100758221398 ], [ -119.954082995806431, 39.269145383393443 ], [ -119.954056724466625, 39.269216762684188 ], [ -119.954153244710284, 39.269100758221398 ] ], [ [ -119.954147773600724, 39.269255179942071 ], [ -119.954122621842615, 39.269281785784877 ], [ -119.954206197407117, 39.269259888899093 ], [ -119.954056724466625, 39.269216762684188 ], [ -119.954147773600724, 39.269255179942071 ] ], [ [ -119.957947630985203, 39.275714521455477 ], [ -119.957966111495153, 39.275823105323987 ], [ -119.957933045443198, 39.275515955570221 ], [ -119.957947630985203, 39.275714521455477 ] ], [ [ -119.957061974362873, 39.274754487396493 ], [ -119.957609596963991, 39.27522733930482 ], [ -119.957598974725087, 39.275200934477382 ], [ -119.957061974362873, 39.274754487396493 ] ], [ [ -119.956590108792042, 39.271733343235965 ], [ -119.956875515511939, 39.272101144524555 ], [ -119.95647534488927, 39.27149065715664 ], [ -119.956590108792042, 39.271733343235965 ] ], [ [ -119.955968777883911, 39.270023510898241 ], [ -119.956271872622537, 39.270517893862085 ], [ -119.955957425483163, 39.269890046376354 ], [ -119.955968777883911, 39.270023510898241 ] ], [ [ -119.955813478966832, 39.269856610114118 ], [ -119.955813591572792, 39.269856599115194 ], [ -119.955738261674682, 39.269458959199554 ], [ -119.955731247260829, 39.269620926662164 ], [ -119.955729025552856, 39.269618706514379 ], [ -119.955813478966832, 39.269856610114118 ] ], [ [ -119.954398008523867, 39.268829328248074 ], [ -119.954812406753973, 39.268894225900873 ], [ -119.954381577260179, 39.268786226801154 ], [ -119.954398008523867, 39.268829328248074 ] ], [ [ -119.957281483453826, 39.269812995254313 ], [ -119.95667270232974, 39.269825725269961 ], [ -119.956046807742752, 39.26982736792489 ], [ -119.957182055896922, 39.269839048057932 ], [ -119.957281483453826, 39.269812995254313 ] ], [ [ -119.957617109984994, 39.27424651976655 ], [ -119.957733225878854, 39.275312545897165 ], [ -119.957633726876693, 39.274143143378211 ], [ -119.957617109984994, 39.27424651976655 ] ], [ [ -119.957680555983302, 39.273851809888484 ], [ -119.95766363713399, 39.273957065864316 ], [ -119.957988000162899, 39.273175211778501 ], [ -119.957680555983302, 39.273851809888484 ] ], [ [ -119.957605810147697, 39.269687979128918 ], [ -119.957519657366589, 39.269750586589559 ], [ -119.957557168592047, 39.26974075747485 ], [ -119.957566273776123, 39.269744598939376 ], [ -119.957605810147697, 39.269687979128918 ] ], [ [ -119.957978585096299, 39.269643676387695 ], [ -119.957743945702234, 39.269709608131308 ], [ -119.957856000437019, 39.269506164134498 ], [ -119.957821191430568, 39.269531460169311 ], [ -119.957726759567024, 39.269713963202022 ], [ -119.957736586377237, 39.269722133420849 ], [ -119.957986645200165, 39.26964871306113 ], [ -119.957978585096299, 39.269643676387695 ] ], [ [ -119.958976395905765, 39.268785863709397 ], [ -119.958967857163458, 39.268751935071528 ], [ -119.958920457074413, 39.268767460381255 ], [ -119.958411110441247, 39.268754145499173 ], [ -119.958976395905765, 39.268785863709397 ] ], [ [ -119.959021976276816, 39.268162047217658 ], [ -119.958951375884098, 39.268192514573428 ], [ -119.958968522035335, 39.2681921794087 ], [ -119.958893616475919, 39.268316339016124 ], [ -119.959021976276816, 39.268162047217658 ] ], [ [ -119.958395174396074, 39.268051074076375 ], [ -119.958574160555756, 39.268199887555674 ], [ -119.95837028027357, 39.267983597345136 ], [ -119.958395174396074, 39.268051074076375 ] ], [ [ -119.958125541376006, 39.26739542021177 ], [ -119.95815623658865, 39.267422914292069 ], [ -119.958191688975489, 39.267397149655359 ], [ -119.958125541376006, 39.26739542021177 ] ], [ [ -119.957528675412959, 39.266864533130203 ], [ -119.957542098990046, 39.266875694237541 ], [ -119.957518947515155, 39.266875088814082 ], [ -119.957732091654506, 39.266911006541932 ], [ -119.957704938135436, 39.26686193564705 ], [ -119.957542877832935, 39.266857697814288 ], [ -119.9575830212802, 39.266822713994458 ], [ -119.957567586974534, 39.266822310385216 ], [ -119.957528675412959, 39.266864533130203 ] ], [ [ -119.957567976392085, 39.266813312173291 ], [ -119.957521284059467, 39.266821099545233 ], [ -119.957532911892329, 39.266804446640293 ], [ -119.957431707420483, 39.266825191595359 ], [ -119.957461306679946, 39.26682982639371 ], [ -119.957567586974534, 39.266822310385216 ], [ -119.957567976392085, 39.266813312173291 ] ], [ [ -119.957577314857488, 39.266811754696604 ], [ -119.957586670682488, 39.266819533646427 ], [ -119.95759992377225, 39.266807983960398 ], [ -119.957577314857488, 39.266811754696604 ] ], [ [ -119.957625840912897, 39.266785397902808 ], [ -119.95757852370096, 39.266795097070393 ], [ -119.957605711036905, 39.266802940524201 ], [ -119.957625840912897, 39.266785397902808 ] ], [ [ -119.958229844024274, 39.266515324380826 ], [ -119.957943673890668, 39.266683974429988 ], [ -119.958061554828973, 39.266655058772713 ], [ -119.958229844024274, 39.266515324380826 ] ], [ [ -119.959110547594761, 39.268123824470756 ], [ -119.959088205289177, 39.26813346625147 ], [ -119.959210698113182, 39.268116740727159 ], [ -119.959110547594761, 39.268123824470756 ] ], [ [ -119.959173947045102, 39.269873110265202 ], [ -119.959086973174536, 39.269840300072623 ], [ -119.959573333546558, 39.270285322730828 ], [ -119.959573567071971, 39.270279923796814 ], [ -119.959173947045102, 39.269873110265202 ] ], [ [ -119.959372983325707, 39.26966571416996 ], [ -119.959515916778074, 39.269867726761838 ], [ -119.959502752610916, 39.269773603025627 ], [ -119.959372983325707, 39.26966571416996 ] ], [ [ -119.959042903954298, 39.268986862435042 ], [ -119.959084654473159, 39.269258205555154 ], [ -119.959096332115053, 39.268988258922427 ], [ -119.959042903954298, 39.268986862435042 ] ], [ [ -119.960774445253662, 39.268040236267389 ], [ -119.960759003980471, 39.268058797947887 ], [ -119.960830911673071, 39.26811112340264 ], [ -119.960774445253662, 39.268040236267389 ] ], [ [ -119.960936796773254, 39.268192442563617 ], [ -119.960913406517491, 39.268225943379427 ], [ -119.961723607724622, 39.268264160251114 ], [ -119.960936796773254, 39.268192442563617 ] ], [ [ -119.960877320097211, 39.268277628267072 ], [ -119.960864649290571, 39.26829577604741 ], [ -119.960960959069908, 39.268748711770876 ], [ -119.960877320097211, 39.268277628267072 ] ], [ [ -119.961102417944957, 39.27006362919542 ], [ -119.961033929336352, 39.269741541646667 ], [ -119.96106700792329, 39.270048691204913 ], [ -119.961102417944957, 39.27006362919542 ] ], [ [ -119.960202191137881, 39.269143275538347 ], [ -119.95995607727022, 39.268938660100119 ], [ -119.959875727461053, 39.268928711629826 ], [ -119.960202191137881, 39.269143275538347 ] ], [ [ -119.959452811597444, 39.268650752582069 ], [ -119.959346536671376, 39.268562395347928 ], [ -119.959232292915388, 39.268631476676454 ], [ -119.959345758242577, 39.2685803917961 ], [ -119.959452811597444, 39.268650752582069 ] ], [ [ -119.960081516052938, 39.271305674483138 ], [ -119.96008408941951, 39.271338238263048 ], [ -119.960265294313771, 39.271557043341495 ], [ -119.960261530699981, 39.27152304244639 ], [ -119.960081516052938, 39.271305674483138 ] ], [ [ -119.961748841015208, 39.270712331992947 ], [ -119.961662706229063, 39.270596746135226 ], [ -119.961644861141906, 39.270622304358632 ], [ -119.961464306450111, 39.270509488119622 ], [ -119.961748841015208, 39.270712331992947 ] ], [ [ -119.961359434196424, 39.270254513956701 ], [ -119.961304165080804, 39.270223740748129 ], [ -119.961464306450111, 39.270509488119622 ], [ -119.961359434196424, 39.270254513956701 ] ], [ [ -119.962543260139455, 39.268069360670189 ], [ -119.962578572901336, 39.268038019945863 ], [ -119.962515411949298, 39.268066459175955 ], [ -119.962543260139455, 39.268069360670189 ] ], [ [ -119.96170256712675, 39.270783117785228 ], [ -119.961677226012512, 39.270767283952971 ], [ -119.961684165735761, 39.27078548198277 ], [ -119.96170256712675, 39.270783117785228 ] ], [ [ -119.962363795871212, 39.271686051896488 ], [ -119.962548706440401, 39.271755799751091 ], [ -119.961826011354972, 39.271257622941626 ], [ -119.962363795871212, 39.271686051896488 ] ], [ [ -119.961617040912472, 39.270729678580828 ], [ -119.961635526320734, 39.270838262116676 ], [ -119.961657164305251, 39.270754748832111 ], [ -119.961617040912472, 39.270729678580828 ] ], [ [ -119.958226416467426, 39.267398057598228 ], [ -119.958539536028866, 39.267928730538436 ], [ -119.95823799229845, 39.26739836024354 ], [ -119.958226416467426, 39.267398057598228 ] ], [ [ -119.954809052322872, 39.269506708485309 ], [ -119.954552038218793, 39.269554031321448 ], [ -119.955509077148292, 39.26939891169696 ], [ -119.954809052322872, 39.269506708485309 ] ], [ [ -119.954408643887362, 39.269329217900925 ], [ -119.954400108538351, 39.26931583614504 ], [ -119.954285647067024, 39.269282811766679 ], [ -119.954408643887362, 39.269329217900925 ] ], [ [ -119.951450695877838, 39.273189407321979 ], [ -119.951404612061239, 39.273183052086033 ], [ -119.951398936156551, 39.273168162370006 ], [ -119.951334371202876, 39.273199228198031 ], [ -119.951450695877838, 39.273189407321979 ] ], [ [ -119.951727198976727, 39.273227538360736 ], [ -119.951553498272062, 39.273203584322083 ], [ -119.951952210617307, 39.273331866839222 ], [ -119.951727198976727, 39.273227538360736 ] ], [ [ -119.954133817251076, 39.274784770985974 ], [ -119.952662445733296, 39.273576341292198 ], [ -119.95404805299961, 39.274765699970793 ], [ -119.954133817251076, 39.274784770985974 ] ], [ [ -119.951362988811795, 39.273073860830195 ], [ -119.951225629795047, 39.27303422777571 ], [ -119.951394818344738, 39.273157360026865 ], [ -119.951362988811795, 39.273073860830195 ] ], [ [ -119.952650754305225, 39.258874346304907 ], [ -119.952386021502733, 39.258857585020557 ], [ -119.952779399238935, 39.258922892019619 ], [ -119.952650754305225, 39.258874346304907 ] ], [ [ -119.952635471199315, 39.259212298058607 ], [ -119.952683014180451, 39.25919949346958 ], [ -119.952619026865378, 39.259071700030312 ], [ -119.952635471199315, 39.259212298058607 ] ], [ [ -119.95246405504956, 39.259059004849682 ], [ -119.952415019106354, 39.259090658318804 ], [ -119.952619026865378, 39.259071700030312 ], [ -119.95246405504956, 39.259059004849682 ] ], [ [ -119.95251941244905, 39.25923124206269 ], [ -119.952518872507184, 39.259243701083044 ], [ -119.952606805570326, 39.259220018462877 ], [ -119.95251941244905, 39.25923124206269 ] ], [ [ -119.952317512030746, 39.25915360051183 ], [ -119.952305234523209, 39.259161525801929 ], [ -119.952523312019153, 39.259141260247944 ], [ -119.952317512030746, 39.25915360051183 ] ], [ [ -119.95123217674724, 39.257918327348918 ], [ -119.951254544937555, 39.257936930252782 ], [ -119.951244899771183, 39.257936677520597 ], [ -119.951384853458208, 39.258138529330537 ], [ -119.951276913139637, 39.257955533152689 ], [ -119.951295701170764, 39.25796238431623 ], [ -119.95123217674724, 39.257918327348918 ] ], [ [ -119.951147910157886, 39.25986193223568 ], [ -119.95114291632639, 39.259977108796349 ], [ -119.951186405463531, 39.26004310881352 ], [ -119.951194208219803, 39.259863145430948 ], [ -119.95132868065761, 39.25985623827421 ], [ -119.951241286544459, 39.259846362268405 ], [ -119.951147910157886, 39.25986193223568 ] ], [ [ -119.950867780777841, 39.259908641677477 ], [ -119.950863862516201, 39.259930482511265 ], [ -119.951027483122147, 39.259966877181249 ], [ -119.95102263959636, 39.259977462937648 ], [ -119.951077682768329, 39.259878108744942 ], [ -119.95111845372135, 39.259939983780683 ], [ -119.951078463070303, 39.259860112408326 ], [ -119.951005894706014, 39.259930277881097 ], [ -119.95073044733617, 39.25986900898225 ], [ -119.95041286400884, 39.259817445106357 ], [ -119.950867780777841, 39.259908641677477 ] ], [ [ -119.95074527463656, 39.259527078684542 ], [ -119.950730863089603, 39.259519051407011 ], [ -119.95073044733617, 39.25986900898225 ], [ -119.95074527463656, 39.259527078684542 ] ], [ [ -119.950201142079877, 39.259783068717155 ], [ -119.949844589408656, 39.260138381711762 ], [ -119.950241386726319, 39.259789603101211 ], [ -119.950201142079877, 39.259783068717155 ] ], [ [ -119.950305021248781, 39.259056586014395 ], [ -119.950229793712793, 39.25908904756799 ], [ -119.950301028241583, 39.259083032401605 ], [ -119.950305021248781, 39.259056586014395 ] ], [ [ -119.950096947675775, 39.259146371975667 ], [ -119.950089567334203, 39.259149556660276 ], [ -119.950088695914232, 39.259156290111065 ], [ -119.950096947675775, 39.259146371975667 ] ], [ [ -119.951376016697068, 39.261216557022728 ], [ -119.951256650792828, 39.261315662609242 ], [ -119.951268178493564, 39.261340458077896 ], [ -119.951364059554734, 39.261290921971678 ], [ -119.951376016697068, 39.261216557022728 ] ], [ [ -119.951351833820794, 39.261038366671997 ], [ -119.95139037420121, 39.261127263271362 ], [ -119.951427524040142, 39.260896215669447 ], [ -119.951351833820794, 39.261038366671997 ] ], [ [ -119.951710674963863, 39.260607731662567 ], [ -119.951732117482763, 39.26064090373287 ], [ -119.951740168380653, 39.260634155387599 ], [ -119.951710674963863, 39.260607731662567 ] ], [ [ -119.95142926637061, 39.259867604917716 ], [ -119.951449143794889, 39.259984477707881 ], [ -119.951448847610138, 39.259869817676474 ], [ -119.95142926637061, 39.259867604917716 ] ], [ [ -119.95050674786431, 39.261286471777872 ], [ -119.950496035334311, 39.261278674067604 ], [ -119.950290597087715, 39.261460974048418 ], [ -119.95050674786431, 39.261286471777872 ] ], [ [ -119.950337609097375, 39.261126861755116 ], [ -119.950328918763361, 39.261136413341653 ], [ -119.950332986539223, 39.261139421022115 ], [ -119.950337609097375, 39.261126861755116 ] ], [ [ -119.950421395492512, 39.2610347715638 ], [ -119.950616515844146, 39.260892979583744 ], [ -119.950933559480148, 39.260482546850767 ], [ -119.950930487125973, 39.2604752187275 ], [ -119.950421395492512, 39.2610347715638 ] ], [ [ -119.950865649814219, 39.260320569604474 ], [ -119.950858227887224, 39.260336790390561 ], [ -119.950907401606983, 39.260420155520066 ], [ -119.950865649814219, 39.260320569604474 ] ], [ [ -119.950844972945873, 39.260035774884976 ], [ -119.950806655569366, 39.260249358650888 ], [ -119.950847869800853, 39.260319230106113 ], [ -119.950844972945873, 39.260035774884976 ] ], [ [ -119.951171580034114, 39.260385039221433 ], [ -119.951168686383738, 39.260384963395879 ], [ -119.951305013447495, 39.260514653135012 ], [ -119.951171580034114, 39.260385039221433 ] ], [ [ -119.951094416028681, 39.260383017181773 ], [ -119.951032684829869, 39.260381399513285 ], [ -119.951006743816251, 39.260409546570877 ], [ -119.951094416028681, 39.260383017181773 ] ], [ [ -119.950233386539608, 39.261176997092818 ], [ -119.950295867451416, 39.261126734447231 ], [ -119.950236447422043, 39.261106425815086 ], [ -119.950233386539608, 39.261176997092818 ] ], [ [ -119.9500624926347, 39.26084242432119 ], [ -119.950199095798993, 39.260927811037121 ], [ -119.950198266404527, 39.260918050497047 ], [ -119.950055938131072, 39.260833244113535 ], [ -119.950033069891106, 39.260860729626344 ], [ -119.9500624926347, 39.26084242432119 ] ], [ [ -119.949561013571753, 39.261468272597583 ], [ -119.949512355354827, 39.261503630967781 ], [ -119.949546689288468, 39.261513539538186 ], [ -119.949561013571753, 39.261468272597583 ] ], [ [ -119.949622297221381, 39.261661041936364 ], [ -119.949771158562768, 39.26168157551065 ], [ -119.949633041702668, 39.261659937725476 ], [ -119.949622297221381, 39.261661041936364 ] ], [ [ -119.949512126181133, 39.261672364160077 ], [ -119.94953456711238, 39.261699165838046 ], [ -119.949602883896574, 39.261663037042119 ], [ -119.949512126181133, 39.261672364160077 ] ], [ [ -119.949605207738983, 39.261767308634248 ], [ -119.949341973120383, 39.261958591404856 ], [ -119.94960442700733, 39.261785304940254 ], [ -119.950101173467075, 39.262128362093165 ], [ -119.949949042329237, 39.261982228741417 ], [ -119.949605207738983, 39.261767308634248 ] ], [ [ -119.949894649908316, 39.264711630797173 ], [ -119.949913840246069, 39.26474416370008 ], [ -119.950092345697257, 39.264428545072597 ], [ -119.949894649908316, 39.264711630797173 ] ], [ [ -119.949975541498006, 39.264984002957505 ], [ -119.950166844956826, 39.264871517193917 ], [ -119.950019867168635, 39.264923907941409 ], [ -119.950024185018094, 39.26493122784094 ], [ -119.949975541498006, 39.264984002957505 ] ], [ [ -119.950993105673874, 39.264560254873139 ], [ -119.951103164552165, 39.2646352061643 ], [ -119.951052640600764, 39.264441499648875 ], [ -119.95105842423267, 39.264598000167041 ], [ -119.950993105673874, 39.264560254873139 ] ], [ [ -119.951010011207629, 39.264278059763754 ], [ -119.951003801014309, 39.26425425000167 ], [ -119.950765271786508, 39.264410149757651 ], [ -119.950767948231928, 39.264425886662053 ], [ -119.951003020571278, 39.264272246323486 ], [ -119.951010011207629, 39.264278059763754 ] ], [ [ -119.950843361113257, 39.264473722482897 ], [ -119.950768751165725, 39.264430607733374 ], [ -119.950782200320191, 39.264509685677275 ], [ -119.950843361113257, 39.264473722482897 ] ], [ [ -119.948753294317186, 39.250955688163863 ], [ -119.948753414417013, 39.250952919498431 ], [ -119.948740660262004, 39.250945987342824 ], [ -119.948753294317186, 39.250955688163863 ] ], [ [ -119.948343090621904, 39.250729898399563 ], [ -119.94830064348416, 39.250706827174206 ], [ -119.948252390932851, 39.250709719363591 ], [ -119.948343090621904, 39.250729898399563 ] ], [ [ -119.947398318539044, 39.249465935835076 ], [ -119.94733142469066, 39.249546345386065 ], [ -119.947496567321892, 39.249478610636174 ], [ -119.947704096309565, 39.249502071512268 ], [ -119.947398318539044, 39.249465935835076 ] ], [ [ -119.947884575738129, 39.249614906483266 ], [ -119.947795116805494, 39.249540492716719 ], [ -119.947701824331162, 39.249498218904087 ], [ -119.947704096309565, 39.249502071512268 ], [ -119.947884575738129, 39.249614906483266 ] ], [ [ -119.947840347223121, 39.250100199825802 ], [ -119.947862377468084, 39.250126515976035 ], [ -119.947884575738129, 39.249614906483266 ], [ -119.947840347223121, 39.250100199825802 ] ], [ [ -119.947347562721845, 39.249446486609187 ], [ -119.94749969103276, 39.249406625400823 ], [ -119.947268724724552, 39.24943036307296 ], [ -119.947347562721845, 39.249446486609187 ] ], [ [ -119.947883526518453, 39.250151779476859 ], [ -119.94799455927658, 39.250284412801186 ], [ -119.948131872587808, 39.250324047987164 ], [ -119.947883526518453, 39.250151779476859 ] ], [ [ -119.946138013304505, 39.249280811596648 ], [ -119.946128153528988, 39.249251725956235 ], [ -119.94611663864444, 39.249289768912526 ], [ -119.946138013304505, 39.249280811596648 ] ], [ [ -119.945813681864337, 39.249812802617335 ], [ -119.945838095021813, 39.24956740163919 ], [ -119.945828527740161, 39.249470873296247 ], [ -119.945813681864337, 39.249812802617335 ] ], [ [ -119.945646489376841, 39.249394027831713 ], [ -119.945665625138105, 39.249320210880839 ], [ -119.94562803232823, 39.24928544260213 ], [ -119.945646489376841, 39.249394027831713 ] ], [ [ -119.944907095573285, 39.24987908665198 ], [ -119.944900264407096, 39.249936335796285 ], [ -119.945646489376841, 39.249394027831713 ], [ -119.944907095573285, 39.24987908665198 ] ], [ [ -119.944870662523556, 39.250184415406324 ], [ -119.94485738829961, 39.250185779357423 ], [ -119.944884365742567, 39.250245041349871 ], [ -119.944874866357509, 39.250149185167352 ], [ -119.944870662523556, 39.250184415406324 ] ], [ [ -119.943865551911585, 39.252518218431462 ], [ -119.943908818280008, 39.251522426473962 ], [ -119.943845845010813, 39.251905130396615 ], [ -119.943865551911585, 39.252518218431462 ] ], [ [ -119.947501613519009, 39.253100118087517 ], [ -119.947500712331916, 39.253120883046208 ], [ -119.947777031429354, 39.2531613935435 ], [ -119.946817367605178, 39.252847947096669 ], [ -119.947501613519009, 39.253100118087517 ] ], [ [ -119.946070956545768, 39.252166152409842 ], [ -119.946147191247263, 39.252271839280823 ], [ -119.946817367605178, 39.252847947096669 ], [ -119.946070956545768, 39.252166152409842 ] ], [ [ -119.945507205523839, 39.251534369189883 ], [ -119.945764939151402, 39.251469067597512 ], [ -119.945710050974981, 39.251665811455297 ], [ -119.94578797492899, 39.251442418444832 ], [ -119.945507205523839, 39.251534369189883 ] ], [ [ -119.945088390233337, 39.250693223621042 ], [ -119.94550407953939, 39.251606354265043 ], [ -119.945507205523839, 39.251534369189883 ], [ -119.945088390233337, 39.250693223621042 ] ], [ [ -119.946066812732113, 39.252521964625004 ], [ -119.946015049966093, 39.252646723500114 ], [ -119.946106977271342, 39.252530901144745 ], [ -119.946066812732113, 39.252521964625004 ] ], [ [ -119.94475539830276, 39.253319657084212 ], [ -119.944694853787041, 39.253370155274084 ], [ -119.944875093922676, 39.253283418191138 ], [ -119.94536556418123, 39.253728698150276 ], [ -119.945150989030395, 39.253867198958389 ], [ -119.945386251237807, 39.253743389388738 ], [ -119.944875875627247, 39.253265421938167 ], [ -119.94475539830276, 39.253319657084212 ] ], [ [ -119.945002671936379, 39.254177779485858 ], [ -119.945094533502441, 39.254099934823479 ], [ -119.945150989030395, 39.253867198958389 ], [ -119.945002671936379, 39.254177779485858 ] ], [ [ -119.946755360323991, 39.254810149368836 ], [ -119.947179535427381, 39.255181615064615 ], [ -119.946769084301081, 39.254785882245727 ], [ -119.946755360323991, 39.254810149368836 ] ], [ [ -119.947497485216203, 39.253195241373739 ], [ -119.947496927335948, 39.253208095871713 ], [ -119.947125869843461, 39.253081251685074 ], [ -119.947312534330621, 39.253185241491892 ], [ -119.947718748045929, 39.253250731916019 ], [ -119.947497485216203, 39.253195241373739 ] ], [ [ -119.947054262418561, 39.25305677285187 ], [ -119.946866084482977, 39.253143085411949 ], [ -119.947103152083372, 39.253073485677639 ], [ -119.947054262418561, 39.25305677285187 ] ], [ [ -119.946358751936941, 39.252843118727256 ], [ -119.946142208774646, 39.252920312732563 ], [ -119.94661061045818, 39.252806487988821 ], [ -119.946329725881156, 39.252871183813191 ], [ -119.946358751936941, 39.252843118727256 ] ], [ [ -119.946740807006321, 39.254611582878994 ], [ -119.946768641756492, 39.254504212603116 ], [ -119.946706554070744, 39.254450314881439 ], [ -119.946740807006321, 39.254611582878994 ] ], [ [ -119.94685419934838, 39.254668608720863 ], [ -119.94673158494453, 39.254747753653085 ], [ -119.946805561139314, 39.25472138277685 ], [ -119.946796702181558, 39.254737047471544 ], [ -119.94687188499114, 39.254666910781225 ], [ -119.946740807006321, 39.254611582878994 ], [ -119.94685419934838, 39.254668608720863 ] ], [ [ -119.946523887617687, 39.254804075035743 ], [ -119.946570182153337, 39.2548052899391 ], [ -119.946595859887026, 39.254796136454772 ], [ -119.946486797096938, 39.254768783982598 ], [ -119.946523887617687, 39.254804075035743 ] ], [ [ -119.946431567186082, 39.254662022177655 ], [ -119.946212328389521, 39.254507629861536 ], [ -119.94647487812847, 39.254757443259919 ], [ -119.946431567186082, 39.254662022177655 ] ], [ [ -119.946025588218475, 39.254538762136328 ], [ -119.946007129746718, 39.25443017697323 ], [ -119.94597626690333, 39.254429366896936 ], [ -119.946006348298965, 39.254448173241542 ], [ -119.946024806772428, 39.254556758404604 ], [ -119.945766280324165, 39.254640056370825 ], [ -119.946212328389521, 39.254507629861536 ], [ -119.946025588218475, 39.254538762136328 ] ], [ [ -119.946288802267659, 39.254347485926708 ], [ -119.94639359895713, 39.25460247120207 ], [ -119.94641362398842, 39.254622490306758 ], [ -119.946288802267659, 39.254347485926708 ] ], [ [ -119.946063228411603, 39.254410860817025 ], [ -119.946061647057576, 39.254414172309914 ], [ -119.946288802267659, 39.254347485926708 ], [ -119.946063228411603, 39.254410860817025 ] ], [ [ -119.945674771885905, 39.254079134143083 ], [ -119.945676334929729, 39.254043141615249 ], [ -119.945953317512831, 39.254068428932335 ], [ -119.945633487712925, 39.254024297875333 ], [ -119.945674771885905, 39.254079134143083 ] ], [ [ -119.945587654656109, 39.253950729805652 ], [ -119.945538056327507, 39.253897539465285 ], [ -119.945628375126205, 39.2540175070054 ], [ -119.945594418321974, 39.253928386384665 ], [ -119.945587654656109, 39.253950729805652 ] ], [ [ -119.945428820071854, 39.253752443866716 ], [ -119.945443317611989, 39.253771700600332 ], [ -119.945506008636571, 39.253696351579194 ], [ -119.945428820071854, 39.253752443866716 ] ], [ [ -119.946404580551231, 39.252688976733268 ], [ -119.946445829963565, 39.252758923419862 ], [ -119.946474855925558, 39.252730858300858 ], [ -119.946404580551231, 39.252688976733268 ] ], [ [ -119.947234916817962, 39.255507370189179 ], [ -119.947346971374614, 39.255632078714825 ], [ -119.94734596757911, 39.25561838447603 ], [ -119.947234916817962, 39.255507370189179 ] ], [ [ -119.946803305958142, 39.253171880249113 ], [ -119.946631122507867, 39.253401580150566 ], [ -119.946819229378818, 39.253164576605776 ], [ -119.946803305958142, 39.253171880249113 ] ], [ [ -119.947027094533098, 39.254556036317844 ], [ -119.946978528751188, 39.254473686482079 ], [ -119.946908306031077, 39.254489860659803 ], [ -119.947027094533098, 39.254556036317844 ] ], [ [ -119.945786268616217, 39.254357650902634 ], [ -119.945733271783027, 39.25433290467312 ], [ -119.945635994165684, 39.254438451780807 ], [ -119.945398270088901, 39.254576345334421 ], [ -119.945786268616217, 39.254357650902634 ] ], [ [ -119.945982123071516, 39.255006057525463 ], [ -119.946428954503716, 39.254855633996577 ], [ -119.946449757746493, 39.254910230293333 ], [ -119.946436498322356, 39.254832232531733 ], [ -119.946265360759824, 39.254887374096143 ], [ -119.945982123071516, 39.255006057525463 ] ], [ [ -119.946142070529831, 39.25505830042885 ], [ -119.94630027502572, 39.255021863101483 ], [ -119.946283038314618, 39.255013955502527 ], [ -119.946449757746493, 39.254910230293333 ], [ -119.946142070529831, 39.25505830042885 ] ], [ [ -119.946456904452631, 39.255093718998893 ], [ -119.946363661674951, 39.255050942638221 ], [ -119.946418015515661, 39.255107581827595 ], [ -119.946456904452631, 39.255093718998893 ] ], [ [ -119.946085842770486, 39.255381855350876 ], [ -119.94613555858578, 39.255208269332179 ], [ -119.946082596003706, 39.255367919612631 ], [ -119.946085842770486, 39.255381855350876 ] ], [ [ -119.946023728956035, 39.255115250249752 ], [ -119.946081604972974, 39.255363665920044 ], [ -119.946051038566566, 39.255102107994801 ], [ -119.946023728956035, 39.255115250249752 ] ], [ [ -119.947669464627481, 39.256707878219288 ], [ -119.947613795572551, 39.25692261916042 ], [ -119.94757736858368, 39.257227948764353 ], [ -119.947691831465562, 39.256726481759664 ], [ -119.947726358085205, 39.25673189170034 ], [ -119.947669464627481, 39.256707878219288 ] ], [ [ -119.947365869279878, 39.25671301653751 ], [ -119.9474560090094, 39.256669638051456 ], [ -119.947437653306281, 39.256640208004981 ], [ -119.947365869279878, 39.25671301653751 ] ], [ [ -119.947189608160571, 39.256551154640832 ], [ -119.947285916362944, 39.256396924290797 ], [ -119.947276900835746, 39.256382469409822 ], [ -119.947189608160571, 39.256551154640832 ] ], [ [ -119.9473034042704, 39.256761183978803 ], [ -119.947320683587847, 39.256734761473119 ], [ -119.947336821338112, 39.256726995426831 ], [ -119.947189608160571, 39.256551154640832 ], [ -119.9473034042704, 39.256761183978803 ] ], [ [ -119.946900722241026, 39.255874551541041 ], [ -119.947158058034844, 39.256191924385909 ], [ -119.94698547341369, 39.255915211182163 ], [ -119.946900722241026, 39.255874551541041 ] ], [ [ -119.946862607197104, 39.255775244455073 ], [ -119.946615111223764, 39.255905492532989 ], [ -119.946844221515107, 39.255847445081315 ], [ -119.946826565047417, 39.255838974307359 ], [ -119.946862607197104, 39.255775244455073 ] ], [ [ -119.946876766594315, 39.255750207723494 ], [ -119.946739033745757, 39.255569762147523 ], [ -119.946831252697194, 39.255730996639556 ], [ -119.946853619008806, 39.255749600322879 ], [ -119.946869594952886, 39.25576288866575 ], [ -119.946876766594315, 39.255750207723494 ] ], [ [ -119.946558169854285, 39.255615729781063 ], [ -119.946830583034483, 39.255746422020792 ], [ -119.946831252697194, 39.255730996639556 ], [ -119.946558169854285, 39.255615729781063 ] ], [ [ -119.946376892071257, 39.255760621936354 ], [ -119.94638988605945, 39.255755447616899 ], [ -119.94640589366, 39.255773263235831 ], [ -119.946558169854285, 39.255615729781063 ], [ -119.946376892071257, 39.255760621936354 ] ], [ [ -119.946836258320175, 39.25574914476941 ], [ -119.946853284179724, 39.255757313013632 ], [ -119.946853619008806, 39.255749600322879 ], [ -119.946836258320175, 39.25574914476941 ] ], [ [ -119.946470266972995, 39.255099849222134 ], [ -119.946529707797779, 39.25520377636412 ], [ -119.9465329710156, 39.25512861545139 ], [ -119.946470266972995, 39.255099849222134 ] ] ], [ [ [ -119.95328878298838, 39.259125273540953 ], [ -119.95326563415459, 39.259124667371438 ], [ -119.953266413876278, 39.25910667099577 ], [ -119.95328878298838, 39.259125273540953 ] ] ], [ [ [ -119.953071621454129, 39.259858275287755 ], [ -119.953093990738623, 39.259876877875683 ], [ -119.953070841661813, 39.259876271657788 ], [ -119.953071621454129, 39.259858275287755 ] ] ], [ [ [ -119.953048472383955, 39.259857669065667 ], [ -119.953070841661813, 39.259876271657788 ], [ -119.953047692585741, 39.259875665435317 ], [ -119.953048472383955, 39.259857669065667 ] ] ], [ [ [ -119.958551627566123, 39.266577787171215 ], [ -119.958528476167501, 39.266577181952286 ], [ -119.958529254749891, 39.266559185511603 ], [ -119.958551627566123, 39.266577787171215 ] ] ], [ [ [ -119.958574000394194, 39.266596388826962 ], [ -119.958550848988963, 39.266595783612239 ], [ -119.958551627566123, 39.266577787171215 ], [ -119.958574000394194, 39.266596388826962 ] ] ], [ [ [ -119.95859637323403, 39.266614990478793 ], [ -119.958573221822235, 39.266614385268277 ], [ -119.958574000394194, 39.266596388826962 ], [ -119.95859637323403, 39.266614990478793 ] ] ], [ [ [ -119.958595594667301, 39.266632986920413 ], [ -119.95859637323403, 39.266614990478793 ], [ -119.958618746085719, 39.266633592126716 ], [ -119.958595594667301, 39.266632986920413 ] ] ], [ [ [ -119.958663491824481, 39.266670795410953 ], [ -119.958640340392876, 39.26667019021307 ], [ -119.958641118949203, 39.26665219377081 ], [ -119.958663491824481, 39.266670795410953 ] ] ], [ [ [ -119.958685864711555, 39.266689397047237 ], [ -119.95866271327337, 39.266688791853575 ], [ -119.958663491824481, 39.266670795410953 ], [ -119.958685864711555, 39.266689397047237 ] ] ], [ [ [ -119.958730610521201, 39.266726600308068 ], [ -119.958707459069785, 39.266725995122819 ], [ -119.95870823761048, 39.266707998679607 ], [ -119.958730610521201, 39.266726600308068 ] ] ], [ [ [ -119.958752204913438, 39.26676319837653 ], [ -119.95875298344373, 39.266745201932693 ], [ -119.958775356378084, 39.26676380355336 ], [ -119.958752204913438, 39.26676319837653 ] ] ], [ [ [ -119.958819323767472, 39.266819003227909 ], [ -119.958820102282147, 39.266801006783105 ], [ -119.958842475251913, 39.266819608392119 ], [ -119.958819323767472, 39.266819003227909 ] ] ], [ [ [ -119.946217605868441, 39.249048682216227 ], [ -119.946240751237127, 39.249049289657016 ], [ -119.946216043378911, 39.249084674793224 ], [ -119.946217605868441, 39.249048682216227 ] ] ], [ [ [ -119.946178432130637, 39.255821965042806 ], [ -119.94615528453663, 39.255821357502477 ], [ -119.946156065984482, 39.25580336123587 ], [ -119.946178432130637, 39.255821965042806 ] ] ], [ [ [ -119.946551626208262, 39.256300195613598 ], [ -119.946552407568078, 39.256282199341847 ], [ -119.946574773968322, 39.256300803081317 ], [ -119.946551626208262, 39.256300195613598 ] ] ], [ [ [ -119.947977134327303, 39.2570943014845 ], [ -119.947999501367036, 39.257112904972679 ], [ -119.947976353309144, 39.257112297777695 ], [ -119.947977134327303, 39.2570943014845 ] ] ] ] } }
]
}
