{
"type": "FeatureCollection",
"name": "X02454",
"crs": { "type": "name", "properties": { "name": "urn:ogc:def:crs:OGC:1.3:CRS84" } },
"features": [
{ "type": "Feature", "properties": { "part": "direct", "crossing_id": "X02454", "area_ac": 0.4 }, "geometry": { "type": "MultiPolygon", "coordinates": [ [ [ [ -119.949431943470614, 39.27163595233759 ], [ -119.949454315293679, 39.271654555702938 ], [ -119.949431162420638, 39.271653948610172 ], [ -119.949431943470614, 39.27163595233759 ] ] ], [ [ [ -119.949408009548321, 39.27165334151281 ], [ -119.949492029640751, 39.271853728881034 ], [ -119.949292746455868, 39.272172804895646 ], [ -119.949284154311925, 39.27237076384602 ], [ -119.949067183578322, 39.272563258362183 ], [ -119.949062778403487, 39.272130740843757 ], [ -119.949408009548321, 39.27165334151281 ] ] ] ] } }
]
}
