{
"type": "FeatureCollection",
"name": "X02409",
"crs": { "type": "name", "properties": { "name": "urn:ogc:def:crs:OGC:1.3:CRS84" } },
"features": [
{ "type": "Feature", "properties": { "part": "direct", "crossing_id": "X02409", "area_ac": 0.3, "n_upstream": null }, "geometry": { "type": "MultiPolygon", "coordinates": [ [ [ [ -119.949140757861045, 39.244693228238226 ], [ -119.949163121490827, 39.244711831393538 ], [ -119.949139977484649, 39.244711224589309 ], [ -119.949140757861045, 39.244693228238226 ] ] ], [ [ [ -119.949125417646016, 39.244512657919088 ], [ -119.949119174623974, 39.244656628728201 ], [ -119.949140757861045, 39.244693228238226 ], [ -119.949050523062752, 39.244636811927883 ], [ -119.949125417646016, 39.244512657919088 ] ] ], [ [ [ -119.949282228925341, 39.244102382523629 ], [ -119.9495297885084, 39.244271023953949 ], [ -119.949614561544024, 39.244453414412355 ], [ -119.949410167688583, 39.244357972063725 ], [ -119.949265841977777, 39.244480305970072 ], [ -119.949103054086621, 39.244494054758846 ], [ -119.949046888951258, 39.244186296346108 ], [ -119.949282228925341, 39.244102382523629 ] ] ] ] } },
{ "type": "Feature", "properties": { "part": "upstream", "crossing_id": "X02409", "area_ac": 0.8, "n_upstream": 2.0 }, "geometry": { "type": "Polygon", "coordinates": [ [ [ -119.949745622980316, 39.244637018200997 ], [ -119.949556569702494, 39.244722146363102 ], [ -119.949467114805657, 39.244647734004417 ], [ -119.9495526683408, 39.244812128152255 ], [ -119.949339689962613, 39.244914645557721 ], [ -119.949335007961906, 39.245022623679084 ], [ -119.949191461062085, 39.245126961070724 ], [ -119.94921511852003, 39.245650068826286 ], [ -119.949024500981864, 39.24577118867245 ], [ -119.94899147978596, 39.245464037101215 ], [ -119.949094202088574, 39.245232511920598 ], [ -119.949030232490401, 39.245104716998753 ], [ -119.949122028634591, 39.245125140645115 ], [ -119.949243211876833, 39.245002200203373 ], [ -119.949125417646016, 39.244512657919088 ], [ -119.949502743276398, 39.244360399020202 ], [ -119.949636925232923, 39.244472017479161 ], [ -119.949625467708614, 39.244516229254145 ], [ -119.949635364745305, 39.244508010199233 ], [ -119.949745622980316, 39.244637018200997 ] ] ] } }
]
}
