{
"type": "FeatureCollection",
"name": "X02453",
"crs": { "type": "name", "properties": { "name": "urn:ogc:def:crs:OGC:1.3:CRS84" } },
"features": [
{ "type": "Feature", "properties": { "part": "direct", "crossing_id": "X02453", "area_ac": 1.0, "n_upstream": null }, "geometry": { "type": "Polygon", "coordinates": [ [ [ -119.949981132704522, 39.270731496882775 ], [ -119.950421031869524, 39.270743028556602 ], [ -119.950713427966164, 39.27094887695597 ], [ -119.950660096171433, 39.27110962994086 ], [ -119.950749584262766, 39.271184042463943 ], [ -119.950589857275418, 39.271125805682672 ], [ -119.950346618017846, 39.271389681212149 ], [ -119.950133557612489, 39.271492196549303 ], [ -119.949824255898363, 39.271141769431352 ], [ -119.949981132704522, 39.270731496882775 ] ] ] } },
{ "type": "Feature", "properties": { "part": "upstream", "crossing_id": "X02453", "area_ac": 2.9, "n_upstream": 1.0 }, "geometry": { "type": "MultiPolygon", "coordinates": [ [ [ [ -119.950906188877312, 39.271314264229488 ], [ -119.950837243412295, 39.271834943225414 ], [ -119.950995410887089, 39.271929172328015 ], [ -119.950821629358686, 39.272194869122721 ], [ -119.950704813973232, 39.272750326822205 ], [ -119.95016241105418, 39.272429824165975 ], [ -119.949977185926173, 39.272424968341788 ], [ -119.949664757202427, 39.272146525825683 ], [ -119.949794579842134, 39.271825628048489 ], [ -119.950159053025104, 39.271438814644455 ], [ -119.950298750765612, 39.271424459959398 ], [ -119.950636162724578, 39.271127019389283 ], [ -119.950906188877312, 39.271314264229488 ] ] ], [ [ [ -119.9507503397531, 39.272769536816064 ], [ -119.950746436025028, 39.272859518271211 ], [ -119.950704813973232, 39.272750326822205 ], [ -119.9507503397531, 39.272769536816064 ] ] ] ] } }
]
}
