{
"type": "FeatureCollection",
"name": "X02421",
"crs": { "type": "name", "properties": { "name": "urn:ogc:def:crs:OGC:1.3:CRS84" } },
"features": [
{ "type": "Feature", "properties": { "part": "direct", "crossing_id": "X02421", "area_ac": 47.9 }, "geometry": { "type": "Polygon", "coordinates": [ [ [ -119.93015992506912, 39.250103516276667 ], [ -119.931492152033712, 39.25037287460642 ], [ -119.93184992058552, 39.250670576878065 ], [ -119.932039392922761, 39.251107974628844 ], [ -119.932541137759713, 39.251823856013424 ], [ -119.932894598130318, 39.252752027478998 ], [ -119.93300562127466, 39.252863054441782 ], [ -119.933322996966211, 39.254619043370838 ], [ -119.933434023570769, 39.254730070037269 ], [ -119.933586244495501, 39.255490784758699 ], [ -119.932976569107566, 39.255654882712406 ], [ -119.932784327334232, 39.255811965663014 ], [ -119.932315101557592, 39.255943729010831 ], [ -119.931956115369658, 39.256204514470973 ], [ -119.931508462620414, 39.256372876802487 ], [ -119.930672382965099, 39.256945375972585 ], [ -119.930226712603982, 39.256537250467822 ], [ -119.930010164058388, 39.256189219196607 ], [ -119.929872851123022, 39.256149562593635 ], [ -119.929880707287026, 39.255969602677283 ], [ -119.929675524365138, 39.25589212152402 ], [ -119.92972810407484, 39.255749375234323 ], [ -119.929532350267664, 39.255455941993993 ], [ -119.929483337030334, 39.254986213775126 ], [ -119.929368387965937, 39.25496516350406 ], [ -119.929221288601696, 39.25461896361233 ], [ -119.929257792874736, 39.254313642740826 ], [ -119.929101266122046, 39.25418339456855 ], [ -119.929046755760041, 39.253839638122059 ], [ -119.928932594502555, 39.253800591512523 ], [ -119.929014606515096, 39.253514488560164 ], [ -119.928711773738229, 39.253020043764444 ], [ -119.92891658845015, 39.252575031770689 ], [ -119.929585106348298, 39.252124239975423 ], [ -119.929804417870699, 39.251877792842919 ], [ -119.930104161483627, 39.251381233157474 ], [ -119.930136732279692, 39.251165891701476 ], [ -119.930439197319174, 39.251137837940917 ], [ -119.930713019599708, 39.251235144982836 ], [ -119.930536492034946, 39.251032304218164 ], [ -119.930058287170368, 39.250839520815809 ], [ -119.930056347919361, 39.250353017828118 ], [ -119.93015992506912, 39.250103516276667 ] ] ] } }
]
}
