{
"type": "FeatureCollection",
"name": "X02478",
"crs": { "type": "name", "properties": { "name": "urn:ogc:def:crs:OGC:1.3:CRS84" } },
"features": [
{ "type": "Feature", "properties": { "part": "direct", "crossing_id": "X02478", "area_ac": 0.9 }, "geometry": { "type": "Polygon", "coordinates": [ [ [ -119.945417214848803, 39.264810365609492 ], [ -119.945646374739624, 39.264870432120439 ], [ -119.945564413415511, 39.265156548471261 ], [ -119.945737109574139, 39.265449350250279 ], [ -119.945500128906161, 39.265569246103055 ], [ -119.945511551401879, 39.265839797277529 ], [ -119.945086542843725, 39.265486320114782 ], [ -119.945093580726564, 39.265324354144013 ], [ -119.945284259858539, 39.265203243446571 ], [ -119.945205732303975, 39.264876880068854 ], [ -119.945417214848803, 39.264810365609492 ] ] ] } }
]
}
