{
"type": "FeatureCollection",
"name": "X02496",
"crs": { "type": "name", "properties": { "name": "urn:ogc:def:crs:OGC:1.3:CRS84" } },
"features": [
{ "type": "Feature", "properties": { "part": "direct", "crossing_id": "X02496", "area_ac": 0.4, "n_upstream": null }, "geometry": { "type": "Polygon", "coordinates": [ [ [ -119.937426461192587, 39.250853522744663 ], [ -119.938210713193712, 39.251468715269709 ], [ -119.938225242269922, 39.251667281943291 ], [ -119.937844294685235, 39.251368988932349 ], [ -119.937633630654986, 39.251417494923949 ], [ -119.937732482326922, 39.251275962496031 ], [ -119.937370766963895, 39.251068257915435 ], [ -119.937331527414642, 39.250905074254582 ], [ -119.937426461192587, 39.250853522744663 ] ] ] } },
{ "type": "Feature", "properties": { "part": "upstream", "crossing_id": "X02496", "area_ac": 31.9, "n_upstream": 23.0 }, "geometry": { "type": "MultiPolygon", "coordinates": [ [ [ [ -119.938206796395264, 39.251558696000821 ], [ -119.938249955032887, 39.251631898713214 ], [ -119.938203662943863, 39.251630680584441 ], [ -119.938206796395264, 39.251558696000821 ] ] ], [ [ [ -119.937620130997018, 39.251433913847883 ], [ -119.937774856838445, 39.251367161500617 ], [ -119.938179733529921, 39.251648067658529 ], [ -119.937677213111613, 39.252013194958138 ], [ -119.938202879579279, 39.251648676730198 ], [ -119.938943987368233, 39.252190662086463 ], [ -119.939117410111876, 39.252465475758463 ], [ -119.938916141932921, 39.252298030090586 ], [ -119.938798844086747, 39.252330977660577 ], [ -119.938915358731848, 39.252316026246241 ], [ -119.939138207002983, 39.252520073130889 ], [ -119.939165704195005, 39.252953198720078 ], [ -119.938356434623259, 39.253976878988212 ], [ -119.938345703765449, 39.253868496095102 ], [ -119.93833798817127, 39.253868293071633 ], [ -119.938330154213659, 39.254048254479258 ], [ -119.938062220008703, 39.254347488680573 ], [ -119.938054894467584, 39.254312978277731 ], [ -119.938010441709693, 39.254472243344843 ], [ -119.937915324665369, 39.254484447724437 ], [ -119.937855889174585, 39.254828511011958 ], [ -119.937686807297865, 39.254986211786807 ], [ -119.937257199909936, 39.254740686315856 ], [ -119.937396082197338, 39.254744342016522 ], [ -119.937214040632696, 39.254667483234009 ], [ -119.93713007349254, 39.254467088674019 ], [ -119.9364558956715, 39.254483121103981 ], [ -119.936478823544007, 39.254522010374529 ], [ -119.936056690470437, 39.25463701225047 ], [ -119.935982545416564, 39.254743160219874 ], [ -119.935342676649668, 39.255068626343906 ], [ -119.934847558020991, 39.254731282807121 ], [ -119.933556819176857, 39.253508168155207 ], [ -119.933183729837793, 39.253029899752711 ], [ -119.932976981789068, 39.252988416697526 ], [ -119.93300562127466, 39.252863054441782 ], [ -119.932894598130318, 39.252752027478998 ], [ -119.932541137759713, 39.251823856013424 ], [ -119.93186914138937, 39.250761167404278 ], [ -119.932035870245159, 39.250657463240657 ], [ -119.932846355312719, 39.251201316099035 ], [ -119.933333593938016, 39.251718627609144 ], [ -119.934011112481443, 39.252655336338741 ], [ -119.934411274132245, 39.253044231715059 ], [ -119.935128434290434, 39.25360362694007 ], [ -119.935259652491354, 39.25366038726586 ], [ -119.935141183906325, 39.253576937660256 ], [ -119.935152365115655, 39.253586240555123 ], [ -119.935129218495433, 39.253585630852186 ], [ -119.935129942376307, 39.253569019078704 ], [ -119.935127898462028, 39.253567579336476 ], [ -119.935106856086037, 39.253567025057052 ], [ -119.93501662233561, 39.253510597924112 ], [ -119.935061042732542, 39.253520485815613 ], [ -119.934995044216478, 39.253473996023523 ], [ -119.935017406566573, 39.253492601837841 ], [ -119.934994259980044, 39.253491992109296 ], [ -119.934995044216194, 39.253473996023338 ], [ -119.934995044216151, 39.253473996023303 ], [ -119.934971897636274, 39.253473386290544 ], [ -119.934972561225166, 39.253458158833496 ], [ -119.934968473409683, 39.253455279344003 ], [ -119.934949535304298, 39.253454780467962 ], [ -119.934950078244299, 39.253442321639675 ], [ -119.934702766126989, 39.253268112244619 ], [ -119.935522303404966, 39.253073498789412 ], [ -119.934726696932131, 39.253250725946103 ], [ -119.934568593130564, 39.253156476969082 ], [ -119.935137439735044, 39.252865177588383 ], [ -119.935545041715713, 39.252551611972748 ], [ -119.93579206173915, 39.252732519664548 ], [ -119.93579259486674, 39.252720282315323 ], [ -119.935814957211505, 39.252738887977394 ], [ -119.936162936552904, 39.252730034723022 ], [ -119.936190002458645, 39.252640663666774 ], [ -119.936618393486953, 39.252381691859227 ], [ -119.93668347099927, 39.252389764053014 ], [ -119.936636786372688, 39.252236404197781 ], [ -119.936599949996094, 39.25227310576382 ], [ -119.936580722757327, 39.252182515782771 ], [ -119.936797659608871, 39.251990042858019 ], [ -119.936754502323538, 39.251916839661376 ], [ -119.936892595267395, 39.25193849186558 ], [ -119.93711031415279, 39.251728022161494 ], [ -119.937180114981672, 39.25118935686146 ], [ -119.937370766963895, 39.251068257915435 ], [ -119.93757594552082, 39.251145725322004 ], [ -119.937729348422081, 39.251347947051229 ], [ -119.937620130997018, 39.251433913847883 ] ], [ [ -119.938660568778332, 39.252513137497559 ], [ -119.938699209619287, 39.252490507150839 ], [ -119.938798844086747, 39.252330977660577 ], [ -119.938660568778332, 39.252513137497559 ] ], [ [ -119.938338771563167, 39.253850296930509 ], [ -119.938344362409794, 39.253854948233368 ], [ -119.938342417444673, 39.25383530383381 ], [ -119.938023760986113, 39.254166309061659 ], [ -119.93833798817127, 39.253868293071633 ], [ -119.938338771563167, 39.253850296930509 ] ], [ [ -119.937996696670211, 39.254255680593573 ], [ -119.93801906008818, 39.254274285869762 ], [ -119.938007486633794, 39.254273981299292 ], [ -119.938013481060324, 39.254284148357662 ], [ -119.938047568932589, 39.254278467874535 ], [ -119.938023760986113, 39.254166309061659 ], [ -119.937996696670211, 39.254255680593573 ] ], [ [ -119.935800227712122, 39.252738500075914 ], [ -119.93610645270472, 39.25296276512433 ], [ -119.935959734335981, 39.253139069060204 ], [ -119.936128031276866, 39.252999366838239 ], [ -119.936150476317309, 39.253016078115003 ], [ -119.936151177726032, 39.252999976335111 ], [ -119.936173540254359, 39.253018581934704 ], [ -119.936195902794481, 39.253037187530381 ], [ -119.936218265346426, 39.253055793122222 ], [ -119.936240627910152, 39.253074398710133 ], [ -119.936262990485716, 39.253093004294158 ], [ -119.936285353073032, 39.253111609874331 ], [ -119.936278545282164, 39.253111430618439 ], [ -119.936554488874563, 39.253316880420428 ], [ -119.936421880435745, 39.253169254941 ], [ -119.935814957211505, 39.252738887977394 ], [ -119.935800227712122, 39.252738500075914 ] ], [ [ -119.936153116911029, 39.253018044147304 ], [ -119.936172921368467, 39.253032789387795 ], [ -119.936173540254359, 39.253018581934704 ], [ -119.936153116911029, 39.253018044147304 ] ], [ [ -119.936178202558509, 39.253036721451387 ], [ -119.936195366430269, 39.253049500656601 ], [ -119.936195902794481, 39.253037187530381 ], [ -119.936178202558509, 39.253036721451387 ] ], [ [ -119.936203288219417, 39.253055398750597 ], [ -119.936217811502829, 39.253066211921507 ], [ -119.936218265346426, 39.253055793122222 ], [ -119.936203288219417, 39.253055398750597 ] ], [ [ -119.936228373893627, 39.253074076044797 ], [ -119.936240256586075, 39.25308292318244 ], [ -119.936240627910152, 39.253074398710133 ], [ -119.936228373893627, 39.253074076044797 ] ], [ [ -119.936253459581181, 39.25309275333408 ], [ -119.936262701680008, 39.253099634439423 ], [ -119.936262990485716, 39.253093004294158 ], [ -119.936253459581181, 39.25309275333408 ] ], [ [ -119.937109575247476, 39.252151926357442 ], [ -119.9371153269703, 39.252161682283734 ], [ -119.937353166966389, 39.252004666008524 ], [ -119.937109575247476, 39.252151926357442 ] ], [ [ -119.936864884583684, 39.2520874529651 ], [ -119.936882184925295, 39.252144284431218 ], [ -119.936924313342573, 39.252093659052228 ], [ -119.936864884583684, 39.2520874529651 ] ], [ [ -119.937146887415707, 39.251816678695455 ], [ -119.937249451681467, 39.251725679094434 ], [ -119.937153471714282, 39.25180122523814 ], [ -119.937146887415707, 39.251816678695455 ] ], [ [ -119.936718377918254, 39.2521551110679 ], [ -119.936854293879847, 39.252086346984981 ], [ -119.936793740931833, 39.252080023462042 ], [ -119.936718377918254, 39.2521551110679 ] ], [ [ -119.938066288615602, 39.252867924441667 ], [ -119.938033093452304, 39.252887365081577 ], [ -119.938036227218149, 39.252815380524979 ], [ -119.937956094373291, 39.252983144003018 ], [ -119.938066288615602, 39.252867924441667 ] ], [ [ -119.937736455873761, 39.252622915497348 ], [ -119.937760970500705, 39.252675675373837 ], [ -119.937927546276214, 39.252650369640989 ], [ -119.937736455873761, 39.252622915497348 ] ], [ [ -119.937430210652579, 39.252364026211069 ], [ -119.937396891688351, 39.252384168766397 ], [ -119.93735672324155, 39.252455178494458 ], [ -119.937333576945377, 39.252454569244215 ], [ -119.937387371980819, 39.252389923780292 ], [ -119.937311214265094, 39.252435963861167 ], [ -119.937328212345037, 39.252400377774165 ], [ -119.937312781493304, 39.252399971604547 ], [ -119.937313565106351, 39.252381975476112 ], [ -119.937330337103759, 39.25239592951305 ], [ -119.937336711378194, 39.252382584729389 ], [ -119.937157810432581, 39.252233741566528 ], [ -119.937265705314331, 39.252416749211001 ], [ -119.93746696969616, 39.252584197591339 ], [ -119.93735593963747, 39.252473174623354 ], [ -119.9374399998852, 39.252367286665269 ], [ -119.93743008005552, 39.252367025566159 ], [ -119.937430210652579, 39.252364026211069 ] ], [ [ -119.937445094437322, 39.252360869210911 ], [ -119.937454009901245, 39.252349638665173 ], [ -119.937441028494064, 39.252357486418134 ], [ -119.937445094437322, 39.252360869210911 ] ], [ [ -119.937993696971986, 39.253203992169283 ], [ -119.937862449928502, 39.253081058630436 ], [ -119.93787925792526, 39.253063484216568 ], [ -119.93779379390115, 39.253061235008857 ], [ -119.93769415606512, 39.253220763489722 ], [ -119.937642378084149, 39.253345518017774 ], [ -119.937816156903409, 39.253079840310228 ], [ -119.937993696971986, 39.253203992169283 ] ], [ [ -119.937494215640655, 39.253193160341013 ], [ -119.937531346613213, 39.253234495171405 ], [ -119.93769415606512, 39.253220763489722 ], [ -119.937494215640655, 39.253193160341013 ] ], [ [ -119.937481919125602, 39.253305261229897 ], [ -119.937251303436454, 39.253363672044401 ], [ -119.937270465346032, 39.253371762436835 ], [ -119.937267591953187, 39.253437748226816 ], [ -119.93731754217859, 39.253354984855996 ], [ -119.937642378084149, 39.253345518017774 ], [ -119.937481919125602, 39.253305261229897 ] ], [ [ -119.937237902107498, 39.253350886671889 ], [ -119.937202201063883, 39.253342940400067 ], [ -119.937234057721724, 39.253356390688651 ], [ -119.937237902107498, 39.253350886671889 ] ], [ [ -119.936972694563863, 39.253291856969845 ], [ -119.936803065073278, 39.253369641721036 ], [ -119.93704154647601, 39.253307182045155 ], [ -119.936972694563863, 39.253291856969845 ] ], [ [ -119.936712595862517, 39.253411126814001 ], [ -119.936645507510136, 39.253355310286196 ], [ -119.936958680339913, 39.253731897512026 ], [ -119.936910726558395, 39.253650560659125 ], [ -119.936917315397579, 39.253649348210701 ], [ -119.936723663909845, 39.253406051514098 ], [ -119.936712595862517, 39.253411126814001 ] ], [ [ -119.936487978999438, 39.253402960938942 ], [ -119.936431701282089, 39.253475798265185 ], [ -119.936645507510136, 39.253355310286196 ], [ -119.936487978999438, 39.253402960938942 ] ], [ [ -119.937438338242799, 39.252709561269803 ], [ -119.937621942233648, 39.252750427268019 ], [ -119.937624292862921, 39.25269643887021 ], [ -119.937662199558503, 39.252690680260699 ], [ -119.937438338242799, 39.252709561269803 ] ], [ [ -119.93791863662716, 39.253022309864448 ], [ -119.937866964971491, 39.253000493725146 ], [ -119.937896774295979, 39.253045169115566 ], [ -119.93791863662716, 39.253022309864448 ] ], [ [ -119.937362403930905, 39.253189510739659 ], [ -119.937397130881124, 39.253179756992495 ], [ -119.937371671597944, 39.253176242115188 ], [ -119.937362403930905, 39.253189510739659 ] ], [ [ -119.936060199172886, 39.254024535277011 ], [ -119.936078486837459, 39.254013929617059 ], [ -119.936015473585471, 39.253987324012996 ], [ -119.936060199172886, 39.254024535277011 ] ], [ [ -119.937855083856078, 39.254492177123915 ], [ -119.93780070858962, 39.254499153896695 ], [ -119.937758967275002, 39.254526431717771 ], [ -119.937855083856078, 39.254492177123915 ] ], [ [ -119.936340100652416, 39.254286713890551 ], [ -119.936414086084071, 39.254412205365739 ], [ -119.936416437778561, 39.254358217044391 ], [ -119.936340100652416, 39.254286713890551 ] ], [ [ -119.937205153999059, 39.25354120240214 ], [ -119.937155454733229, 39.2536055266037 ], [ -119.937167691134604, 39.253603274887062 ], [ -119.937205153999059, 39.25354120240214 ] ], [ [ -119.936988411737758, 39.253782326352599 ], [ -119.936668286385611, 39.253896412496687 ], [ -119.936997043441551, 39.253796966982542 ], [ -119.936988411737758, 39.253782326352599 ] ] ], [ [ [ -119.937268056188913, 39.252362760828085 ], [ -119.937311997879533, 39.252417967732882 ], [ -119.937265705314331, 39.252416749211001 ], [ -119.937268056188913, 39.252362760828085 ] ] ], [ [ [ -119.936151177726032, 39.252999976335111 ], [ -119.936128031276866, 39.252999366838239 ], [ -119.936128815209472, 39.252981370731668 ], [ -119.936151177726032, 39.252999976335111 ] ] ], [ [ [ -119.935129218495433, 39.253585630852186 ], [ -119.935106071875865, 39.253585021144652 ], [ -119.935106856086037, 39.253567025057052 ], [ -119.935129218495433, 39.253585630852186 ] ] ], [ [ [ -119.935129218495433, 39.253585630852186 ], [ -119.935151580916596, 39.25360423664339 ], [ -119.935128434290434, 39.25360362694007 ], [ -119.935129218495433, 39.253585630852186 ] ] ], [ [ [ -119.93804220699748, 39.254274895007249 ], [ -119.93801906008818, 39.254274285869762 ], [ -119.938019843572917, 39.25425628973526 ], [ -119.93804220699748, 39.254274895007249 ] ] ] ] } }
]
}
