{
"type": "FeatureCollection",
"name": "X02452",
"crs": { "type": "name", "properties": { "name": "urn:ogc:def:crs:OGC:1.3:CRS84" } },
"features": [
{ "type": "Feature", "properties": { "part": "direct", "crossing_id": "X02452", "area_ac": 0.0 }, "geometry": { "type": "Polygon", "coordinates": [ [ [ -119.949959541902359, 39.270694897338082 ], [ -119.949923894933505, 39.270982230892841 ], [ -119.949877589610352, 39.270981016906724 ], [ -119.949865369808307, 39.27072846195604 ], [ -119.949959541902359, 39.270694897338082 ] ] ] } }
]
}
