{
"type": "FeatureCollection",
"name": "X02470",
"crs": { "type": "name", "properties": { "name": "urn:ogc:def:crs:OGC:1.3:CRS84" } },
"features": [
{ "type": "Feature", "properties": { "part": "direct", "crossing_id": "X02470", "area_ac": 6.6, "n_upstream": null }, "geometry": { "type": "Polygon", "coordinates": [ [ [ -119.934184537434334, 39.255056132572065 ], [ -119.934293997174066, 39.25520315062743 ], [ -119.934321464405471, 39.255636276053188 ], [ -119.934565502033266, 39.256417425488266 ], [ -119.934676548220921, 39.257591438910907 ], [ -119.93494020478208, 39.257922686038334 ], [ -119.935658200820626, 39.25846408364842 ], [ -119.935808475945564, 39.258738292436654 ], [ -119.935670370194089, 39.258716638452178 ], [ -119.93533296073349, 39.259014035983945 ], [ -119.935022217541444, 39.258699566060933 ], [ -119.934480779741932, 39.25836100060809 ], [ -119.934042139293211, 39.257790924052742 ], [ -119.934076271519004, 39.257539589221878 ], [ -119.934006043228379, 39.257555755361139 ], [ -119.933925611461305, 39.256742882871528 ], [ -119.933623907835567, 39.255689961442918 ], [ -119.933678833352516, 39.255493224868026 ], [ -119.93356309728297, 39.255490174719881 ], [ -119.933530926804707, 39.255165025630276 ], [ -119.933737681564253, 39.255206507953019 ], [ -119.93395228209387, 39.255068029286029 ], [ -119.934184537434334, 39.255056132572065 ] ] ] } },
{ "type": "Feature", "properties": { "part": "upstream", "crossing_id": "X02470", "area_ac": 118.8, "n_upstream": 9.0 }, "geometry": { "type": "MultiPolygon", "coordinates": [ [ [ [ -119.935524422062073, 39.258874945092394 ], [ -119.935501273694683, 39.258874335395099 ], [ -119.935502057951325, 39.258856339317262 ], [ -119.935524422062073, 39.258874945092394 ] ] ], [ [ [ -119.935501273694683, 39.258874335395099 ], [ -119.935478125327975, 39.258873725693199 ], [ -119.935478909590557, 39.258855729615739 ], [ -119.935501273694683, 39.258874335395099 ] ] ], [ [ [ -119.935477341064725, 39.258891721770624 ], [ -119.935478125327975, 39.258873725693199 ], [ -119.935499173901135, 39.258891237015376 ], [ -119.935524422062073, 39.258874945092394 ], [ -119.935622505113997, 39.258751411275668 ], [ -119.935716666833216, 39.258717857770897 ], [ -119.93605605059048, 39.258906962949794 ], [ -119.935988582103548, 39.259391638065779 ], [ -119.936909037182602, 39.259541991465909 ], [ -119.937362604043543, 39.259770132397151 ], [ -119.937605483611705, 39.260046776524725 ], [ -119.937836609515998, 39.260593361894507 ], [ -119.938189033634075, 39.262080009299396 ], [ -119.938277713371846, 39.262172426662332 ], [ -119.93848811810409, 39.263727402597837 ], [ -119.938011010130751, 39.26403914819371 ], [ -119.937563319223443, 39.26420753224798 ], [ -119.934342314141929, 39.264194771193857 ], [ -119.933618778985505, 39.263779336220324 ], [ -119.933501459485726, 39.263812277534846 ], [ -119.933231509896729, 39.263624995028216 ], [ -119.933068675739776, 39.263638719452672 ], [ -119.933197591895237, 39.263532100720205 ], [ -119.933069460751355, 39.263620723430584 ], [ -119.932813242010155, 39.263650002500746 ], [ -119.932794802619256, 39.263541416097709 ], [ -119.931981417381792, 39.263592036873867 ], [ -119.931860580608216, 39.263174465976718 ], [ -119.931574556717663, 39.262824605388118 ], [ -119.931459644620205, 39.262874164039211 ], [ -119.931478816813581, 39.262894147217295 ], [ -119.931478816813552, 39.262894147217331 ], [ -119.931573771346009, 39.262842601387469 ], [ -119.931617714437721, 39.262897810441302 ], [ -119.931307344298347, 39.263105825179608 ], [ -119.931343404478682, 39.263030360580622 ], [ -119.93104248627418, 39.263333056294641 ], [ -119.930296735776409, 39.263348485705258 ], [ -119.930319344821811, 39.263440095973415 ], [ -119.930035261531728, 39.263576733949272 ], [ -119.929958739888477, 39.263736865113991 ], [ -119.929866140509631, 39.263734421620505 ], [ -119.929692729918415, 39.263459594936464 ], [ -119.929422006420623, 39.263290299992669 ], [ -119.92921444524859, 39.263266805162573 ], [ -119.92921680320687, 39.263212817287851 ], [ -119.929724164164654, 39.262739756256465 ], [ -119.930117460548544, 39.262599641882112 ], [ -119.929890925565019, 39.262636056601444 ], [ -119.929997727869647, 39.261251588247909 ], [ -119.929821603171462, 39.260508255647082 ], [ -119.929731365384512, 39.260451824285205 ], [ -119.929729070895064, 39.259442827844971 ], [ -119.930047706388933, 39.25851436653884 ], [ -119.930172508649378, 39.257778974032163 ], [ -119.930421269082316, 39.257389169337642 ], [ -119.930430695203782, 39.257173217372085 ], [ -119.930644522662945, 39.257052741346207 ], [ -119.930649235337498, 39.256944765335824 ], [ -119.932315101557592, 39.255943729010831 ], [ -119.932784327334232, 39.255811965663014 ], [ -119.932976569107566, 39.255654882712406 ], [ -119.933279837668195, 39.255608826250835 ], [ -119.933376350196284, 39.255521286348888 ], [ -119.933678833352516, 39.255493224868026 ], [ -119.933623907835567, 39.255689961442918 ], [ -119.933925611461305, 39.256742882871528 ], [ -119.934036977448699, 39.257541325590026 ], [ -119.934075486934546, 39.25755758527977 ], [ -119.934039111659089, 39.257556626756113 ], [ -119.934084512303869, 39.257882124280648 ], [ -119.934527076095563, 39.258362220390516 ], [ -119.934495165859317, 39.258385401954136 ], [ -119.934616530932814, 39.258436644157833 ], [ -119.934479210733315, 39.258396992732337 ], [ -119.935022217541444, 39.258699566060933 ], [ -119.935416142961927, 39.259232427794892 ], [ -119.935309812324505, 39.259013426246781 ], [ -119.93539029107427, 39.258961495864554 ], [ -119.935381610426845, 39.258961267218197 ], [ -119.935382394716513, 39.258943271142641 ], [ -119.935398181141437, 39.25895640464735 ], [ -119.935417117297987, 39.258944185723657 ], [ -119.935405543104011, 39.258943880864464 ], [ -119.935406327387057, 39.258925884788432 ], [ -119.935423429348745, 39.258940112748334 ], [ -119.935443943508659, 39.258926875575959 ], [ -119.935429475769368, 39.258926494505261 ], [ -119.935430260045862, 39.258908498428802 ], [ -119.935448677544485, 39.258923820843322 ], [ -119.935470769706214, 39.25890956542154 ], [ -119.935453408422944, 39.258909108140664 ], [ -119.935454192692816, 39.258891112063736 ], [ -119.935473925728616, 39.25890752893234 ], [ -119.935497595890666, 39.258892255260371 ], [ -119.935477341064725, 39.258891721770624 ] ], [ [ -119.935506806398479, 39.2592791646778 ], [ -119.935507952633955, 39.259252862719514 ], [ -119.935531101125974, 39.259253472420383 ], [ -119.935416142961927, 39.259232427794892 ], [ -119.935506806398479, 39.2592791646778 ] ], [ [ -119.935511472902206, 39.259281570250842 ], [ -119.935529472276869, 39.259290848888156 ], [ -119.935529532604676, 39.259289464574529 ], [ -119.935534005453476, 39.259293185729746 ], [ -119.935710799581145, 39.259384322422022 ], [ -119.935531101125974, 39.259253472420383 ], [ -119.935511472902206, 39.259281570250842 ] ], [ [ -119.933623099454536, 39.263148864971008 ], [ -119.933603296058365, 39.263196564252894 ], [ -119.933934248110802, 39.262922847749493 ], [ -119.933623099454536, 39.263148864971008 ] ], [ [ -119.934832752398833, 39.261451134430672 ], [ -119.934666111514744, 39.261890971210335 ], [ -119.934747614310822, 39.261809225946983 ], [ -119.934832752398833, 39.261451134430672 ] ], [ [ -119.935520930424445, 39.260550409240132 ], [ -119.935361355541048, 39.260955942830769 ], [ -119.935412648167954, 39.260907891748325 ], [ -119.935520930424445, 39.260550409240132 ] ], [ [ -119.930659572469921, 39.262548236685696 ], [ -119.931301474434875, 39.262709302713787 ], [ -119.930661143663613, 39.262512244716035 ], [ -119.930659572469921, 39.262548236685696 ] ] ], [ [ [ -119.935454192692816, 39.258891112063736 ], [ -119.935454976961978, 39.258873115986702 ], [ -119.935477341064725, 39.258891721770624 ], [ -119.935454192692816, 39.258891112063736 ] ] ], [ [ [ -119.935453408422944, 39.258909108140664 ], [ -119.935430260045862, 39.258908498428802 ], [ -119.935431044321604, 39.25889050235228 ], [ -119.935453408422944, 39.258909108140664 ] ] ] ] } }
]
}
