{
"type": "FeatureCollection",
"name": "X02458",
"crs": { "type": "name", "properties": { "name": "urn:ogc:def:crs:OGC:1.3:CRS84" } },
"features": [
{ "type": "Feature", "properties": { "part": "direct", "crossing_id": "X02458", "area_ac": 2.6, "n_upstream": null }, "geometry": { "type": "Polygon", "coordinates": [ [ [ -119.942911147695327, 39.239286840959771 ], [ -119.943232791798579, 39.239349340956473 ], [ -119.943224192646724, 39.239547299904835 ], [ -119.942820611622224, 39.23977091606595 ], [ -119.942761817185357, 39.240057640201265 ], [ -119.942477853563389, 39.240194313730271 ], [ -119.942424531092598, 39.240355063844959 ], [ -119.942213121152975, 39.240421575888135 ], [ -119.941733847152392, 39.240787333445631 ], [ -119.941359655059003, 39.240867582378158 ], [ -119.941260826490605, 39.241009118972514 ], [ -119.941144331087358, 39.24102407352099 ], [ -119.940712897841891, 39.241355050705934 ], [ -119.940753706292185, 39.241482241114824 ], [ -119.940659570335342, 39.241515799789809 ], [ -119.940504613383055, 39.241349574579907 ], [ -119.940532450989508, 39.241242205755164 ], [ -119.940625021714411, 39.241244639607196 ], [ -119.940628151533829, 39.241172654731898 ], [ -119.940983897470815, 39.240983822522992 ], [ -119.941035659082956, 39.24085906568633 ], [ -119.941271778443337, 39.240757171744235 ], [ -119.941446291904455, 39.240473490115605 ], [ -119.941825174540554, 39.24028526336317 ], [ -119.941948707415349, 39.240108341879498 ], [ -119.941836906305369, 39.240015319727753 ], [ -119.942739770733169, 39.239498540147729 ], [ -119.942911147695327, 39.239286840959771 ] ] ] } },
{ "type": "Feature", "properties": { "part": "upstream", "crossing_id": "X02458", "area_ac": 2.3, "n_upstream": 3.0 }, "geometry": { "type": "MultiPolygon", "coordinates": [ [ [ [ -119.942130254707621, 39.239662692799179 ], [ -119.942218913465794, 39.239755106551272 ], [ -119.942168718906345, 39.23984387155204 ], [ -119.942004376937646, 39.239893603274808 ], [ -119.941818564300604, 39.240062215188523 ], [ -119.941835342079159, 39.240051312213367 ], [ -119.941927911351584, 39.240053744968485 ], [ -119.941825174540554, 39.24028526336317 ], [ -119.941446291904455, 39.240473490115605 ], [ -119.941271778443337, 39.240757171744235 ], [ -119.941035659082956, 39.24085906568633 ], [ -119.940983897470815, 39.240983822522992 ], [ -119.940532450989508, 39.241242205755164 ], [ -119.9404814706689, 39.241348966098514 ], [ -119.940420650137028, 39.24114918226001 ], [ -119.940710098396522, 39.240886540537346 ], [ -119.941016428242193, 39.240768476183888 ], [ -119.940929334658151, 39.240640069089459 ], [ -119.941184150764769, 39.240474481997317 ], [ -119.94090619216793, 39.240639460701608 ], [ -119.940910886360754, 39.240531483348654 ], [ -119.941058360869249, 39.240455285547391 ], [ -119.940887743906586, 39.240530874958537 ], [ -119.940827705141373, 39.240313095065829 ], [ -119.940968124124453, 39.24028075293775 ], [ -119.941046156770028, 39.240084619517951 ], [ -119.9411865752067, 39.240052277102976 ], [ -119.94119361569463, 39.239890311013788 ], [ -119.941308544708875, 39.239911348807681 ], [ -119.941340291550858, 39.239713998520386 ], [ -119.941435989160823, 39.239644446702954 ], [ -119.94155091786611, 39.23966548424508 ], [ -119.94162660166262, 39.239523339048219 ], [ -119.941834880939467, 39.239528812955967 ], [ -119.941854894705273, 39.239601406123363 ], [ -119.942130254707621, 39.239662692799179 ] ], [ [ -119.941747776260158, 39.240067027680013 ], [ -119.941714242947768, 39.240130007885739 ], [ -119.941727850459316, 39.240121165127157 ], [ -119.941747776260158, 39.240067027680013 ] ], [ [ -119.941551376830262, 39.240187983409875 ], [ -119.941758722449478, 39.240037287367038 ], [ -119.941767479393746, 39.240013495115541 ], [ -119.941551376830262, 39.240187983409875 ] ], [ [ -119.941242703565223, 39.240360038013726 ], [ -119.941318388810942, 39.24021789308614 ], [ -119.94120583506519, 39.240379087545485 ], [ -119.941242703565223, 39.240360038013726 ] ] ], [ [ [ -119.940504613383055, 39.241349574579907 ], [ -119.940526973613473, 39.241368179273387 ], [ -119.940503830892766, 39.2413675707962 ], [ -119.940504613383055, 39.241349574579907 ] ] ], [ [ [ -119.940550116334933, 39.241368787745991 ], [ -119.940525408642586, 39.241404171706556 ], [ -119.940526973613473, 39.241368179273387 ], [ -119.940550116334933, 39.241368787745991 ] ] ] ] } }
]
}
