{
"type": "FeatureCollection",
"name": "X02463",
"crs": { "type": "name", "properties": { "name": "urn:ogc:def:crs:OGC:1.3:CRS84" } },
"features": [
{ "type": "Feature", "properties": { "part": "direct", "crossing_id": "X02463", "area_ac": 0.0 }, "geometry": { "type": "MultiPolygon", "coordinates": [ [ [ [ -119.937305592394665, 39.257354388382723 ], [ -119.93732795655356, 39.257372993815089 ], [ -119.937304808641017, 39.257372384495653 ], [ -119.937305592394665, 39.257354388382723 ] ] ], [ [ [ -119.93728322824758, 39.257335782946534 ], [ -119.937305592394665, 39.257354388382723 ], [ -119.937282444488716, 39.257353779059088 ], [ -119.93728322824758, 39.257335782946534 ] ] ], [ [ [ -119.937260864112332, 39.257317177506415 ], [ -119.93728322824758, 39.257335782946534 ], [ -119.937260080348238, 39.257335173618699 ], [ -119.937260864112332, 39.257317177506415 ] ] ], [ [ [ -119.937238499988837, 39.25729857206246 ], [ -119.937260864112332, 39.257317177506415 ], [ -119.937237716219585, 39.257316568174367 ], [ -119.937238499988837, 39.25729857206246 ] ] ], [ [ [ -119.937216135877165, 39.25727996661459 ], [ -119.937238499988837, 39.25729857206246 ], [ -119.937215352102697, 39.257297962726206 ], [ -119.937216135877165, 39.25727996661459 ] ] ] ] } }
]
}
