{
"type": "FeatureCollection",
"name": "X02450",
"crs": { "type": "name", "properties": { "name": "urn:ogc:def:crs:OGC:1.3:CRS84" } },
"features": [
{ "type": "Feature", "properties": { "part": "direct", "crossing_id": "X02450", "area_ac": 6.6 }, "geometry": { "type": "Polygon", "coordinates": [ [ [ -119.94960442700733, 39.261785304940254 ], [ -119.950662022109498, 39.262515682342318 ], [ -119.950469017665426, 39.262690791512298 ], [ -119.950483581738084, 39.262889357778135 ], [ -119.950339217650665, 39.263011691259628 ], [ -119.950455481923413, 39.263537225156874 ], [ -119.950138135479293, 39.263907259027285 ], [ -119.950092345697257, 39.264428545072597 ], [ -119.949894649908316, 39.264711630797173 ], [ -119.950024185018094, 39.26493122784094 ], [ -119.949975541498006, 39.264984002957505 ], [ -119.949882938744466, 39.264981575316355 ], [ -119.949842883439956, 39.264836391066062 ], [ -119.949685513758169, 39.264724164686243 ], [ -119.94958537708402, 39.264361203911704 ], [ -119.949296915021165, 39.264065372213516 ], [ -119.949326312316245, 39.263922008880009 ], [ -119.949235272786865, 39.263883588190737 ], [ -119.949314094078289, 39.263669453734018 ], [ -119.949181439761745, 39.263521841211286 ], [ -119.949257918147367, 39.2633616956563 ], [ -119.949075840685566, 39.263284854156709 ], [ -119.949014199584482, 39.263103070045148 ], [ -119.949211113014556, 39.262837982008229 ], [ -119.949178868692641, 39.262512834620594 ], [ -119.949209827068657, 39.26233347867278 ], [ -119.949327137719962, 39.262300521112273 ], [ -119.949341973120383, 39.261958591404856 ], [ -119.94960442700733, 39.261785304940254 ] ] ] } }
]
}
