{
"type": "FeatureCollection",
"name": "X02550",
"crs": { "type": "name", "properties": { "name": "urn:ogc:def:crs:OGC:1.3:CRS84" } },
"features": [
{ "type": "Feature", "properties": { "part": "direct", "crossing_id": "X02550", "area_ac": 0.3 }, "geometry": { "type": "Polygon", "coordinates": [ [ [ -119.945116288838278, 39.270135421802927 ], [ -119.945199512854131, 39.270353807970722 ], [ -119.944965642884867, 39.270401717148765 ], [ -119.944979409376714, 39.270618279529963 ], [ -119.944857389666339, 39.270759209228444 ], [ -119.944728643743801, 39.270521610632251 ], [ -119.944787463810812, 39.270234887479702 ], [ -119.945116288838278, 39.270135421802927 ] ] ] } }
]
}
