{
"type": "FeatureCollection",
"name": "X02545",
"crs": { "type": "name", "properties": { "name": "urn:ogc:def:crs:OGC:1.3:CRS84" } },
"features": [
{ "type": "Feature", "properties": { "part": "direct", "crossing_id": "X02545", "area_ac": 8.0, "n_upstream": null }, "geometry": { "type": "MultiPolygon", "coordinates": [ [ [ [ -119.945463737801759, 39.271207532356954 ], [ -119.945486108394988, 39.271226136440468 ], [ -119.945462955748653, 39.271225528564251 ], [ -119.945463737801759, 39.271207532356954 ] ] ], [ [ [ -119.945462955748653, 39.271225528564251 ], [ -119.94544653247155, 39.27160344890072 ], [ -119.945533669228084, 39.27173185386016 ], [ -119.945364560700909, 39.271889564485129 ], [ -119.945307305384205, 39.272140295494331 ], [ -119.94504636555466, 39.272277577660603 ], [ -119.94494280257824, 39.272527092453352 ], [ -119.944440941333696, 39.272874247180226 ], [ -119.944170607890683, 39.27322748136973 ], [ -119.944054841515097, 39.273224440506084 ], [ -119.943838636824097, 39.273398928397391 ], [ -119.943305327843262, 39.273402934068606 ], [ -119.943249629029239, 39.273617671344709 ], [ -119.942920785077035, 39.273717130944839 ], [ -119.942903111102012, 39.273590549430068 ], [ -119.942635447650105, 39.27334929809922 ], [ -119.942687233969878, 39.273224541947215 ], [ -119.94250279090781, 39.273201677999673 ], [ -119.942401116754624, 39.272874704779106 ], [ -119.942800199396174, 39.272759075657575 ], [ -119.943283610298337, 39.272303342966737 ], [ -119.943447246188043, 39.272271608793957 ], [ -119.94421083041118, 39.271769182487724 ], [ -119.944244936502088, 39.271517844024764 ], [ -119.944406223197987, 39.27154009697184 ], [ -119.944552962506208, 39.271363783533531 ], [ -119.945462955748653, 39.271225528564251 ] ] ] ] } },
{ "type": "Feature", "properties": { "part": "upstream", "crossing_id": "X02545", "area_ac": 4.8, "n_upstream": 3.0 }, "geometry": { "type": "MultiPolygon", "coordinates": [ [ [ [ -119.941262698726163, 39.272934863001872 ], [ -119.941062152946529, 39.27274942291325 ], [ -119.941204204011797, 39.272681090945426 ], [ -119.941699475829623, 39.273018412703827 ], [ -119.942007960255353, 39.273386856214529 ], [ -119.942311301746273, 39.273340779096223 ], [ -119.94250279090781, 39.273201677999673 ], [ -119.942664863551073, 39.273205937334716 ], [ -119.942657035272958, 39.273385898871851 ], [ -119.942923916163693, 39.273645146317207 ], [ -119.942866650372594, 39.273895875660152 ], [ -119.942493063412883, 39.273958124802 ], [ -119.942278418550629, 39.274096617238683 ], [ -119.942026078886798, 39.274035934503452 ], [ -119.941907179245817, 39.274104876010391 ], [ -119.942055496400599, 39.273892573967906 ], [ -119.942032342950924, 39.273891965375249 ], [ -119.94184160921283, 39.274106285734732 ], [ -119.941860089158553, 39.274121654893783 ], [ -119.941836935637738, 39.274121046259317 ], [ -119.941837370671848, 39.274111048405217 ], [ -119.941812999049759, 39.274138433757138 ], [ -119.94144097640195, 39.27416468716217 ], [ -119.941800808492943, 39.273885879195937 ], [ -119.941037184059212, 39.274388287930307 ], [ -119.940883725360564, 39.274186068895631 ], [ -119.940950397848198, 39.273719387349615 ], [ -119.940841680743475, 39.273554378154913 ], [ -119.941103416313041, 39.273399109835644 ], [ -119.940818527431404, 39.273553769325275 ], [ -119.940574024811994, 39.273313122360548 ], [ -119.940632864783296, 39.273026402188137 ], [ -119.940798853219533, 39.272940683493317 ], [ -119.941189323401787, 39.273023017424137 ], [ -119.94121977883465, 39.273051406271605 ], [ -119.941262698726163, 39.272934863001872 ] ], [ [ -119.941592767489297, 39.273339908519716 ], [ -119.941541857506706, 39.273351628129134 ], [ -119.941746226600372, 39.273542126651201 ], [ -119.941592767489297, 39.273339908519716 ] ] ], [ [ [ -119.94129813925062, 39.274251015423189 ], [ -119.941394669350842, 39.274163469720882 ], [ -119.941344446355188, 39.27425223290512 ], [ -119.94129813925062, 39.274251015423189 ] ] ] ] } }
]
}
