{
"type": "FeatureCollection",
"name": "X02537",
"crs": { "type": "name", "properties": { "name": "urn:ogc:def:crs:OGC:1.3:CRS84" } },
"features": [
{ "type": "Feature", "properties": { "part": "direct", "crossing_id": "X02537", "area_ac": 0.2, "n_upstream": null }, "geometry": { "type": "Polygon", "coordinates": [ [ [ -119.943017165041951, 39.24271281797445 ], [ -119.943173694647598, 39.242843047642019 ], [ -119.94312115321047, 39.242985801741263 ], [ -119.942817944421989, 39.243031886359894 ], [ -119.942826545781529, 39.242833927605297 ], [ -119.943017165041951, 39.24271281797445 ] ] ] } },
{ "type": "Feature", "properties": { "part": "upstream", "crossing_id": "X02537", "area_ac": 0.0, "n_upstream": 1.0 }, "geometry": { "type": "MultiPolygon", "coordinates": [ [ [ [ -119.942921464536923, 39.242782370958736 ], [ -119.942874396138762, 39.242799151166579 ], [ -119.942875959986836, 39.242763158663031 ], [ -119.942921464536923, 39.242782370958736 ] ] ], [ [ [ -119.942873614213696, 39.242817147418243 ], [ -119.94285047096605, 39.242816539388635 ], [ -119.942851252897015, 39.242798543137361 ], [ -119.942873614213696, 39.242817147418243 ] ] ] ] } }
]
}
