{
"type": "FeatureCollection",
"name": "X02533",
"crs": { "type": "name", "properties": { "name": "urn:ogc:def:crs:OGC:1.3:CRS84" } },
"features": [
{ "type": "Feature", "properties": { "part": "direct", "crossing_id": "X02533", "area_ac": 5.1 }, "geometry": { "type": "Polygon", "coordinates": [ [ [ -119.94344906851461, 39.242904331711131 ], [ -119.943769947831768, 39.242984827123863 ], [ -119.943835469376808, 39.243076631993205 ], [ -119.943539768567931, 39.243483251604438 ], [ -119.943281751073528, 39.244089045034677 ], [ -119.943138979569198, 39.244175378436772 ], [ -119.943023728829587, 39.244694837662898 ], [ -119.94295038743418, 39.244782994812297 ], [ -119.942314552761303, 39.245018523432108 ], [ -119.942117668379694, 39.245283601428142 ], [ -119.942000383742638, 39.245316552782782 ], [ -119.941759097938899, 39.245003926107394 ], [ -119.941859496154308, 39.244826396898262 ], [ -119.941770831926007, 39.244733982707714 ], [ -119.941867318523947, 39.244646434611148 ], [ -119.941903760119018, 39.244341106949229 ], [ -119.942216360645972, 39.244079070134468 ], [ -119.942199474050469, 39.243934492065449 ], [ -119.94246500252541, 39.243689234337779 ], [ -119.94252536622632, 39.243366518185752 ], [ -119.942646557324366, 39.24324358492246 ], [ -119.942810124930674, 39.243211848856852 ], [ -119.942922714122872, 39.243286874029145 ], [ -119.943207471682527, 39.243132203678151 ], [ -119.943299263297448, 39.243152631759372 ], [ -119.943304736062245, 39.243026657953351 ], [ -119.94344906851461, 39.242904331711131 ] ] ] } }
]
}
