{
"type": "FeatureCollection",
"name": "X02594",
"crs": { "type": "name", "properties": { "name": "urn:ogc:def:crs:OGC:1.3:CRS84" } },
"features": [
{ "type": "Feature", "properties": { "part": "direct", "crossing_id": "X02594", "area_ac": 0.8 }, "geometry": { "type": "Polygon", "coordinates": [ [ [ -119.999745859216588, 39.241955189979009 ], [ -120.000018218360097, 39.242088330677461 ], [ -120.000217309434035, 39.242309666965738 ], [ -120.000424841043397, 39.242333033628618 ], [ -120.000534425228679, 39.242479994205681 ], [ -120.000258994564277, 39.242418843463248 ], [ -119.999950444813081, 39.242591059057823 ], [ -119.999933439114258, 39.242446484748037 ], [ -119.999450477772854, 39.242361964579693 ], [ -119.999487436065678, 39.242038611817449 ], [ -119.999745859216588, 39.241955189979009 ] ] ] } }
]
}
