{
"type": "FeatureCollection",
"name": "X02586",
"crs": { "type": "name", "properties": { "name": "urn:ogc:def:crs:OGC:1.3:CRS84" } },
"features": [
{ "type": "Feature", "properties": { "part": "direct", "crossing_id": "X02586", "area_ac": 1.3 }, "geometry": { "type": "Polygon", "coordinates": [ [ [ -120.002663893819161, 39.240354806852061 ], [ -120.003210145970428, 39.240585079463948 ], [ -120.003259650015963, 39.241054796321166 ], [ -120.003055953372495, 39.240941448525973 ], [ -120.002824514204278, 39.240935487846563 ], [ -120.002691016848189, 39.240805930442853 ], [ -120.002434134389176, 39.240853364640309 ], [ -120.001741352010725, 39.24079948307498 ], [ -120.001912560332812, 39.24058769019733 ], [ -120.002663893819161, 39.240354806852061 ] ] ] } }
]
}
