{
"type": "FeatureCollection",
"name": "X02563",
"crs": { "type": "name", "properties": { "name": "urn:ogc:def:crs:OGC:1.3:CRS84" } },
"features": [
{ "type": "Feature", "properties": { "part": "direct", "crossing_id": "X02563", "area_ac": 0.9, "n_upstream": null }, "geometry": { "type": "Polygon", "coordinates": [ [ [ -120.003610627510014, 39.235532612899419 ], [ -120.003861360539673, 39.235629153599533 ], [ -120.004576470929891, 39.235701613649752 ], [ -120.004463220092759, 39.236185157961557 ], [ -120.003762662407766, 39.23577074859088 ], [ -120.003419360242987, 39.235671824077606 ], [ -120.003302116690378, 39.2357048390489 ], [ -120.003346102264487, 39.23576002274082 ], [ -120.003321427467483, 39.235795421376423 ], [ -120.00295804920097, 39.235623910486893 ], [ -120.002960348324436, 39.235569918663536 ], [ -120.003445567446704, 39.235600430852244 ], [ -120.003610627510014, 39.235532612899419 ] ] ] } },
{ "type": "Feature", "properties": { "part": "upstream", "crossing_id": "X02563", "area_ac": 0.9, "n_upstream": 1.0 }, "geometry": { "type": "Polygon", "coordinates": [ [ [ -120.003488786835831, 39.23567361177556 ], [ -120.004441609728744, 39.236148567659754 ], [ -120.004309810866033, 39.236523532242565 ], [ -120.003386256545596, 39.235905192821868 ], [ -120.003302116690378, 39.2357048390489 ], [ -120.003488786835831, 39.23567361177556 ] ] ] } }
]
}
