{
"type": "FeatureCollection",
"name": "X02561",
"crs": { "type": "name", "properties": { "name": "urn:ogc:def:crs:OGC:1.3:CRS84" } },
"features": [
{ "type": "Feature", "properties": { "part": "direct", "crossing_id": "X02561", "area_ac": 0.1 }, "geometry": { "type": "Polygon", "coordinates": [ [ [ -120.003488538370704, 39.224250810955176 ], [ -120.003800223049069, 39.224547108148855 ], [ -120.003818000615013, 39.224673685095127 ], [ -120.003369016337217, 39.22433781873815 ], [ -120.003488538370704, 39.224250810955176 ] ] ] } }
]
}
