{
"type": "FeatureCollection",
"name": "X02582",
"crs": { "type": "name", "properties": { "name": "urn:ogc:def:crs:OGC:1.3:CRS84" } },
"features": [
{ "type": "Feature", "properties": { "part": "direct", "crossing_id": "X02582", "area_ac": 3.2 }, "geometry": { "type": "Polygon", "coordinates": [ [ [ -120.004568863847339, 39.230980958118217 ], [ -120.00500470825709, 39.231082260654276 ], [ -120.004990925025268, 39.231406212441669 ], [ -120.005465398240247, 39.231688677697136 ], [ -120.005949061438827, 39.231755173129692 ], [ -120.006060173393877, 39.231866133866887 ], [ -120.007979348971929, 39.231951525473271 ], [ -120.008259336637309, 39.231904672462967 ], [ -120.008474489994029, 39.231748049958597 ], [ -120.008682759154453, 39.231753403443854 ], [ -120.008771499314577, 39.23184576956109 ], [ -120.008783168566708, 39.232116325078216 ], [ -120.008325129096946, 39.232536960087025 ], [ -120.008336031649165, 39.23282551293093 ], [ -120.008226444446308, 39.232678559446576 ], [ -120.008133114217927, 39.232694177125076 ], [ -120.00811379778925, 39.232603595348429 ], [ -120.007976480094527, 39.232564030924166 ], [ -120.007824436816193, 39.232325900345089 ], [ -120.007414781802822, 39.232153213579636 ], [ -120.006330211338806, 39.23205325095126 ], [ -120.005919030840474, 39.231916553787528 ], [ -120.004929328170789, 39.231764967741618 ], [ -120.00494540912193, 39.231387024032095 ], [ -120.004356002398481, 39.231083581235026 ], [ -120.004568863847339, 39.230980958118217 ] ] ] } }
]
}
