{
"type": "FeatureCollection",
"name": "X02546",
"crs": { "type": "name", "properties": { "name": "urn:ogc:def:crs:OGC:1.3:CRS84" } },
"features": [
{ "type": "Feature", "properties": { "part": "direct", "crossing_id": "X02546", "area_ac": 0.2 }, "geometry": { "type": "Polygon", "coordinates": [ [ [ -119.945544926171962, 39.270939412836114 ], [ -119.945602653654788, 39.271211179543016 ], [ -119.945466866007209, 39.271135547527258 ], [ -119.945088602754254, 39.271305782924031 ], [ -119.945208276685335, 39.271218841622527 ], [ -119.945219226274531, 39.27096689477424 ], [ -119.945544926171962, 39.270939412836114 ] ] ] } }
]
}
