{
"type": "FeatureCollection",
"name": "X02556",
"crs": { "type": "name", "properties": { "name": "urn:ogc:def:crs:OGC:1.3:CRS84" } },
"features": [
{ "type": "Feature", "properties": { "part": "direct", "crossing_id": "X02556", "area_ac": 0.2 }, "geometry": { "type": "Polygon", "coordinates": [ [ [ -120.002645594810787, 39.224463326002343 ], [ -120.003014278768589, 39.224508854727091 ], [ -120.002942564975413, 39.224561059094881 ], [ -120.002957276678956, 39.224759625344895 ], [ -120.003178704415959, 39.224999548763776 ], [ -120.002749795412427, 39.224736265113357 ], [ -120.002645594810787, 39.224463326002343 ] ] ] } }
]
}
