{
"type": "FeatureCollection",
"name": "X02531",
"crs": { "type": "name", "properties": { "name": "urn:ogc:def:crs:OGC:1.3:CRS84" } },
"features": [
{ "type": "Feature", "properties": { "part": "direct", "crossing_id": "X02531", "area_ac": 0.6, "n_upstream": null }, "geometry": { "type": "Polygon", "coordinates": [ [ [ -119.944470197594001, 39.243399586413936 ], [ -119.944768718439846, 39.243461475199233 ], [ -119.944626731464794, 39.243529814278482 ], [ -119.944716961126574, 39.243586233835366 ], [ -119.944707583366863, 39.24380218919341 ], [ -119.944520089901332, 39.243851316470483 ], [ -119.944421262934469, 39.243992855774216 ], [ -119.944501332896905, 39.244283227077496 ], [ -119.944229860713392, 39.244131963913013 ], [ -119.944238458440651, 39.243934004934765 ], [ -119.944358084554409, 39.243847062363699 ], [ -119.9441830966542, 39.243608248732023 ], [ -119.944187004709491, 39.24351826737513 ], [ -119.944470197594001, 39.243399586413936 ] ] ] } },
{ "type": "Feature", "properties": { "part": "upstream", "crossing_id": "X02531", "area_ac": 0.0, "n_upstream": 1.0 }, "geometry": { "type": "Polygon", "coordinates": [ [ [ -119.944814223994982, 39.243480686790399 ], [ -119.944740104667488, 39.243586841504012 ], [ -119.944625949967175, 39.243547810557345 ], [ -119.944698506463766, 39.243477648481736 ], [ -119.944814223994982, 39.243480686790399 ] ] ] } }
]
}
