{
"type": "FeatureCollection",
"name": "X02629",
"crs": { "type": "name", "properties": { "name": "urn:ogc:def:crs:OGC:1.3:CRS84" } },
"features": [
{ "type": "Feature", "properties": { "part": "direct", "crossing_id": "X02629", "area_ac": 0.9 }, "geometry": { "type": "Polygon", "coordinates": [ [ [ -119.981688651342836, 39.251325463137398 ], [ -119.982104523136528, 39.251354266885087 ], [ -119.982070566200036, 39.251605622859678 ], [ -119.982518837174183, 39.251959569791289 ], [ -119.982141534295849, 39.252111936862335 ], [ -119.98193398220063, 39.252088536715362 ], [ -119.981652376176228, 39.2516308095516 ], [ -119.981688651342836, 39.251325463137398 ] ] ] } }
]
}
