{
"type": "FeatureCollection",
"name": "X02656",
"crs": { "type": "name", "properties": { "name": "urn:ogc:def:crs:OGC:1.3:CRS84" } },
"features": [
{ "type": "Feature", "properties": { "part": "direct", "crossing_id": "X02656", "area_ac": 0.3 }, "geometry": { "type": "Polygon", "coordinates": [ [ [ -119.969701434174596, 39.24879782531459 ], [ -119.970094137591545, 39.24882606847946 ], [ -119.969925140328243, 39.24898381967197 ], [ -119.969966005829662, 39.249111001926181 ], [ -119.969611064730657, 39.249281927340611 ], [ -119.96963731173571, 39.249210543416169 ], [ -119.969753041372201, 39.249213557313453 ], [ -119.969780838652738, 39.249106179984494 ], [ -119.969574851457295, 39.249046764910922 ], [ -119.969558683079285, 39.248884191993454 ], [ -119.969701434174596, 39.24879782531459 ] ] ] } }
]
}
