{
"type": "FeatureCollection",
"name": "X02642",
"crs": { "type": "name", "properties": { "name": "urn:ogc:def:crs:OGC:1.3:CRS84" } },
"features": [
{ "type": "Feature", "properties": { "part": "direct", "crossing_id": "X02642", "area_ac": 0.5 }, "geometry": { "type": "Polygon", "coordinates": [ [ [ -119.986314185594551, 39.251535440600236 ], [ -119.986372832022894, 39.25178919640684 ], [ -119.986205404425334, 39.251910978440499 ], [ -119.985969305806037, 39.252012964542757 ], [ -119.985879801776704, 39.25193857841731 ], [ -119.985694624441294, 39.251933781489122 ], [ -119.985892140663623, 39.251650627344524 ], [ -119.986082715164997, 39.25152944530862 ], [ -119.986314185594551, 39.251535440600236 ] ] ] } }
]
}
