{
"type": "FeatureCollection",
"name": "X02602",
"crs": { "type": "name", "properties": { "name": "urn:ogc:def:crs:OGC:1.3:CRS84" } },
"features": [
{ "type": "Feature", "properties": { "part": "direct", "crossing_id": "X02602", "area_ac": 0.3, "n_upstream": null }, "geometry": { "type": "Polygon", "coordinates": [ [ [ -120.002774624335672, 39.227961953215583 ], [ -120.002810176746607, 39.228215107214702 ], [ -120.003056286214331, 39.228419632485235 ], [ -120.003307759769001, 39.228498176170582 ], [ -120.003324770896739, 39.228642750424235 ], [ -120.003552339617684, 39.2287386950848 ], [ -120.003547743388978, 39.228846678916327 ], [ -120.003250754574481, 39.228748946698964 ], [ -120.003006175764085, 39.228508427189354 ], [ -120.002679000784838, 39.228031558604947 ], [ -120.002658926091257, 39.227958973473868 ], [ -120.002774624335672, 39.227961953215583 ] ] ] } },
{ "type": "Feature", "properties": { "part": "upstream", "crossing_id": "X02602", "area_ac": 0.0, "n_upstream": 1.0 }, "geometry": { "type": "Polygon", "coordinates": [ [ [ -120.00270673784803, 39.227924170796371 ], [ -120.002774624335672, 39.227961953215583 ], [ -120.002682065738767, 39.227959569431384 ], [ -120.00270673784803, 39.227924170796371 ] ] ] } }
]
}
