{
"type": "FeatureCollection",
"name": "X02655",
"crs": { "type": "name", "properties": { "name": "urn:ogc:def:crs:OGC:1.3:CRS84" } },
"features": [
{ "type": "Feature", "properties": { "part": "direct", "crossing_id": "X02655", "area_ac": 0.6 }, "geometry": { "type": "Polygon", "coordinates": [ [ [ -119.970293709782993, 39.250110462876393 ], [ -119.970285958551244, 39.250290429753832 ], [ -119.970419410674793, 39.250420022552341 ], [ -119.970435581175053, 39.250582595404651 ], [ -119.970369135339723, 39.251049303966454 ], [ -119.970161591635346, 39.251025883076601 ], [ -119.970146305634543, 39.250304810301358 ], [ -119.97002979896962, 39.250319793408231 ], [ -119.969942640279385, 39.250191405690849 ], [ -119.969945741120483, 39.250119418962399 ], [ -119.970293709782993, 39.250110462876393 ] ] ] } }
]
}
