{
"type": "FeatureCollection",
"name": "X02659",
"crs": { "type": "name", "properties": { "name": "urn:ogc:def:crs:OGC:1.3:CRS84" } },
"features": [
{ "type": "Feature", "properties": { "part": "direct", "crossing_id": "X02659", "area_ac": 0.3, "n_upstream": null }, "geometry": { "type": "Polygon", "coordinates": [ [ [ -119.969328000280427, 39.248860167064095 ], [ -119.969576402004165, 39.24901077155198 ], [ -119.969300977778516, 39.248949547590414 ], [ -119.968846473342907, 39.249280029203653 ], [ -119.968617340637152, 39.249220009495772 ], [ -119.96916520429744, 39.248873943689219 ], [ -119.969328000280427, 39.248860167064095 ] ] ] } },
{ "type": "Feature", "properties": { "part": "upstream", "crossing_id": "X02659", "area_ac": 3.4, "n_upstream": 6.0 }, "geometry": { "type": "Polygon", "coordinates": [ [ [ -119.969736097333865, 39.249068981089252 ], [ -119.969753041372201, 39.249213557313453 ], [ -119.96963731173571, 39.249210543416169 ], [ -119.969231425205209, 39.249488242072402 ], [ -119.969167414909236, 39.249360456726563 ], [ -119.969025437438333, 39.249428826003246 ], [ -119.969041992451139, 39.249408915608463 ], [ -119.969000424971881, 39.249394714569476 ], [ -119.969020716445783, 39.249438339958161 ], [ -119.969166639521973, 39.249378453398151 ], [ -119.969207503817074, 39.249505635866861 ], [ -119.969105614868084, 39.2497191843485 ], [ -119.969036176627085, 39.249717375618545 ], [ -119.968878031438365, 39.249623171758756 ], [ -119.96887910522014, 39.249621633046367 ], [ -119.96857247963159, 39.24972331302321 ], [ -119.968233697576252, 39.250056806882405 ], [ -119.96807288497655, 39.250047974850034 ], [ -119.968082409575203, 39.250341134732473 ], [ -119.967820043117939, 39.250514466655702 ], [ -119.967658018928262, 39.250510244361926 ], [ -119.967674958828539, 39.250654820704696 ], [ -119.967071601832032, 39.250675129233954 ], [ -119.966796173743901, 39.250613899184408 ], [ -119.96674755297208, 39.250666682310232 ], [ -119.966753761281538, 39.250522709290173 ], [ -119.967054663176256, 39.250530552852084 ], [ -119.967179705811958, 39.250317609778648 ], [ -119.967288938175926, 39.250332661776291 ], [ -119.967205955705396, 39.250246226525704 ], [ -119.967239964546607, 39.249994876892096 ], [ -119.967626215720884, 39.250004943444182 ], [ -119.968400107517837, 39.249189620935617 ], [ -119.968364286879932, 39.249177382969101 ], [ -119.968403749653262, 39.249185783757063 ], [ -119.968410578656062, 39.249178589046913 ], [ -119.968499901668181, 39.249206252419278 ], [ -119.968846473342907, 39.249280029203653 ], [ -119.969063316261966, 39.249087492184522 ], [ -119.969359560678896, 39.249203309594321 ], [ -119.969110383402821, 39.249070701310636 ], [ -119.969393561114302, 39.248951958971439 ], [ -119.969736097333865, 39.249068981089252 ] ] ] } }
]
}
