{
"type": "FeatureCollection",
"name": "X02615",
"crs": { "type": "name", "properties": { "name": "urn:ogc:def:crs:OGC:1.3:CRS84" } },
"features": [
{ "type": "Feature", "properties": { "part": "direct", "crossing_id": "X02615", "area_ac": 0.0 }, "geometry": { "type": "MultiPolygon", "coordinates": [ [ [ [ -120.003964070376298, 39.23865865581125 ], [ -120.004099098687533, 39.238752217161057 ], [ -120.004093735486038, 39.238878198143688 ], [ -120.003954875912569, 39.238874623184763 ], [ -120.004028902834278, 39.238768426992515 ], [ -120.003964070376298, 39.23865865581125 ] ] ], [ [ [ -120.003919316423421, 39.238621469568955 ], [ -120.003941693393969, 39.238640062692028 ], [ -120.003918550211466, 39.238639466849804 ], [ -120.003919316423421, 39.238621469568955 ] ] ], [ [ [ -120.00389693946471, 39.238602876441981 ], [ -120.003919316423421, 39.238621469568955 ], [ -120.00389617324754, 39.238620873722532 ], [ -120.00389693946471, 39.238602876441981 ] ] ], [ [ [ -120.003874562517751, 39.238584283311049 ], [ -120.00389693946471, 39.238602876441981 ], [ -120.00387379629538, 39.238602280591344 ], [ -120.003874562517751, 39.238584283311049 ] ] ], [ [ [ -120.003852185582602, 39.238565690176287 ], [ -120.003874562517751, 39.238584283311049 ], [ -120.003851419355016, 39.238583687456206 ], [ -120.003852185582602, 39.238565690176287 ] ] ] ] } }
]
}
