{
"type": "FeatureCollection",
"name": "X02697",
"crs": { "type": "name", "properties": { "name": "urn:ogc:def:crs:OGC:1.3:CRS84" } },
"features": [
{ "type": "Feature", "properties": { "part": "direct", "crossing_id": "X02697", "area_ac": 0.1 }, "geometry": { "type": "Polygon", "coordinates": [ [ [ -119.979182366731507, 39.254647599856497 ], [ -119.979352091450011, 39.255012343902024 ], [ -119.979331994799992, 39.255480261293592 ], [ -119.979217841050939, 39.254900757285114 ], [ -119.979105193046252, 39.254825765150763 ], [ -119.979182366731507, 39.254647599856497 ] ] ] } }
]
}
