{
"type": "FeatureCollection",
"name": "X02668",
"crs": { "type": "name", "properties": { "name": "urn:ogc:def:crs:OGC:1.3:CRS84" } },
"features": [
{ "type": "Feature", "properties": { "part": "direct", "crossing_id": "X02668", "area_ac": 0.4 }, "geometry": { "type": "Polygon", "coordinates": [ [ [ -119.977868451734452, 39.253406349319718 ], [ -119.977851439534376, 39.253802278990236 ], [ -119.977577481779761, 39.254245585259881 ], [ -119.977289654007677, 39.254472327893268 ], [ -119.977319762809557, 39.2543109581026 ], [ -119.977584442096727, 39.25408361408838 ], [ -119.977701006157432, 39.253528118354431 ], [ -119.977868451734452, 39.253406349319718 ] ] ] } }
]
}
