{
"type": "FeatureCollection",
"name": "X02603",
"crs": { "type": "name", "properties": { "name": "urn:ogc:def:crs:OGC:1.3:CRS84" } },
"features": [
{ "type": "Feature", "properties": { "part": "direct", "crossing_id": "X02603", "area_ac": 7.1 }, "geometry": { "type": "Polygon", "coordinates": [ [ [ -120.001800814965492, 39.24103523607409 ], [ -120.001818591183621, 39.241161813037948 ], [ -120.002676451609062, 39.241147878254729 ], [ -120.003160175915653, 39.241214387606846 ], [ -120.00315634352576, 39.241304373907887 ], [ -120.003292142005208, 39.241379939051647 ], [ -120.003277579387273, 39.241721887018102 ], [ -120.003054717908114, 39.242058470611703 ], [ -120.004195232802857, 39.243024721894606 ], [ -120.004715301356399, 39.243326381593391 ], [ -120.004992272209719, 39.24335152749132 ], [ -120.005035497494049, 39.243424708001776 ], [ -120.004665947281055, 39.243397179207726 ], [ -120.004500869193706, 39.243464997905257 ], [ -120.003855881053099, 39.243376324932527 ], [ -120.003699999076048, 39.243228175300366 ], [ -120.003173803703163, 39.243070489293693 ], [ -120.002948490150487, 39.242920550568805 ], [ -120.002773299680427, 39.242681817453985 ], [ -120.002822655061976, 39.242611020689665 ], [ -120.002037136717291, 39.242014242316777 ], [ -120.001717718461393, 39.241897910807381 ], [ -120.001516322854954, 39.241730568632271 ], [ -120.001145249587125, 39.241739023495882 ], [ -120.001080419291213, 39.241629250823493 ], [ -120.001220817895728, 39.241596834963893 ], [ -120.001256233526604, 39.241309475729295 ], [ -120.001404300667474, 39.241097087313605 ], [ -120.001800814965492, 39.24103523607409 ] ] ] } }
]
}
