{
"type": "FeatureCollection",
"name": "X02654",
"crs": { "type": "name", "properties": { "name": "urn:ogc:def:crs:OGC:1.3:CRS84" } },
"features": [
{ "type": "Feature", "properties": { "part": "direct", "crossing_id": "X02654", "area_ac": 0.5 }, "geometry": { "type": "MultiPolygon", "coordinates": [ [ [ [ -119.976883454093368, 39.25044400905724 ], [ -119.976905827140953, 39.250462607218623 ], [ -119.976882680648501, 39.25046200585394 ], [ -119.976883454093368, 39.25044400905724 ] ] ], [ [ [ -119.977126574409681, 39.249639565092217 ], [ -119.97725771850078, 39.249823140910159 ], [ -119.97725998474013, 39.250309655909795 ], [ -119.976906600579909, 39.250444610421532 ], [ -119.977033216123203, 39.249655156625089 ], [ -119.977126574409681, 39.249639565092217 ] ] ] ] } }
]
}
