{
"type": "FeatureCollection",
"name": "X02661",
"crs": { "type": "name", "properties": { "name": "urn:ogc:def:crs:OGC:1.3:CRS84" } },
"features": [
{ "type": "Feature", "properties": { "part": "direct", "crossing_id": "X02661", "area_ac": 0.6 }, "geometry": { "type": "Polygon", "coordinates": [ [ [ -119.968869079087526, 39.248217622830076 ], [ -119.968497853967364, 39.248766474914227 ], [ -119.968404495386679, 39.24878205949139 ], [ -119.968399841978467, 39.248890039454409 ], [ -119.968165281554477, 39.248955995522401 ], [ -119.968091190216555, 39.249062166190001 ], [ -119.967882101944781, 39.249074734788366 ], [ -119.968298849286072, 39.248545087711697 ], [ -119.968658442413968, 39.248266186265717 ], [ -119.968869079087526, 39.248217622830076 ] ] ] } }
]
}
