{
"type": "FeatureCollection",
"name": "X02646",
"crs": { "type": "name", "properties": { "name": "urn:ogc:def:crs:OGC:1.3:CRS84" } },
"features": [
{ "type": "Feature", "properties": { "part": "direct", "crossing_id": "X02646", "area_ac": 0.3 }, "geometry": { "type": "Polygon", "coordinates": [ [ [ -119.989838663544731, 39.250942027338809 ], [ -119.990138803576073, 39.250967808342359 ], [ -119.990136493360964, 39.251021799387253 ], [ -119.989985289800927, 39.251306159056917 ], [ -119.989726051184007, 39.251407554311143 ], [ -119.989579466463283, 39.251583931312005 ], [ -119.989611086024667, 39.251386563116348 ], [ -119.989874945587133, 39.251177186062456 ], [ -119.989788518892226, 39.251030814779448 ], [ -119.989838663544731, 39.250942027338809 ] ] ] } }
]
}
