{
"type": "FeatureCollection",
"name": "X02680",
"crs": { "type": "name", "properties": { "name": "urn:ogc:def:crs:OGC:1.3:CRS84" } },
"features": [
{ "type": "Feature", "properties": { "part": "direct", "crossing_id": "X02680", "area_ac": 0.1, "n_upstream": null }, "geometry": { "type": "Polygon", "coordinates": [ [ [ -119.968525892838684, 39.247578092063598 ], [ -119.96863231395632, 39.24779706697656 ], [ -119.968491114781514, 39.247847439053707 ], [ -119.968401635136374, 39.247773040357217 ], [ -119.96828203016193, 39.247860008517584 ], [ -119.968409390490152, 39.247593073715954 ], [ -119.968525892838684, 39.247578092063598 ] ] ] } },
{ "type": "Feature", "properties": { "part": "upstream", "crossing_id": "X02680", "area_ac": 0.0, "n_upstream": 2.0 }, "geometry": { "type": "Polygon", "coordinates": [ [ [ -119.968354994602876, 39.247856761869315 ], [ -119.96832987218707, 39.247825221269707 ], [ -119.968424005029974, 39.247791640037171 ], [ -119.968513484722294, 39.247866038718143 ], [ -119.968252680065717, 39.24800337875913 ], [ -119.968373836429166, 39.247880417315912 ], [ -119.968304400048567, 39.247878608220155 ], [ -119.968305951180412, 39.247842614896328 ], [ -119.968354994602876, 39.247856761869315 ] ] ] } }
]
}
