{
"type": "FeatureCollection",
"name": "X02692",
"crs": { "type": "name", "properties": { "name": "urn:ogc:def:crs:OGC:1.3:CRS84" } },
"features": [
{ "type": "Feature", "properties": { "part": "direct", "crossing_id": "X02692", "area_ac": 0.6 }, "geometry": { "type": "Polygon", "coordinates": [ [ [ -119.968071674377669, 39.250052585205033 ], [ -119.968859420003525, 39.250055091722949 ], [ -119.968848563148441, 39.250307045017117 ], [ -119.968571583534043, 39.25028181248733 ], [ -119.968358613549526, 39.25038436508467 ], [ -119.96812715074401, 39.250378334254499 ], [ -119.967913404123649, 39.250498882646824 ], [ -119.967910301162746, 39.250570869235098 ], [ -119.967678062039312, 39.250582834133169 ], [ -119.967658018928262, 39.250510244361926 ], [ -119.967820043117939, 39.250514466655702 ], [ -119.968056936216996, 39.25039452156588 ], [ -119.968071674377669, 39.250052585205033 ] ] ] } }
]
}
