{
"type": "FeatureCollection",
"name": "X02698",
"crs": { "type": "name", "properties": { "name": "urn:ogc:def:crs:OGC:1.3:CRS84" } },
"features": [
{ "type": "Feature", "properties": { "part": "direct", "crossing_id": "X02698", "area_ac": 1.2 }, "geometry": { "type": "MultiPolygon", "coordinates": [ [ [ [ -119.974482340373171, 39.250777972580387 ], [ -119.974551005960109, 39.250797774860786 ], [ -119.974481566305371, 39.250795969336139 ], [ -119.974482340373171, 39.250777972580387 ] ] ], [ [ [ -119.974791130886274, 39.249524819263662 ], [ -119.974997898364521, 39.249566228550393 ], [ -119.975131358235444, 39.249695816239708 ], [ -119.975080351987714, 39.250343098191252 ], [ -119.975142052350293, 39.250524871020325 ], [ -119.975024772137189, 39.25055785592545 ], [ -119.974973061612062, 39.250682629792728 ], [ -119.974575700600724, 39.250762383178539 ], [ -119.974672156861416, 39.250674806663596 ], [ -119.974655276392625, 39.249989726164323 ], [ -119.974530331222653, 39.249662173590465 ], [ -119.974791130886274, 39.249524819263662 ] ] ] ] } }
]
}
