{
"type": "FeatureCollection",
"name": "X02683",
"crs": { "type": "name", "properties": { "name": "urn:ogc:def:crs:OGC:1.3:CRS84" } },
"features": [
{ "type": "Feature", "properties": { "part": "direct", "crossing_id": "X02683", "area_ac": 0.8 }, "geometry": { "type": "Polygon", "coordinates": [ [ [ -119.968068044373283, 39.249061563091388 ], [ -119.96831954630305, 39.24914018355669 ], [ -119.968287093137903, 39.249355540391086 ], [ -119.967657370825464, 39.249987738496742 ], [ -119.967331773206297, 39.250015286603968 ], [ -119.967409746010432, 39.249819133315746 ], [ -119.967623491292272, 39.249698585790171 ], [ -119.967844217420975, 39.249416067999086 ], [ -119.967858180388035, 39.249092128298734 ], [ -119.968068044373283, 39.249061563091388 ] ] ] } }
]
}
