{
"type": "FeatureCollection",
"name": "X02670",
"crs": { "type": "name", "properties": { "name": "urn:ogc:def:crs:OGC:1.3:CRS84" } },
"features": [
{ "type": "Feature", "properties": { "part": "direct", "crossing_id": "X02670", "area_ac": 0.5 }, "geometry": { "type": "Polygon", "coordinates": [ [ [ -119.971639291712322, 39.250073423285009 ], [ -119.971650816353986, 39.250343976344169 ], [ -119.9713938821059, 39.250391339725482 ], [ -119.971290448460195, 39.25064088371051 ], [ -119.971042812230905, 39.250472285853142 ], [ -119.971098404040092, 39.250257530491865 ], [ -119.971034389673449, 39.250129746028485 ], [ -119.971567528578603, 39.250125606180177 ], [ -119.971639291712322, 39.250073423285009 ] ] ] } }
]
}
