{
"type": "FeatureCollection",
"name": "X02719",
"crs": { "type": "name", "properties": { "name": "urn:ogc:def:crs:OGC:1.3:CRS84" } },
"features": [
{ "type": "Feature", "properties": { "part": "direct", "crossing_id": "X02719", "area_ac": 0.1 }, "geometry": { "type": "Polygon", "coordinates": [ [ [ -119.970458833756354, 39.250042694704113 ], [ -119.970614656993618, 39.250190886607385 ], [ -119.970401690032261, 39.250293443075513 ], [ -119.970420960865624, 39.250384029173738 ], [ -119.970396264335221, 39.250419419899089 ], [ -119.970285958551244, 39.250290429753832 ], [ -119.970292934662936, 39.250128459564479 ], [ -119.970458833756354, 39.250042694704113 ] ] ] } }
]
}
