{
"type": "FeatureCollection",
"name": "X02709",
"crs": { "type": "name", "properties": { "name": "urn:ogc:def:crs:OGC:1.3:CRS84" } },
"features": [
{ "type": "Feature", "properties": { "part": "direct", "crossing_id": "X02709", "area_ac": 0.2, "n_upstream": null }, "geometry": { "type": "Polygon", "coordinates": [ [ [ -119.97734688752081, 39.253140565168813 ], [ -119.977319099689296, 39.253247944630772 ], [ -119.977107679101863, 39.253314519770015 ], [ -119.976698701343267, 39.253664231697876 ], [ -119.976657821390589, 39.253537051317686 ], [ -119.977088399019081, 39.253223934452187 ], [ -119.977091492887908, 39.253151947285403 ], [ -119.97734688752081, 39.253140565168813 ] ] ] } },
{ "type": "Feature", "properties": { "part": "upstream", "crossing_id": "X02709", "area_ac": 4.3, "n_upstream": 4.0 }, "geometry": { "type": "Polygon", "coordinates": [ [ [ -119.977337606668257, 39.253356526717205 ], [ -119.977248036092604, 39.253354199861207 ], [ -119.977258054047823, 39.254129186182197 ], [ -119.977133807209484, 39.254324144111344 ], [ -119.977198609684677, 39.254433928928584 ], [ -119.976931901810701, 39.254326105297757 ], [ -119.977173914919689, 39.254469321149884 ], [ -119.977004144967935, 39.254645079377198 ], [ -119.976912327045852, 39.254624676971595 ], [ -119.976435443782094, 39.254936589738598 ], [ -119.976384505696998, 39.255043367350147 ], [ -119.976267992038487, 39.255058356443108 ], [ -119.976130651636879, 39.255018753534074 ], [ -119.976202416794862, 39.254966567922978 ], [ -119.975944694054959, 39.255031937557924 ], [ -119.975758668504113, 39.25558562582281 ], [ -119.975696189042097, 39.255421849983513 ], [ -119.975273403083733, 39.25501448888874 ], [ -119.975257220991267, 39.254851916339838 ], [ -119.975840426043348, 39.254416653736129 ], [ -119.975832116587526, 39.254416437768057 ], [ -119.975832890409748, 39.254398441001015 ], [ -119.975848000087538, 39.254411000953731 ], [ -119.975863754095542, 39.254399243164656 ], [ -119.975856038173973, 39.254399042624506 ], [ -119.975856811989601, 39.254381045857066 ], [ -119.975871631097547, 39.254393364269234 ], [ -119.975887082136111, 39.254381832588059 ], [ -119.97587995974861, 39.25438164747559 ], [ -119.975880733557645, 39.254363650707667 ], [ -119.97589526209569, 39.254375727579429 ], [ -119.97593319313566, 39.254347418208795 ], [ -119.975903881311453, 39.25436425232121 ], [ -119.976672459452175, 39.253735617383974 ], [ -119.976796706392818, 39.253540659940171 ], [ -119.977107679101863, 39.253314519770015 ], [ -119.977200784474618, 39.253304927305635 ], [ -119.977178668304717, 39.253280330239534 ], [ -119.977295952272272, 39.253247343312736 ], [ -119.977337606668257, 39.253356526717205 ] ], [ [ -119.976408689278045, 39.254074333168731 ], [ -119.9764733533992, 39.254054747661883 ], [ -119.976529648211738, 39.254088061747872 ], [ -119.976474127047524, 39.254036750883117 ], [ -119.976408689278045, 39.254074333168731 ] ], [ [ -119.9764060369899, 39.2541288369219 ], [ -119.976341805298759, 39.254112745961031 ], [ -119.976270171144478, 39.254153886780834 ], [ -119.9764060369899, 39.2541288369219 ] ], [ [ -119.976419113464644, 39.254132112761404 ], [ -119.976380153867041, 39.254184977592239 ], [ -119.976469485147149, 39.254144731554796 ], [ -119.976419113464644, 39.254132112761404 ] ] ] } }
]
}
