{
"type": "FeatureCollection",
"name": "X02723",
"crs": { "type": "name", "properties": { "name": "urn:ogc:def:crs:OGC:1.3:CRS84" } },
"features": [
{ "type": "Feature", "properties": { "part": "direct", "crossing_id": "X02723", "area_ac": 0.7 }, "geometry": { "type": "Polygon", "coordinates": [ [ [ -119.970661724560344, 39.250174095122631 ], [ -119.970886212494122, 39.250342091167539 ], [ -119.970694841724878, 39.25048124411429 ], [ -119.9706423486586, 39.250624012451745 ], [ -119.970748780493153, 39.250842985766369 ], [ -119.97071555856563, 39.251076340176624 ], [ -119.970369135339723, 39.251049303966454 ], [ -119.970401690032261, 39.250293443075513 ], [ -119.970661724560344, 39.250174095122631 ] ] ] } }
]
}
