{
"type": "FeatureCollection",
"name": "X02793",
"crs": { "type": "name", "properties": { "name": "urn:ogc:def:crs:OGC:1.3:CRS84" } },
"features": [
{ "type": "Feature", "properties": { "part": "direct", "crossing_id": "X02793", "area_ac": 2.1 }, "geometry": { "type": "Polygon", "coordinates": [ [ [ -119.984281031879647, 39.263283834197793 ], [ -119.984289516519794, 39.263626374967451 ], [ -119.984071894085503, 39.263836936722086 ], [ -119.984059542402107, 39.264124886708281 ], [ -119.983081789536371, 39.264225655855263 ], [ -119.982648096577478, 39.264070274335864 ], [ -119.982607200879883, 39.263943095589575 ], [ -119.983272418433671, 39.263563974055678 ], [ -119.983275507114683, 39.263491986606056 ], [ -119.983319492469164, 39.26354717771077 ], [ -119.983621998817284, 39.263518986889494 ], [ -119.984281031879647, 39.263283834197793 ] ] ] } }
]
}
