{
"type": "FeatureCollection",
"name": "X02715",
"crs": { "type": "name", "properties": { "name": "urn:ogc:def:crs:OGC:1.3:CRS84" } },
"features": [
{ "type": "Feature", "properties": { "part": "direct", "crossing_id": "X02715", "area_ac": 0.3, "n_upstream": null }, "geometry": { "type": "Polygon", "coordinates": [ [ [ -119.978190528493116, 39.249685217223963 ], [ -119.978099442427606, 39.250187324835991 ], [ -119.978202804932465, 39.250478279493024 ], [ -119.978111765097523, 39.250439881402734 ], [ -119.978107899436679, 39.250529865487806 ], [ -119.97799139357852, 39.250544856623549 ], [ -119.977978298187168, 39.250310296879547 ], [ -119.978104081174976, 39.250079343928185 ], [ -119.977831736851712, 39.249946152468375 ], [ -119.977978346416862, 39.24976979124947 ], [ -119.978070931574308, 39.249772195774391 ], [ -119.978050877792015, 39.249699607376762 ], [ -119.978190528493116, 39.249685217223963 ] ] ] } },
{ "type": "Feature", "properties": { "part": "upstream", "crossing_id": "X02715", "area_ac": 0.1, "n_upstream": 1.0 }, "geometry": { "type": "Polygon", "coordinates": [ [ [ -119.978181204633984, 39.250441684749369 ], [ -119.978194300700153, 39.25067624449327 ], [ -119.978124860931501, 39.250674441145485 ], [ -119.97799139357852, 39.250544856623549 ], [ -119.978181204633984, 39.250441684749369 ] ] ] } }
]
}
