{
"type": "FeatureCollection",
"name": "X02701",
"crs": { "type": "name", "properties": { "name": "urn:ogc:def:crs:OGC:1.3:CRS84" } },
"features": [
{ "type": "Feature", "properties": { "part": "direct", "crossing_id": "X02701", "area_ac": 0.1 }, "geometry": { "type": "Polygon", "coordinates": [ [ [ -119.967396815220113, 39.249044071234415 ], [ -119.967581981824679, 39.249048896960012 ], [ -119.9674993556213, 39.249353030302572 ], [ -119.967338885859718, 39.24931281438419 ], [ -119.967396815220113, 39.249044071234415 ] ] ] } }
]
}
