{
"type": "FeatureCollection",
"name": "X02733",
"crs": { "type": "name", "properties": { "name": "urn:ogc:def:crs:OGC:1.3:CRS84" } },
"features": [
{ "type": "Feature", "properties": { "part": "direct", "crossing_id": "X02733", "area_ac": 0.8, "n_upstream": null }, "geometry": { "type": "Polygon", "coordinates": [ [ [ -119.97958162382551, 39.249667284256091 ], [ -119.979600906467795, 39.249757869295372 ], [ -119.979530694765572, 39.249774063664177 ], [ -119.979632517315835, 39.250101010960812 ], [ -119.979539158836133, 39.250116604502445 ], [ -119.979510603046009, 39.250241981554517 ], [ -119.979599325227497, 39.250334369097438 ], [ -119.979382505835204, 39.250526926704893 ], [ -119.979151813067574, 39.250502920931076 ], [ -119.979102428442786, 39.250573706422301 ], [ -119.978921120486433, 39.250478914705567 ], [ -119.979208153227404, 39.250270163893646 ], [ -119.979065449847354, 39.249816036611712 ], [ -119.97958162382551, 39.249667284256091 ] ] ] } },
{ "type": "Feature", "properties": { "part": "upstream", "crossing_id": "X02733", "area_ac": 0.0, "n_upstream": 1.0 }, "geometry": { "type": "Polygon", "coordinates": [ [ [ -119.978781468291004, 39.250493305678631 ], [ -119.979103201323312, 39.250555709589044 ], [ -119.979124029268036, 39.250610301014362 ], [ -119.978781468291004, 39.250493305678631 ] ] ] } }
]
}
