{
"type": "FeatureCollection",
"name": "X02769",
"crs": { "type": "name", "properties": { "name": "urn:ogc:def:crs:OGC:1.3:CRS84" } },
"features": [
{ "type": "Feature", "properties": { "part": "direct", "crossing_id": "X02769", "area_ac": 11.9, "n_upstream": null }, "geometry": { "type": "Polygon", "coordinates": [ [ [ -119.978978587574517, 39.255615221142136 ], [ -119.979578896024336, 39.255666839658083 ], [ -119.979552617055347, 39.256278731681583 ], [ -119.98089671586574, 39.257358594991622 ], [ -119.980909820817345, 39.257593154591994 ], [ -119.980649773952962, 39.257712524942512 ], [ -119.980496971208552, 39.258032863607077 ], [ -119.979883502594419, 39.258287195026334 ], [ -119.979628089255627, 39.258298581994225 ], [ -119.97946913737465, 39.258222388171752 ], [ -119.977662071730833, 39.25713048368533 ], [ -119.977902839174007, 39.256920534907131 ], [ -119.978076530009233, 39.256114286416306 ], [ -119.978270995969368, 39.255903134252883 ], [ -119.978257899796517, 39.25566857465143 ], [ -119.978859754098792, 39.255684203258497 ], [ -119.978978587574517, 39.255615221142136 ] ] ] } },
{ "type": "Feature", "properties": { "part": "upstream", "crossing_id": "X02769", "area_ac": 60.8, "n_upstream": 11.0 }, "geometry": { "type": "Polygon", "coordinates": [ [ [ -119.983052636769315, 39.257882955258687 ], [ -119.983558056626592, 39.257986143742045 ], [ -119.984004058569553, 39.258394077148395 ], [ -119.983667618210788, 39.258673626115254 ], [ -119.983433808884342, 39.258721615296267 ], [ -119.983160636403085, 39.259146938145797 ], [ -119.983193810127403, 39.259454085458636 ], [ -119.983366654224412, 39.25974683714707 ], [ -119.983355845558421, 39.259998793399355 ], [ -119.983468506301833, 39.26007378185659 ], [ -119.983252437366374, 39.260248348773096 ], [ -119.983141307164146, 39.260677872710673 ], [ -119.983077247844719, 39.261090600147249 ], [ -119.98278709078005, 39.261371346349009 ], [ -119.98252623391771, 39.261420456655195 ], [ -119.982645872742367, 39.261421734848476 ], [ -119.982606504513441, 39.261799068490525 ], [ -119.982272358838003, 39.262024621871191 ], [ -119.982216016802013, 39.262257380016102 ], [ -119.982148882617977, 39.262201588081062 ], [ -119.982547827668839, 39.262626323431689 ], [ -119.9827407375181, 39.262991663925696 ], [ -119.981986781992447, 39.263278396307157 ], [ -119.981566977017138, 39.263339573620925 ], [ -119.981200427344064, 39.26323997929174 ], [ -119.980758244108301, 39.263282556169365 ], [ -119.980042076866155, 39.263768441955825 ], [ -119.980015833888359, 39.263839828275017 ], [ -119.980128496754034, 39.263914820026912 ], [ -119.980081421786821, 39.263931615039667 ], [ -119.979925549163681, 39.263783434162235 ], [ -119.980055217822965, 39.263462496209961 ], [ -119.979926322196889, 39.263765437356156 ], [ -119.979819850650273, 39.263640980708601 ], [ -119.979814432848173, 39.2636724486199 ], [ -119.979095255098272, 39.263149305577713 ], [ -119.978924741539927, 39.262802557676657 ], [ -119.978437856728505, 39.262267425197827 ], [ -119.978423986809986, 39.262050862555078 ], [ -119.978564435505987, 39.26201847614427 ], [ -119.978592225785363, 39.261911096585159 ], [ -119.978748166950112, 39.261906497903851 ], [ -119.978616149396117, 39.2618937009658 ], [ -119.978366909918165, 39.261761110336373 ], [ -119.97814314187913, 39.261575130118672 ], [ -119.977874676296636, 39.2608114486289 ], [ -119.97758842482196, 39.260461692559751 ], [ -119.977651223536327, 39.260416029554733 ], [ -119.9776131216842, 39.260426300355732 ], [ -119.977501240573091, 39.260333309673385 ], [ -119.97745035695435, 39.259899582917292 ], [ -119.977294498504165, 39.259751398988023 ], [ -119.977305328772758, 39.259499444134434 ], [ -119.977145603357812, 39.259441243915575 ], [ -119.977126322053707, 39.259350658618914 ], [ -119.977434226501899, 39.259196505837657 ], [ -119.977667267265929, 39.259166525728972 ], [ -119.97862716959645, 39.259479725971524 ], [ -119.978962859980498, 39.259218189358322 ], [ -119.97911258008314, 39.258969840368955 ], [ -119.979422797865496, 39.258761691644942 ], [ -119.979670522768316, 39.258389767920541 ], [ -119.979651238383553, 39.258299182913049 ], [ -119.980307142088591, 39.258136038480124 ], [ -119.98032743843261, 39.258156610502482 ], [ -119.980309460427748, 39.2580820479903 ], [ -119.980496971208552, 39.258032863607077 ], [ -119.980573372765022, 39.257872694308595 ], [ -119.980591112859244, 39.257999272880639 ], [ -119.980601157957921, 39.257765314020119 ], [ -119.980840374051581, 39.257591352599192 ], [ -119.981118161152054, 39.257598560322286 ], [ -119.981495496257438, 39.257446197928132 ], [ -119.982147526823596, 39.257373026908937 ], [ -119.982515592356592, 39.25743662346413 ], [ -119.982624387359607, 39.257601596920246 ], [ -119.983052636769315, 39.257882955258687 ] ], [ [ -119.981869532099708, 39.262230375800264 ], [ -119.981800125961783, 39.262271595277518 ], [ -119.982148882617977, 39.262201588081062 ], [ -119.981869532099708, 39.262230375800264 ] ], [ [ -119.981835615492258, 39.261400719400065 ], [ -119.981464439885755, 39.261409107302406 ], [ -119.981984270195071, 39.261414664899704 ], [ -119.981835615492258, 39.261400719400065 ] ], [ [ -119.980871839236102, 39.260637022683049 ], [ -119.980895761858505, 39.260619626552526 ], [ -119.980707471547902, 39.260686808131005 ], [ -119.980380281179961, 39.260750384655715 ], [ -119.980358860059113, 39.260767259002563 ], [ -119.980881708150747, 39.260658228627968 ], [ -119.980871839236102, 39.260637022683049 ] ], [ [ -119.981063219885158, 39.260497853486783 ], [ -119.981238403360422, 39.260196111769204 ], [ -119.981031323162782, 39.260521048376951 ], [ -119.981063219885158, 39.260497853486783 ] ], [ [ -119.981459112112503, 39.259913567723018 ], [ -119.981400687962818, 39.259886313590094 ], [ -119.981452931809883, 39.260057542468552 ], [ -119.981459112112503, 39.259913567723018 ] ], [ [ -119.981050144041802, 39.259722788210773 ], [ -119.981022388099746, 39.259289662792632 ], [ -119.981049371407082, 39.259740785047988 ], [ -119.980956772883545, 39.259738382383404 ], [ -119.981264602623853, 39.259822831295033 ], [ -119.981050144041802, 39.259722788210773 ] ], [ [ -119.980887323998189, 39.259736580336721 ], [ -119.980530033662006, 39.259961528251509 ], [ -119.980956772883545, 39.259738382383404 ], [ -119.980887323998189, 39.259736580336721 ] ], [ [ -119.980092434009123, 39.260977133324275 ], [ -119.980369317722733, 39.260792653150055 ], [ -119.980356893666709, 39.260768808014618 ], [ -119.980092434009123, 39.260977133324275 ] ], [ [ -119.979237788854562, 39.260839894811994 ], [ -119.979309199344783, 39.260866717306598 ], [ -119.97960418350155, 39.260908303168421 ], [ -119.979237788854562, 39.260839894811994 ] ], [ [ -119.981784752853628, 39.259885981662954 ], [ -119.982414409547857, 39.260334718827892 ], [ -119.981776987737078, 39.25985788311754 ], [ -119.981784752853628, 39.259885981662954 ] ], [ [ -119.981767010339865, 39.259759403206282 ], [ -119.981752657074253, 39.259769841006026 ], [ -119.981760063784193, 39.259796642696692 ], [ -119.981780900132222, 39.259759763514182 ], [ -119.981767010339865, 39.259759403206282 ] ], [ [ -119.981767267823855, 39.259753404256607 ], [ -119.981755435513136, 39.259759102948436 ], [ -119.981767010339865, 39.259759403206282 ], [ -119.981767267823855, 39.259753404256607 ] ], [ [ -119.981783766506339, 39.259754690187116 ], [ -119.981790932439779, 39.259742006869075 ], [ -119.98177673367114, 39.259748845302198 ], [ -119.981783766506339, 39.259754690187116 ] ], [ [ -119.980438980486156, 39.259923131509872 ], [ -119.980405489009058, 39.259947485968823 ], [ -119.980459811791775, 39.259977722768554 ], [ -119.980438980486156, 39.259923131509872 ] ], [ [ -119.980391135511795, 39.259957923590811 ], [ -119.980404870764517, 39.25996188342949 ], [ -119.980399109677478, 39.259952124912168 ], [ -119.980391135511795, 39.259957923590811 ] ], [ [ -119.981065540425988, 39.261578315856589 ], [ -119.981063159971981, 39.261578864832842 ], [ -119.981066040621897, 39.261583744078294 ], [ -119.981065540425988, 39.261578315856589 ] ], [ [ -119.980442740857725, 39.261454663933257 ], [ -119.980237409028206, 39.261236925416682 ], [ -119.980242890991235, 39.261251291546714 ], [ -119.980442740857725, 39.261454663933257 ] ], [ [ -119.980215115733188, 39.261178503152287 ], [ -119.980271837660723, 39.261116916232673 ], [ -119.980201228124059, 39.261142108953138 ], [ -119.980215115733188, 39.261178503152287 ] ], [ [ -119.980919120406298, 39.262245284612412 ], [ -119.981095552271029, 39.261904009152815 ], [ -119.981086012772025, 39.26180048521357 ], [ -119.980919120406298, 39.262245284612412 ] ], [ [ -119.980794429011254, 39.262486475196759 ], [ -119.980811575379434, 39.262453309087967 ], [ -119.980286027038176, 39.262405491237722 ], [ -119.98072279534874, 39.262488893711598 ], [ -119.980794429011254, 39.262486475196759 ] ], [ [ -119.979123909534181, 39.261942919147906 ], [ -119.978995846056179, 39.261930505919132 ], [ -119.980286027038176, 39.262405491237722 ], [ -119.979123909534181, 39.261942919147906 ] ], [ [ -119.979613848055735, 39.262946566783015 ], [ -119.979474171005748, 39.262960957602694 ], [ -119.979749659779756, 39.263022159821347 ], [ -119.979826752774201, 39.263007945828626 ], [ -119.979613848055735, 39.262946566783015 ] ], [ [ -119.979369413187712, 39.26297175060585 ], [ -119.979334493909178, 39.262975348252318 ], [ -119.979349547662679, 39.263019682667192 ], [ -119.979369413187712, 39.26297175060585 ] ], [ [ -119.979378579950478, 39.26310518474876 ], [ -119.979396214408595, 39.263157119343738 ], [ -119.97946041792089, 39.263173199647291 ], [ -119.979378579950478, 39.26310518474876 ] ] ] } }
]
}
