{
"type": "FeatureCollection",
"name": "X02713",
"crs": { "type": "name", "properties": { "name": "urn:ogc:def:crs:OGC:1.3:CRS84" } },
"features": [
{ "type": "Feature", "properties": { "part": "direct", "crossing_id": "X02713", "area_ac": 0.4, "n_upstream": null }, "geometry": { "type": "Polygon", "coordinates": [ [ [ -119.971035164604018, 39.250111749328092 ], [ -119.971096079282731, 39.25031152059465 ], [ -119.971042812230905, 39.250472285853142 ], [ -119.9709078088799, 39.250378687117539 ], [ -119.970940152192483, 39.250703832772594 ], [ -119.970807369804092, 39.251096747235394 ], [ -119.97071555856563, 39.251076340176624 ], [ -119.970748780493153, 39.250842985766369 ], [ -119.9706423486586, 39.250624012451745 ], [ -119.970694841724878, 39.25048124411429 ], [ -119.970885437519115, 39.250360087864735 ], [ -119.970847669676616, 39.250160919075796 ], [ -119.971035164604018, 39.250111749328092 ] ] ] } },
{ "type": "Feature", "properties": { "part": "upstream", "crossing_id": "X02713", "area_ac": 12.6, "n_upstream": 6.0 }, "geometry": { "type": "Polygon", "coordinates": [ [ [ -119.971358338031862, 39.250678684540112 ], [ -119.971609849770843, 39.250757298239066 ], [ -119.973692261178869, 39.250829494062486 ], [ -119.97374621561481, 39.25119123491762 ], [ -119.973298685284476, 39.251359763441954 ], [ -119.973153609640036, 39.25150012466856 ], [ -119.973109887995591, 39.251498987320062 ], [ -119.973032454668385, 39.25162309110933 ], [ -119.972947524577833, 39.251981219191428 ], [ -119.972888725962591, 39.251776999682399 ], [ -119.972919730665495, 39.252088597376179 ], [ -119.972071626520943, 39.252949357245988 ], [ -119.972079810268895, 39.252920743217715 ], [ -119.972023007839582, 39.253002142651198 ], [ -119.971519868749269, 39.253385419350046 ], [ -119.971651004146409, 39.25356900109135 ], [ -119.971878604143242, 39.253665008843754 ], [ -119.971850807782403, 39.253772386656507 ], [ -119.971614683787209, 39.253874342526117 ], [ -119.970782924387493, 39.253816657710615 ], [ -119.970890240516553, 39.253477131110074 ], [ -119.971341664529533, 39.253218629181674 ], [ -119.971560838389237, 39.252972097728161 ], [ -119.971634929131994, 39.252865924867322 ], [ -119.971773812165154, 39.252869539428261 ], [ -119.971917343902803, 39.252765173583597 ], [ -119.971899620229323, 39.252638594250662 ], [ -119.971382437913036, 39.252262267778782 ], [ -119.971382735242173, 39.252264804201197 ], [ -119.97115824021553, 39.252096808876772 ], [ -119.970834183585211, 39.252088373069355 ], [ -119.970411338385745, 39.252221499178866 ], [ -119.9700796390715, 39.251852524959986 ], [ -119.970177652666337, 39.251728959104014 ], [ -119.970117514864555, 39.251511190771389 ], [ -119.970262596351603, 39.251370833570924 ], [ -119.970295044829143, 39.251155476049313 ], [ -119.970808144819344, 39.251078750541787 ], [ -119.970854921094926, 39.251086431725604 ], [ -119.970930180252466, 39.250397286366429 ], [ -119.971358338031862, 39.250678684540112 ] ], [ [ -119.97276011492913, 39.251489887942149 ], [ -119.972603509716592, 39.251359695376536 ], [ -119.972826394716705, 39.251560509448574 ], [ -119.972806408414129, 39.251491092331783 ], [ -119.97276011492913, 39.251489887942149 ] ], [ [ -119.972147761720649, 39.251288381184253 ], [ -119.972166046648894, 39.251294262052362 ], [ -119.972108593514051, 39.251303854318273 ], [ -119.972603509716592, 39.251359695376536 ], [ -119.972147761720649, 39.251288381184253 ] ], [ [ -119.971989395241366, 39.251091479543376 ], [ -119.971983197512699, 39.251235453247574 ], [ -119.972045005635451, 39.251255332311082 ], [ -119.971989395241366, 39.251091479543376 ] ], [ [ -119.971889061465873, 39.251269037230806 ], [ -119.971885962484919, 39.25134102407462 ], [ -119.971919955461544, 39.251089672480198 ], [ -119.971889061465873, 39.251269037230806 ] ], [ [ -119.972153463668349, 39.25266321692007 ], [ -119.972129541833226, 39.252680611293542 ], [ -119.972148348868259, 39.252681100693223 ], [ -119.972153463668349, 39.25266321692007 ] ] ] } }
]
}
