{
"type": "FeatureCollection",
"name": "X02706",
"crs": { "type": "name", "properties": { "name": "urn:ogc:def:crs:OGC:1.3:CRS84" } },
"features": [
{ "type": "Feature", "properties": { "part": "direct", "crossing_id": "X02706", "area_ac": 1.3, "n_upstream": null }, "geometry": { "type": "Polygon", "coordinates": [ [ [ -119.980238770437836, 39.253251686581031 ], [ -119.98013459012715, 39.253519236228982 ], [ -119.980357566758585, 39.253723208887337 ], [ -119.98035215821541, 39.253849186796039 ], [ -119.980555079157185, 39.253980571024563 ], [ -119.980257249473084, 39.253900774403682 ], [ -119.980139192884565, 39.253951761166128 ], [ -119.980205545245326, 39.254025550802147 ], [ -119.979997215660575, 39.254020143848528 ], [ -119.980010317698159, 39.254254703525326 ], [ -119.979842100721172, 39.254394472528858 ], [ -119.979706304967237, 39.254318880146677 ], [ -119.979724815834274, 39.254427461990453 ], [ -119.979558143628182, 39.254531236882137 ], [ -119.979447814502649, 39.254402254601189 ], [ -119.979530396895299, 39.254098111212102 ], [ -119.979673920358181, 39.253993735460163 ], [ -119.979733353574488, 39.253688990996054 ], [ -119.980029670419256, 39.253264276615823 ], [ -119.980238770437836, 39.253251686581031 ] ] ] } },
{ "type": "Feature", "properties": { "part": "upstream", "crossing_id": "X02706", "area_ac": 8.1, "n_upstream": 8.0 }, "geometry": { "type": "Polygon", "coordinates": [ [ [ -119.980218891479055, 39.253941043413342 ], [ -119.980209408705562, 39.253935566596887 ], [ -119.980419283353854, 39.253904979471784 ], [ -119.980943955593872, 39.254098763072101 ], [ -119.981007991478634, 39.254226542846567 ], [ -119.981009536465592, 39.254190549139253 ], [ -119.981514177201191, 39.253771235904061 ], [ -119.981818958456827, 39.253689057525342 ], [ -119.982263379870062, 39.254132990159647 ], [ -119.981439279973657, 39.254976425081324 ], [ -119.981138328567397, 39.255509124108606 ], [ -119.980552699983122, 39.255115573641191 ], [ -119.981520262775973, 39.255789286263756 ], [ -119.981515628326775, 39.25589726740602 ], [ -119.981010971516724, 39.256316579921823 ], [ -119.98147700694814, 39.256797110162339 ], [ -119.981331935056474, 39.256937481679351 ], [ -119.981082707056672, 39.256804897258839 ], [ -119.980480874134088, 39.256248773907892 ], [ -119.980462361792561, 39.256140192149708 ], [ -119.980968565478307, 39.255684888385574 ], [ -119.980476301782261, 39.255275743106381 ], [ -119.980241729423383, 39.255341723086325 ], [ -119.97977107479548, 39.254969169480624 ], [ -119.979757200750356, 39.254752606658812 ], [ -119.979581291515743, 39.254531837766919 ], [ -119.979752600609686, 39.254320081847325 ], [ -119.979889232964325, 39.254474315058225 ], [ -119.979842100721172, 39.254394472528858 ], [ -119.979950692734533, 39.254315500133629 ], [ -119.979938555977327, 39.254306891630648 ], [ -119.980054153785346, 39.254256967324096 ], [ -119.97996479484911, 39.254235505092574 ], [ -119.979997215660575, 39.254020143848528 ], [ -119.980090579303138, 39.254004550145922 ], [ -119.980168058084018, 39.254054715244358 ], [ -119.980235037661288, 39.254018308704772 ], [ -119.980138420175507, 39.253969758006086 ], [ -119.980218891479055, 39.253941043413342 ] ], [ [ -119.980850999603931, 39.254188837877805 ], [ -119.98100490149649, 39.254298530260328 ], [ -119.981007991478634, 39.254226542846567 ], [ -119.980850999603931, 39.254188837877805 ] ], [ [ -119.980699344159973, 39.254398703205794 ], [ -119.980804164808291, 39.254413134106969 ], [ -119.980792708191359, 39.254383108953817 ], [ -119.98100490149649, 39.254298530260328 ], [ -119.980699344159973, 39.254398703205794 ] ], [ [ -119.980589013062769, 39.254269721931841 ], [ -119.980233817472978, 39.254097292307272 ], [ -119.980699344159973, 39.254398703205794 ], [ -119.980589013062769, 39.254269721931841 ] ], [ [ -119.980620814494429, 39.254987520846562 ], [ -119.980599227216914, 39.254975100000578 ], [ -119.980552699983122, 39.255115573641191 ], [ -119.980620814494429, 39.254987520846562 ] ], [ [ -119.980779574681947, 39.254689055385789 ], [ -119.980756459265692, 39.254672906754656 ], [ -119.980714753634487, 39.254810917803418 ], [ -119.980855198938926, 39.254546882505828 ], [ -119.980836972443115, 39.254499115222529 ], [ -119.980779574681947, 39.254689055385789 ] ], [ [ -119.980217102584447, 39.25429610416294 ], [ -119.980072926678346, 39.254261476187736 ], [ -119.980258009432916, 39.254324682518003 ], [ -119.980217102584447, 39.25429610416294 ] ], [ [ -119.980592876066382, 39.254179737698536 ], [ -119.980824354038248, 39.254185744238214 ], [ -119.980528063999017, 39.254147169724334 ], [ -119.980592876066382, 39.254179737698536 ] ], [ [ -119.980839785905474, 39.254186144657865 ], [ -119.980503375381829, 39.254105347572271 ], [ -119.980824354038248, 39.254185744238214 ], [ -119.980839785905474, 39.254186144657865 ] ], [ [ -119.980673088017255, 39.254827883311172 ], [ -119.980637222267717, 39.254956674750758 ], [ -119.980696787870698, 39.254844693033284 ], [ -119.980673088017255, 39.254827883311172 ] ], [ [ -119.980426255033279, 39.254875575304546 ], [ -119.98005595030402, 39.254662507684657 ], [ -119.980128341000466, 39.25474422283866 ], [ -119.980426255033279, 39.254875575304546 ] ] ] } }
]
}
