{
"type": "FeatureCollection",
"name": "X02705",
"crs": { "type": "name", "properties": { "name": "urn:ogc:def:crs:OGC:1.3:CRS84" } },
"features": [
{ "type": "Feature", "properties": { "part": "direct", "crossing_id": "X02705", "area_ac": 0.2 }, "geometry": { "type": "Polygon", "coordinates": [ [ [ -119.969451482298894, 39.24868321446511 ], [ -119.969398213008844, 39.248843978910152 ], [ -119.96916520429744, 39.248873943689219 ], [ -119.968711475268591, 39.249186428105034 ], [ -119.968525532562339, 39.249199600822585 ], [ -119.969074171877708, 39.248835538787347 ], [ -119.969451482298894, 39.24868321446511 ] ] ] } }
]
}
