{
"type": "FeatureCollection",
"name": "X02765",
"crs": { "type": "name", "properties": { "name": "urn:ogc:def:crs:OGC:1.3:CRS84" } },
"features": [
{ "type": "Feature", "properties": { "part": "direct", "crossing_id": "X02765", "area_ac": 4.1 }, "geometry": { "type": "Polygon", "coordinates": [ [ [ -119.983900681011022, 39.256481606137136 ], [ -119.98482971273144, 39.256433616772057 ], [ -119.984827397995161, 39.25648760750228 ], [ -119.984450074699296, 39.256639981212246 ], [ -119.984183862947049, 39.256903335054979 ], [ -119.984030306206961, 39.257241675991558 ], [ -119.984208551379496, 39.257408448180172 ], [ -119.984154535730198, 39.257587217129768 ], [ -119.983867485612876, 39.257795979335761 ], [ -119.983812696864675, 39.257992744959864 ], [ -119.983693091732675, 39.258079728907191 ], [ -119.983512530367378, 39.257966946577334 ], [ -119.983052636769315, 39.257882955258687 ], [ -119.982579633805727, 39.257564402539131 ], [ -119.982683811936539, 39.257296850732004 ], [ -119.983521812096413, 39.256669970538518 ], [ -119.983900681011022, 39.256481606137136 ] ] ] } }
]
}
