{
"type": "FeatureCollection",
"name": "X02776",
"crs": { "type": "name", "properties": { "name": "urn:ogc:def:crs:OGC:1.3:CRS84" } },
"features": [
{ "type": "Feature", "properties": { "part": "direct", "crossing_id": "X02776", "area_ac": 1.6 }, "geometry": { "type": "Polygon", "coordinates": [ [ [ -119.976423963423997, 39.254125531775884 ], [ -119.976202480992725, 39.25442606319897 ], [ -119.976202416794862, 39.254966567922978 ], [ -119.975944694054959, 39.255031937557924 ], [ -119.975758668504113, 39.25558562582281 ], [ -119.975696189042097, 39.255421849983513 ], [ -119.975273403083733, 39.25501448888874 ], [ -119.975257220991267, 39.254851916339838 ], [ -119.976167017723654, 39.254172905264966 ], [ -119.976423963423997, 39.254125531775884 ] ] ] } }
]
}
