{
"type": "FeatureCollection",
"name": "X02747",
"crs": { "type": "name", "properties": { "name": "urn:ogc:def:crs:OGC:1.3:CRS84" } },
"features": [
{ "type": "Feature", "properties": { "part": "direct", "crossing_id": "X02747", "area_ac": 0.8, "n_upstream": null }, "geometry": { "type": "Polygon", "coordinates": [ [ [ -119.97083113383151, 39.247854328652551 ], [ -119.970964582665729, 39.247983920730718 ], [ -119.970885072162645, 39.248216070330805 ], [ -119.970697582287883, 39.248265240043629 ], [ -119.970432904861568, 39.248492568562312 ], [ -119.970210641750555, 39.248811085207556 ], [ -119.97011883365829, 39.248790677794041 ], [ -119.970123484413918, 39.248682697657244 ], [ -119.96995836342748, 39.248750465479105 ], [ -119.970043303639955, 39.248392339851286 ], [ -119.970307206807846, 39.248183008944892 ], [ -119.97053943786787, 39.24817103846398 ], [ -119.970737776871587, 39.247869915172785 ], [ -119.97083113383151, 39.247854328652551 ] ] ] } },
{ "type": "Feature", "properties": { "part": "upstream", "crossing_id": "X02747", "area_ac": 0.4, "n_upstream": 3.0 }, "geometry": { "type": "MultiPolygon", "coordinates": [ [ [ [ -119.970120383912956, 39.248754684415395 ], [ -119.970027800774233, 39.248752273622209 ], [ -119.970077192890386, 39.248681492272915 ], [ -119.970120383912956, 39.248754684415395 ] ] ], [ [ [ -119.969799333231663, 39.249214762840218 ], [ -119.969966005829662, 39.249111001926181 ], [ -119.969611064730657, 39.249281927340611 ], [ -119.96963731173571, 39.249210543416169 ], [ -119.969753041372201, 39.249213557313453 ], [ -119.969780838652738, 39.249106179984494 ], [ -119.969574851457295, 39.249046764910922 ], [ -119.969558683079285, 39.248884191993454 ], [ -119.969701434174596, 39.24879782531459 ], [ -119.970094137591545, 39.24882606847946 ], [ -119.969817938344676, 39.248782842437585 ], [ -119.970120383912956, 39.248754684415395 ], [ -119.970105656381662, 39.249096621501486 ], [ -119.969799333231663, 39.249214762840218 ] ], [ [ -119.969925140328243, 39.24898381967197 ], [ -119.970091812182503, 39.248880058545382 ], [ -119.970094137591545, 39.24882606847946 ], [ -119.969925140328243, 39.24898381967197 ] ] ] ] } }
]
}
