{
"type": "FeatureCollection",
"name": "X02758",
"crs": { "type": "name", "properties": { "name": "urn:ogc:def:crs:OGC:1.3:CRS84" } },
"features": [
{ "type": "Feature", "properties": { "part": "direct", "crossing_id": "X02758", "area_ac": 0.0 }, "geometry": { "type": "MultiPolygon", "coordinates": [ [ [ [ -119.978374603905607, 39.253491562045916 ], [ -119.97839697828438, 39.253510159965145 ], [ -119.978373830758102, 39.253509558857992 ], [ -119.978374603905607, 39.253491562045916 ] ] ], [ [ [ -119.978373830758102, 39.253509558857992 ], [ -119.978348363768134, 39.253562948180949 ], [ -119.978350683232492, 39.253508957746241 ], [ -119.978373830758102, 39.253509558857992 ] ] ] ] } }
]
}
