{
"type": "FeatureCollection",
"name": "X02751",
"crs": { "type": "name", "properties": { "name": "urn:ogc:def:crs:OGC:1.3:CRS84" } },
"features": [
{ "type": "Feature", "properties": { "part": "direct", "crossing_id": "X02751", "area_ac": 6.2 }, "geometry": { "type": "Polygon", "coordinates": [ [ [ -119.974046804020006, 39.253361077605177 ], [ -119.974553724284846, 39.253428310026585 ], [ -119.974664042715503, 39.253557296560551 ], [ -119.974285941453616, 39.253727633851661 ], [ -119.974110746716136, 39.254029364848073 ], [ -119.973393085676634, 39.254551205689857 ], [ -119.973315123209701, 39.25474736329997 ], [ -119.973196286070731, 39.254816339477259 ], [ -119.973531887460211, 39.255095322194599 ], [ -119.973612863077506, 39.255367681440063 ], [ -119.97316995241799, 39.255428227981092 ], [ -119.973140608055516, 39.255571599561577 ], [ -119.972973923913472, 39.255675364512236 ], [ -119.972412265078134, 39.255264380272102 ], [ -119.972137588581887, 39.255185165328989 ], [ -119.97193778033153, 39.2549817801101 ], [ -119.972035020674312, 39.254876209490185 ], [ -119.972551245371761, 39.254727490487063 ], [ -119.972488092020683, 39.254041206296861 ], [ -119.972356178878698, 39.253875622103664 ], [ -119.972195695746663, 39.253835412403824 ], [ -119.972176421947822, 39.253744826519842 ], [ -119.973244304196541, 39.253700542589598 ], [ -119.973573789625974, 39.253582994856828 ], [ -119.973600808920224, 39.25349361325631 ], [ -119.973714997344317, 39.253532616957472 ], [ -119.974046804020006, 39.253361077605177 ] ] ] } }
]
}
