{
"type": "FeatureCollection",
"name": "X02798",
"crs": { "type": "name", "properties": { "name": "urn:ogc:def:crs:OGC:1.3:CRS84" } },
"features": [
{ "type": "Feature", "properties": { "part": "direct", "crossing_id": "X02798", "area_ac": 8.7 }, "geometry": { "type": "Polygon", "coordinates": [ [ [ -119.977917936209067, 39.260344133585555 ], [ -119.979309199344783, 39.260866717306598 ], [ -119.980092434009123, 39.260977133324275 ], [ -119.980378735510769, 39.260786378301511 ], [ -119.980442002836611, 39.260932155281139 ], [ -119.980342447148914, 39.261091723467253 ], [ -119.980201228124059, 39.261142108953138 ], [ -119.980242890991235, 39.261251291546714 ], [ -119.980442740857725, 39.261454663933257 ], [ -119.981063159971981, 39.261578864832842 ], [ -119.981127974687951, 39.261688647841069 ], [ -119.980840093531242, 39.26245590378786 ], [ -119.980286027038176, 39.262405491237722 ], [ -119.979123909534181, 39.261942919147906 ], [ -119.978616149396117, 39.2618937009658 ], [ -119.978366909918165, 39.261761110336373 ], [ -119.97814314187913, 39.261575130118672 ], [ -119.977874676296636, 39.2608114486289 ], [ -119.97758842482196, 39.260461692559751 ], [ -119.977731964620986, 39.260357319921873 ], [ -119.977917936209067, 39.260344133585555 ] ] ] } }
]
}
