{
"type": "FeatureCollection",
"name": "X02771",
"crs": { "type": "name", "properties": { "name": "urn:ogc:def:crs:OGC:1.3:CRS84" } },
"features": [
{ "type": "Feature", "properties": { "part": "direct", "crossing_id": "X02771", "area_ac": 1.3, "n_upstream": null }, "geometry": { "type": "Polygon", "coordinates": [ [ [ -119.9764733533992, 39.254054747661883 ], [ -119.977173914919689, 39.254469321149884 ], [ -119.977004144967935, 39.254645079377198 ], [ -119.976912327045852, 39.254624676971595 ], [ -119.976435443782094, 39.254936589738598 ], [ -119.976384505696998, 39.255043367350147 ], [ -119.976267992038487, 39.255058356443108 ], [ -119.976130651636879, 39.255018753534074 ], [ -119.976202416794862, 39.254966567922978 ], [ -119.976202480992725, 39.25442606319897 ], [ -119.97628043511132, 39.254229903315434 ], [ -119.976469485147149, 39.254144731554796 ], [ -119.976308998691138, 39.254104527418477 ], [ -119.9764733533992, 39.254054747661883 ] ] ] } },
{ "type": "Feature", "properties": { "part": "upstream", "crossing_id": "X02771", "area_ac": 1.6, "n_upstream": 1.0 }, "geometry": { "type": "Polygon", "coordinates": [ [ [ -119.976423963423997, 39.254125531775884 ], [ -119.976202480992725, 39.25442606319897 ], [ -119.976202416794862, 39.254966567922978 ], [ -119.975944694054959, 39.255031937557924 ], [ -119.975758668504113, 39.25558562582281 ], [ -119.975696189042097, 39.255421849983513 ], [ -119.975273403083733, 39.25501448888874 ], [ -119.975257220991267, 39.254851916339838 ], [ -119.976167017723654, 39.254172905264966 ], [ -119.976423963423997, 39.254125531775884 ] ] ] } }
]
}
