{
"type": "FeatureCollection",
"name": "X02729",
"crs": { "type": "name", "properties": { "name": "urn:ogc:def:crs:OGC:1.3:CRS84" } },
"features": [
{ "type": "Feature", "properties": { "part": "direct", "crossing_id": "X02729", "area_ac": 0.5 }, "geometry": { "type": "Polygon", "coordinates": [ [ [ -119.980528990663927, 39.251349426818969 ], [ -119.980684066219069, 39.251515602993877 ], [ -119.980687127994031, 39.251984121874742 ], [ -119.980611506495265, 39.252126294793477 ], [ -119.980700232396956, 39.252218681619411 ], [ -119.980556714171115, 39.252323058866025 ], [ -119.98059914580169, 39.2524142444407 ], [ -119.980484182321504, 39.252393244266685 ], [ -119.980570620089068, 39.251999115519268 ], [ -119.980332999537225, 39.251596577357049 ], [ -119.980366962648318, 39.251345222131171 ], [ -119.980528990663927, 39.251349426818969 ] ] ] } }
]
}
