{
"type": "FeatureCollection",
"name": "X02744",
"crs": { "type": "name", "properties": { "name": "urn:ogc:def:crs:OGC:1.3:CRS84" } },
"features": [
{ "type": "Feature", "properties": { "part": "direct", "crossing_id": "X02744", "area_ac": 0.4 }, "geometry": { "type": "Polygon", "coordinates": [ [ [ -119.977244905295592, 39.254435131628995 ], [ -119.977166180075145, 39.25464928903768 ], [ -119.976781889571441, 39.254963608696315 ], [ -119.976474776625423, 39.255099763737839 ], [ -119.97629036630579, 39.25507695476113 ], [ -119.977244905295592, 39.254435131628995 ] ] ] } }
]
}
