{
"type": "FeatureCollection",
"name": "X02743",
"crs": { "type": "name", "properties": { "name": "urn:ogc:def:crs:OGC:1.3:CRS84" } },
"features": [
{ "type": "Feature", "properties": { "part": "direct", "crossing_id": "X02743", "area_ac": 0.3 }, "geometry": { "type": "Polygon", "coordinates": [ [ [ -119.971331516101728, 39.249687058352343 ], [ -119.971319118528584, 39.249975005650604 ], [ -119.970995846551915, 39.249948573969796 ], [ -119.970662499587391, 39.25015609842859 ], [ -119.970951878998335, 39.249893378800998 ], [ -119.971006695584734, 39.249696620159064 ], [ -119.971331516101728, 39.249687058352343 ] ] ] } }
]
}
