{
"type": "FeatureCollection",
"name": "X02871",
"crs": { "type": "name", "properties": { "name": "urn:ogc:def:crs:OGC:1.3:CRS84" } },
"features": [
{ "type": "Feature", "properties": { "part": "direct", "crossing_id": "X02871", "area_ac": 0.3 }, "geometry": { "type": "Polygon", "coordinates": [ [ [ -119.970343560150951, 39.26293976242367 ], [ -119.970386759262112, 39.263012954665562 ], [ -119.970163670250329, 39.263349465381559 ], [ -119.970156690560373, 39.263511435183183 ], [ -119.970083360926736, 39.263599609766473 ], [ -119.969873453754346, 39.263630176884682 ], [ -119.969881209718991, 39.263450210488948 ], [ -119.970074945609852, 39.263257070659435 ], [ -119.970105075926043, 39.263095703740547 ], [ -119.970343560150951, 39.26293976242367 ] ] ] } }
]
}
