{
"type": "FeatureCollection",
"name": "X02858",
"crs": { "type": "name", "properties": { "name": "urn:ogc:def:crs:OGC:1.3:CRS84" } },
"features": [
{ "type": "Feature", "properties": { "part": "direct", "crossing_id": "X02858", "area_ac": 0.4, "n_upstream": null }, "geometry": { "type": "Polygon", "coordinates": [ [ [ -119.954799316141404, 39.267056171833971 ], [ -119.954964494515337, 39.266988427984195 ], [ -119.955303972240927, 39.267177480344564 ], [ -119.955322447246388, 39.267286064522281 ], [ -119.955226723212846, 39.267355626547278 ], [ -119.954649493040108, 39.267304485174201 ], [ -119.954781621538473, 39.266929591226635 ], [ -119.954799316141404, 39.267056171833971 ] ] ] } },
{ "type": "Feature", "properties": { "part": "upstream", "crossing_id": "X02858", "area_ac": 5.2, "n_upstream": 4.0 }, "geometry": { "type": "MultiPolygon", "coordinates": [ [ [ [ -119.957103996030071, 39.266287699563684 ], [ -119.957198158954512, 39.266254128691074 ], [ -119.9570977644957, 39.266431670903259 ], [ -119.957211184354037, 39.266488687621752 ], [ -119.957338409106839, 39.266762266741281 ], [ -119.956856598170589, 39.267070134165685 ], [ -119.956861358277322, 39.267074092031777 ], [ -119.95685083485661, 39.267073816777199 ], [ -119.956768679066656, 39.267126312168394 ], [ -119.95631095253357, 39.267474080194802 ], [ -119.956194415109664, 39.267489048168251 ], [ -119.956037029055452, 39.267376829799389 ], [ -119.955665044746851, 39.267403130363085 ], [ -119.955323226668341, 39.267268068137462 ], [ -119.955372647416425, 39.267197294319793 ], [ -119.955324785510143, 39.267232075367581 ], [ -119.955061151754833, 39.267027478223902 ], [ -119.955077913376797, 39.267045446746614 ], [ -119.954895040148031, 39.266986610158419 ], [ -119.954799316141404, 39.267056171833971 ], [ -119.954857312084059, 39.266787438091633 ], [ -119.954932084896242, 39.266766428689493 ], [ -119.955340604398728, 39.266331650181549 ], [ -119.955792946627852, 39.266055218201984 ], [ -119.956014328565473, 39.266295228754643 ], [ -119.957014506791154, 39.266213291858818 ], [ -119.957103996030071, 39.266287699563684 ] ], [ [ -119.954944535416942, 39.266827011550561 ], [ -119.954922868694993, 39.266879237829961 ], [ -119.954978684697295, 39.266939073060911 ], [ -119.954944535416942, 39.266827011550561 ] ], [ [ -119.956122935492786, 39.266903944465696 ], [ -119.956314292625351, 39.266861596865951 ], [ -119.956176163164841, 39.266839966392403 ], [ -119.956122935492786, 39.266903944465696 ] ], [ [ -119.955659038534179, 39.267006603967573 ], [ -119.955731844666957, 39.266990492255182 ], [ -119.955382000250225, 39.266981337683774 ], [ -119.955659038534179, 39.267006603967573 ] ], [ [ -119.955857498058833, 39.26670551148348 ], [ -119.955859835863819, 39.266651522296442 ], [ -119.955828340931703, 39.266672318373097 ], [ -119.955756504680323, 39.266758662870686 ], [ -119.955857498058833, 39.26670551148348 ] ], [ [ -119.955728606858045, 39.266738172554298 ], [ -119.955597377530964, 39.266824822650399 ], [ -119.955596598191406, 39.266842819041223 ], [ -119.955728606858045, 39.266738172554298 ] ] ], [ [ [ -119.955077133898271, 39.267063443128045 ], [ -119.955077913376797, 39.267045446746614 ], [ -119.955100285382557, 39.267064049039355 ], [ -119.955077133898271, 39.267063443128045 ] ] ] ] } }
]
}
