{
"type": "FeatureCollection",
"name": "X02836",
"crs": { "type": "name", "properties": { "name": "urn:ogc:def:crs:OGC:1.3:CRS84" } },
"features": [
{ "type": "Feature", "properties": { "part": "direct", "crossing_id": "X02836", "area_ac": 0.5 }, "geometry": { "type": "Polygon", "coordinates": [ [ [ -119.967025952209895, 39.251196428217931 ], [ -119.967371598329891, 39.251241471002402 ], [ -119.967360735692409, 39.251493423897813 ], [ -119.967132373315494, 39.251415404417905 ], [ -119.966542066868683, 39.251670269377605 ], [ -119.965987323304631, 39.251637788943185 ], [ -119.966359998218479, 39.25159345525951 ], [ -119.967025952209895, 39.251196428217931 ] ] ] } }
]
}
