{
"type": "FeatureCollection",
"name": "X02845",
"crs": { "type": "name", "properties": { "name": "urn:ogc:def:crs:OGC:1.3:CRS84" } },
"features": [
{ "type": "Feature", "properties": { "part": "direct", "crossing_id": "X02845", "area_ac": 0.1 }, "geometry": { "type": "Polygon", "coordinates": [ [ [ -119.965172787097956, 39.261922178647147 ], [ -119.965168903315075, 39.262012161476854 ], [ -119.964867952863543, 39.262004311133609 ], [ -119.964870283365585, 39.261950321450989 ], [ -119.965172787097956, 39.261922178647147 ] ] ] } }
]
}
