{
"type": "FeatureCollection",
"name": "X02870",
"crs": { "type": "name", "properties": { "name": "urn:ogc:def:crs:OGC:1.3:CRS84" } },
"features": [
{ "type": "Feature", "properties": { "part": "direct", "crossing_id": "X02870", "area_ac": 0.5 }, "geometry": { "type": "Polygon", "coordinates": [ [ [ -119.969504714476969, 39.263044034160515 ], [ -119.969545585740974, 39.263171216587267 ], [ -119.969660562679891, 39.263192228104295 ], [ -119.969603402408083, 39.263442975066347 ], [ -119.969685145802799, 39.263697339856449 ], [ -119.969612591058265, 39.263767517474847 ], [ -119.969144269346387, 39.263340931419471 ], [ -119.969148148229863, 39.263250948278738 ], [ -119.969504714476969, 39.263044034160515 ] ] ] } }
]
}
