{
"type": "FeatureCollection",
"name": "X02893",
"crs": { "type": "name", "properties": { "name": "urn:ogc:def:crs:OGC:1.3:CRS84" } },
"features": [
{ "type": "Feature", "properties": { "part": "direct", "crossing_id": "X02893", "area_ac": 0.4 }, "geometry": { "type": "Polygon", "coordinates": [ [ [ -119.966055885184034, 39.260792132680393 ], [ -119.966393813155904, 39.261017146001635 ], [ -119.966224000380933, 39.261192886646263 ], [ -119.965989396386178, 39.261258836519481 ], [ -119.965812740217913, 39.261056044642729 ], [ -119.965818952733855, 39.26091207200475 ], [ -119.966055885184034, 39.260792132680393 ] ] ] } }
]
}
