{
"type": "FeatureCollection",
"name": "X02885",
"crs": { "type": "name", "properties": { "name": "urn:ogc:def:crs:OGC:1.3:CRS84" } },
"features": [
{ "type": "Feature", "properties": { "part": "direct", "crossing_id": "X02885", "area_ac": 1.0 }, "geometry": { "type": "MultiPolygon", "coordinates": [ [ [ [ -119.958262183313195, 39.264696473517617 ], [ -119.95828455549416, 39.264715075207747 ], [ -119.958261404714094, 39.264714469959586 ], [ -119.958262183313195, 39.264696473517617 ] ] ], [ [ [ -119.957751730714932, 39.263638152976185 ], [ -119.957816509855874, 39.263747947595697 ], [ -119.957977005746486, 39.263788177648884 ], [ -119.957922918191983, 39.263966931439057 ], [ -119.958128937119014, 39.264026368352269 ], [ -119.958121929562367, 39.264188336326384 ], [ -119.958282426644885, 39.26422856600157 ], [ -119.958262183313195, 39.264696473517617 ], [ -119.95774918384565, 39.264232640700421 ], [ -119.957518456554652, 39.264208590578676 ], [ -119.957553288616722, 39.263939249488111 ], [ -119.957449996606314, 39.263648279626111 ], [ -119.957751730714932, 39.263638152976185 ] ] ] ] } }
]
}
