{
"type": "FeatureCollection",
"name": "X02848",
"crs": { "type": "name", "properties": { "name": "urn:ogc:def:crs:OGC:1.3:CRS84" } },
"features": [
{ "type": "Feature", "properties": { "part": "direct", "crossing_id": "X02848", "area_ac": 16.0 }, "geometry": { "type": "Polygon", "coordinates": [ [ [ -119.957557168592047, 39.26974075747485 ], [ -119.957739272469027, 39.269817586637082 ], [ -119.958134989646382, 39.270314386879413 ], [ -119.957988000162899, 39.273175211778501 ], [ -119.957680555983302, 39.273851809888484 ], [ -119.957617109984994, 39.27424651976655 ], [ -119.957733225878854, 39.275312545897165 ], [ -119.957933045443198, 39.275515955570221 ], [ -119.957947630985203, 39.275714521455477 ], [ -119.957745473756674, 39.275565100989226 ], [ -119.957598974725087, 39.275200934477382 ], [ -119.957061974362873, 39.274754487396493 ], [ -119.95675885757889, 39.274260105868287 ], [ -119.956731251841688, 39.273826981220395 ], [ -119.956906574406418, 39.273525282153962 ], [ -119.956875515511939, 39.272101144524555 ], [ -119.956418911109935, 39.271404562690975 ], [ -119.956314056341114, 39.271149584675385 ], [ -119.956271872622537, 39.270517893862085 ], [ -119.955951860094927, 39.269878934025272 ], [ -119.955957315410075, 39.269752959312392 ], [ -119.956046807742752, 39.26982736792489 ], [ -119.957182055896922, 39.269839048057932 ], [ -119.957557168592047, 39.26974075747485 ] ] ] } }
]
}
