{
"type": "FeatureCollection",
"name": "X02891",
"crs": { "type": "name", "properties": { "name": "urn:ogc:def:crs:OGC:1.3:CRS84" } },
"features": [
{ "type": "Feature", "properties": { "part": "direct", "crossing_id": "X02891", "area_ac": 0.1 }, "geometry": { "type": "Polygon", "coordinates": [ [ [ -119.971969215387332, 39.264477480444498 ], [ -119.971911286831087, 39.264746225444284 ], [ -119.971769279758405, 39.264814596807014 ], [ -119.971800957380026, 39.264617236024044 ], [ -119.971969215387332, 39.264477480444498 ] ] ] } }
]
}
