{
"type": "FeatureCollection",
"name": "X02897",
"crs": { "type": "name", "properties": { "name": "urn:ogc:def:crs:OGC:1.3:CRS84" } },
"features": [
{ "type": "Feature", "properties": { "part": "direct", "crossing_id": "X02897", "area_ac": 0.2 }, "geometry": { "type": "Polygon", "coordinates": [ [ [ -119.969781744580104, 39.26306926639689 ], [ -119.969838786508873, 39.263359021434532 ], [ -119.96966509773047, 39.263624750345201 ], [ -119.969606505057854, 39.263370988524557 ], [ -119.969686815744055, 39.263120844516635 ], [ -119.969781744580104, 39.26306926639689 ] ] ] } }
]
}
