{
"type": "FeatureCollection",
"name": "X02846",
"crs": { "type": "name", "properties": { "name": "urn:ogc:def:crs:OGC:1.3:CRS84" } },
"features": [
{ "type": "Feature", "properties": { "part": "direct", "crossing_id": "X02846", "area_ac": 0.2 }, "geometry": { "type": "Polygon", "coordinates": [ [ [ -119.971429685545218, 39.268931613092505 ], [ -119.971591752712314, 39.268935831785036 ], [ -119.97184022780111, 39.269086433947109 ], [ -119.972006171407969, 39.26900066879228 ], [ -119.97197836765983, 39.269108046162593 ], [ -119.971881881396072, 39.269195619085572 ], [ -119.971696661045684, 39.269190798139221 ], [ -119.971402656316741, 39.269020993644709 ], [ -119.971429685545218, 39.268931613092505 ] ] ] } }
]
}
