{
"type": "FeatureCollection",
"name": "X02862",
"crs": { "type": "name", "properties": { "name": "urn:ogc:def:crs:OGC:1.3:CRS84" } },
"features": [
{ "type": "Feature", "properties": { "part": "direct", "crossing_id": "X02862", "area_ac": 2.3 }, "geometry": { "type": "Polygon", "coordinates": [ [ [ -119.957995538949035, 39.261752763706731 ], [ -119.958905763281237, 39.262677398762236 ], [ -119.958214167472676, 39.263127756660786 ], [ -119.958162416887802, 39.263252521288074 ], [ -119.957814383843484, 39.263261438439514 ], [ -119.957861672497131, 39.262704154104547 ], [ -119.95773466196917, 39.261890077047482 ], [ -119.957995538949035, 39.261752763706731 ] ] ] } }
]
}
