{
"type": "FeatureCollection",
"name": "X02883",
"crs": { "type": "name", "properties": { "name": "urn:ogc:def:crs:OGC:1.3:CRS84" } },
"features": [
{ "type": "Feature", "properties": { "part": "direct", "crossing_id": "X02883", "area_ac": 0.4 }, "geometry": { "type": "Polygon", "coordinates": [ [ [ -119.954203435108226, 39.269040435863261 ], [ -119.954480480859004, 39.269065705249758 ], [ -119.954499734575137, 39.269156293132411 ], [ -119.95481450961195, 39.269380733898288 ], [ -119.954809052322872, 39.269506708485309 ], [ -119.954552038218793, 39.269554031321448 ], [ -119.954400108538351, 39.26931583614504 ], [ -119.954056724466625, 39.269216762684188 ], [ -119.954203435108226, 39.269040435863261 ] ] ] } }
]
}
