{
"type": "FeatureCollection",
"name": "X02860",
"crs": { "type": "name", "properties": { "name": "urn:ogc:def:crs:OGC:1.3:CRS84" } },
"features": [
{ "type": "Feature", "properties": { "part": "direct", "crossing_id": "X02860", "area_ac": 2.1 }, "geometry": { "type": "Polygon", "coordinates": [ [ [ -119.957425075371702, 39.264224165404833 ], [ -119.95774918384565, 39.264232640700421 ], [ -119.958574616394813, 39.264974893271798 ], [ -119.958584532315442, 39.265281438046372 ], [ -119.958293484329786, 39.26558011488072 ], [ -119.957822886759217, 39.265207474860972 ], [ -119.957827559098106, 39.265099496261172 ], [ -119.957604616701516, 39.264895481884764 ], [ -119.957306771425124, 39.264815625811082 ], [ -119.957463588659692, 39.264405340515594 ], [ -119.957425075371702, 39.264224165404833 ] ] ] } }
]
}
