{
"type": "FeatureCollection",
"name": "X02823",
"crs": { "type": "name", "properties": { "name": "urn:ogc:def:crs:OGC:1.3:CRS84" } },
"features": [
{ "type": "Feature", "properties": { "part": "direct", "crossing_id": "X02823", "area_ac": 22.8, "n_upstream": null }, "geometry": { "type": "Polygon", "coordinates": [ [ [ -119.971466769730782, 39.256771207564718 ], [ -119.971529240186214, 39.256934985306373 ], [ -119.971472868068247, 39.257167737192418 ], [ -119.971252129722444, 39.25745026116703 ], [ -119.972221953601277, 39.258070058645195 ], [ -119.972024265803284, 39.258893689600356 ], [ -119.971976894963603, 39.26053199055422 ], [ -119.971077826684308, 39.260959010070174 ], [ -119.971025325183376, 39.261101778083919 ], [ -119.971017572791993, 39.261281744743009 ], [ -119.971756045566224, 39.261355017887553 ], [ -119.971799918827543, 39.261950715804268 ], [ -119.971671766492747, 39.262235649913073 ], [ -119.971510281294556, 39.263294440595757 ], [ -119.971622933712766, 39.263369440208002 ], [ -119.971709335218819, 39.263515823843001 ], [ -119.970116823655573, 39.26228525179728 ], [ -119.969778101643683, 39.262078245278602 ], [ -119.969295826957861, 39.26197559961966 ], [ -119.969393081484441, 39.261870031851529 ], [ -119.969353346707919, 39.260103346253004 ], [ -119.969769262312269, 39.260132195914238 ], [ -119.970030886228415, 39.25997685770681 ], [ -119.970085715054381, 39.259780100200615 ], [ -119.969977722665334, 39.259597119428108 ], [ -119.970169120768659, 39.259457968874131 ], [ -119.970199248677645, 39.259296601768064 ], [ -119.970487894275649, 39.2590518818497 ], [ -119.970613718855887, 39.258820938871949 ], [ -119.971022757180776, 39.258471250967993 ], [ -119.97111158262004, 39.258023141939795 ], [ -119.970776753264587, 39.257726155514028 ], [ -119.970758255774982, 39.257617572804243 ], [ -119.970878650410441, 39.257512606076077 ], [ -119.970991398824737, 39.257047103029215 ], [ -119.971466769730782, 39.256771207564718 ] ] ] } },
{ "type": "Feature", "properties": { "part": "upstream", "crossing_id": "X02823", "area_ac": 14.5, "n_upstream": 4.0 }, "geometry": { "type": "Polygon", "coordinates": [ [ [ -119.969679514798443, 39.263143584884617 ], [ -119.969614261633637, 39.263191022165337 ], [ -119.969483115372114, 39.263007437895126 ], [ -119.969588903316605, 39.262703907024438 ], [ -119.969585919699981, 39.262235391464834 ], [ -119.969777326061845, 39.262096241921029 ], [ -119.971709335218819, 39.263515823843001 ], [ -119.971701815066012, 39.263548817034533 ], [ -119.971731710771579, 39.263534423072976 ], [ -119.97186441415316, 39.263682011715552 ], [ -119.971876713609177, 39.263934567656285 ], [ -119.971706131364513, 39.264128313161713 ], [ -119.971764732144266, 39.264382074216115 ], [ -119.971646651848559, 39.264433051348981 ], [ -119.971645901279359, 39.264415429150262 ], [ -119.971249209027548, 39.264512790022685 ], [ -119.97098757008969, 39.264668130313531 ], [ -119.970981367318316, 39.264812103547982 ], [ -119.970837808500448, 39.264916467036429 ], [ -119.970925760767543, 39.265026857927047 ], [ -119.97073434819913, 39.265166009078435 ], [ -119.970830719156254, 39.265618939151196 ], [ -119.971320666744305, 39.266082115245872 ], [ -119.971312913735133, 39.266262081799979 ], [ -119.971173228992512, 39.26627646231649 ], [ -119.970971068009533, 39.266127064602308 ], [ -119.970741103763046, 39.266085043662279 ], [ -119.970431717764271, 39.265734668007859 ], [ -119.970108374155345, 39.265708231104277 ], [ -119.969906217113646, 39.265558831678057 ], [ -119.969536572019308, 39.265531187321884 ], [ -119.969403870457484, 39.265383596117189 ], [ -119.96938847692681, 39.265203026811648 ], [ -119.969167050851127, 39.264963040037905 ], [ -119.969068363843945, 39.264564098864874 ], [ -119.969104703742843, 39.26425875935665 ], [ -119.969231318978061, 39.264009821968102 ], [ -119.969659668141958, 39.263750726793923 ], [ -119.969838786508873, 39.263359021434532 ], [ -119.96966509773047, 39.263624750345201 ], [ -119.969606505057854, 39.263370988524557 ], [ -119.969679514798443, 39.263143584884617 ] ], [ [ -119.970329322316232, 39.262949072368023 ], [ -119.970320409695887, 39.262939159595483 ], [ -119.970105075926043, 39.263095703740547 ], [ -119.970329322316232, 39.262949072368023 ] ], [ [ -119.971677329392961, 39.263656242859668 ], [ -119.971623605001042, 39.263891946171476 ], [ -119.971698483368556, 39.263767777218717 ], [ -119.971677329392961, 39.263656242859668 ] ] ] } }
]
}
