{
"type": "FeatureCollection",
"name": "X02896",
"crs": { "type": "name", "properties": { "name": "urn:ogc:def:crs:OGC:1.3:CRS84" } },
"features": [
{ "type": "Feature", "properties": { "part": "direct", "crossing_id": "X02896", "area_ac": 4.6 }, "geometry": { "type": "Polygon", "coordinates": [ [ [ -119.959487248640983, 39.259413536744134 ], [ -119.959975521674806, 39.259912749420181 ], [ -119.959726133147512, 39.260320619768464 ], [ -119.960099444156626, 39.260798811083802 ], [ -119.960346309445967, 39.260985428876822 ], [ -119.960080771450663, 39.261230726699836 ], [ -119.959873980603433, 39.261189289957066 ], [ -119.959569922479446, 39.261253411966464 ], [ -119.959511950351228, 39.261522149164534 ], [ -119.959344454427494, 39.261643889614184 ], [ -119.958758906103412, 39.261250232504779 ], [ -119.958703468133578, 39.260924480874138 ], [ -119.95904721795182, 39.259942541228391 ], [ -119.959389205239759, 39.259537092291751 ], [ -119.959393874233683, 39.259429113429384 ], [ -119.959487248640983, 39.259413536744134 ] ] ] } }
]
}
