{
"type": "FeatureCollection",
"name": "X02828",
"crs": { "type": "name", "properties": { "name": "urn:ogc:def:crs:OGC:1.3:CRS84" } },
"features": [
{ "type": "Feature", "properties": { "part": "direct", "crossing_id": "X02828", "area_ac": 0.1 }, "geometry": { "type": "Polygon", "coordinates": [ [ [ -119.973426129891138, 39.255398858105792 ], [ -119.973493250674181, 39.255454654610681 ], [ -119.973307291710896, 39.25546783435118 ], [ -119.973092762763002, 39.255606388636217 ], [ -119.97316995241799, 39.255428227981092 ], [ -119.973426129891138, 39.255398858105792 ] ] ] } }
]
}
