{
"type": "FeatureCollection",
"name": "X02865",
"crs": { "type": "name", "properties": { "name": "urn:ogc:def:crs:OGC:1.3:CRS84" } },
"features": [
{ "type": "Feature", "properties": { "part": "direct", "crossing_id": "X02865", "area_ac": 2.5 }, "geometry": { "type": "Polygon", "coordinates": [ [ [ -119.961435840523578, 39.258833852922244 ], [ -119.961479027893958, 39.258907048056699 ], [ -119.961776853993015, 39.258986892716564 ], [ -119.961725113157769, 39.259111659373119 ], [ -119.961848456632438, 39.259475216608195 ], [ -119.962844308105943, 39.260564208593088 ], [ -119.96200626092336, 39.260650430415119 ], [ -119.961884470052439, 39.260250880265396 ], [ -119.961286656176085, 39.259604680067866 ], [ -119.961313097045135, 39.258992798743556 ], [ -119.961435840523578, 39.258833852922244 ] ] ] } }
]
}
