{
"type": "FeatureCollection",
"name": "X02890",
"crs": { "type": "name", "properties": { "name": "urn:ogc:def:crs:OGC:1.3:CRS84" } },
"features": [
{ "type": "Feature", "properties": { "part": "direct", "crossing_id": "X02890", "area_ac": 26.2, "n_upstream": null }, "geometry": { "type": "Polygon", "coordinates": [ [ [ -119.969354122343219, 39.260085349611465 ], [ -119.969393081484441, 39.261870031851529 ], [ -119.969295826957861, 39.26197559961966 ], [ -119.969753400307923, 39.262113635632993 ], [ -119.969585919699981, 39.262235391464834 ], [ -119.969504714476969, 39.263044034160515 ], [ -119.969148148229863, 39.263250948278738 ], [ -119.969230665537864, 39.263487316694224 ], [ -119.969412767595301, 39.263564127507699 ], [ -119.969565513952986, 39.263784308135747 ], [ -119.969231318978061, 39.264009821968102 ], [ -119.969153332872807, 39.264205975649467 ], [ -119.969134836849491, 39.2640973928169 ], [ -119.968769855229709, 39.263961766596552 ], [ -119.968614007380495, 39.263813571482416 ], [ -119.968102363847848, 39.263854290218752 ], [ -119.967552180439569, 39.263713833900937 ], [ -119.967351587071235, 39.263528437227215 ], [ -119.966965014282067, 39.263356208962755 ], [ -119.966878623063621, 39.263209822192096 ], [ -119.966693419326489, 39.263204993899997 ], [ -119.966520638723082, 39.262912219954025 ], [ -119.966314614940956, 39.262852797751975 ], [ -119.966093206631868, 39.262612805739813 ], [ -119.965698099089678, 39.26263853588857 ], [ -119.965469703349612, 39.262560511927944 ], [ -119.965228255749324, 39.262247928348451 ], [ -119.965177447614451, 39.261814199249272 ], [ -119.965492377357393, 39.261498110462625 ], [ -119.9663405257878, 39.261177908113403 ], [ -119.96731372943195, 39.260644757069826 ], [ -119.968913506310514, 39.260091888680186 ], [ -119.969354122343219, 39.260085349611465 ] ] ] } },
{ "type": "Feature", "properties": { "part": "upstream", "crossing_id": "X02890", "area_ac": 0.5, "n_upstream": 1.0 }, "geometry": { "type": "Polygon", "coordinates": [ [ [ -119.969504714476969, 39.263044034160515 ], [ -119.969545585740974, 39.263171216587267 ], [ -119.969660562679891, 39.263192228104295 ], [ -119.969603402408083, 39.263442975066347 ], [ -119.969685145802799, 39.263697339856449 ], [ -119.969612591058265, 39.263767517474847 ], [ -119.969144269346387, 39.263340931419471 ], [ -119.969148148229863, 39.263250948278738 ], [ -119.969504714476969, 39.263044034160515 ] ] ] } }
]
}
