{
"type": "FeatureCollection",
"name": "X02859",
"crs": { "type": "name", "properties": { "name": "urn:ogc:def:crs:OGC:1.3:CRS84" } },
"features": [
{ "type": "Feature", "properties": { "part": "direct", "crossing_id": "X02859", "area_ac": 2.2 }, "geometry": { "type": "Polygon", "coordinates": [ [ [ -119.957190238595444, 39.264830594969759 ], [ -119.957604616701516, 39.264895481884764 ], [ -119.957827559098106, 39.265099496261172 ], [ -119.957822886759217, 39.265207474860972 ], [ -119.958270333264949, 39.265579509623272 ], [ -119.958437840774764, 39.265457771232391 ], [ -119.958553595923632, 39.265460797299433 ], [ -119.958706311062485, 39.265680990962245 ], [ -119.959021085424823, 39.265905420370089 ], [ -119.959017193225435, 39.265995402624156 ], [ -119.958709999289169, 39.266131507282815 ], [ -119.957737858966496, 39.265565587433557 ], [ -119.957322697932639, 39.265518697264 ], [ -119.95720382725024, 39.265587655656546 ], [ -119.956949165806279, 39.265580995187854 ], [ -119.956908316513392, 39.265453809216282 ], [ -119.957230309245929, 39.264975777283702 ], [ -119.957190238595444, 39.264830594969759 ] ] ] } }
]
}
