{
"type": "FeatureCollection",
"name": "X02850",
"crs": { "type": "name", "properties": { "name": "urn:ogc:def:crs:OGC:1.3:CRS84" } },
"features": [
{ "type": "Feature", "properties": { "part": "direct", "crossing_id": "X02850", "area_ac": 2.8 }, "geometry": { "type": "MultiPolygon", "coordinates": [ [ [ [ -119.959595941299042, 39.270298525302458 ], [ -119.959618315537952, 39.270317126804194 ], [ -119.959595162885975, 39.270316521749422 ], [ -119.959595941299042, 39.270298525302458 ] ] ], [ [ [ -119.959573567071971, 39.270279923796814 ], [ -119.959595941299042, 39.270298525302458 ], [ -119.959572788653702, 39.270297920243465 ], [ -119.959573567071971, 39.270279923796814 ] ] ], [ [ [ -119.95772079329052, 39.269709002711664 ], [ -119.957743166831776, 39.269727604549097 ], [ -119.957720014414164, 39.269726999129063 ], [ -119.95772079329052, 39.269709002711664 ] ] ], [ [ [ -119.958411110441247, 39.268754145499173 ], [ -119.959012287069626, 39.268787877471887 ], [ -119.959084654473159, 39.269258205555154 ], [ -119.959565204360032, 39.269937386241629 ], [ -119.959573567071971, 39.270279923796814 ], [ -119.959173947045102, 39.269873110265202 ], [ -119.958763431117688, 39.269718245611564 ], [ -119.958068858326413, 39.269700087100588 ], [ -119.957978585096299, 39.269643676387695 ], [ -119.957743945702234, 39.269709608131308 ], [ -119.958096115435097, 39.269070212242809 ], [ -119.958411110441247, 39.268754145499173 ] ] ] ] } }
]
}
