{
"type": "FeatureCollection",
"name": "X02851",
"crs": { "type": "name", "properties": { "name": "urn:ogc:def:crs:OGC:1.3:CRS84" } },
"features": [
{ "type": "Feature", "properties": { "part": "direct", "crossing_id": "X02851", "area_ac": 7.4, "n_upstream": null }, "geometry": { "type": "MultiPolygon", "coordinates": [ [ [ [ -119.962474828889711, 39.269653052682649 ], [ -119.962497203732312, 39.269671653653845 ], [ -119.962474051230856, 39.269671049179713 ], [ -119.962474828889711, 39.269653052682649 ] ] ], [ [ [ -119.962452454058877, 39.269634451707525 ], [ -119.962474828889711, 39.269653052682649 ], [ -119.962451676394835, 39.269652448204305 ], [ -119.962452454058877, 39.269634451707525 ] ] ], [ [ [ -119.962760180890228, 39.267876838886522 ], [ -119.962895982394656, 39.267952451221518 ], [ -119.962974595423873, 39.268278805853079 ], [ -119.963203006256236, 39.26835683526798 ], [ -119.963088628770976, 39.268858320274745 ], [ -119.962893302911425, 39.269087439958973 ], [ -119.962392328722927, 39.269416680293382 ], [ -119.962452454058877, 39.269634451707525 ], [ -119.962318205321978, 39.2695228457751 ], [ -119.962149916283522, 39.269662586059376 ], [ -119.962012556901058, 39.269622965753229 ], [ -119.962053417487567, 39.269750150309285 ], [ -119.961839600081021, 39.269870684476047 ], [ -119.961760030384681, 39.270102824934966 ], [ -119.961567030339367, 39.270277952600161 ], [ -119.96155925122487, 39.270457917396861 ], [ -119.961669569720556, 39.270586916048423 ], [ -119.961644861141906, 39.270622304358632 ], [ -119.961464306450111, 39.270509488119622 ], [ -119.961359434196424, 39.270254513956701 ], [ -119.961223630171901, 39.270178899743158 ], [ -119.961309425427714, 39.26980278791148 ], [ -119.961152803806087, 39.269672579508168 ], [ -119.961163882794054, 39.268880129818704 ], [ -119.960960959069908, 39.268748711770876 ], [ -119.960867761416125, 39.268223790149236 ], [ -119.961723607724622, 39.268264160251114 ], [ -119.962312518074441, 39.268045319519402 ], [ -119.962543260139455, 39.268069360670189 ], [ -119.962760180890228, 39.267876838886522 ] ] ] ] } },
{ "type": "Feature", "properties": { "part": "upstream", "crossing_id": "X02851", "area_ac": 3.2, "n_upstream": 2.0 }, "geometry": { "type": "MultiPolygon", "coordinates": [ [ [ [ -119.963663380589523, 39.269503909813643 ], [ -119.963655607051138, 39.269683874984558 ], [ -119.96314996680853, 39.270121097591222 ], [ -119.962915329969263, 39.270187039895234 ], [ -119.96238844034896, 39.269506662774887 ], [ -119.962483383090913, 39.269455091210205 ], [ -119.962706353876584, 39.269659097213314 ], [ -119.962961031442674, 39.269665745666288 ], [ -119.963200331295297, 39.269491824137965 ], [ -119.963528352692236, 39.269410301727468 ], [ -119.963663380589523, 39.269503909813643 ] ] ], [ [ [ -119.962914552408321, 39.270205036398046 ], [ -119.961778332880243, 39.270751907572922 ], [ -119.96155925122487, 39.270457917396861 ], [ -119.961567030339367, 39.270277952600161 ], [ -119.961760030384681, 39.270102824934966 ], [ -119.961839600081021, 39.269870684476047 ], [ -119.962053417487567, 39.269750150309285 ], [ -119.962012556901058, 39.269622965753229 ], [ -119.962149916283522, 39.269662586059376 ], [ -119.962318205321978, 39.2695228457751 ], [ -119.962914552408321, 39.270205036398046 ] ] ] ] } }
]
}
