{
"type": "FeatureCollection",
"name": "X02802",
"crs": { "type": "name", "properties": { "name": "urn:ogc:def:crs:OGC:1.3:CRS84" } },
"features": [
{ "type": "Feature", "properties": { "part": "direct", "crossing_id": "X02802", "area_ac": 7.5, "n_upstream": null }, "geometry": { "type": "Polygon", "coordinates": [ [ [ -119.980591112859244, 39.257999272880639 ], [ -119.980398192932938, 39.258174435242303 ], [ -119.98067057339027, 39.258307621958195 ], [ -119.981064881680084, 39.258299836590858 ], [ -119.981626616928793, 39.258710781759795 ], [ -119.981572568466262, 39.259430055157175 ], [ -119.981664394167268, 39.259450454164813 ], [ -119.981784752853628, 39.259885981662954 ], [ -119.982414409547857, 39.260334718827892 ], [ -119.982500058443719, 39.260499092097021 ], [ -119.98300626806369, 39.260584286775241 ], [ -119.983141307164146, 39.260677872710673 ], [ -119.983077247844719, 39.261090600147249 ], [ -119.98278709078005, 39.261371346349009 ], [ -119.982366525472045, 39.261450523893593 ], [ -119.981835615492258, 39.261400719400065 ], [ -119.981797812467576, 39.261201553055301 ], [ -119.981704439450453, 39.261217147755048 ], [ -119.981279266730837, 39.260863796659926 ], [ -119.981047766699973, 39.260857790174732 ], [ -119.980914275608896, 39.26072820824151 ], [ -119.980871839236102, 39.260637022683049 ], [ -119.981063219885158, 39.260497853486783 ], [ -119.981238403360422, 39.260196111769204 ], [ -119.981452931809883, 39.260057542468552 ], [ -119.981459112112503, 39.259913567723018 ], [ -119.981050144041802, 39.259722788210773 ], [ -119.981022388099746, 39.259289662792632 ], [ -119.980871159058267, 39.259033502380717 ], [ -119.980817936978582, 39.258653766753866 ], [ -119.980348803641022, 39.258245221021468 ], [ -119.980309460427748, 39.2580820479903 ], [ -119.980496971208552, 39.258032863607077 ], [ -119.980573372765022, 39.257872694308595 ], [ -119.980591112859244, 39.257999272880639 ] ] ] } },
{ "type": "Feature", "properties": { "part": "upstream", "crossing_id": "X02802", "area_ac": 13.7, "n_upstream": 2.0 }, "geometry": { "type": "Polygon", "coordinates": [ [ [ -119.982515592356592, 39.25743662346413 ], [ -119.982624387359607, 39.257601596920246 ], [ -119.983052636769315, 39.257882955258687 ], [ -119.983558056626592, 39.257986143742045 ], [ -119.984004058569553, 39.258394077148395 ], [ -119.983667618210788, 39.258673626115254 ], [ -119.983433808884342, 39.258721615296267 ], [ -119.983160636403085, 39.259146938145797 ], [ -119.983193810127403, 39.259454085458636 ], [ -119.983366654224412, 39.25974683714707 ], [ -119.983355845558421, 39.259998793399355 ], [ -119.983468506301833, 39.26007378185659 ], [ -119.983252437366374, 39.260248348773096 ], [ -119.983141307164146, 39.260677872710673 ], [ -119.98300626806369, 39.260584286775241 ], [ -119.982500058443719, 39.260499092097021 ], [ -119.982414409547857, 39.260334718827892 ], [ -119.981740770848958, 39.259830790083605 ], [ -119.981780900132222, 39.259759763514182 ], [ -119.981767010339865, 39.259759403206282 ], [ -119.981719166104639, 39.259794195864465 ], [ -119.981737687043392, 39.259767650983854 ], [ -119.981719938569569, 39.259776199016294 ], [ -119.981664394167268, 39.259450454164813 ], [ -119.981572568466262, 39.259430055157175 ], [ -119.981626616928793, 39.258710781759795 ], [ -119.981064881680084, 39.258299836590858 ], [ -119.98067057339027, 39.258307621958195 ], [ -119.980398192932938, 39.258174435242303 ], [ -119.980591112859244, 39.257999272880639 ], [ -119.980601157957921, 39.257765314020119 ], [ -119.980840374051581, 39.257591352599192 ], [ -119.981118161152054, 39.257598560322286 ], [ -119.981495496257438, 39.257446197928132 ], [ -119.982147526823596, 39.257373026908937 ], [ -119.982515592356592, 39.25743662346413 ] ], [ [ -119.981767267823855, 39.259753404256607 ], [ -119.981755435513136, 39.259759102948436 ], [ -119.981767010339865, 39.259759403206282 ], [ -119.981767267823855, 39.259753404256607 ] ], [ [ -119.981790932439779, 39.259742006869075 ], [ -119.98177673367114, 39.259748845302198 ], [ -119.981783766506339, 39.259754690187116 ], [ -119.981790932439779, 39.259742006869075 ] ] ] } }
]
}
