{
"type": "FeatureCollection",
"name": "X02864",
"crs": { "type": "name", "properties": { "name": "urn:ogc:def:crs:OGC:1.3:CRS84" } },
"features": [
{ "type": "Feature", "properties": { "part": "direct", "crossing_id": "X02864", "area_ac": 1.2 }, "geometry": { "type": "Polygon", "coordinates": [ [ [ -119.963528352692236, 39.269410301727468 ], [ -119.963663380589523, 39.269503909813643 ], [ -119.963655607051138, 39.269683874984558 ], [ -119.96314996680853, 39.270121097591222 ], [ -119.962915329969263, 39.270187039895234 ], [ -119.96238844034896, 39.269506662774887 ], [ -119.962483383090913, 39.269455091210205 ], [ -119.962706353876584, 39.269659097213314 ], [ -119.962961031442674, 39.269665745666288 ], [ -119.963200331295297, 39.269491824137965 ], [ -119.963528352692236, 39.269410301727468 ] ] ] } }
]
}
