{
"type": "FeatureCollection",
"name": "X02872",
"crs": { "type": "name", "properties": { "name": "urn:ogc:def:crs:OGC:1.3:CRS84" } },
"features": [
{ "type": "Feature", "properties": { "part": "direct", "crossing_id": "X02872", "area_ac": 13.7, "n_upstream": null }, "geometry": { "type": "Polygon", "coordinates": [ [ [ -119.969777326061845, 39.262096241921029 ], [ -119.971709335218819, 39.263515823843001 ], [ -119.971623605001042, 39.263891946171476 ], [ -119.971647427016833, 39.264415054682665 ], [ -119.971249209027548, 39.264512790022685 ], [ -119.97098757008969, 39.264668130313531 ], [ -119.970981367318316, 39.264812103547982 ], [ -119.970837808500448, 39.264916467036429 ], [ -119.970925760767543, 39.265026857927047 ], [ -119.97073434819913, 39.265166009078435 ], [ -119.970830719156254, 39.265618939151196 ], [ -119.971320666744305, 39.266082115245872 ], [ -119.971312913735133, 39.266262081799979 ], [ -119.971173228992512, 39.26627646231649 ], [ -119.970971068009533, 39.266127064602308 ], [ -119.970741103763046, 39.266085043662279 ], [ -119.970431717764271, 39.265734668007859 ], [ -119.970108374155345, 39.265708231104277 ], [ -119.969906217113646, 39.265558831678057 ], [ -119.969536572019308, 39.265531187321884 ], [ -119.969403870457484, 39.265383596117189 ], [ -119.96938847692681, 39.265203026811648 ], [ -119.969167050851127, 39.264963040037905 ], [ -119.969068363843945, 39.264564098864874 ], [ -119.969104703742843, 39.26425875935665 ], [ -119.969231318978061, 39.264009821968102 ], [ -119.969659668141958, 39.263750726793923 ], [ -119.969838786508873, 39.263359021434532 ], [ -119.969781744580104, 39.26306926639689 ], [ -119.969614261633637, 39.263191022165337 ], [ -119.969483115372114, 39.263007437895126 ], [ -119.969588903316605, 39.262703907024438 ], [ -119.969585919699981, 39.262235391464834 ], [ -119.969777326061845, 39.262096241921029 ] ], [ [ -119.970320409695887, 39.262939159595483 ], [ -119.970105075926043, 39.263095703740547 ], [ -119.970074945609852, 39.263257070659435 ], [ -119.969881209718991, 39.263450210488948 ], [ -119.969873453754346, 39.263630176884682 ], [ -119.970083360926736, 39.263599609766473 ], [ -119.970156690560373, 39.263511435183183 ], [ -119.970163670250329, 39.263349465381559 ], [ -119.970386759262112, 39.263012954665562 ], [ -119.970320409695887, 39.262939159595483 ] ] ] } },
{ "type": "Feature", "properties": { "part": "upstream", "crossing_id": "X02872", "area_ac": 0.8, "n_upstream": 3.0 }, "geometry": { "type": "MultiPolygon", "coordinates": [ [ [ [ -119.970386759262112, 39.263012954665562 ], [ -119.970163670250329, 39.263349465381559 ], [ -119.970156690560373, 39.263511435183183 ], [ -119.970083360926736, 39.263599609766473 ], [ -119.969873453754346, 39.263630176884682 ], [ -119.969881209718991, 39.263450210488948 ], [ -119.970074945609852, 39.263257070659435 ], [ -119.970105075926043, 39.263095703740547 ], [ -119.970343560150951, 39.26293976242367 ], [ -119.970386759262112, 39.263012954665562 ] ] ], [ [ [ -119.96966509773047, 39.263624750345201 ], [ -119.969606505057854, 39.263370988524557 ], [ -119.969686815744055, 39.263120844516635 ], [ -119.969781744580104, 39.26306926639689 ], [ -119.969838786508873, 39.263359021434532 ], [ -119.96966509773047, 39.263624750345201 ] ] ], [ [ [ -119.971876713609177, 39.263934567656285 ], [ -119.971706131364513, 39.264128313161713 ], [ -119.971764732144266, 39.264382074216115 ], [ -119.971646651848559, 39.264433051348981 ], [ -119.971623605001042, 39.263891946171476 ], [ -119.971698483368556, 39.263767777218717 ], [ -119.971660708451395, 39.26356860871828 ], [ -119.971731710771579, 39.263534423072976 ], [ -119.97186441415316, 39.263682011715552 ], [ -119.971876713609177, 39.263934567656285 ] ] ] ] } }
]
}
