{
"type": "FeatureCollection",
"name": "X02974",
"crs": { "type": "name", "properties": { "name": "urn:ogc:def:crs:OGC:1.3:CRS84" } },
"features": [
{ "type": "Feature", "properties": { "part": "direct", "crossing_id": "X02974", "area_ac": 0.6, "n_upstream": null }, "geometry": { "type": "Polygon", "coordinates": [ [ [ -119.964579262343932, 39.251510981069366 ], [ -119.964491183145768, 39.251941087646848 ], [ -119.964207208826224, 39.252077813779195 ], [ -119.964154701369466, 39.252220578591832 ], [ -119.9638954257546, 39.252321914652995 ], [ -119.963843694292436, 39.25244668271457 ], [ -119.963635372534441, 39.252441246675005 ], [ -119.963670949385957, 39.252153905566168 ], [ -119.963790567409021, 39.252066942713491 ], [ -119.963975741344413, 39.252071774481948 ], [ -119.964579262343932, 39.251510981069366 ] ] ] } },
{ "type": "Feature", "properties": { "part": "upstream", "crossing_id": "X02974", "area_ac": 0.4, "n_upstream": 2.0 }, "geometry": { "type": "MultiPolygon", "coordinates": [ [ [ [ -119.963620771444582, 39.252242680380022 ], [ -119.963273569623823, 39.252233619482013 ], [ -119.963465736210352, 39.252076482979575 ], [ -119.963790567409021, 39.252066942713491 ], [ -119.963620771444582, 39.252242680380022 ] ] ], [ [ [ -119.963272792650741, 39.252251616046387 ], [ -119.963295939439817, 39.252252220138779 ], [ -119.96327123870249, 39.252287609174864 ], [ -119.963272792650741, 39.252251616046387 ] ] ], [ [ [ -119.963330578605849, 39.252523376784204 ], [ -119.963299661971405, 39.252702738332339 ], [ -119.963205520219816, 39.252736315038618 ], [ -119.963122256720126, 39.252517939817999 ], [ -119.963288946703869, 39.252414189218321 ], [ -119.963295939439817, 39.252252220138779 ], [ -119.963620771444582, 39.252242680380022 ], [ -119.963635372534441, 39.252441246675005 ], [ -119.963330578605849, 39.252523376784204 ] ] ] ] } }
]
}
