{
"type": "FeatureCollection",
"name": "X02956",
"crs": { "type": "name", "properties": { "name": "urn:ogc:def:crs:OGC:1.3:CRS84" } },
"features": [
{ "type": "Feature", "properties": { "part": "direct", "crossing_id": "X02956", "area_ac": 0.4, "n_upstream": null }, "geometry": { "type": "Polygon", "coordinates": [ [ [ -119.964502967420245, 39.248446126016155 ], [ -119.964498308084544, 39.248554105594799 ], [ -119.96435788131167, 39.24858647587687 ], [ -119.964421882079336, 39.248714263515566 ], [ -119.963999046954868, 39.248847366690669 ], [ -119.963983512940843, 39.249207298416678 ], [ -119.963839200915857, 39.24932965092858 ], [ -119.964012250647997, 39.248541424701976 ], [ -119.964502967420245, 39.248446126016155 ] ] ] } },
{ "type": "Feature", "properties": { "part": "upstream", "crossing_id": "X02956", "area_ac": 1.2, "n_upstream": 4.0 }, "geometry": { "type": "MultiPolygon", "coordinates": [ [ [ [ -119.964793765550567, 39.248687930863397 ], [ -119.964899399812367, 39.248924905369073 ], [ -119.9648322920727, 39.248869104359621 ], [ -119.964873148190463, 39.248996288042918 ], [ -119.964731944152817, 39.249046655346476 ], [ -119.964702586221833, 39.249190024364061 ], [ -119.964304447747708, 39.249287739132939 ], [ -119.963896987408248, 39.249601411494062 ], [ -119.963981286285858, 39.249513210699966 ], [ -119.96385069554789, 39.249600203611429 ], [ -119.963999046954868, 39.248847366690669 ], [ -119.964397959840895, 39.248731656286274 ], [ -119.964406596834024, 39.248746295091614 ], [ -119.964447357455356, 39.24866087754949 ], [ -119.96435788131167, 39.24858647587687 ], [ -119.964684249413438, 39.248540939279081 ], [ -119.964585454730042, 39.248682496956043 ], [ -119.964793765550567, 39.248687930863397 ] ], [ [ -119.96463899588899, 39.248897251129854 ], [ -119.964644796824217, 39.248918264073815 ], [ -119.964528291660557, 39.248933241715136 ], [ -119.964472787368948, 39.24876964207759 ], [ -119.96441955233017, 39.248768253298643 ], [ -119.964527083247205, 39.248950506370754 ], [ -119.9648322920727, 39.248869104359621 ], [ -119.96463899588899, 39.248897251129854 ] ], [ [ -119.964498247606144, 39.248770306267623 ], [ -119.964559321189569, 39.248806690659279 ], [ -119.964535280680025, 39.248771272352315 ], [ -119.964498247606144, 39.248770306267623 ] ], [ [ -119.964152416243522, 39.249334158793943 ], [ -119.964333806537908, 39.249144370251308 ], [ -119.96416634940401, 39.249266119351383 ], [ -119.964152416243522, 39.249334158793943 ] ] ], [ [ [ -119.963896987408248, 39.249601411494062 ], [ -119.963871511234913, 39.249654797302419 ], [ -119.963873841477735, 39.249600807555041 ], [ -119.963896987408248, 39.249601411494062 ] ] ] ] } }
]
}
