{
"type": "FeatureCollection",
"name": "X02966",
"crs": { "type": "name", "properties": { "name": "urn:ogc:def:crs:OGC:1.3:CRS84" } },
"features": [
{ "type": "Feature", "properties": { "part": "direct", "crossing_id": "X02966", "area_ac": 0.2, "n_upstream": null }, "geometry": { "type": "Polygon", "coordinates": [ [ [ -119.961700280939709, 39.245202012719062 ], [ -119.962021194737289, 39.245282458966742 ], [ -119.961847526249031, 39.245548177501441 ], [ -119.961687845962274, 39.245489957668148 ], [ -119.961700280939709, 39.245202012719062 ] ] ] } },
{ "type": "Feature", "properties": { "part": "upstream", "crossing_id": "X02966", "area_ac": 0.2, "n_upstream": 1.0 }, "geometry": { "type": "Polygon", "coordinates": [ [ [ -119.962016532120359, 39.245390438355386 ], [ -119.962268790609087, 39.245451074605356 ], [ -119.962165333499712, 39.245700609672042 ], [ -119.96184674909621, 39.245566174062652 ], [ -119.962016532120359, 39.245390438355386 ] ] ] } }
]
}
