{
"type": "FeatureCollection",
"name": "X02922",
"crs": { "type": "name", "properties": { "name": "urn:ogc:def:crs:OGC:1.3:CRS84" } },
"features": [
{ "type": "Feature", "properties": { "part": "direct", "crossing_id": "X02922", "area_ac": 0.2 }, "geometry": { "type": "Polygon", "coordinates": [ [ [ -119.958483018662449, 39.243514464189794 ], [ -119.958468237372344, 39.243856397892003 ], [ -119.958345515734692, 39.244015341694713 ], [ -119.958456567755107, 39.244126345534148 ], [ -119.958409501735929, 39.244143132137651 ], [ -119.958209764050338, 39.243939725780763 ], [ -119.958332485842519, 39.243780782126478 ], [ -119.958297090170504, 39.243527621074072 ], [ -119.958434397129594, 39.243567243842648 ], [ -119.958483018662449, 39.243514464189794 ] ] ] } }
]
}
