{
"type": "FeatureCollection",
"name": "X02985",
"crs": { "type": "name", "properties": { "name": "urn:ogc:def:crs:OGC:1.3:CRS84" } },
"features": [
{ "type": "Feature", "properties": { "part": "direct", "crossing_id": "X02985", "area_ac": 0.9 }, "geometry": { "type": "Polygon", "coordinates": [ [ [ -119.96551332262662, 39.249733658862596 ], [ -119.965602025121839, 39.2498260563491 ], [ -119.965505559280061, 39.249913624954409 ], [ -119.965495466825573, 39.250147580863505 ], [ -119.965209172498973, 39.250338299652881 ], [ -119.965246147887058, 39.250555466249665 ], [ -119.965077912259787, 39.250695213167944 ], [ -119.963901334898623, 39.250574434778976 ], [ -119.963932248720312, 39.250395072917627 ], [ -119.964808698416022, 39.250490005699497 ], [ -119.965432239291189, 39.250001797108204 ], [ -119.965322719910759, 39.249854806021496 ], [ -119.96551332262662, 39.249733658862596 ] ] ] } }
]
}
