{
"type": "FeatureCollection",
"name": "X02919",
"crs": { "type": "name", "properties": { "name": "urn:ogc:def:crs:OGC:1.3:CRS84" } },
"features": [
{ "type": "Feature", "properties": { "part": "direct", "crossing_id": "X02919", "area_ac": 0.3, "n_upstream": null }, "geometry": { "type": "Polygon", "coordinates": [ [ [ -119.959590278134314, 39.247380988510464 ], [ -119.960005334849882, 39.247427866570838 ], [ -119.959934344067463, 39.247462045550208 ], [ -119.959918790041669, 39.247821976003465 ], [ -119.959550021567495, 39.247776307111572 ], [ -119.95962645730684, 39.247616152765801 ], [ -119.959590278134314, 39.247380988510464 ] ] ] } },
{ "type": "Feature", "properties": { "part": "upstream", "crossing_id": "X02919", "area_ac": 6.0, "n_upstream": 6.0 }, "geometry": { "type": "Polygon", "coordinates": [ [ [ -119.961280474810465, 39.247947628300942 ], [ -119.961142203468356, 39.248466505767432 ], [ -119.960955484579131, 39.248497662937773 ], [ -119.960807281544021, 39.248709994226118 ], [ -119.960622116994685, 39.248705157764512 ], [ -119.960920676978162, 39.248767006473109 ], [ -119.960787843683192, 39.249159907556745 ], [ -119.960582642540373, 39.249082480313959 ], [ -119.96034963041825, 39.249112427247383 ], [ -119.959566566391501, 39.249001884426981 ], [ -119.959359033536884, 39.248978444625259 ], [ -119.95910598755998, 39.248935798201281 ], [ -119.959088287603109, 39.248809217785102 ], [ -119.959231050571717, 39.248722864458195 ], [ -119.959311377609495, 39.248472727865249 ], [ -119.959268976146049, 39.248381535642885 ], [ -119.959363113604311, 39.248347961947481 ], [ -119.95938022646186, 39.247952038687657 ], [ -119.959496730748299, 39.247937066181777 ], [ -119.959573944600351, 39.247758915370113 ], [ -119.959918790041669, 39.247821976003465 ], [ -119.959934344067463, 39.247462045550208 ], [ -119.960097915386513, 39.247430285263206 ], [ -119.961061460209024, 39.247653639059187 ], [ -119.960850043305896, 39.247720184747628 ], [ -119.961083828033068, 39.247672240074159 ], [ -119.961424010766535, 39.247843275550281 ], [ -119.961280474810465, 39.247947628300942 ] ], [ [ -119.960653050815935, 39.248426704726107 ], [ -119.960602081658834, 39.248632567063126 ], [ -119.960622116994685, 39.248705157764512 ], [ -119.960653050815935, 39.248426704726107 ] ], [ [ -119.959697762683845, 39.248695750448192 ], [ -119.959621413642509, 39.248805132347677 ], [ -119.95961810793753, 39.248881617531367 ], [ -119.959697762683845, 39.248695750448192 ] ], [ [ -119.960081399683801, 39.248348712690522 ], [ -119.959845278893695, 39.248450644785379 ], [ -119.959805987741902, 39.248287466656784 ], [ -119.959842797372801, 39.248481750187004 ], [ -119.960081399683801, 39.248348712690522 ] ], [ [ -119.96068629138945, 39.248292446658496 ], [ -119.960670980597598, 39.248354286740266 ], [ -119.960780428123059, 39.248258871783953 ], [ -119.96068629138945, 39.248292446658496 ] ], [ [ -119.959604679270058, 39.248120055235198 ], [ -119.959772649370777, 39.248100815405046 ], [ -119.959698816227302, 39.248086481246695 ], [ -119.95977214102021, 39.247998312886878 ], [ -119.960049107173248, 39.248023565910977 ], [ -119.959873309634816, 39.247967001340832 ], [ -119.959749773461454, 39.247979711630052 ], [ -119.959604679270058, 39.248120055235198 ] ], [ [ -119.960029724710537, 39.24810856318485 ], [ -119.960045996445587, 39.248095552004536 ], [ -119.960049107173248, 39.248023565910977 ], [ -119.960029724710537, 39.24810856318485 ] ], [ [ -119.959987298786032, 39.248142487704193 ], [ -119.959935859594353, 39.248132501276949 ], [ -119.959973541126175, 39.24815348856152 ], [ -119.959987298786032, 39.248142487704193 ] ] ] } }
]
}
