{
"type": "FeatureCollection",
"name": "X02937",
"crs": { "type": "name", "properties": { "name": "urn:ogc:def:crs:OGC:1.3:CRS84" } },
"features": [
{ "type": "Feature", "properties": { "part": "direct", "crossing_id": "X02937", "area_ac": 0.3 }, "geometry": { "type": "Polygon", "coordinates": [ [ [ -119.964305234518392, 39.254638762979006 ], [ -119.964561411533865, 39.254609412664692 ], [ -119.96455364440753, 39.254789378446681 ], [ -119.964645458322835, 39.25480979047969 ], [ -119.964368307834405, 39.255325048449883 ], [ -119.96441071964027, 39.255416239141795 ], [ -119.96425334553652, 39.255304032239792 ], [ -119.964406990966197, 39.254965720880421 ], [ -119.964294359593822, 39.254890715010681 ], [ -119.964305234518392, 39.254638762979006 ] ] ] } }
]
}
