{
"type": "FeatureCollection",
"name": "X02929",
"crs": { "type": "name", "properties": { "name": "urn:ogc:def:crs:OGC:1.3:CRS84" } },
"features": [
{ "type": "Feature", "properties": { "part": "direct", "crossing_id": "X02929", "area_ac": 0.8 }, "geometry": { "type": "MultiPolygon", "coordinates": [ [ [ [ -119.963813397280802, 39.253148549019109 ], [ -119.963835767521957, 39.253167149586439 ], [ -119.963812620420455, 39.253166545589629 ], [ -119.963813397280802, 39.253148549019109 ] ] ], [ [ [ -119.96522954891482, 39.252014398243332 ], [ -119.965343729811579, 39.25205340989892 ], [ -119.965494887574806, 39.25230958797458 ], [ -119.965077467774705, 39.252316718056314 ], [ -119.964787280193548, 39.252597418308767 ], [ -119.964433086060197, 39.252750330062419 ], [ -119.964318127900555, 39.252729314072369 ], [ -119.963836544376406, 39.253149153015549 ], [ -119.963893714293931, 39.252898408983704 ], [ -119.964437746191336, 39.252642350568237 ], [ -119.964707118281396, 39.252307057678713 ], [ -119.965014239461794, 39.25217093407808 ], [ -119.964971052009815, 39.252097740201691 ], [ -119.96522954891482, 39.252014398243332 ] ] ] ] } }
]
}
