{
"type": "FeatureCollection",
"name": "X02975",
"crs": { "type": "name", "properties": { "name": "urn:ogc:def:crs:OGC:1.3:CRS84" } },
"features": [
{ "type": "Feature", "properties": { "part": "direct", "crossing_id": "X02975", "area_ac": 0.2 }, "geometry": { "type": "MultiPolygon", "coordinates": [ [ [ [ -119.964194159579861, 39.251843254323312 ], [ -119.964216529533402, 39.251861854808709 ], [ -119.964193382852898, 39.251861250904263 ], [ -119.964194159579861, 39.251843254323312 ] ] ], [ [ [ -119.964147089493949, 39.251860043081592 ], [ -119.96414320578964, 39.251950025981422 ], [ -119.964050618962105, 39.251947610273284 ], [ -119.964147089493949, 39.251860043081592 ] ] ], [ [ [ -119.964515259067127, 39.251383193459368 ], [ -119.964480462893164, 39.251652538423301 ], [ -119.964287522985188, 39.251827673329458 ], [ -119.964217306254469, 39.25184385822736 ], [ -119.964270589957962, 39.251683096779814 ], [ -119.964188100853235, 39.251446725625144 ], [ -119.964515259067127, 39.251383193459368 ] ] ] ] } }
]
}
