{
"type": "FeatureCollection",
"name": "X02900",
"crs": { "type": "name", "properties": { "name": "urn:ogc:def:crs:OGC:1.3:CRS84" } },
"features": [
{ "type": "Feature", "properties": { "part": "direct", "crossing_id": "X02900", "area_ac": 0.0, "n_upstream": null }, "geometry": { "type": "Polygon", "coordinates": [ [ [ -119.963492502083795, 39.24501457584303 ], [ -119.963443106334054, 39.245085354275005 ], [ -119.963372119526412, 39.24511953552323 ], [ -119.963376003272671, 39.245029552582082 ], [ -119.963492502083795, 39.24501457584303 ] ] ] } },
{ "type": "Feature", "properties": { "part": "upstream", "crossing_id": "X02900", "area_ac": 1224.2, "n_upstream": 89.0 }, "geometry": { "type": "MultiPolygon", "coordinates": [ [ [ [ -119.962819250826072, 39.245620244344266 ], [ -119.962837304429556, 39.245700133860559 ], [ -119.962722358242232, 39.245679116740824 ], [ -119.962625118033117, 39.245784679666677 ], [ -119.962706819452976, 39.24603904823649 ], [ -119.962442126211386, 39.246266357957033 ], [ -119.962572448167549, 39.246467945253258 ], [ -119.962580830167127, 39.246810484245657 ], [ -119.96239800144599, 39.246751661098365 ], [ -119.962554577153341, 39.246881866357135 ], [ -119.962831540362487, 39.246907112624307 ], [ -119.963768059627597, 39.24721982285736 ], [ -119.963717109008201, 39.247326594507634 ], [ -119.963551985704598, 39.247394353128215 ], [ -119.963497150691609, 39.247591107576532 ], [ -119.96323012313313, 39.247872408647119 ], [ -119.963172179232828, 39.248141149181883 ], [ -119.962961539524258, 39.248189702152587 ], [ -119.962804183293926, 39.248077493892914 ], [ -119.96261902006448, 39.248072660670829 ], [ -119.96246305217332, 39.248464959953345 ], [ -119.962425069649527, 39.248437875058862 ], [ -119.96245761262594, 39.248590935889268 ], [ -119.96239325002864, 39.248725804436873 ], [ -119.962445179246714, 39.248878880873008 ], [ -119.962607198899008, 39.248883110272487 ], [ -119.962671808154155, 39.249533403272686 ], [ -119.962468767654812, 39.249942490544029 ], [ -119.962275827920394, 39.250117622143783 ], [ -119.962388449693094, 39.250192629638143 ], [ -119.962359086390563, 39.250335997833886 ], [ -119.962127625032124, 39.250329955086634 ], [ -119.962589770723184, 39.250360036680689 ], [ -119.96258666233463, 39.250432022915213 ], [ -119.962559630628363, 39.250521401494829 ], [ -119.962360573294717, 39.250516205082185 ], [ -119.962436905349293, 39.250680349365751 ], [ -119.962361249276569, 39.250822509053265 ], [ -119.962244740591942, 39.250837484259648 ], [ -119.962239276019673, 39.250805381285062 ], [ -119.961842703249346, 39.25102517281119 ], [ -119.961779482748184, 39.250879387354374 ], [ -119.96186196309985, 39.251115759894283 ], [ -119.961721530124933, 39.251148126732147 ], [ -119.961700521429776, 39.25109803185174 ], [ -119.961694496997168, 39.251237505047285 ], [ -119.961530917282715, 39.251269267243693 ], [ -119.961577711553687, 39.251151578048628 ], [ -119.961557950630848, 39.251179888975621 ], [ -119.961531694673894, 39.25125127070541 ], [ -119.961275529156353, 39.251280614788506 ], [ -119.961291678494078, 39.251443188071654 ], [ -119.960971335735749, 39.251885242665011 ], [ -119.960611895402977, 39.2520471209249 ], [ -119.960638729122266, 39.252074740284769 ], [ -119.960655654686633, 39.252219317066093 ], [ -119.96058854749873, 39.252163513643254 ], [ -119.960354747361293, 39.252211456690517 ], [ -119.960327712019463, 39.252300834589711 ], [ -119.959762078062738, 39.252520275499947 ], [ -119.959602384224254, 39.252462052309674 ], [ -119.95946039174558, 39.25253040926534 ], [ -119.959454946038832, 39.252656384761821 ], [ -119.959573600800454, 39.253127922848591 ], [ -119.959954654279116, 39.253426148576423 ], [ -119.959857398591623, 39.253531708483742 ], [ -119.959467787279365, 39.253431443907488 ], [ -119.959902914994956, 39.25355091455836 ], [ -119.960003871611022, 39.253895872006133 ], [ -119.959673586532958, 39.254031376831279 ], [ -119.959670474756606, 39.254103362825369 ], [ -119.959289225096938, 39.254345635771919 ], [ -119.959693622077054, 39.254103967657436 ], [ -119.959962833378398, 39.254309186817117 ], [ -119.959968867452346, 39.254705714643485 ], [ -119.960219601151621, 39.254802349504011 ], [ -119.960214156363477, 39.254928325040076 ], [ -119.960558259519175, 39.255009381618763 ], [ -119.960623036065826, 39.255119174674874 ], [ -119.960187897414258, 39.2549997063185 ], [ -119.960805884433356, 39.255178001334798 ], [ -119.961801236086913, 39.255203995854558 ], [ -119.961966379752923, 39.25513624058307 ], [ -119.962943246972969, 39.255053641665945 ], [ -119.963334426916177, 39.25511790200499 ], [ -119.963255659016795, 39.255332048285858 ], [ -119.962943080486937, 39.255594142344549 ], [ -119.962779490955072, 39.255625905902349 ], [ -119.962795644132882, 39.255788479047382 ], [ -119.962506209848314, 39.256051176003069 ], [ -119.962586365838277, 39.256341537800942 ], [ -119.962220536141032, 39.256507082551209 ], [ -119.962385634588102, 39.256696634114647 ], [ -119.962329232714765, 39.256929380398411 ], [ -119.962481943196252, 39.25714956911694 ], [ -119.96235842785407, 39.257326512823411 ], [ -119.962339771314973, 39.257758429603662 ], [ -119.962252644079484, 39.257692566100793 ], [ -119.962315845365467, 39.257775821781991 ], [ -119.961463834572228, 39.25818597840064 ], [ -119.962009471674705, 39.257893940452846 ], [ -119.961415459109034, 39.258190418228338 ], [ -119.961391277995645, 39.258256150847068 ], [ -119.961297905465941, 39.258271729140894 ], [ -119.961397291826344, 39.258199485616167 ], [ -119.961014676780167, 39.258390449593414 ], [ -119.961155727612805, 39.258272190491724 ], [ -119.960613369738951, 39.258560135360682 ], [ -119.959749669078249, 39.259240225958727 ], [ -119.959393874233683, 39.259429113429384 ], [ -119.959487248640983, 39.259413536744134 ], [ -119.959975521674806, 39.259912749420181 ], [ -119.959726133147512, 39.260320619768464 ], [ -119.960099444156626, 39.260798811083802 ], [ -119.960336860032726, 39.260978285620816 ], [ -119.960442019595504, 39.260915862032661 ], [ -119.96293846074056, 39.260530632635323 ], [ -119.963000913797586, 39.260694414221533 ], [ -119.963647383589176, 39.261287825135348 ], [ -119.963552453065432, 39.261339398177931 ], [ -119.963811763239491, 39.261238064337761 ], [ -119.963724584112384, 39.26137772923245 ], [ -119.964409772456222, 39.26134375222847 ], [ -119.964459956665905, 39.261254977408882 ], [ -119.965253263138734, 39.261131537310391 ], [ -119.965842878981007, 39.260894679121428 ], [ -119.965812740217913, 39.261056044642729 ], [ -119.966011769673486, 39.261277436769298 ], [ -119.965492377357393, 39.261498110462625 ], [ -119.965229184719448, 39.261689430944308 ], [ -119.965200597589117, 39.261814803085436 ], [ -119.965159063138046, 39.261805021932908 ], [ -119.965172787097956, 39.261922178647147 ], [ -119.965168903315075, 39.262012161476854 ], [ -119.965228255749324, 39.262247928348451 ], [ -119.965469703349612, 39.262560511927944 ], [ -119.965698099089678, 39.26263853588857 ], [ -119.966093206631868, 39.262612805739813 ], [ -119.966314614940956, 39.262852797751975 ], [ -119.966520638723082, 39.262912219954025 ], [ -119.966693419326489, 39.263204993899997 ], [ -119.966878623063621, 39.263209822192096 ], [ -119.966965014282067, 39.263356208962755 ], [ -119.967351587071235, 39.263528437227215 ], [ -119.967552180439569, 39.263713833900937 ], [ -119.968102363847848, 39.263854290218752 ], [ -119.968614007380495, 39.263813571482416 ], [ -119.968769855229709, 39.263961766596552 ], [ -119.969134836849491, 39.2640973928169 ], [ -119.969068363843945, 39.264564098864874 ], [ -119.969167050851127, 39.264963040037905 ], [ -119.96938847692681, 39.265203026811648 ], [ -119.969447845664419, 39.265438792075706 ], [ -119.969659297662275, 39.265601046164321 ], [ -119.969650001350928, 39.265588192250142 ], [ -119.969906217113646, 39.265558831678057 ], [ -119.970108374155345, 39.265708231104277 ], [ -119.970431717764271, 39.265734668007859 ], [ -119.970741103763046, 39.266085043662279 ], [ -119.970971068009533, 39.266127064602308 ], [ -119.971173228992512, 39.26627646231649 ], [ -119.971312913735133, 39.266262081799979 ], [ -119.971486364600594, 39.266971412051745 ], [ -119.971514194364971, 39.266969977971243 ], [ -119.97188451969987, 39.267520122117347 ], [ -119.971996403859734, 39.267613118262148 ], [ -119.972113714283225, 39.267580137660936 ], [ -119.972129506160996, 39.26759616323713 ], [ -119.972162343693739, 39.267527352722567 ], [ -119.972613856957864, 39.267268849731011 ], [ -119.973214257634481, 39.26732050471972 ], [ -119.973229661144487, 39.267501073863485 ], [ -119.973457307402924, 39.267597080171178 ], [ -119.973589246897561, 39.267762663883971 ], [ -119.973558347056951, 39.267942028515535 ], [ -119.973704917423888, 39.268306177942407 ], [ -119.973427514070366, 39.268827455888619 ], [ -119.973451699633102, 39.268804062597212 ], [ -119.973422031747063, 39.268837757815618 ], [ -119.97340229536924, 39.268874844750073 ], [ -119.97338062027427, 39.268884790709869 ], [ -119.973281108892152, 39.268997809982238 ], [ -119.973317340618195, 39.269232971447536 ], [ -119.973152947759885, 39.269282745159387 ], [ -119.972996208067315, 39.269693054471972 ], [ -119.97299155824426, 39.269801034505612 ], [ -119.973260867568044, 39.270006226258076 ], [ -119.973366558294515, 39.270243194687076 ], [ -119.973331006966703, 39.270530539182879 ], [ -119.973158086536486, 39.270778276180636 ], [ -119.972745107376497, 39.271217951899267 ], [ -119.972292793041973, 39.27149445093395 ], [ -119.971753289020029, 39.271642560939405 ], [ -119.970843214713213, 39.272321525229593 ], [ -119.970647902947618, 39.272550658436536 ], [ -119.970661748818301, 39.272767220816213 ], [ -119.970883203065767, 39.273007205624374 ], [ -119.97134240137548, 39.273109244820127 ], [ -119.971644176540863, 39.273099083634825 ], [ -119.971534501574794, 39.273492598826969 ], [ -119.971441110296439, 39.273508184529739 ], [ -119.971586903823876, 39.273890332986632 ], [ -119.972380913608603, 39.274829856925138 ], [ -119.973185795371634, 39.27551742293754 ], [ -119.973397966205766, 39.275973363435234 ], [ -119.973618664554181, 39.276231340337731 ], [ -119.973674954636962, 39.276539090623871 ], [ -119.974185823858619, 39.277056849932812 ], [ -119.974499060763605, 39.277857736690727 ], [ -119.974806193036684, 39.278262093790453 ], [ -119.974951927496818, 39.27918474126303 ], [ -119.975103173111052, 39.279440909458224 ], [ -119.975083805444754, 39.279890826371002 ], [ -119.975167133641662, 39.280109194854035 ], [ -119.975059014198962, 39.280466719956735 ], [ -119.975193303933395, 39.280578312598678 ], [ -119.976062403458286, 39.280853142222682 ], [ -119.976941575673209, 39.280894008463463 ], [ -119.977154629524406, 39.28079144372127 ], [ -119.977748183476521, 39.28100505023459 ], [ -119.97785777398181, 39.281152031842176 ], [ -119.978063861535688, 39.28121143589604 ], [ -119.978513838447384, 39.281529409832274 ], [ -119.978658911024169, 39.281929547838203 ], [ -119.979375173923685, 39.282524686430328 ], [ -119.979368984383726, 39.282668660338913 ], [ -119.979544184057062, 39.282907428086212 ], [ -119.97953329996254, 39.283699885866113 ], [ -119.979872926348278, 39.283888871730049 ], [ -119.979980204812875, 39.28408984185188 ], [ -119.979960865147703, 39.284539760431805 ], [ -119.979789477081624, 39.2847515128678 ], [ -119.979966230180011, 39.284954286682883 ], [ -119.979983199270222, 39.285098861803739 ], [ -119.980206269809784, 39.285302837678323 ], [ -119.980270280846156, 39.285971121780506 ], [ -119.980869257947987, 39.28659924061035 ], [ -119.980930225895008, 39.286799007963033 ], [ -119.981261364115241, 39.287185954704221 ], [ -119.981662755568607, 39.287556706548621 ], [ -119.981834881572937, 39.28786745849532 ], [ -119.982504911770263, 39.288461378934322 ], [ -119.982196076952505, 39.289174040468851 ], [ -119.981755237562155, 39.289721124736737 ], [ -119.981474188855074, 39.290326404105947 ], [ -119.981402389574484, 39.290378591445617 ], [ -119.981196272400354, 39.290319192236637 ], [ -119.981030287108837, 39.290404968717603 ], [ -119.980873583702788, 39.290274784072743 ], [ -119.980502255315102, 39.290283162932468 ], [ -119.980193442665595, 39.290455314820377 ], [ -119.980190347866227, 39.29052730173138 ], [ -119.979514072232945, 39.290617844731621 ], [ -119.978541298651436, 39.291133086287807 ], [ -119.977956106749701, 39.291262019479525 ], [ -119.977834886772357, 39.29138498785845 ], [ -119.977086797098934, 39.291527701198802 ], [ -119.976455198833307, 39.292195924700714 ], [ -119.976244349970429, 39.292784998337858 ], [ -119.975707699139164, 39.293401635085893 ], [ -119.975444407634285, 39.293592974218626 ], [ -119.975318528913803, 39.29382391942783 ], [ -119.974438421703567, 39.293801031348572 ], [ -119.973955148642844, 39.293716393368157 ], [ -119.973821612595145, 39.293586801999439 ], [ -119.973476529897553, 39.293523773783768 ], [ -119.972799443319118, 39.293632272817874 ], [ -119.972514534248091, 39.293787009048543 ], [ -119.97161049316577, 39.293781493401724 ], [ -119.970864696104087, 39.293870175459134 ], [ -119.9704879155844, 39.294004497443403 ], [ -119.969931282916122, 39.294008016016086 ], [ -119.969787660116481, 39.294112375368258 ], [ -119.969649472392575, 39.294090758738044 ], [ -119.969380086308462, 39.293885556161399 ], [ -119.968943141298652, 39.293802104371998 ], [ -119.968788784303086, 39.293617914490909 ], [ -119.968537902451288, 39.293521292797074 ], [ -119.967931215660698, 39.293073078227295 ], [ -119.966916047939165, 39.292956528903439 ], [ -119.966370306765995, 39.292708079824585 ], [ -119.965521933614795, 39.292487767570329 ], [ -119.964815636824014, 39.292199089345338 ], [ -119.964512224007379, 39.292245222454191 ], [ -119.964350104182884, 39.292240991822247 ], [ -119.964261353424334, 39.292148591931387 ], [ -119.963818980876908, 39.292191096688235 ], [ -119.963206890181809, 39.291868834110545 ], [ -119.962905812511522, 39.291860973730422 ], [ -119.962794682578533, 39.291749971697286 ], [ -119.962106894831606, 39.291569860966455 ], [ -119.961906241617555, 39.291384453112954 ], [ -119.961441491952968, 39.291408347673389 ], [ -119.960988421679289, 39.291162294285691 ], [ -119.960572328724638, 39.291133406296517 ], [ -119.960460424938674, 39.291040398606938 ], [ -119.960206449384359, 39.291015745281008 ], [ -119.960051342857653, 39.290849541247859 ], [ -119.959911607439125, 39.290863906177634 ], [ -119.959983422360111, 39.290811732759302 ], [ -119.959968051791819, 39.290631163615458 ], [ -119.959702811623444, 39.28979546127178 ], [ -119.959710809241955, 39.289075000407948 ], [ -119.959631415583246, 39.288766640646678 ], [ -119.959518737731614, 39.288691628603729 ], [ -119.959219655860863, 39.287566772594943 ], [ -119.959019800387708, 39.287363364008549 ], [ -119.959229635760508, 39.285729324778053 ], [ -119.959002165435621, 39.285092792248548 ], [ -119.95935150333392, 39.283984884894835 ], [ -119.959252852886863, 39.283585937648233 ], [ -119.959308513141124, 39.283371191413664 ], [ -119.959042313586323, 39.28309398174278 ], [ -119.959036292691792, 39.282697455642989 ], [ -119.959324505824142, 39.281930268546262 ], [ -119.959597916560782, 39.28150501224831 ], [ -119.959610376030625, 39.28121706964216 ], [ -119.960044317602424, 39.280832041118991 ], [ -119.960116322535484, 39.280239369329735 ], [ -119.960033041715775, 39.280020991885237 ], [ -119.960057177051269, 39.279463102701854 ], [ -119.960258770820445, 39.279090018180774 ], [ -119.960033443661473, 39.278939996157632 ], [ -119.95983983733953, 39.278592618177825 ], [ -119.959628934209547, 39.27703766403296 ], [ -119.959880724478509, 39.276575807950529 ], [ -119.961105194792523, 39.275598859658785 ], [ -119.961449586897444, 39.27513941873633 ], [ -119.961584031130371, 39.2747105272515 ], [ -119.961775488086076, 39.274571393088195 ], [ -119.96181264548737, 39.274248061282186 ], [ -119.962732161081362, 39.273353214392905 ], [ -119.962873416379949, 39.273302851666465 ], [ -119.963022447649195, 39.273072523806732 ], [ -119.963010180613153, 39.272819968452623 ], [ -119.963105127567673, 39.272768396562689 ], [ -119.963186251579657, 39.272500262218699 ], [ -119.962918519340747, 39.272259054987188 ], [ -119.962924740254891, 39.272115083013304 ], [ -119.962765000021719, 39.272056862490736 ], [ -119.96263307942661, 39.27189126728058 ], [ -119.962616925335823, 39.27172869437026 ], [ -119.962246654438843, 39.271178523015514 ], [ -119.961778332880243, 39.270751907572922 ], [ -119.96314996680853, 39.270121097591222 ], [ -119.96348576533174, 39.269859610317326 ], [ -119.963683423678177, 39.269576500119875 ], [ -119.963573880198737, 39.269429506761426 ], [ -119.963458895381436, 39.269408488916362 ], [ -119.962961031442674, 39.269665745666288 ], [ -119.962706353876584, 39.269659097213314 ], [ -119.962391551049521, 39.2694346767898 ], [ -119.963063921552205, 39.268893708947374 ], [ -119.963203006256236, 39.26835683526798 ], [ -119.962974595423873, 39.268278805853079 ], [ -119.962895982394656, 39.267952451221518 ], [ -119.962669128346874, 39.267838428251622 ], [ -119.962552591255601, 39.267853402627281 ], [ -119.962495577160183, 39.267563645239797 ], [ -119.962111328821464, 39.267337411034234 ], [ -119.962329803565581, 39.267108896988546 ], [ -119.962222599459551, 39.266907913058269 ], [ -119.96206131605895, 39.266885685009598 ], [ -119.961240898648484, 39.267098478199188 ], [ -119.960824169455037, 39.267087593058939 ], [ -119.960711523537199, 39.26701258324195 ], [ -119.960384288884697, 39.267076101573544 ], [ -119.960110554639044, 39.266438361700246 ], [ -119.959813477918047, 39.266340515234404 ], [ -119.959321272564125, 39.265931282928712 ], [ -119.959350650594388, 39.265787916329081 ], [ -119.959281919696394, 39.26574214684652 ], [ -119.959066609375256, 39.265924627042011 ], [ -119.958706311062485, 39.265680990962245 ], [ -119.958553595923632, 39.265460797299433 ], [ -119.958460991803136, 39.265458376454987 ], [ -119.958584532315442, 39.265281438046372 ], [ -119.958574616394813, 39.264974893271798 ], [ -119.958262183313195, 39.264696473517617 ], [ -119.958282426644885, 39.26422856600157 ], [ -119.958121929562367, 39.264188336326384 ], [ -119.958128937119014, 39.264026368352269 ], [ -119.957922918191983, 39.263966931439057 ], [ -119.957977005746486, 39.263788177648884 ], [ -119.957816509855874, 39.263747947595697 ], [ -119.957751730714932, 39.263638152976185 ], [ -119.957455053602843, 39.263648109912189 ], [ -119.95744921782854, 39.263666276057769 ], [ -119.957286386104101, 39.263680034584823 ], [ -119.956464656904643, 39.263388289859094 ], [ -119.95693411089826, 39.262715931115672 ], [ -119.957351553025077, 39.261747961282239 ], [ -119.957346566079323, 39.261753810912467 ], [ -119.957378282024123, 39.261556455502117 ], [ -119.957477110608536, 39.261414905497205 ], [ -119.957526524746541, 39.261344130456266 ], [ -119.957529639517119, 39.261272144695333 ], [ -119.957554761350664, 39.261303687564236 ], [ -119.957662413095903, 39.261149498961494 ], [ -119.957650838298918, 39.261149196299023 ], [ -119.957651616955417, 39.261131199856216 ], [ -119.957666530912533, 39.261143601034405 ], [ -119.957674766543633, 39.261131805179645 ], [ -119.957536647710185, 39.261110176729176 ], [ -119.957224235115561, 39.260831754860966 ], [ -119.957359450498103, 39.260384870852455 ], [ -119.957205971387012, 39.260182672302776 ], [ -119.957234571802161, 39.260057302629967 ], [ -119.957013982601083, 39.259799298350188 ], [ -119.957704245509561, 39.258969499456995 ], [ -119.957751279230948, 39.258827654608133 ], [ -119.957683389904773, 39.258789845857173 ], [ -119.95767513753799, 39.258534651072452 ], [ -119.957645656772172, 39.258590674316572 ], [ -119.957392009864307, 39.258025520595055 ], [ -119.957452322119735, 39.257702795169699 ], [ -119.957786079499527, 39.257391377402051 ], [ -119.957724083049143, 39.257313531414248 ], [ -119.957731868333568, 39.257133566851969 ], [ -119.957968021899802, 39.257031640443699 ], [ -119.958043694172233, 39.256889484355717 ], [ -119.958008296006668, 39.256636323488181 ], [ -119.958362125749701, 39.256431028595571 ], [ -119.95823219669893, 39.256281840739135 ], [ -119.95837886809025, 39.256105506843028 ], [ -119.958425365483066, 39.255566217797643 ], [ -119.958593626001985, 39.255426481581218 ], [ -119.958671433643801, 39.255413501375557 ], [ -119.958618330235922, 39.255391093690818 ], [ -119.958809737626325, 39.25525196218252 ], [ -119.958786788228778, 39.254710857712382 ], [ -119.959126406968309, 39.254382397738198 ], [ -119.959080120497802, 39.254358187854493 ], [ -119.958811492093204, 39.254675469763512 ], [ -119.958842421298513, 39.254496109943922 ], [ -119.959057751215923, 39.254339586409849 ], [ -119.9590377162843, 39.254266995499776 ], [ -119.95821461979007, 39.253693151317734 ], [ -119.958204614018697, 39.253704714531793 ], [ -119.957572841690066, 39.253309843589271 ], [ -119.957189463773133, 39.253065599851674 ], [ -119.957287446893972, 39.252892283676942 ], [ -119.957242764450058, 39.252904842320312 ], [ -119.95716631684796, 39.253064994535229 ], [ -119.956919486900048, 39.252878371193063 ], [ -119.956922601353739, 39.252806385367919 ], [ -119.957109333180767, 39.25277523521283 ], [ -119.957230517051613, 39.252652286554543 ], [ -119.95705333869337, 39.25192698026396 ], [ -119.957134456311181, 39.251658849278058 ], [ -119.957000248909125, 39.251547238584642 ], [ -119.957005698793239, 39.251421263351617 ], [ -119.957016523206619, 39.251414526892269 ], [ -119.956870713450513, 39.251327648991605 ], [ -119.95683532103503, 39.251074487834238 ], [ -119.956583826780601, 39.250995842782451 ], [ -119.956699111876773, 39.250948546969759 ], [ -119.956423360551724, 39.25095561190664 ], [ -119.956391084612903, 39.250630464853216 ], [ -119.956282362508801, 39.250465469514083 ], [ -119.956386626949495, 39.250197944496577 ], [ -119.956530174590682, 39.250093598287272 ], [ -119.956564999916637, 39.249824256804786 ], [ -119.957111227494948, 39.24984799814591 ], [ -119.956519486857417, 39.249805049543276 ], [ -119.956416994814276, 39.249496082678903 ], [ -119.956684833785118, 39.249196802170395 ], [ -119.956873113046754, 39.249129659074761 ], [ -119.957117024662139, 39.248847768568567 ], [ -119.95753053105571, 39.248930648679924 ], [ -119.957562238365142, 39.248733292598054 ], [ -119.958168669492153, 39.248819431562914 ], [ -119.958161687292403, 39.248803015312369 ], [ -119.959106765506434, 39.248917801696315 ], [ -119.95903343887224, 39.249005969554212 ], [ -119.959049148686049, 39.249054886982584 ], [ -119.95910598755998, 39.248935798201281 ], [ -119.959911417850279, 39.249064945309321 ], [ -119.960582642540373, 39.249082480313959 ], [ -119.960837414037741, 39.249159968860198 ], [ -119.960920676978162, 39.248767006473109 ], [ -119.960810391561353, 39.248638008089252 ], [ -119.960955484579131, 39.248497662937773 ], [ -119.961142203468356, 39.248466505767432 ], [ -119.961280474810465, 39.247947628300942 ], [ -119.961542846447344, 39.247774311324655 ], [ -119.961582141459388, 39.247937489025475 ], [ -119.961543623738848, 39.247756314775366 ], [ -119.961378497503915, 39.247824070183405 ], [ -119.961151708966312, 39.247710046552733 ], [ -119.96065028879454, 39.247516782015715 ], [ -119.960866369968386, 39.247342257437332 ], [ -119.960947466789293, 39.247074122832295 ], [ -119.961087891799508, 39.247041756605014 ], [ -119.961213844312397, 39.247114539500373 ], [ -119.961273829395225, 39.247028595608604 ], [ -119.961387412935309, 39.24697390783917 ], [ -119.961323228761458, 39.246957818257627 ], [ -119.961401214127221, 39.246761669433738 ], [ -119.961662803639683, 39.246606348524466 ], [ -119.961716865574232, 39.246427591639943 ], [ -119.961946294524196, 39.246328540337927 ], [ -119.961935272152644, 39.246199075134655 ], [ -119.962266459479594, 39.245505064310841 ], [ -119.962154622101082, 39.245412060378669 ], [ -119.962163918142522, 39.2453800045622 ], [ -119.962016532120359, 39.245390438355386 ], [ -119.962150904270416, 39.244961541964898 ], [ -119.96221372470113, 39.244963181985419 ], [ -119.962176379794329, 39.244908156481053 ], [ -119.962372412608303, 39.244661038070568 ], [ -119.96306130341452, 39.244805137386599 ], [ -119.963173141135456, 39.244898140464187 ], [ -119.963267272161502, 39.244864563334886 ], [ -119.963423068843355, 39.245012763947159 ], [ -119.963294918468591, 39.245297689417157 ], [ -119.963219270592731, 39.24543985007093 ], [ -119.963092672193625, 39.2456887820723 ], [ -119.962819250826072, 39.245620244344266 ] ], [ [ -119.959417995214906, 39.254583219579267 ], [ -119.959317624826681, 39.254760764887621 ], [ -119.959440364669973, 39.254601820960701 ], [ -119.960187897414258, 39.2549997063185 ], [ -119.959417995214906, 39.254583219579267 ] ], [ [ -119.959141810583887, 39.259830395896415 ], [ -119.959389205239759, 39.259537092291751 ], [ -119.959393874233683, 39.259429113429384 ], [ -119.959141810583887, 39.259830395896415 ] ], [ [ -119.964756087035028, 39.261911308768973 ], [ -119.964963660230154, 39.26193474045678 ], [ -119.964870283365585, 39.261950321450989 ], [ -119.965172787097956, 39.261922178647147 ], [ -119.964756087035028, 39.261911308768973 ] ], [ [ -119.96493740295729, 39.262006122820182 ], [ -119.964959776178176, 39.262024723268816 ], [ -119.965168903315075, 39.262012161476854 ], [ -119.96493740295729, 39.262006122820182 ] ], [ [ -119.961932842925464, 39.248138764500624 ], [ -119.961921549537138, 39.248126519689244 ], [ -119.961582141459388, 39.247937489025475 ], [ -119.961932842925464, 39.248138764500624 ] ], [ [ -119.961363753878615, 39.247450135894368 ], [ -119.961177963747886, 39.247638664834689 ], [ -119.961135560251833, 39.247547473206623 ], [ -119.961151708966312, 39.247710046552733 ], [ -119.961363753878615, 39.247450135894368 ] ], [ [ -119.962967788051671, 39.245361219271899 ], [ -119.962759487425203, 39.245355782481973 ], [ -119.962778941614758, 39.245441870330339 ], [ -119.962781855027927, 39.245374383165576 ], [ -119.963219270592731, 39.24543985007093 ], [ -119.962967788051671, 39.245361219271899 ] ], [ [ -119.962263517998025, 39.245036549308836 ], [ -119.962248363505722, 39.245014220125356 ], [ -119.962161615704844, 39.245250091274585 ], [ -119.962182624026042, 39.245315500405361 ], [ -119.962263517998025, 39.245036549308836 ] ], [ [ -119.962162666332503, 39.24683560170088 ], [ -119.962205070815671, 39.246926792999425 ], [ -119.962089345747543, 39.246923771748435 ], [ -119.962249806671622, 39.246963994594992 ], [ -119.96230214602808, 39.247361731673166 ], [ -119.962252137934826, 39.246910004903889 ], [ -119.962368640054635, 39.246895029426504 ], [ -119.962375655344871, 39.246908503681688 ], [ -119.962379748398831, 39.246879775461927 ], [ -119.962205847914518, 39.246908796436408 ], [ -119.962162666332503, 39.24683560170088 ] ], [ [ -119.962019910715085, 39.24692195894275 ], [ -119.961854009716561, 39.247007711687175 ], [ -119.962089345747543, 39.246923771748435 ], [ -119.962019910715085, 39.24692195894275 ] ], [ [ -119.961746056724792, 39.246824724529525 ], [ -119.961763761225598, 39.246951304746098 ], [ -119.961763761225555, 39.246951304746126 ], [ -119.961787683446246, 39.246933912514621 ], [ -119.961894859514288, 39.247134896198652 ], [ -119.961854009716561, 39.247007711687175 ], [ -119.961746056724792, 39.246824724529525 ] ], [ [ -119.961632491182556, 39.247308214113133 ], [ -119.961678781440767, 39.247309422818724 ], [ -119.961894859514288, 39.247134896198652 ], [ -119.961632491182556, 39.247308214113133 ] ], [ [ -119.961621036237148, 39.247072310071331 ], [ -119.961619450401187, 39.247073654573839 ], [ -119.961598444473509, 39.247064790602785 ], [ -119.961632491182556, 39.247308214113133 ], [ -119.961621036237148, 39.247072310071331 ] ], [ [ -119.962123523824502, 39.246751425106787 ], [ -119.962127573045379, 39.246760133030804 ], [ -119.962236763815426, 39.246729435034823 ], [ -119.962123523824502, 39.246751425106787 ] ], [ [ -119.962218281401263, 39.246620851419081 ], [ -119.962086988836973, 39.246441759462357 ], [ -119.962083394668227, 39.246524993563128 ], [ -119.962130364399655, 39.246510455076859 ], [ -119.962236763815426, 39.246729435034823 ], [ -119.962218281401263, 39.246620851419081 ] ], [ [ -119.96202007996061, 39.246381457849047 ], [ -119.962078236022364, 39.246429819993992 ], [ -119.962043224793092, 39.246382062115245 ], [ -119.96202007996061, 39.246381457849047 ] ], [ [ -119.961420298500485, 39.247392757453568 ], [ -119.961405152628771, 39.247408126681925 ], [ -119.961536801550196, 39.247377782849014 ], [ -119.961420298500485, 39.247392757453568 ] ], [ [ -119.962661457795718, 39.247487930206908 ], [ -119.9626022561621, 39.247387582778316 ], [ -119.962652477292053, 39.247503393317501 ], [ -119.962661457795718, 39.247487930206908 ] ], [ [ -119.96230569619469, 39.248352751030694 ], [ -119.962292923937568, 39.248350415724985 ], [ -119.962304919081475, 39.248370747590869 ], [ -119.962326510357201, 39.248407344946898 ], [ -119.962259501357849, 39.2484340432529 ], [ -119.962391526665925, 39.248413955921777 ], [ -119.96230569619469, 39.248352751030694 ] ], [ [ -119.962477039424257, 39.248141021816977 ], [ -119.96248092473175, 39.248051038997353 ], [ -119.962457568655992, 39.248165081969951 ], [ -119.962477039424257, 39.248141021816977 ] ], [ [ -119.96219074591427, 39.248331733230003 ], [ -119.962142900653632, 39.248366517816784 ], [ -119.962248221044959, 39.248342242144219 ], [ -119.96219074591427, 39.248331733230003 ] ], [ [ -119.961964116944188, 39.248172673204145 ], [ -119.962111528609157, 39.248373748849183 ], [ -119.962142900653589, 39.248366517816791 ], [ -119.961964116944188, 39.248172673204145 ] ], [ [ -119.961861268719645, 39.248449249015472 ], [ -119.961606560010708, 39.248615805716206 ], [ -119.961692254715885, 39.248606987562724 ], [ -119.961902629499264, 39.248438762562984 ], [ -119.961861268719645, 39.248449249015472 ] ], [ [ -119.961384366330051, 39.248761099361772 ], [ -119.961284787455597, 39.248920650499294 ], [ -119.961488479181426, 39.248693019538869 ], [ -119.961384366330051, 39.248761099361772 ] ], [ [ -119.96127103353227, 39.249239050836636 ], [ -119.961271902443769, 39.249239178125414 ], [ -119.961296243923414, 39.249120336076253 ], [ -119.961276236128882, 39.249118612450715 ], [ -119.96127103353227, 39.249239050836636 ] ], [ [ -119.960965282874326, 39.249198859793772 ], [ -119.960971454503621, 39.249200736872247 ], [ -119.960968344588707, 39.249272723012943 ], [ -119.96101473370075, 39.249206261568055 ], [ -119.960965282874326, 39.249198859793772 ] ], [ [ -119.962137030713848, 39.248809064223991 ], [ -119.962177708145362, 39.248786961689497 ], [ -119.962148948695457, 39.248763046340201 ], [ -119.962137030713848, 39.248809064223991 ] ], [ [ -119.961817497578267, 39.249015636768206 ], [ -119.961823935430161, 39.249002146932177 ], [ -119.961814028591064, 39.249006537769411 ], [ -119.961817497578267, 39.249015636768206 ] ], [ [ -119.962139279206625, 39.248481943052809 ], [ -119.96211431502428, 39.24849188944291 ], [ -119.962221994155058, 39.248573974775169 ], [ -119.962139279206625, 39.248481943052809 ] ], [ [ -119.9622158851504, 39.249359349769676 ], [ -119.962016785720948, 39.249335173968248 ], [ -119.962033033232103, 39.249354575911418 ], [ -119.9622158851504, 39.249359349769676 ] ], [ [ -119.961895228936584, 39.249320413667675 ], [ -119.961729019737135, 39.249300231135052 ], [ -119.96184632945419, 39.249331684348938 ], [ -119.961895228936584, 39.249320413667675 ] ], [ [ -119.961609333915916, 39.249285697712942 ], [ -119.961493168321411, 39.249271591628521 ], [ -119.961616426138747, 39.249289647619797 ], [ -119.961609333915916, 39.249285697712942 ] ], [ [ -119.961564430452015, 39.249555918717775 ], [ -119.961582397799646, 39.24954099486083 ], [ -119.961616426138747, 39.249289647619797 ], [ -119.961564430452015, 39.249555918717775 ] ], [ [ -119.961951005815962, 39.250127158525387 ], [ -119.961836052796926, 39.250106140270134 ], [ -119.962133842714181, 39.250185982675298 ], [ -119.961951005815962, 39.250127158525387 ] ], [ [ -119.961764749056215, 39.250285476429134 ], [ -119.961829834523598, 39.250250112643585 ], [ -119.961836052796926, 39.250106140270134 ], [ -119.961764749056215, 39.250285476429134 ] ], [ [ -119.961744409834466, 39.250296527604078 ], [ -119.961621519654358, 39.250244673254983 ], [ -119.961597337099377, 39.250268064245539 ], [ -119.961823616205734, 39.25039408501263 ], [ -119.961734918195503, 39.250301684817735 ], [ -119.961744409834466, 39.250296527604078 ] ], [ [ -119.961740963393808, 39.250698213165215 ], [ -119.961720926455271, 39.250625622610507 ], [ -119.961740720090845, 39.25071140224469 ], [ -119.961812734042226, 39.2506460366479 ], [ -119.961823616205734, 39.25039408501263 ], [ -119.961740963393808, 39.250698213165215 ] ], [ [ -119.961504634101928, 39.250311654251405 ], [ -119.961510533462686, 39.250391915437682 ], [ -119.961532349439622, 39.250313649528707 ], [ -119.961504634101928, 39.250311654251405 ] ], [ [ -119.961098025984427, 39.250221774327514 ], [ -119.96108915968918, 39.250230770905318 ], [ -119.960765892231308, 39.250204310887405 ], [ -119.960723531548524, 39.25015717822555 ], [ -119.960720377678186, 39.250185105216765 ], [ -119.960081504173985, 39.250119909202709 ], [ -119.960096989915371, 39.250132786968884 ], [ -119.961125034677451, 39.250251825299152 ], [ -119.961098025984427, 39.250221774327514 ] ], [ [ -119.962136838526646, 39.249478534567821 ], [ -119.962141007421465, 39.249483512825414 ], [ -119.962328505692838, 39.249434357280492 ], [ -119.962136838526646, 39.249478534567821 ] ], [ [ -119.960802256572194, 39.24989897444631 ], [ -119.96079543891841, 39.249520442744689 ], [ -119.960735759228456, 39.250048903904322 ], [ -119.960802256572194, 39.24989897444631 ] ], [ [ -119.961656151840629, 39.250515830188121 ], [ -119.961625248021718, 39.250646054788625 ], [ -119.961627564228451, 39.25064120158644 ], [ -119.961656151840629, 39.250515830188121 ] ], [ [ -119.961514653277149, 39.250447965719864 ], [ -119.961518052126863, 39.250494207202472 ], [ -119.961656151840629, 39.250515830188121 ], [ -119.961514653277149, 39.250447965719864 ] ], [ [ -119.962207774446966, 39.250620317074649 ], [ -119.962331475216985, 39.250515445445231 ], [ -119.962281876223457, 39.250514150592799 ], [ -119.962207774446966, 39.250620317074649 ] ], [ [ -119.9615752129925, 39.250856894585802 ], [ -119.961571166026758, 39.250873947802958 ], [ -119.960971695049864, 39.250804241863754 ], [ -119.961592757596151, 39.250910545296854 ], [ -119.961630089182421, 39.251065564094411 ], [ -119.961679512762501, 39.251047936968391 ], [ -119.961637495511567, 39.25094774719269 ], [ -119.961779482748085, 39.250879387354139 ], [ -119.961614349187002, 39.250947142787396 ], [ -119.9615752129925, 39.250856894585802 ] ], [ [ -119.95771995813061, 39.249908510335771 ], [ -119.957773861333081, 39.249896088565059 ], [ -119.957628264084278, 39.249885522223494 ], [ -119.957763136659736, 39.24998170658057 ], [ -119.95771995813061, 39.249908510335771 ] ], [ [ -119.959282349900789, 39.250038351713933 ], [ -119.95905930949742, 39.250015588373756 ], [ -119.9590902352531, 39.249836228259483 ], [ -119.959060087485682, 39.249997591872862 ], [ -119.958459849116679, 39.249945869859403 ], [ -119.958196748571368, 39.249926777459237 ], [ -119.958619536325386, 39.250004094379484 ], [ -119.959282349900789, 39.250038351713933 ] ], [ [ -119.959328695557957, 39.24968030842539 ], [ -119.959325123692892, 39.249665474039119 ], [ -119.9590902352531, 39.249836228259483 ], [ -119.959328695557957, 39.24968030842539 ] ], [ [ -119.95719865488077, 39.251246141186122 ], [ -119.957065233041263, 39.251384212811665 ], [ -119.957172394531355, 39.251317521756235 ], [ -119.957326841938198, 39.250961224080164 ], [ -119.957184588592924, 39.251228477193209 ], [ -119.95719865488077, 39.251246141186122 ] ], [ [ -119.958623810409605, 39.250977114941634 ], [ -119.958530447185638, 39.250992691384617 ], [ -119.9588947221756, 39.251051385179217 ], [ -119.958509635380153, 39.250938096895268 ], [ -119.957326841938198, 39.250961224080164 ], [ -119.958623810409605, 39.250977114941634 ] ], [ [ -119.959693164608723, 39.251323513196674 ], [ -119.959585063983781, 39.251254472076006 ], [ -119.959455342480979, 39.251216310597428 ], [ -119.959693164608723, 39.251323513196674 ] ], [ [ -119.96042698914998, 39.251856800235565 ], [ -119.96038925381211, 39.251802384302273 ], [ -119.960383575510207, 39.251812115169933 ], [ -119.96042698914998, 39.251856800235565 ] ], [ [ -119.960516180159871, 39.251693185602015 ], [ -119.960521234952267, 39.251576208220698 ], [ -119.960418496991963, 39.251752270412112 ], [ -119.960516180159871, 39.251693185602015 ] ], [ [ -119.960540726282275, 39.25197386797668 ], [ -119.960568559336878, 39.252002516003927 ], [ -119.960548688164067, 39.251959783074078 ], [ -119.960540726282275, 39.25197386797668 ] ], [ [ -119.960607211069529, 39.251731597149814 ], [ -119.960509181167978, 39.251855154279106 ], [ -119.960516637478648, 39.251861354664953 ], [ -119.960607211069529, 39.251731597149814 ] ], [ [ -119.958733503615846, 39.252727614372382 ], [ -119.958747707301882, 39.251863177932002 ], [ -119.958732937420777, 39.252733127282113 ], [ -119.95885433410227, 39.25271996243228 ], [ -119.958733503615846, 39.252727614372382 ] ], [ [ -119.958643912101181, 39.252751894507533 ], [ -119.958546772467514, 39.252758767169375 ], [ -119.958639359888423, 39.252761187294496 ], [ -119.95868773215426, 39.25295343000807 ], [ -119.958703353364797, 39.252888977743545 ], [ -119.958643912101181, 39.252751894507533 ] ], [ [ -119.958486458648977, 39.252793224248023 ], [ -119.958478995192735, 39.252763562385347 ], [ -119.958174866313612, 39.25278507888909 ], [ -119.958486458648977, 39.252793224248023 ] ], [ [ -119.958123902774645, 39.252891847509318 ], [ -119.95817862824623, 39.252826051223458 ], [ -119.958174866313612, 39.25278507888909 ], [ -119.958123902774645, 39.252891847509318 ] ], [ [ -119.95802449672783, 39.253011362729374 ], [ -119.958041005382498, 39.252991514520865 ], [ -119.958015868395478, 39.25298592442099 ], [ -119.95802449672783, 39.253011362729374 ] ], [ [ -119.957307583385031, 39.252886624019375 ], [ -119.957964209614843, 39.252833622092254 ], [ -119.957360055833334, 39.252871875843468 ], [ -119.957307583385031, 39.252886624019375 ] ], [ [ -119.959370723810252, 39.252996503616636 ], [ -119.959197996764388, 39.252703720523449 ], [ -119.959243676658275, 39.252695305319435 ], [ -119.959184363548189, 39.252699061711787 ], [ -119.959370723810252, 39.252996503616636 ] ], [ [ -119.958326576030075, 39.253563768258992 ], [ -119.958447759302885, 39.25344081831615 ], [ -119.958480245134851, 39.253225465613461 ], [ -119.95843000012114, 39.253405683056798 ], [ -119.958448537542253, 39.253422821836153 ], [ -119.958326576030075, 39.253563768258992 ] ], [ [ -119.958536655866567, 39.252992721452287 ], [ -119.958357644857529, 39.253338786867168 ], [ -119.958415891307695, 39.253392638740934 ], [ -119.958384544115134, 39.25329503125603 ], [ -119.958536655866567, 39.252992721452287 ] ], [ [ -119.958247996826174, 39.253237411264408 ], [ -119.9582723047359, 39.253259885289566 ], [ -119.958244015480844, 39.253203393164569 ], [ -119.958247996826174, 39.253237411264408 ] ], [ [ -119.958646943285373, 39.253121722014029 ], [ -119.958655001893973, 39.253088472835692 ], [ -119.958635830090515, 39.253128638262062 ], [ -119.958646943285373, 39.253121722014029 ] ], [ [ -119.95961601686551, 39.25536311754361 ], [ -119.959323655131584, 39.255157292579874 ], [ -119.959597890694141, 39.255385331747675 ], [ -119.95961601686551, 39.25536311754361 ] ], [ [ -119.959283389781518, 39.255552610400677 ], [ -119.959257129626209, 39.255623991416059 ], [ -119.959394782822002, 39.255748044030902 ], [ -119.959371312562268, 39.255663009015926 ], [ -119.959507259661322, 39.255496402717775 ], [ -119.959325016910626, 39.255661799179123 ], [ -119.959283389781518, 39.255552610400677 ] ], [ [ -119.959075837852012, 39.255529169361793 ], [ -119.959082929016901, 39.255511337869514 ], [ -119.959040608346868, 39.255510231807058 ], [ -119.959151431455012, 39.25559318228904 ], [ -119.959166872734158, 39.255567582179346 ], [ -119.959283389781518, 39.255552610400677 ], [ -119.959075837852012, 39.255529169361793 ] ], [ [ -119.959519083478114, 39.25599717896138 ], [ -119.959571084855042, 39.255866414462218 ], [ -119.959788169923897, 39.255958013283127 ], [ -119.959799452018743, 39.255944448979584 ], [ -119.960028597619967, 39.256004486568905 ], [ -119.959933672020199, 39.256056056872481 ], [ -119.960074115632224, 39.25602369263401 ], [ -119.960256187938072, 39.256100516725517 ], [ -119.960251103133544, 39.25614156519493 ], [ -119.960279335927851, 39.256101121466756 ], [ -119.960436705040522, 39.256213333556033 ], [ -119.960280113772626, 39.25608312496437 ], [ -119.959488663141258, 39.255832648337787 ], [ -119.959524789060978, 39.255865204699603 ], [ -119.959519083478114, 39.25599717896138 ] ], [ [ -119.95896727322166, 39.256743160196983 ], [ -119.958978182965396, 39.256715727155836 ], [ -119.958843185134569, 39.256622114657624 ], [ -119.959415080100911, 39.25625870785953 ], [ -119.959445254005828, 39.256182832205255 ], [ -119.958828491857304, 39.256616151211617 ], [ -119.95896727322166, 39.256743160196983 ] ], [ [ -119.958949557379754, 39.256787707425858 ], [ -119.958958681792012, 39.256764763715864 ], [ -119.958915101578341, 39.256796441024122 ], [ -119.958949557379754, 39.256787707425858 ] ], [ [ -119.958474170155895, 39.257116939834887 ], [ -119.958694178897773, 39.256852438550332 ], [ -119.958450243529981, 39.257134331190436 ], [ -119.958381577020134, 39.257114519355085 ], [ -119.958501844344269, 39.257172200638955 ], [ -119.958474170155895, 39.257116939834887 ] ], [ [ -119.958538166778908, 39.257244730436199 ], [ -119.958527195913646, 39.257222823478003 ], [ -119.958404082789144, 39.257519667066397 ], [ -119.958481751725898, 39.257477474318129 ], [ -119.958578044513558, 39.257215744811937 ], [ -119.958538166778908, 39.257244730436199 ] ], [ [ -119.958407116710788, 39.257588869573688 ], [ -119.958392838777527, 39.257546777865301 ], [ -119.958385266274689, 39.257565036157587 ], [ -119.958407116710788, 39.257588869573688 ] ], [ [ -119.95860293828288, 39.257660810294176 ], [ -119.958586221295008, 39.257784227597931 ], [ -119.958639282934982, 39.257842104241014 ], [ -119.95860293828288, 39.257660810294176 ] ], [ [ -119.958940599102561, 39.25767048899619 ], [ -119.958668295007456, 39.257986821332629 ], [ -119.958667516697972, 39.258004817802188 ], [ -119.95860532322942, 39.258064964034844 ], [ -119.958860487963719, 39.257829693595362 ], [ -119.958940599102561, 39.25767048899619 ] ], [ [ -119.95827908109321, 39.258365766981974 ], [ -119.95829923437671, 39.258347185284435 ], [ -119.958260753376337, 39.258287663327998 ], [ -119.95827908109321, 39.258365766981974 ] ], [ [ -119.958921138364971, 39.255449879442828 ], [ -119.958902485595331, 39.255432416953312 ], [ -119.958773360392087, 39.25555729731088 ], [ -119.958921138364971, 39.255449879442828 ] ], [ [ -119.958683216471528, 39.255418473290312 ], [ -119.958659672259856, 39.25546562751321 ], [ -119.958805068429911, 39.255359941063858 ], [ -119.958848269955595, 39.255381660885831 ], [ -119.958805846631066, 39.255341944583797 ], [ -119.958709364670796, 39.255429506850554 ], [ -119.958683216471528, 39.255418473290312 ] ], [ [ -119.958961309314134, 39.25520830788939 ], [ -119.958950180036965, 39.25521959925522 ], [ -119.959153840453226, 39.255333022912502 ], [ -119.958961309314134, 39.25520830788939 ] ], [ [ -119.959091982420858, 39.255691742687212 ], [ -119.959136916641924, 39.255617246389797 ], [ -119.958987817193048, 39.255689020277053 ], [ -119.959091982420858, 39.255691742687212 ] ], [ [ -119.958850971933288, 39.255798949579074 ], [ -119.958923917338367, 39.255719780452047 ], [ -119.958881317404945, 39.25574028721455 ], [ -119.958850971933288, 39.255798949579074 ] ], [ [ -119.958778564399296, 39.25584676225477 ], [ -119.958735426289522, 39.255898625356139 ], [ -119.958836089861563, 39.255982332158553 ], [ -119.958812795296424, 39.255872750603537 ], [ -119.958780165625384, 39.255935828389163 ], [ -119.958778564399296, 39.25584676225477 ] ], [ [ -119.958845718299884, 39.256027625866906 ], [ -119.95884315071531, 39.256015547544727 ], [ -119.958832546122565, 39.256077042319532 ], [ -119.958845718299884, 39.256027625866906 ] ], [ [ -119.958762733237506, 39.256338949474952 ], [ -119.958809801093267, 39.256162371885573 ], [ -119.95877249452839, 39.256113222238611 ], [ -119.958762733237506, 39.256338949474952 ] ], [ [ -119.958640664992146, 39.255503695115323 ], [ -119.958509395456559, 39.255766599379321 ], [ -119.958655286769471, 39.255608261527449 ], [ -119.958640664992146, 39.255503695115323 ] ], [ [ -119.958708739310595, 39.256541509331704 ], [ -119.958716528744418, 39.256512287117253 ], [ -119.958687548297462, 39.256538587833816 ], [ -119.958708739310595, 39.256541509331704 ] ], [ [ -119.958546151004512, 39.256524266505984 ], [ -119.958627069155071, 39.25679663392129 ], [ -119.958594397717789, 39.256540753139411 ], [ -119.958546151004512, 39.256524266505984 ] ], [ [ -119.958482350117521, 39.256840438877497 ], [ -119.958485845098195, 39.256846992791523 ], [ -119.958471228129355, 39.256884496523533 ], [ -119.958627069155071, 39.25679663392129 ], [ -119.958482350117521, 39.256840438877497 ] ], [ [ -119.958044267536039, 39.25741198694287 ], [ -119.957977157828196, 39.257356181942541 ], [ -119.957867056195298, 39.257401348121903 ], [ -119.957905377309913, 39.257408355660218 ], [ -119.957884001495827, 39.25747072116512 ], [ -119.957999527718997, 39.257374783613223 ], [ -119.958040375263352, 39.257501969246697 ], [ -119.957947744200069, 39.257597820945435 ], [ -119.958039596806714, 39.257519965707253 ], [ -119.958079666041456, 39.25766514779081 ], [ -119.958044267536039, 39.25741198694287 ] ], [ [ -119.957870551451336, 39.257677697296202 ], [ -119.957895605805177, 39.257698531192283 ], [ -119.957895317477593, 39.257652070306797 ], [ -119.957870551451336, 39.257677697296202 ] ], [ [ -119.957846828991251, 39.257579174371664 ], [ -119.957825811570558, 39.257640493898137 ], [ -119.957870551451336, 39.257677697296181 ], [ -119.957846828991251, 39.257579174371664 ] ], [ [ -119.960827293933107, 39.255755099009178 ], [ -119.96165068927229, 39.25660362474958 ], [ -119.961648779095896, 39.256587310651433 ], [ -119.960827293933107, 39.255755099009178 ] ], [ [ -119.961665707233109, 39.256731887313109 ], [ -119.961630977294888, 39.256754144893605 ], [ -119.961641781491792, 39.256749279362488 ], [ -119.961665707233109, 39.256731887313109 ] ], [ [ -119.961225411994661, 39.256999649802069 ], [ -119.961207639621023, 39.257003745454689 ], [ -119.961213449026218, 39.257008345777862 ], [ -119.961225411994661, 39.256999649802069 ] ], [ [ -119.958924386481527, 39.261361483702245 ], [ -119.959049733669815, 39.261492052561898 ], [ -119.959648275050071, 39.261831170882296 ], [ -119.959548911661557, 39.261739316754671 ], [ -119.959366825988837, 39.261662491077615 ], [ -119.959511950351228, 39.261522149164534 ], [ -119.959344454427494, 39.261643889614184 ], [ -119.958924386481527, 39.261361483702245 ] ], [ [ -119.958746262319124, 39.261175938275173 ], [ -119.95872084181137, 39.261026568282141 ], [ -119.958694905895115, 39.261122441942 ], [ -119.958746262319124, 39.261175938275173 ] ], [ [ -119.957761856280968, 39.261115745762034 ], [ -119.957790514495187, 39.261134831727887 ], [ -119.958694905895115, 39.261122441942 ], [ -119.957761856280968, 39.261115745762034 ] ], [ [ -119.957734197786877, 39.261097325579613 ], [ -119.957693172436151, 39.261027788998213 ], [ -119.957677881139105, 39.261059819406135 ], [ -119.957734197786877, 39.261097325579613 ] ], [ [ -119.958024180425099, 39.260334424209695 ], [ -119.958288235067073, 39.259915495089658 ], [ -119.9580856440096, 39.260205674267738 ], [ -119.958024180425099, 39.260334424209695 ] ], [ [ -119.958548000863289, 39.259543418021359 ], [ -119.958602395666361, 39.259510522178857 ], [ -119.958555059676783, 39.259533307221567 ], [ -119.958548000863289, 39.259543418021359 ] ], [ [ -119.958649991078161, 39.259481738293779 ], [ -119.958612706575181, 39.259450735670399 ], [ -119.958596236047072, 39.259474327545732 ], [ -119.958603692945886, 39.259480528072331 ], [ -119.95859211841325, 39.25948022551411 ], [ -119.958589647832611, 39.259483764295062 ], [ -119.958623218663845, 39.259497929231678 ], [ -119.958649991078161, 39.259481738293779 ] ], [ [ -119.959741669631427, 39.258212110175741 ], [ -119.959745969681151, 39.258208624489505 ], [ -119.959726905898009, 39.258158622202217 ], [ -119.959741669631427, 39.258212110175741 ] ], [ [ -119.959758585265732, 39.258198398100191 ], [ -119.959855775605973, 39.258119613945617 ], [ -119.959726905898009, 39.258158622202217 ], [ -119.959758585265732, 39.258198398100191 ] ], [ [ -119.960565110914402, 39.257531915963988 ], [ -119.959938737196467, 39.257011080748825 ], [ -119.960541184630131, 39.257549307763512 ], [ -119.9602493922267, 39.257800538832718 ], [ -119.960912103064871, 39.257263319545153 ], [ -119.960878484710605, 39.257251832549521 ], [ -119.960565110914402, 39.257531915963988 ] ], [ [ -119.960144417118499, 39.256556295211148 ], [ -119.960216704800445, 39.256477838498263 ], [ -119.960207361547461, 39.256417115395571 ], [ -119.960144417118499, 39.256556295211148 ] ], [ [ -119.960950262972972, 39.257199656902351 ], [ -119.960992671236525, 39.257290848686438 ], [ -119.960966320487927, 39.257281844972049 ], [ -119.961194785672603, 39.257440262122493 ], [ -119.960950262972972, 39.257199656902351 ] ], [ [ -119.96114752961428, 39.257997549420757 ], [ -119.96129726592595, 39.258153522084747 ], [ -119.961327275280397, 39.258128361596135 ], [ -119.96114752961428, 39.257997549420757 ] ], [ [ -119.962126195667238, 39.257596977577769 ], [ -119.962092911239239, 39.257571816190868 ], [ -119.961947800492851, 39.257712161928765 ], [ -119.962126195667238, 39.257596977577769 ] ], [ [ -119.958901440506921, 39.260358966082542 ], [ -119.959016818728514, 39.260029379490213 ], [ -119.958970765688861, 39.260102694324253 ], [ -119.958901440506921, 39.260358966082542 ] ], [ [ -119.958924104537871, 39.256894481911758 ], [ -119.95913944197838, 39.256737958562745 ], [ -119.958900178096584, 39.256911873367805 ], [ -119.958939017879374, 39.256906882908048 ], [ -119.958924104537871, 39.256894481911758 ] ], [ [ -119.958942180776276, 39.256806256186252 ], [ -119.958885271449745, 39.256918121527661 ], [ -119.958889371940813, 39.256921531240479 ], [ -119.958900178096584, 39.256911873367805 ], [ -119.958942180776276, 39.256806256186252 ] ], [ [ -119.959534226223909, 39.257165665154766 ], [ -119.959514287562172, 39.257180158141125 ], [ -119.95949044459708, 39.257272193004795 ], [ -119.959498433983214, 39.257278836360371 ], [ -119.959510397200731, 39.257270140571471 ], [ -119.959534226223909, 39.257165665154766 ] ], [ [ -119.959562140336672, 39.257145374967443 ], [ -119.959585288655092, 39.257145979860027 ], [ -119.959586066706194, 39.257127983372477 ], [ -119.959562140336672, 39.257145374967443 ] ], [ [ -119.959784690321356, 39.262718385576093 ], [ -119.959867531927372, 39.263035844350668 ], [ -119.959859587733519, 39.262594224996427 ], [ -119.959790451670543, 39.262708834764425 ], [ -119.95982865620276, 39.262773584833859 ], [ -119.959805506028147, 39.26277297991755 ], [ -119.95978863229729, 39.262711850810263 ], [ -119.959784690321356, 39.262718385576093 ] ], [ [ -119.958903590879999, 39.262675192003506 ], [ -119.958906541659161, 39.262659402303179 ], [ -119.957996317534125, 39.261734767259973 ], [ -119.957924532345345, 39.261786940780979 ], [ -119.95791128052727, 39.261777858875732 ], [ -119.95773466196917, 39.261890077047482 ], [ -119.957995538949035, 39.261752763706731 ], [ -119.958903590879999, 39.262675192003506 ] ], [ [ -119.957836030186712, 39.263006343509133 ], [ -119.957861672497131, 39.262704154104547 ], [ -119.95773466196917, 39.261890077047482 ], [ -119.957836030186712, 39.263006343509133 ] ], [ [ -119.958875607672326, 39.262838761788892 ], [ -119.958253460957181, 39.263290935149463 ], [ -119.958900827421544, 39.262837293372911 ], [ -119.958876386062414, 39.262820765330837 ], [ -119.958902820338977, 39.262679315188343 ], [ -119.958841429158113, 39.262719292709697 ], [ -119.958857906254181, 39.262712181476971 ], [ -119.958875607672326, 39.262838761788892 ] ], [ [ -119.958115337699454, 39.263269307220163 ], [ -119.958133178340148, 39.26325327046569 ], [ -119.957992267402119, 39.26325688091493 ], [ -119.958253460957181, 39.263290935149463 ], [ -119.958115337699454, 39.263269307220163 ] ], [ [ -119.95964053757055, 39.262300232159774 ], [ -119.959635868478372, 39.262408210993542 ], [ -119.959650783058621, 39.262420611939184 ], [ -119.95964053757055, 39.262300232159774 ] ], [ [ -119.959926896961079, 39.262109529920593 ], [ -119.960284848187158, 39.262407151244133 ], [ -119.95986055955936, 39.262035729334507 ], [ -119.959722438125794, 39.262014103387784 ], [ -119.959904525109806, 39.262090928554748 ], [ -119.95964053757055, 39.262300232159774 ], [ -119.959926896961079, 39.262109529920593 ] ], [ [ -119.95974947876617, 39.261924725934314 ], [ -119.959687006932569, 39.261866975567308 ], [ -119.959722438125794, 39.262014103387784 ], [ -119.95974947876617, 39.261924725934314 ] ], [ [ -119.959503567104875, 39.265467610256124 ], [ -119.959299298828952, 39.264831683873297 ], [ -119.959499675583018, 39.265557592557322 ], [ -119.959503567104875, 39.265467610256124 ] ], [ [ -119.959574389757449, 39.263829932074373 ], [ -119.959582451170817, 39.263810999883809 ], [ -119.959332766686799, 39.264057836074421 ], [ -119.959574389757449, 39.263829932074373 ] ], [ [ -119.959703371814697, 39.263527016931491 ], [ -119.959681777801038, 39.26349041904173 ], [ -119.95961611937652, 39.263731930138285 ], [ -119.959703371814697, 39.263527016931491 ] ], [ [ -119.961567061848456, 39.261273343327893 ], [ -119.961468975393089, 39.26128500558481 ], [ -119.961417702355533, 39.261322274009508 ], [ -119.961567061848456, 39.261273343327893 ] ], [ [ -119.961189440176497, 39.261854243077416 ], [ -119.9613656523983, 39.261360107081785 ], [ -119.961349338221112, 39.261371965203601 ], [ -119.961189440176497, 39.261854243077416 ] ], [ [ -119.963124875381141, 39.261580474104541 ], [ -119.963151163294953, 39.261533973340896 ], [ -119.963055425824194, 39.261578661353383 ], [ -119.963124875381141, 39.261580474104541 ] ], [ [ -119.961775483027722, 39.261248562232886 ], [ -119.962101724393222, 39.261289773607537 ], [ -119.961841703777964, 39.261240688561394 ], [ -119.961775483027722, 39.261248562232886 ] ], [ [ -119.964548514002431, 39.261887876715981 ], [ -119.964560724176351, 39.26188925508216 ], [ -119.964544491770894, 39.26186174747653 ], [ -119.964548514002431, 39.261887876715981 ] ], [ [ -119.964512314004182, 39.261652713556828 ], [ -119.964520831633536, 39.261708046065749 ], [ -119.964552801179337, 39.261662248344443 ], [ -119.964512314004182, 39.261652713556828 ] ], [ [ -119.961288846104736, 39.265994408358225 ], [ -119.961436407488662, 39.266328861898323 ], [ -119.961356247580724, 39.266038499476778 ], [ -119.961288846104736, 39.265994408358225 ] ], [ [ -119.971049607593841, 39.266993917457022 ], [ -119.970869045804051, 39.266881115538467 ], [ -119.970817560887781, 39.266896048352521 ], [ -119.971049607593841, 39.266993917457022 ] ], [ [ -119.97028074936307, 39.26787046474918 ], [ -119.970270745916068, 39.267856462599376 ], [ -119.970016848852168, 39.267831833758322 ], [ -119.97028074936307, 39.26787046474918 ] ], [ [ -119.970014521811564, 39.267885823643823 ], [ -119.970033389571228, 39.267891720068292 ], [ -119.970016848852168, 39.267831833758322 ], [ -119.970014521811564, 39.267885823643823 ] ], [ [ -119.970106764223843, 39.267914650579954 ], [ -119.970266092214175, 39.267964442394749 ], [ -119.970336324138799, 39.267948254456833 ], [ -119.970106764223843, 39.267914650579954 ] ], [ [ -119.973205461855542, 39.268965164659946 ], [ -119.973306586012328, 39.268944422259565 ], [ -119.973357060381701, 39.2688956015309 ], [ -119.973205461855542, 39.268965164659946 ] ], [ [ -119.973036513881908, 39.268891603208971 ], [ -119.973072736317107, 39.268992388923344 ], [ -119.973128541384469, 39.26898094237702 ], [ -119.973036513881908, 39.268891603208971 ] ], [ [ -119.972004621001417, 39.269036662108427 ], [ -119.971996190586239, 39.269039214516297 ], [ -119.971989489170497, 39.269065095215872 ], [ -119.972004621001417, 39.269036662108427 ] ], [ [ -119.971928961718191, 39.269178827619896 ], [ -119.971955665031331, 39.269128651564387 ], [ -119.971898661633304, 39.26918038901848 ], [ -119.971928961718191, 39.269178827619896 ] ], [ [ -119.971381829925321, 39.26896640100626 ], [ -119.971412545067636, 39.268988293443876 ], [ -119.971420885339597, 39.268960713738522 ], [ -119.971381829925321, 39.26896640100626 ] ], [ [ -119.958214167472676, 39.263127756660786 ], [ -119.958179303942373, 39.263211808623808 ], [ -119.958426967118925, 39.262989185478048 ], [ -119.958214167472676, 39.263127756660786 ] ], [ [ -119.957816719635801, 39.263261378596333 ], [ -119.957814894212802, 39.263271961583911 ], [ -119.957856147809849, 39.263260368436526 ], [ -119.957816719635801, 39.263261378596333 ] ], [ [ -119.957529571661212, 39.263416142166925 ], [ -119.957523056508904, 39.263436423296476 ], [ -119.957572176756202, 39.263395636120805 ], [ -119.957529571661212, 39.263416142166925 ] ], [ [ -119.959094376963662, 39.256886920937042 ], [ -119.959064550236448, 39.256862118980685 ], [ -119.959016697430911, 39.256896901948942 ], [ -119.959094376963662, 39.256886920937042 ] ], [ [ -119.959135823152877, 39.256928842256599 ], [ -119.959167818638676, 39.256964440311357 ], [ -119.959176400571593, 39.256955126281319 ], [ -119.959154030480917, 39.256936524828951 ], [ -119.959154030480946, 39.256936524828987 ], [ -119.959135823152877, 39.256928842256599 ] ], [ [ -119.95906265945348, 39.257528691792913 ], [ -119.959105202521485, 39.257529803675347 ], [ -119.959229504369787, 39.257334867284179 ], [ -119.95906265945348, 39.257528691792913 ] ], [ [ -119.958878671724833, 39.256931094426967 ], [ -119.958880591937046, 39.256929378261198 ], [ -119.958879558533837, 39.256929351251024 ], [ -119.958878671724833, 39.256931094426967 ] ], [ [ -119.959062993881602, 39.256898111939968 ], [ -119.958725688252031, 39.257195581667965 ], [ -119.959093946313843, 39.256911172329822 ], [ -119.959062993881602, 39.256898111939968 ] ], [ [ -119.958617528927874, 39.257553090799618 ], [ -119.958612665385672, 39.257588997298406 ], [ -119.958736384212798, 39.257484130292887 ], [ -119.958617528927874, 39.257553090799618 ] ], [ [ -119.957903905321629, 39.253156348271474 ], [ -119.95799190450613, 39.253050548025513 ], [ -119.957873929632015, 39.253172633126894 ], [ -119.957903905321629, 39.253156348271474 ] ], [ [ -119.957808982257703, 39.253207916951787 ], [ -119.957842664650897, 39.253189618397336 ], [ -119.957648510249527, 39.25316768755448 ], [ -119.957808982257703, 39.253207916951787 ] ], [ [ -119.959206100901199, 39.249146895016722 ], [ -119.959065685353565, 39.249106379010691 ], [ -119.95907428442932, 39.249133154864545 ], [ -119.959206100901199, 39.249146895016722 ] ], [ [ -119.959467760975826, 39.249143437316619 ], [ -119.959364768957684, 39.249163433893244 ], [ -119.959498234921483, 39.249177345639318 ], [ -119.959467760975826, 39.249143437316619 ] ], [ [ -119.959534086659204, 39.249217237774708 ], [ -119.959520411249386, 39.249202021188125 ], [ -119.959289405114404, 39.249517130171967 ], [ -119.959534086659204, 39.249217237774708 ] ], [ [ -119.958251838062182, 39.249492520278487 ], [ -119.958246288269578, 39.249525900190442 ], [ -119.95827231953524, 39.249539757164875 ], [ -119.958251838062182, 39.249492520278487 ] ], [ [ -119.961548336605674, 39.247043646324023 ], [ -119.961499838733914, 39.247160615484695 ], [ -119.961591004875459, 39.247061651278869 ], [ -119.961548336605674, 39.247043646324023 ] ], [ [ -119.961432035841881, 39.247121009564779 ], [ -119.961431569460487, 39.247131807494441 ], [ -119.961499838733914, 39.247160615484695 ], [ -119.961432035841881, 39.247121009564779 ] ], [ [ -119.961754606033097, 39.246626762413626 ], [ -119.96148368925509, 39.246998042147126 ], [ -119.961492174317996, 39.247002767928137 ], [ -119.961754606033097, 39.246626762413626 ] ], [ [ -119.962023004986548, 39.246543685873569 ], [ -119.961897361332419, 39.246540405483088 ], [ -119.961754606033097, 39.246626762413626 ], [ -119.962023004986548, 39.246543685873569 ] ], [ [ -119.961361504463198, 39.247239244720099 ], [ -119.961427294285969, 39.247230788515139 ], [ -119.961381781408051, 39.247211583163299 ], [ -119.961361504463198, 39.247239244720099 ] ] ], [ [ [ -119.962304919081475, 39.248370747590869 ], [ -119.96230569619469, 39.248352751030694 ], [ -119.962328064573953, 39.248371351825938 ], [ -119.962304919081475, 39.248370747590869 ] ] ], [ [ [ -119.962326510357201, 39.248407344946898 ], [ -119.962328064573953, 39.248371351825938 ], [ -119.962372801367835, 39.248408553404801 ], [ -119.962326510357201, 39.248407344946898 ] ] ], [ [ [ -119.965842878981007, 39.260894679121428 ], [ -119.965843655535778, 39.260876682540903 ], [ -119.96586602866752, 39.260895282813571 ], [ -119.965842878981007, 39.260894679121428 ] ] ], [ [ [ -119.958788344603803, 39.254674864748786 ], [ -119.958811492093204, 39.254675469763512 ], [ -119.958786788228778, 39.254710857712382 ], [ -119.958788344603803, 39.254674864748786 ] ] ], [ [ [ -119.960990750295025, 39.258407841476206 ], [ -119.960991528021694, 39.258389844969003 ], [ -119.961013899059381, 39.258408446100987 ], [ -119.960990750295025, 39.258407841476206 ] ] ], [ [ [ -119.957650059641693, 39.261167192741752 ], [ -119.957626910042407, 39.261166587412944 ], [ -119.9576276887055, 39.261148590970606 ], [ -119.957650059641693, 39.261167192741752 ] ] ], [ [ [ -119.957603760443789, 39.261165982079568 ], [ -119.957626910042407, 39.261166587412944 ], [ -119.957552789149062, 39.26127275004481 ], [ -119.957603760443789, 39.261165982079568 ] ] ], [ [ [ -119.957501817690385, 39.261379517979933 ], [ -119.95750337509169, 39.261343525100649 ], [ -119.957526524746541, 39.261344130456266 ], [ -119.957501817690385, 39.261379517979933 ] ] ], [ [ [ -119.957478668024407, 39.261378912618952 ], [ -119.957501817690385, 39.261379517979933 ], [ -119.957477110608536, 39.261414905497205 ], [ -119.957478668024407, 39.261378912618952 ] ] ] ] } }
]
}
