{
"type": "FeatureCollection",
"name": "X02903",
"crs": { "type": "name", "properties": { "name": "urn:ogc:def:crs:OGC:1.3:CRS84" } },
"features": [
{ "type": "Feature", "properties": { "part": "direct", "crossing_id": "X02903", "area_ac": 1.4 }, "geometry": { "type": "Polygon", "coordinates": [ [ [ -119.959554447273121, 39.243920818148496 ], [ -119.960221735087487, 39.244028335993661 ], [ -119.959980186258719, 39.244256244755334 ], [ -119.959943822871296, 39.244561581168639 ], [ -119.960034844456843, 39.244599992830878 ], [ -119.960050990380665, 39.244762566274488 ], [ -119.960142789850579, 39.244782981329081 ], [ -119.960083282379628, 39.245087713151975 ], [ -119.959328074299464, 39.244869795908194 ], [ -119.959544927751736, 39.244677277003007 ], [ -119.95953189386978, 39.244442717430424 ], [ -119.959440095046389, 39.244422301916849 ], [ -119.959541226383593, 39.244226759113907 ], [ -119.95945253874217, 39.244134357516124 ], [ -119.959554447273121, 39.243920818148496 ] ] ] } }
]
}
