{
"type": "FeatureCollection",
"name": "X02944",
"crs": { "type": "name", "properties": { "name": "urn:ogc:def:crs:OGC:1.3:CRS84" } },
"features": [
{ "type": "Feature", "properties": { "part": "direct", "crossing_id": "X02944", "area_ac": 1.0 }, "geometry": { "type": "Polygon", "coordinates": [ [ [ -119.966107357284443, 39.249929317549331 ], [ -119.966094162043305, 39.250235260059569 ], [ -119.966185970621268, 39.250255670674726 ], [ -119.966009975290689, 39.25057538521574 ], [ -119.965100282112488, 39.250713813481291 ], [ -119.965246147887058, 39.250555466249665 ], [ -119.965209172498973, 39.250338299652881 ], [ -119.965282493136868, 39.250250127668828 ], [ -119.965888951386745, 39.250157841842601 ], [ -119.965898266299249, 39.249941882463865 ], [ -119.966107357284443, 39.249929317549331 ] ] ] } }
]
}
