{
"type": "FeatureCollection",
"name": "X02909",
"crs": { "type": "name", "properties": { "name": "urn:ogc:def:crs:OGC:1.3:CRS84" } },
"features": [
{ "type": "Feature", "properties": { "part": "direct", "crossing_id": "X02909", "area_ac": 0.3 }, "geometry": { "type": "Polygon", "coordinates": [ [ [ -119.958504603529576, 39.245695066402376 ], [ -119.958803148685206, 39.245756920001618 ], [ -119.958750635964464, 39.245899682262227 ], [ -119.958537666508448, 39.246002216896372 ], [ -119.958613129155353, 39.246400559798758 ], [ -119.958497405338264, 39.246397535012527 ], [ -119.958505185624588, 39.246217569982953 ], [ -119.958392574332834, 39.246142559095176 ], [ -119.958504603529576, 39.245695066402376 ] ] ] } }
]
}
