{
"type": "FeatureCollection",
"name": "X02967",
"crs": { "type": "name", "properties": { "name": "urn:ogc:def:crs:OGC:1.3:CRS84" } },
"features": [
{ "type": "Feature", "properties": { "part": "direct", "crossing_id": "X02967", "area_ac": 0.8 }, "geometry": { "type": "Polygon", "coordinates": [ [ [ -119.965758685366907, 39.246731241821912 ], [ -119.965862768093089, 39.247004208779522 ], [ -119.965690661514358, 39.247233940145819 ], [ -119.965730742235522, 39.247379120202375 ], [ -119.965504580856972, 39.247787610293969 ], [ -119.965027068654791, 39.247576971121745 ], [ -119.965145900571983, 39.247508003055003 ], [ -119.965152111458835, 39.247364030170566 ], [ -119.965386668908167, 39.247298080068411 ], [ -119.965666105262827, 39.246728827665038 ], [ -119.965758685366907, 39.246731241821912 ] ] ] } }
]
}
