{
"type": "FeatureCollection",
"name": "X02936",
"crs": { "type": "name", "properties": { "name": "urn:ogc:def:crs:OGC:1.3:CRS84" } },
"features": [
{ "type": "Feature", "properties": { "part": "direct", "crossing_id": "X02936", "area_ac": 0.3, "n_upstream": null }, "geometry": { "type": "Polygon", "coordinates": [ [ [ -119.963292669132002, 39.252864707399915 ], [ -119.963616727070388, 39.252873164330147 ], [ -119.963552563853611, 39.253285877283716 ], [ -119.963165278886876, 39.253131635254277 ], [ -119.963292669132002, 39.252864707399915 ] ] ] } },
{ "type": "Feature", "properties": { "part": "upstream", "crossing_id": "X02936", "area_ac": 0.4, "n_upstream": 2.0 }, "geometry": { "type": "Polygon", "coordinates": [ [ [ -119.963507046527383, 39.253266672604838 ], [ -119.96334648941523, 39.2534967014183 ], [ -119.963452982705022, 39.253445430113118 ], [ -119.963631167961609, 39.253612231657108 ], [ -119.963441328221393, 39.25371537855991 ], [ -119.963437443358728, 39.253805361372066 ], [ -119.963226009543774, 39.253871910683998 ], [ -119.963183600105339, 39.253780719635714 ], [ -119.963397364620207, 39.253660180705054 ], [ -119.963310991618272, 39.253513791830251 ], [ -119.963322824219119, 39.253508095027556 ], [ -119.963198363710902, 39.253438785019455 ], [ -119.96313591554015, 39.253275003597757 ], [ -119.963163724835042, 39.25316762837376 ], [ -119.963280237278269, 39.253152652395173 ], [ -119.963507046527383, 39.253266672604838 ] ] ] } }
]
}
