{
"type": "FeatureCollection",
"name": "X02978",
"crs": { "type": "name", "properties": { "name": "urn:ogc:def:crs:OGC:1.3:CRS84" } },
"features": [
{ "type": "Feature", "properties": { "part": "direct", "crossing_id": "X02978", "area_ac": 0.2 }, "geometry": { "type": "Polygon", "coordinates": [ [ [ -119.963452982705022, 39.253445430113118 ], [ -119.963631167961609, 39.253612231657108 ], [ -119.963441328221393, 39.25371537855991 ], [ -119.963437443358728, 39.253805361372066 ], [ -119.963226009543774, 39.253871910683998 ], [ -119.963183600105339, 39.253780719635714 ], [ -119.963397364620207, 39.253660180705054 ], [ -119.963310991618272, 39.253513791830251 ], [ -119.963452982705022, 39.253445430113118 ] ] ] } }
]
}
