{
"type": "FeatureCollection",
"name": "X02932",
"crs": { "type": "name", "properties": { "name": "urn:ogc:def:crs:OGC:1.3:CRS84" } },
"features": [
{ "type": "Feature", "properties": { "part": "direct", "crossing_id": "X02932", "area_ac": 0.0, "n_upstream": null }, "geometry": { "type": "Polygon", "coordinates": [ [ [ -119.963794293179234, 39.252517461027274 ], [ -119.963814332695108, 39.252590051309255 ], [ -119.963650750558003, 39.252621816396022 ], [ -119.963609118102809, 39.252512628924677 ], [ -119.963794293179234, 39.252517461027274 ] ] ] } },
{ "type": "Feature", "properties": { "part": "upstream", "crossing_id": "X02932", "area_ac": 0.1, "n_upstream": 1.0 }, "geometry": { "type": "Polygon", "coordinates": [ [ [ -119.963608341207802, 39.252530625493804 ], [ -119.963650750558003, 39.252621816396022 ], [ -119.963255699066877, 39.252647540444777 ], [ -119.963330578605849, 39.252523376784204 ], [ -119.963608341207802, 39.252530625493804 ] ] ] } }
]
}
