{
"type": "FeatureCollection",
"name": "X03081",
"crs": { "type": "name", "properties": { "name": "urn:ogc:def:crs:OGC:1.3:CRS84" } },
"features": [
{ "type": "Feature", "properties": { "part": "direct", "crossing_id": "X03081", "area_ac": 9.4, "n_upstream": null }, "geometry": { "type": "MultiPolygon", "coordinates": [ [ [ [ -119.963494801781437, 39.250329607509464 ], [ -119.9635171710854, 39.250348208107461 ], [ -119.963494024917523, 39.250347604083395 ], [ -119.963494801781437, 39.250329607509464 ] ] ], [ [ [ -119.963816680004413, 39.247167040944824 ], [ -119.963950890826837, 39.247278643938806 ], [ -119.964568045560952, 39.247474913475699 ], [ -119.964473911511988, 39.247508491532614 ], [ -119.96443756495448, 39.247813829902611 ], [ -119.964299469425896, 39.247792210386159 ], [ -119.964362692880243, 39.247937994635471 ], [ -119.964233763529947, 39.248240917550874 ], [ -119.964164327060374, 39.248239105973042 ], [ -119.964105609651185, 39.248525843676518 ], [ -119.964012250647997, 39.248541424701976 ], [ -119.963916405707337, 39.249151496898882 ], [ -119.963819938836309, 39.249239064068483 ], [ -119.963909258984657, 39.249853967588422 ], [ -119.963674691658241, 39.24991991429718 ], [ -119.963595154798497, 39.250152057818021 ], [ -119.963404547798916, 39.250273201651218 ], [ -119.963495578644668, 39.250311610935441 ], [ -119.963353594124172, 39.250379972985662 ], [ -119.963439963788346, 39.250526361749465 ], [ -119.962886008633561, 39.25047587035494 ], [ -119.96265920918286, 39.250361849278697 ], [ -119.962381455381717, 39.250354598638665 ], [ -119.962388449693094, 39.250192629638143 ], [ -119.962275050750776, 39.250135618698003 ], [ -119.962468767654812, 39.249942490544029 ], [ -119.962671808154155, 39.249533403272686 ], [ -119.962606255850147, 39.249441607905425 ], [ -119.96268579497621, 39.249209465133056 ], [ -119.962629567521461, 39.248901711018007 ], [ -119.962378850695615, 39.248805081964662 ], [ -119.96241676112173, 39.248463751529876 ], [ -119.96261902006448, 39.248072660670829 ], [ -119.962804183293926, 39.248077493892914 ], [ -119.962961539524258, 39.248189702152587 ], [ -119.963172179232828, 39.248141149181883 ], [ -119.96323012313313, 39.247872408647119 ], [ -119.963497150691609, 39.247591107576532 ], [ -119.963551985704598, 39.247394353128215 ], [ -119.963717109008201, 39.247326594507634 ], [ -119.963816680004413, 39.247167040944824 ] ] ] ] } },
{ "type": "Feature", "properties": { "part": "upstream", "crossing_id": "X03081", "area_ac": 43.0, "n_upstream": 47.0 }, "geometry": { "type": "MultiPolygon", "coordinates": [ [ [ [ -119.964299469425896, 39.247792210386159 ], [ -119.964438434965516, 39.247829467207524 ], [ -119.964486185286489, 39.247761047711144 ], [ -119.964738454626712, 39.247821678998093 ], [ -119.964440671161398, 39.24774184351201 ], [ -119.964473911511988, 39.247508491532614 ], [ -119.965324075874605, 39.247674801719455 ], [ -119.965984424494124, 39.247944257741977 ], [ -119.965927267141112, 39.248195003434894 ], [ -119.966018296875291, 39.248233410704508 ], [ -119.965965020242592, 39.248394173293676 ], [ -119.966033680819663, 39.248413980426257 ], [ -119.96595648223429, 39.248592136122859 ], [ -119.966066777344267, 39.248721129993037 ], [ -119.965987249891327, 39.24895327555349 ], [ -119.965744219421566, 39.248946938413525 ], [ -119.965940182166648, 39.248970065137279 ], [ -119.96593009149494, 39.249204021178649 ], [ -119.965709358629013, 39.249486535070055 ], [ -119.965700043287953, 39.249702494427879 ], [ -119.965676897285462, 39.249701890845891 ], [ -119.965602025121839, 39.2498260563491 ], [ -119.965505559280061, 39.249913624954409 ], [ -119.965495466825573, 39.250147580863505 ], [ -119.965209172498973, 39.250338299652881 ], [ -119.965246147887058, 39.250555466249665 ], [ -119.965077912259787, 39.250695213167944 ], [ -119.963901334898623, 39.250574434778976 ], [ -119.963439963788346, 39.250526361749465 ], [ -119.963353594124172, 39.250379972985662 ], [ -119.963473077539064, 39.250337356055979 ], [ -119.963403770913473, 39.250291198223827 ], [ -119.963595154798497, 39.250152057818021 ], [ -119.963674691658241, 39.24991991429718 ], [ -119.963908482239802, 39.249871964170772 ], [ -119.963943090069378, 39.249891237292168 ], [ -119.963896987408248, 39.249601411494062 ], [ -119.963981286285858, 39.249513210699966 ], [ -119.96385069554789, 39.249600203611429 ], [ -119.963917009766192, 39.249263682087673 ], [ -119.963839200915857, 39.24932965092858 ], [ -119.964012250647997, 39.248541424701976 ], [ -119.964106619351625, 39.248523098196621 ], [ -119.964131861834687, 39.248454461194605 ], [ -119.964164327060374, 39.248239105973042 ], [ -119.964233763529947, 39.248240917550874 ], [ -119.964362692880243, 39.247937994635471 ], [ -119.964299469425896, 39.247792210386159 ] ], [ [ -119.963931634540245, 39.250398636398501 ], [ -119.963929589156436, 39.250398476650574 ], [ -119.963901334898623, 39.250574434778976 ], [ -119.963931634540245, 39.250398636398501 ] ], [ [ -119.964256909021188, 39.248241521400963 ], [ -119.964559126780429, 39.248232642124371 ], [ -119.964558577004624, 39.248231374436109 ], [ -119.964233763529947, 39.248240917550874 ], [ -119.964256909021188, 39.248241521400963 ] ], [ [ -119.965500412715201, 39.248958597379001 ], [ -119.965454753418754, 39.249479895466379 ], [ -119.965545240614262, 39.248941749564075 ], [ -119.965200294361381, 39.248932753456202 ], [ -119.965500412715201, 39.248958597379001 ] ], [ [ -119.965596465725454, 39.249621513251967 ], [ -119.965589747450096, 39.249573500194607 ], [ -119.965454753418754, 39.249479895466379 ], [ -119.965596465725454, 39.249621513251967 ] ], [ [ -119.96510771141071, 39.248930338742824 ], [ -119.964873148190463, 39.248996288042918 ], [ -119.964731944152817, 39.249046655346476 ], [ -119.965200294361381, 39.248932753456202 ], [ -119.96510771141071, 39.248930338742824 ] ], [ [ -119.964877030553978, 39.248906305036463 ], [ -119.9648322920727, 39.248869104359621 ], [ -119.964873148190463, 39.248996288042918 ], [ -119.964877030553978, 39.248906305036463 ] ], [ [ -119.96463899588899, 39.248897251129854 ], [ -119.964644796824217, 39.248918264073815 ], [ -119.964528291660557, 39.248933241715136 ], [ -119.964472787368948, 39.24876964207759 ], [ -119.96441955233017, 39.248768253298643 ], [ -119.964527083247205, 39.248950506370754 ], [ -119.9648322920727, 39.248869104359621 ], [ -119.96463899588899, 39.248897251129854 ] ], [ [ -119.964801737924432, 39.248705815734411 ], [ -119.964878272906645, 39.248877510474024 ], [ -119.964883242299479, 39.248762332222569 ], [ -119.964801737924432, 39.248705815734411 ] ], [ [ -119.964585454730042, 39.248682496956043 ], [ -119.964775249030907, 39.248687447864462 ], [ -119.964748250749935, 39.248668726760556 ], [ -119.964585454730042, 39.248682496956043 ] ], [ [ -119.964599751855502, 39.248495230966377 ], [ -119.964498308084544, 39.248554105594799 ], [ -119.96435788131167, 39.24858647587687 ], [ -119.964684249413438, 39.248540939279081 ], [ -119.964591667022262, 39.248538524175537 ], [ -119.964599751855502, 39.248495230966377 ] ], [ [ -119.964421882079336, 39.248714263515566 ], [ -119.964447357455356, 39.24866087754949 ], [ -119.96435788131167, 39.24858647587687 ], [ -119.964421882079336, 39.248714263515566 ] ], [ [ -119.964592620847895, 39.248309873589321 ], [ -119.964610500990744, 39.248437670675024 ], [ -119.96462180134148, 39.248377158571529 ], [ -119.964592620847895, 39.248309873589321 ] ], [ [ -119.964567686250533, 39.248043610093525 ], [ -119.964597252917073, 39.247872046235365 ], [ -119.964495352912678, 39.248085590273455 ], [ -119.964567686250533, 39.248043610093525 ] ], [ [ -119.964267273192974, 39.248423247253591 ], [ -119.964249142875374, 39.248421487329239 ], [ -119.964248884002657, 39.248427486193393 ], [ -119.964267273192974, 39.248423247253591 ] ], [ [ -119.96458452750403, 39.249240995236839 ], [ -119.964702586221833, 39.249190024364061 ], [ -119.964304447747708, 39.249287739132939 ], [ -119.964676334286509, 39.249261406979031 ], [ -119.96458452750403, 39.249240995236839 ] ], [ [ -119.964429642002116, 39.24846036618468 ], [ -119.964502967420245, 39.248446126016155 ], [ -119.96438918397719, 39.248435081155208 ], [ -119.964429642002116, 39.24846036618468 ] ], [ [ -119.963999046954868, 39.248847366690669 ], [ -119.964397959840895, 39.248731656286274 ], [ -119.964406596834024, 39.248746295091614 ], [ -119.964421882079336, 39.248714263515566 ], [ -119.963999046954868, 39.248847366690669 ] ], [ [ -119.964559321189569, 39.248806690659279 ], [ -119.964535280680025, 39.248771272352315 ], [ -119.964498247606144, 39.248770306267623 ], [ -119.964559321189569, 39.248806690659279 ] ], [ [ -119.964333806537908, 39.249144370251308 ], [ -119.96416634940401, 39.249266119351383 ], [ -119.964152416243522, 39.249334158793943 ], [ -119.964333806537908, 39.249144370251308 ] ], [ [ -119.965496338252592, 39.249744454167796 ], [ -119.96539181391006, 39.249663749315779 ], [ -119.96542938756582, 39.249787008112122 ], [ -119.965496338252592, 39.249744454167796 ] ], [ [ -119.965245197898966, 39.249503257219359 ], [ -119.965180884417194, 39.249382668604198 ], [ -119.965074771620337, 39.249352056748116 ], [ -119.965245197898966, 39.249503257219359 ] ], [ [ -119.965009231412282, 39.249333149378579 ], [ -119.964974900842037, 39.249323245504144 ], [ -119.964781035596459, 39.249385751910921 ], [ -119.965009231412282, 39.249333149378579 ] ], [ [ -119.965297190795951, 39.249790080284441 ], [ -119.965301126643183, 39.249818209151293 ], [ -119.965323496293649, 39.249836809415498 ], [ -119.965323496293621, 39.249836809415498 ], [ -119.96533542677868, 39.249846729554832 ], [ -119.965391548744236, 39.249811058475601 ], [ -119.965297190795951, 39.249790080284441 ] ], [ [ -119.964454043146432, 39.249579911468444 ], [ -119.964851406633372, 39.249500192847393 ], [ -119.964747832399127, 39.249483978496897 ], [ -119.964758046448665, 39.249515774425269 ], [ -119.964454043146432, 39.249579911468444 ] ], [ [ -119.964044251527966, 39.249947574053422 ], [ -119.964062878513374, 39.249930862153157 ], [ -119.964023363925861, 39.249935941773408 ], [ -119.964044251527966, 39.249947574053422 ] ], [ [ -119.964937630082488, 39.250187082311825 ], [ -119.964962508283577, 39.250091009174923 ], [ -119.964882945185195, 39.249843335716697 ], [ -119.964941512528029, 39.25009709931841 ], [ -119.964922999442891, 39.250118282263038 ], [ -119.964937630082488, 39.250187082311825 ] ], [ [ -119.964766627706823, 39.249794258551809 ], [ -119.964746398597271, 39.249785723381422 ], [ -119.964558124232951, 39.249852879445655 ], [ -119.964766627706823, 39.249794258551809 ] ], [ [ -119.964643217897333, 39.250431638490483 ], [ -119.964209226397756, 39.250420316451113 ], [ -119.964051764423431, 39.250408018680581 ], [ -119.964808698416022, 39.250490005699497 ], [ -119.964601158845923, 39.250466575019324 ], [ -119.964643217897333, 39.250431638490483 ] ], [ [ -119.964668453308022, 39.250410676565011 ], [ -119.964698558690429, 39.250385669347722 ], [ -119.964683708948783, 39.250392080487707 ], [ -119.964667876026795, 39.25041019655503 ], [ -119.964668453308022, 39.250410676565011 ] ], [ [ -119.965411704373466, 39.249974236286171 ], [ -119.965371897004488, 39.250049043263445 ], [ -119.965432239291189, 39.250001797108204 ], [ -119.965411704373466, 39.249974236286171 ] ] ], [ [ [ -119.963871511234913, 39.249654797302419 ], [ -119.963873841477735, 39.249600807555041 ], [ -119.963896987408248, 39.249601411494062 ], [ -119.963871511234913, 39.249654797302419 ] ] ], [ [ [ -119.963938306296058, 39.250791601630844 ], [ -119.96364812104035, 39.251072299171852 ], [ -119.963635691432813, 39.25136024435087 ], [ -119.963492151063335, 39.251464599624974 ], [ -119.96355537562502, 39.251610384297827 ], [ -119.963462012387211, 39.251625964709206 ], [ -119.963361656695866, 39.251803514151483 ], [ -119.963400957616898, 39.251966691393747 ], [ -119.963282893246515, 39.252017660704432 ], [ -119.96324187603426, 39.25243097758532 ], [ -119.963169381904578, 39.252320984509666 ], [ -119.963217952195066, 39.2524483700427 ], [ -119.963120702680186, 39.25255393293979 ], [ -119.9632518141145, 39.252737523257956 ], [ -119.96313591554015, 39.253275003597757 ], [ -119.963287844414097, 39.253513187724693 ], [ -119.963287844414097, 39.253513187724693 ], [ -119.963401249514035, 39.253570197893993 ], [ -119.963397364620207, 39.253660180705054 ], [ -119.963229894685867, 39.253781927890536 ], [ -119.96306672366039, 39.253646252226531 ], [ -119.963054250330927, 39.253685097392257 ], [ -119.963095673312651, 39.253670323730439 ], [ -119.963228340631133, 39.253817921008114 ], [ -119.963094731617659, 39.254228821121167 ], [ -119.96304153929654, 39.254159945976383 ], [ -119.963070807103193, 39.254246213518265 ], [ -119.962758233007804, 39.254508307284169 ], [ -119.96269250827406, 39.254957012501023 ], [ -119.962673146589708, 39.254958175309049 ], [ -119.962873803867282, 39.255051829057102 ], [ -119.961801236086913, 39.255203995854558 ], [ -119.961062064391086, 39.255148658867327 ], [ -119.960950991807394, 39.255037656853894 ], [ -119.961061286772079, 39.255166655385686 ], [ -119.960759589038972, 39.255176792080675 ], [ -119.960382036479928, 39.254937149756792 ], [ -119.960329116587374, 39.254949345173877 ], [ -119.960214156363477, 39.254928325040076 ], [ -119.960181084357089, 39.254621174976734 ], [ -119.960174083865368, 39.254783143521784 ], [ -119.960104641205092, 39.25478132927217 ], [ -119.959968867452346, 39.254705714643485 ], [ -119.959962833378398, 39.254309186817117 ], [ -119.959648883338204, 39.254066764992565 ], [ -119.959934429836935, 39.253894057689131 ], [ -119.96037500560513, 39.25388755115457 ], [ -119.960375783364213, 39.253869554643693 ], [ -119.960121163563727, 39.253862902762762 ], [ -119.960101211944945, 39.253864955340504 ], [ -119.960120385739742, 39.253880899269397 ], [ -119.960097238483428, 39.253880294525011 ], [ -119.960097886675058, 39.253865297436462 ], [ -119.959981502212329, 39.253877270734172 ], [ -119.959858176473176, 39.253513711980446 ], [ -119.959928395730302, 39.25349752982374 ], [ -119.959929173592727, 39.253479533319137 ], [ -119.959945950539918, 39.253493484277733 ], [ -119.959998614957584, 39.253481347623321 ], [ -119.959850134930392, 39.253342342003997 ], [ -119.959864399500404, 39.253369739951495 ], [ -119.959573600800454, 39.253127922848591 ], [ -119.959453390116352, 39.25269237776017 ], [ -119.959629729685091, 39.252647676408451 ], [ -119.95945416807794, 39.252674381261031 ], [ -119.95946039174558, 39.25253040926534 ], [ -119.959602384224254, 39.252462052309674 ], [ -119.959762078062738, 39.252520275499947 ], [ -119.960327712019463, 39.252300834589711 ], [ -119.960354747361293, 39.252211456690517 ], [ -119.96058854749873, 39.252163513643254 ], [ -119.960733224460967, 39.252301132071075 ], [ -119.960745131102357, 39.25229372157542 ], [ -119.961074955024557, 39.252086134154126 ], [ -119.961009075994895, 39.252084413551898 ], [ -119.960745908722728, 39.252275725053458 ], [ -119.960615582448654, 39.25207413566654 ], [ -119.961133133822216, 39.251715061792588 ], [ -119.961121878125823, 39.251618921919416 ], [ -119.961318712224042, 39.251353809876058 ], [ -119.961275529156353, 39.251280614788506 ], [ -119.961439886403809, 39.2512308564202 ], [ -119.961691387596247, 39.25130949121106 ], [ -119.961503694619282, 39.251509326841806 ], [ -119.961715311386996, 39.251292099064464 ], [ -119.961697606386963, 39.25116551888236 ], [ -119.96186196309985, 39.251115759894283 ], [ -119.961842703249346, 39.25102517281119 ], [ -119.962152932610977, 39.250817070549218 ], [ -119.962361249276569, 39.250822509053265 ], [ -119.962436905349293, 39.250680349365751 ], [ -119.962397607213319, 39.250517171882343 ], [ -119.962559630628363, 39.250521401494829 ], [ -119.962589770723184, 39.250360036680689 ], [ -119.962818124127239, 39.250438064763266 ], [ -119.962753189623342, 39.250485272687428 ], [ -119.962886785656423, 39.250457873791561 ], [ -119.963969996905192, 39.250594243184359 ], [ -119.963938306296058, 39.250791601630844 ] ], [ [ -119.960323080547781, 39.254552817300059 ], [ -119.960400300695767, 39.254374666316643 ], [ -119.960324636128547, 39.254516824284167 ], [ -119.960299933066182, 39.254552212587363 ], [ -119.960300710862811, 39.254534216079854 ], [ -119.960181084357089, 39.254621174976734 ], [ -119.960323080547781, 39.254552817300059 ] ], [ [ -119.960790921595446, 39.252364550250299 ], [ -119.96088478918935, 39.252279352554041 ], [ -119.960859309668479, 39.252332737553594 ], [ -119.961184206331765, 39.252531360199256 ], [ -119.961196949664, 39.252520776049415 ], [ -119.960927194810978, 39.25237054430881 ], [ -119.960885566773626, 39.252261356029635 ], [ -119.960745131102357, 39.25229372157542 ], [ -119.960790921595446, 39.252364550250299 ] ], [ [ -119.963102780847692, 39.253533960567481 ], [ -119.963163633842498, 39.253467906654805 ], [ -119.96312814513837, 39.253454969182989 ], [ -119.963102780847692, 39.253533960567481 ] ], [ [ -119.962890447281964, 39.250721916137529 ], [ -119.962890820102785, 39.250722226149449 ], [ -119.962969269379983, 39.250694245687349 ], [ -119.962922976840929, 39.250693037407999 ], [ -119.962912133657596, 39.250702663652319 ], [ -119.96292219982081, 39.250711033971257 ], [ -119.962903261959923, 39.250710539669541 ], [ -119.962890447281964, 39.250721916137529 ] ], [ [ -119.963144150648915, 39.252254810200498 ], [ -119.963254307725805, 39.252143032564533 ], [ -119.963134688939363, 39.252229994833485 ], [ -119.963144150648915, 39.252254810200498 ] ], [ [ -119.962927638947093, 39.250585058026957 ], [ -119.962927056185194, 39.250598555449706 ], [ -119.962997077650456, 39.250586870432159 ], [ -119.96265066128224, 39.250559811433639 ], [ -119.962927638947093, 39.250585058026957 ] ], [ [ -119.962916912374951, 39.253999513519638 ], [ -119.9629185017547, 39.25400063238795 ], [ -119.962916603287766, 39.253998174175919 ], [ -119.962916912374951, 39.253999513519638 ] ], [ [ -119.962716768662105, 39.253858618828417 ], [ -119.962436669354986, 39.253905357424451 ], [ -119.962424014662801, 39.253893589165692 ], [ -119.962253146368028, 39.253972819322605 ], [ -119.962716768662105, 39.253858618828417 ] ], [ [ -119.961948115372522, 39.252965534802911 ], [ -119.961943926198003, 39.252973634277936 ], [ -119.962088854610514, 39.253373788661847 ], [ -119.961948115372522, 39.252965534802911 ] ], [ [ -119.961961456889128, 39.25293973990204 ], [ -119.962258827727055, 39.252657552855375 ], [ -119.962043509950888, 39.25281408283783 ], [ -119.962036269939588, 39.252795093629871 ], [ -119.961961456889128, 39.25293973990204 ] ], [ [ -119.961918015760233, 39.251964014876634 ], [ -119.962184117097976, 39.252241215069375 ], [ -119.962007601539412, 39.252304169645079 ], [ -119.962252002918035, 39.252279021076021 ], [ -119.96189875567525, 39.251873427802266 ], [ -119.961918793071689, 39.251946018334053 ], [ -119.96160700306406, 39.252190112787709 ], [ -119.961918015760233, 39.251964014876634 ] ], [ [ -119.961726150334087, 39.251830355949629 ], [ -119.961700005587062, 39.251861031495508 ], [ -119.961732302964421, 39.251837552105627 ], [ -119.961726150334087, 39.251830355949629 ] ], [ [ -119.961649584370534, 39.251740803762338 ], [ -119.961612949341102, 39.251749247220673 ], [ -119.961692277810528, 39.251790738397553 ], [ -119.961649584370534, 39.251740803762338 ] ], [ [ -119.961486780870416, 39.251754569310535 ], [ -119.961557775429966, 39.251720389545305 ], [ -119.961575548533531, 39.251729685437795 ], [ -119.961561662406936, 39.251630406857899 ], [ -119.961506732620407, 39.251614558990894 ], [ -119.961558552826759, 39.251702393007974 ], [ -119.961486780870416, 39.251754569310535 ] ], [ [ -119.961426576973565, 39.251591433118364 ], [ -119.961382658386583, 39.251638192622721 ], [ -119.961467703577512, 39.251603298649144 ], [ -119.961426576973565, 39.251591433118364 ] ], [ [ -119.962025296804384, 39.252766313110925 ], [ -119.962001879935329, 39.25270489488733 ], [ -119.96188692273175, 39.252683876524713 ], [ -119.962025296804384, 39.252766313110925 ] ], [ [ -119.961948762952773, 39.252325154441174 ], [ -119.96184917975468, 39.252484705830426 ], [ -119.961964453245855, 39.252319558498584 ], [ -119.961948762952773, 39.252325154441174 ] ], [ [ -119.961374654088985, 39.252392943188937 ], [ -119.961471836893537, 39.252128739620865 ], [ -119.961348501725439, 39.252273446496496 ], [ -119.961279838948172, 39.25225363651262 ], [ -119.961394017781473, 39.252292651975019 ], [ -119.961205968801124, 39.252513285078159 ], [ -119.961343059446918, 39.252399422219526 ], [ -119.961374654088985, 39.252392943188937 ] ], [ [ -119.961331574723502, 39.252128869760874 ], [ -119.961262288004235, 39.251995794791512 ], [ -119.961242875343018, 39.252036469153921 ], [ -119.961331574723502, 39.252128869760874 ] ], [ [ -119.961344791549166, 39.251822928702452 ], [ -119.961361496189156, 39.251814886430644 ], [ -119.961320106132149, 39.251809180887641 ], [ -119.961344791549166, 39.251822928702452 ] ], [ [ -119.961432169624842, 39.251780861406253 ], [ -119.961439451126552, 39.251777355795078 ], [ -119.961443597404397, 39.251681374273282 ], [ -119.96135697611507, 39.251665536139292 ], [ -119.961321178340242, 39.251703649428443 ], [ -119.961420450842823, 39.251680769820048 ], [ -119.961432169624842, 39.251780861406253 ] ], [ [ -119.961278461616104, 39.251749129134978 ], [ -119.961222598831057, 39.251754876971304 ], [ -119.961276906676062, 39.251785122199948 ], [ -119.961278461616104, 39.251749129134978 ] ], [ [ -119.961119665720545, 39.25208730186899 ], [ -119.961257469690423, 39.25223503548883 ], [ -119.96114795611804, 39.252088040723962 ], [ -119.961119665720545, 39.25208730186899 ] ], [ [ -119.962024901032549, 39.254029040402848 ], [ -119.962062442161553, 39.254019793360627 ], [ -119.961947466471401, 39.253964652636881 ], [ -119.962024901032549, 39.254029040402848 ] ], [ [ -119.961595768079746, 39.253523065211496 ], [ -119.961820089548809, 39.253647990497143 ], [ -119.961800983102265, 39.253600491166793 ], [ -119.961595768079746, 39.253523065211496 ] ], [ [ -119.961596178711261, 39.254157268454257 ], [ -119.96159541593525, 39.254152787224896 ], [ -119.961591704726601, 39.254153548257634 ], [ -119.961596178711261, 39.254157268454257 ] ], [ [ -119.961455930430503, 39.254077935343311 ], [ -119.961591482596376, 39.254158690123433 ], [ -119.961591704726601, 39.254153548257634 ], [ -119.961455930430503, 39.254077935343311 ] ], [ [ -119.960968281004753, 39.254101233308184 ], [ -119.960868692857446, 39.254260783630009 ], [ -119.960997146470618, 39.254076763667733 ], [ -119.960944275335365, 39.254067617748753 ], [ -119.960968281004753, 39.254101233308184 ] ], [ [ -119.960511556028422, 39.253945168760445 ], [ -119.960468372403454, 39.253871973371702 ], [ -119.960559567568467, 39.254063393730625 ], [ -119.960582553305585, 39.253910989706966 ], [ -119.960676721974579, 39.253939944870226 ], [ -119.960583331012216, 39.253892993192714 ], [ -119.960511556028422, 39.253945168760445 ] ], [ [ -119.96087545812378, 39.252495310841013 ], [ -119.960661711416179, 39.252593386260251 ], [ -119.960663298412058, 39.252602710563863 ], [ -119.96087545812378, 39.252495310841013 ] ], [ [ -119.960653773996924, 39.252546750376716 ], [ -119.960665581502468, 39.252525862526497 ], [ -119.960645077097084, 39.252495652147367 ], [ -119.960653773996924, 39.252546750376716 ] ], [ [ -119.960515239622779, 39.252397455427541 ], [ -119.960637695515288, 39.252484776410114 ], [ -119.960586794119848, 39.252409780162559 ], [ -119.960577660230499, 39.25241546491285 ], [ -119.960515239622779, 39.252397455427541 ] ], [ [ -119.960017095037117, 39.25358993141807 ], [ -119.960041969885424, 39.253655178233871 ], [ -119.960189236524528, 39.253360210001958 ], [ -119.960017095037117, 39.25358993141807 ] ], [ [ -119.960295162742199, 39.252454717065916 ], [ -119.960469128937518, 39.252384151625684 ], [ -119.960440334938184, 39.252375844002501 ], [ -119.960295162742199, 39.252454717065916 ] ], [ [ -119.959858491604052, 39.252612878770513 ], [ -119.959943363333721, 39.252615096258609 ], [ -119.960085946158429, 39.253069242208191 ], [ -119.959944931163136, 39.252599730071488 ], [ -119.959858491604052, 39.252612878770513 ] ], [ [ -119.959719946861767, 39.252702476314582 ], [ -119.959750275662159, 39.252629339871795 ], [ -119.959712066099556, 39.252635152034379 ], [ -119.959719946861767, 39.252702476314582 ] ], [ [ -119.959778812238355, 39.253205352245082 ], [ -119.959811196563123, 39.253267553004854 ], [ -119.959749195519379, 39.252952342796853 ], [ -119.959778812238355, 39.253205352245082 ] ], [ [ -119.962483402060144, 39.254969570655817 ], [ -119.962351511623652, 39.254803975988445 ], [ -119.962452279420802, 39.25497476378397 ], [ -119.962587955173717, 39.254963291625792 ], [ -119.962483402060144, 39.254969570655817 ] ], [ [ -119.961853148075022, 39.254538728583938 ], [ -119.961877850371479, 39.254503339919822 ], [ -119.961868123410412, 39.254473057886223 ], [ -119.961853148075022, 39.254538728583938 ] ], [ [ -119.961629447558494, 39.254352718992855 ], [ -119.96184620352598, 39.254404816681458 ], [ -119.961836997185998, 39.254376155374537 ], [ -119.961629447558494, 39.254352718992855 ] ] ] ] } }
]
}
