{
"type": "FeatureCollection",
"name": "X03023",
"crs": { "type": "name", "properties": { "name": "urn:ogc:def:crs:OGC:1.3:CRS84" } },
"features": [
{ "type": "Feature", "properties": { "part": "direct", "crossing_id": "X03023", "area_ac": 0.7 }, "geometry": { "type": "MultiPolygon", "coordinates": [ [ [ [ -119.964275716548713, 39.255322632747976 ], [ -119.964298087572772, 39.255341233252246 ], [ -119.964274939746474, 39.255340629319491 ], [ -119.964275716548713, 39.255322632747976 ] ] ], [ [ [ -119.963967342977412, 39.254413744835816 ], [ -119.964149415876776, 39.254490562852119 ], [ -119.963999654706427, 39.254738891044077 ], [ -119.964157803994652, 39.254833101662399 ], [ -119.964275095862575, 39.254800128217965 ], [ -119.964294359593822, 39.254890715010681 ], [ -119.964409321238492, 39.254911731155545 ], [ -119.964275716548713, 39.255322632747976 ], [ -119.963795827865923, 39.255165976597212 ], [ -119.963918558654171, 39.255007027583588 ], [ -119.963845390310141, 39.254554697393012 ], [ -119.963967342977412, 39.254413744835816 ] ] ] ] } }
]
}
