{
"type": "FeatureCollection",
"name": "X03091",
"crs": { "type": "name", "properties": { "name": "urn:ogc:def:crs:OGC:1.3:CRS84" } },
"features": [
{ "type": "Feature", "properties": { "part": "direct", "crossing_id": "X03091", "area_ac": 1.8, "n_upstream": null }, "geometry": { "type": "Polygon", "coordinates": [ [ [ -119.955040942802384, 39.244883807433553 ], [ -119.95515666375988, 39.244886835556969 ], [ -119.955168125302734, 39.245157387936452 ], [ -119.955303096934927, 39.24525100380454 ], [ -119.95522587561085, 39.245429151529457 ], [ -119.955339261045609, 39.245486168862151 ], [ -119.955262039514594, 39.245664316598351 ], [ -119.95502981614105, 39.245676256793189 ], [ -119.954978074854537, 39.245801020607409 ], [ -119.955015795858031, 39.246000192824447 ], [ -119.955171576788899, 39.246148403884277 ], [ -119.95500722779606, 39.246198153721473 ], [ -119.954999438575527, 39.246378118166106 ], [ -119.954882936228898, 39.246393086232906 ], [ -119.954897512421326, 39.246591652780978 ], [ -119.954230210657371, 39.246484103785619 ], [ -119.954281174722325, 39.246377336820728 ], [ -119.954372974299091, 39.246397756442853 ], [ -119.954498825350655, 39.246166831659913 ], [ -119.954494377834862, 39.245734311413393 ], [ -119.954894844113724, 39.245582640595998 ], [ -119.954806161214577, 39.24549023564532 ], [ -119.954878710094704, 39.245420066916743 ], [ -119.954814729626065, 39.245292274761212 ], [ -119.954888836123843, 39.245186113125129 ], [ -119.95500455756175, 39.245189141419068 ], [ -119.955040942802384, 39.244883807433553 ] ] ] } },
{ "type": "Feature", "properties": { "part": "upstream", "crossing_id": "X03091", "area_ac": 0.5, "n_upstream": 1.0 }, "geometry": { "type": "Polygon", "coordinates": [ [ [ -119.954458541404875, 39.246562147472623 ], [ -119.954943801918688, 39.246592864144965 ], [ -119.954882712102815, 39.246933585161806 ], [ -119.954589392862161, 39.24728624520678 ], [ -119.954426826811712, 39.246759502467839 ], [ -119.954500156508914, 39.246671337620661 ], [ -119.954458541404875, 39.246562147472623 ] ] ] } }
]
}
