{
"type": "FeatureCollection",
"name": "X03025",
"crs": { "type": "name", "properties": { "name": "urn:ogc:def:crs:OGC:1.3:CRS84" } },
"features": [
{ "type": "Feature", "properties": { "part": "direct", "crossing_id": "X03025", "area_ac": 0.1 }, "geometry": { "type": "Polygon", "coordinates": [ [ [ -119.964309895158621, 39.254530783532758 ], [ -119.964353859999221, 39.254585981084787 ], [ -119.964318284051544, 39.254873322360204 ], [ -119.964137763630561, 39.254760511424834 ], [ -119.96416712576675, 39.254617142804186 ], [ -119.964309895158621, 39.254530783532758 ] ] ] } }
]
}
