{
"type": "FeatureCollection",
"name": "X03064",
"crs": { "type": "name", "properties": { "name": "urn:ogc:def:crs:OGC:1.3:CRS84" } },
"features": [
{ "type": "Feature", "properties": { "part": "direct", "crossing_id": "X03064", "area_ac": 3.2, "n_upstream": null }, "geometry": { "type": "Polygon", "coordinates": [ [ [ -119.960097915386513, 39.247430285263206 ], [ -119.961061460209024, 39.247653639059187 ], [ -119.960850043305896, 39.247720184747628 ], [ -119.960751242372908, 39.247861738926645 ], [ -119.960780428123059, 39.248258871783953 ], [ -119.96068629138945, 39.248292446658496 ], [ -119.960602081658834, 39.248632567063126 ], [ -119.960622116994685, 39.248705157764512 ], [ -119.960920676978162, 39.248767006473109 ], [ -119.960787843683192, 39.249159907556745 ], [ -119.960582642540373, 39.249082480313959 ], [ -119.96034963041825, 39.249112427247383 ], [ -119.959566566391501, 39.249001884426981 ], [ -119.959772731446193, 39.248520816653198 ], [ -119.960081399683801, 39.248348712690522 ], [ -119.960087621111597, 39.248204740503802 ], [ -119.960208013934448, 39.24809978467129 ], [ -119.960194977940873, 39.247865225180192 ], [ -119.959918790041669, 39.247821976003465 ], [ -119.959934344067463, 39.247462045550208 ], [ -119.960097915386513, 39.247430285263206 ] ] ] } },
{ "type": "Feature", "properties": { "part": "upstream", "crossing_id": "X03064", "area_ac": 1.0, "n_upstream": 1.0 }, "geometry": { "type": "Polygon", "coordinates": [ [ [ -119.961083828033068, 39.247672240074159 ], [ -119.961424010766535, 39.247843275550281 ], [ -119.961280474810465, 39.247947628300942 ], [ -119.961142203468356, 39.248466505767432 ], [ -119.960955484579131, 39.248497662937773 ], [ -119.960807281544021, 39.248709994226118 ], [ -119.960622116994685, 39.248705157764512 ], [ -119.960660035828624, 39.248363828229522 ], [ -119.960780428123059, 39.248258871783953 ], [ -119.960751242372908, 39.247861738926645 ], [ -119.960850043305896, 39.247720184747628 ], [ -119.961083828033068, 39.247672240074159 ] ] ] } }
]
}
