{
"type": "FeatureCollection",
"name": "X03051",
"crs": { "type": "name", "properties": { "name": "urn:ogc:def:crs:OGC:1.3:CRS84" } },
"features": [
{ "type": "Feature", "properties": { "part": "direct", "crossing_id": "X03051", "area_ac": 0.0, "n_upstream": null }, "geometry": { "type": "Polygon", "coordinates": [ [ [ -119.965926914971178, 39.252501022650023 ], [ -119.965898333872431, 39.252626395327958 ], [ -119.965806522340529, 39.252605984375045 ], [ -119.965857474191139, 39.252499211918177 ], [ -119.965926914971178, 39.252501022650023 ] ] ] } },
{ "type": "Feature", "properties": { "part": "upstream", "crossing_id": "X03051", "area_ac": 0.0, "n_upstream": 1.0 }, "geometry": { "type": "Polygon", "coordinates": [ [ [ -119.965852816261247, 39.252607191557182 ], [ -119.965825011310173, 39.252714567602609 ], [ -119.9656861293482, 39.252710945959684 ], [ -119.965783375381207, 39.252605380777077 ], [ -119.965852816261247, 39.252607191557182 ] ] ] } }
]
}
