{
"type": "FeatureCollection",
"name": "X03058",
"crs": { "type": "name", "properties": { "name": "urn:ogc:def:crs:OGC:1.3:CRS84" } },
"features": [
{ "type": "Feature", "properties": { "part": "direct", "crossing_id": "X03058", "area_ac": 0.9, "n_upstream": null }, "geometry": { "type": "Polygon", "coordinates": [ [ [ -119.96660317094792, 39.244879505339334 ], [ -119.966779015957869, 39.245100291645528 ], [ -119.96674578487206, 39.245333644710925 ], [ -119.966474899127277, 39.245704937371087 ], [ -119.966238019858082, 39.245824879833357 ], [ -119.966218755329734, 39.245734293240375 ], [ -119.966036702020247, 39.24565747916359 ], [ -119.965919426396525, 39.245690455058693 ], [ -119.965876241525066, 39.245617261567183 ], [ -119.966281341199519, 39.24535757074436 ], [ -119.966270612843601, 39.245069021156596 ], [ -119.966434176238906, 39.245037251614711 ], [ -119.96660317094792, 39.244879505339334 ] ] ] } },
{ "type": "Feature", "properties": { "part": "upstream", "crossing_id": "X03058", "area_ac": 0.9, "n_upstream": 2.0 }, "geometry": { "type": "Polygon", "coordinates": [ [ [ -119.966259612532497, 39.245861476522343 ], [ -119.96599415485322, 39.246106791441136 ], [ -119.966018577480824, 39.245860558842942 ], [ -119.965972562253086, 39.246070194706661 ], [ -119.96580666778857, 39.246155953368948 ], [ -119.965531116341751, 39.246635223195739 ], [ -119.965277297788873, 39.246610586988417 ], [ -119.965337560915088, 39.246287855128017 ], [ -119.96555517948147, 39.24607732796094 ], [ -119.96556061300123, 39.245951351608483 ], [ -119.965897833950009, 39.245653858314611 ], [ -119.966059070621711, 39.24567607925357 ], [ -119.966055138447174, 39.245693993595076 ], [ -119.966127728623619, 39.245695886235772 ], [ -119.966259612532497, 39.245861476522343 ] ] ] } }
]
}
