{
"type": "FeatureCollection",
"name": "X03032",
"crs": { "type": "name", "properties": { "name": "urn:ogc:def:crs:OGC:1.3:CRS84" } },
"features": [
{ "type": "Feature", "properties": { "part": "direct", "crossing_id": "X03032", "area_ac": 0.5 }, "geometry": { "type": "Polygon", "coordinates": [ [ [ -119.962252137934826, 39.246910004903889 ], [ -119.962368640054635, 39.246895029426504 ], [ -119.962454226769552, 39.247059415316222 ], [ -119.96289320618952, 39.247088890688609 ], [ -119.962667029722496, 39.2474973746695 ], [ -119.9626022561621, 39.247387582778316 ], [ -119.96230214602808, 39.247361731673166 ], [ -119.962252137934826, 39.246910004903889 ] ] ] } }
]
}
