{
"type": "FeatureCollection",
"name": "X03075",
"crs": { "type": "name", "properties": { "name": "urn:ogc:def:crs:OGC:1.3:CRS84" } },
"features": [
{ "type": "Feature", "properties": { "part": "direct", "crossing_id": "X03075", "area_ac": 0.2 }, "geometry": { "type": "MultiPolygon", "coordinates": [ [ [ [ -119.962242512663735, 39.257863991344017 ], [ -119.962264883889745, 39.257882592243114 ], [ -119.962241735271448, 39.257881987873709 ], [ -119.962242512663735, 39.257863991344017 ] ] ], [ [ [ -119.962172289420707, 39.257880174737942 ], [ -119.962240957878464, 39.257899984403366 ], [ -119.962147585971309, 39.257915563406293 ], [ -119.962172289420707, 39.257880174737942 ] ] ], [ [ [ -119.962266438661814, 39.257846599182898 ], [ -119.96228880988923, 39.257865200077447 ], [ -119.96226566127612, 39.257864595713038 ], [ -119.962266438661814, 39.257846599182898 ] ] ], [ [ [ -119.962290364648084, 39.257829207016314 ], [ -119.962312735876921, 39.25784780790638 ], [ -119.962289587268998, 39.25784720354693 ], [ -119.962290364648084, 39.257829207016314 ] ] ], [ [ [ -119.962314290622587, 39.257811814844331 ], [ -119.962336661852788, 39.257830415729842 ], [ -119.962313513250109, 39.25782981137538 ], [ -119.962314290622587, 39.257811814844331 ] ] ], [ [ [ -119.962338216585266, 39.257794422666912 ], [ -119.962360587816818, 39.257813023547911 ], [ -119.962337439219382, 39.257812419198409 ], [ -119.962338216585266, 39.257794422666912 ] ] ], [ [ [ -119.962362142536122, 39.257777030484021 ], [ -119.962384513769095, 39.25779563136053 ], [ -119.962361365176832, 39.257795027016023 ], [ -119.962362142536122, 39.257777030484021 ] ] ], [ [ [ -119.962386068475197, 39.257759638295745 ], [ -119.962408439709577, 39.257778239167678 ], [ -119.962385291122516, 39.257777634828145 ], [ -119.962386068475197, 39.257759638295745 ] ] ], [ [ [ -119.962409994402464, 39.257742246101991 ], [ -119.962432365638236, 39.257760846969447 ], [ -119.962409217056376, 39.257760242634888 ], [ -119.962409994402464, 39.257742246101991 ] ] ], [ [ [ -119.962433920317949, 39.257724853902857 ], [ -119.9624562915551, 39.257743454765738 ], [ -119.962433142978441, 39.257742850436159 ], [ -119.962433920317949, 39.257724853902857 ] ] ], [ [ [ -119.962457846221596, 39.257707461698288 ], [ -119.962480217460126, 39.25772606255665 ], [ -119.962457068888696, 39.257725458232045 ], [ -119.962457846221596, 39.257707461698288 ] ] ], [ [ [ -119.962481772113449, 39.257690069488234 ], [ -119.962504143353399, 39.257708670342119 ], [ -119.962480994787128, 39.257708066022495 ], [ -119.962481772113449, 39.257690069488234 ] ] ], [ [ [ -119.962505697993507, 39.257672677272787 ], [ -119.962528069234835, 39.257691278122103 ], [ -119.96250492067378, 39.25769067380746 ], [ -119.962505697993507, 39.257672677272787 ] ] ], [ [ [ -119.962529623861755, 39.257655285051889 ], [ -119.962551995104505, 39.257673885896715 ], [ -119.962528846548636, 39.257673281587053 ], [ -119.962529623861755, 39.257655285051889 ] ] ], [ [ [ -119.962553549718209, 39.257637892825585 ], [ -119.962575920962351, 39.257656493665849 ], [ -119.962552772411712, 39.25765588936116 ], [ -119.962553549718209, 39.257637892825585 ] ] ], [ [ [ -119.962577475562881, 39.257620500593845 ], [ -119.962599846808345, 39.257639101429596 ], [ -119.96257669826295, 39.257638497129889 ], [ -119.962577475562881, 39.257620500593845 ] ] ], [ [ [ -119.962601401395688, 39.257603108356626 ], [ -119.962623772642587, 39.257621709187887 ], [ -119.962600624102379, 39.257621104893168 ], [ -119.962601401395688, 39.257603108356626 ] ] ], [ [ [ -119.962625327216728, 39.257585716114029 ], [ -119.96264769846502, 39.257604316940728 ], [ -119.962624549929998, 39.257603712650976 ], [ -119.962625327216728, 39.257585716114029 ] ] ], [ [ [ -119.962649253025958, 39.257568323865975 ], [ -119.962671624275657, 39.257586924688162 ], [ -119.962648475745851, 39.257586320403398 ], [ -119.962649253025958, 39.257568323865975 ] ] ], [ [ [ -119.964053085939241, 39.256722137255721 ], [ -119.964136356510068, 39.256940511981938 ], [ -119.963174063572239, 39.257221686129455 ], [ -119.962672401549881, 39.257568928150349 ], [ -119.963413318550664, 39.257047762164305 ], [ -119.963999020262122, 39.256900894876885 ], [ -119.963960492843, 39.25671972123169 ], [ -119.964053085939241, 39.256722137255721 ] ] ] ] } }
]
}
