{
"type": "FeatureCollection",
"name": "X03038",
"crs": { "type": "name", "properties": { "name": "urn:ogc:def:crs:OGC:1.3:CRS84" } },
"features": [
{ "type": "Feature", "properties": { "part": "direct", "crossing_id": "X03038", "area_ac": 1.0, "n_upstream": null }, "geometry": { "type": "MultiPolygon", "coordinates": [ [ [ [ -119.961325909612597, 39.245822826799582 ], [ -119.961348276958759, 39.245841427748623 ], [ -119.961325132318905, 39.245840823351251 ], [ -119.961325909612597, 39.245822826799582 ] ] ], [ [ [ -119.960924076785574, 39.245470012505777 ], [ -119.961195592397502, 39.245621238273891 ], [ -119.961325909612597, 39.245822826799582 ], [ -119.961279620346772, 39.24582161799183 ], [ -119.961011814043303, 39.246120910504608 ], [ -119.960682345695645, 39.246238423316541 ], [ -119.960529662495219, 39.246018233028195 ], [ -119.960537437482913, 39.245838267647017 ], [ -119.960668709776954, 39.245481359548961 ], [ -119.960924076785574, 39.245470012505777 ] ] ] ] } },
{ "type": "Feature", "properties": { "part": "upstream", "crossing_id": "X03038", "area_ac": 1.2, "n_upstream": 3.0 }, "geometry": { "type": "Polygon", "coordinates": [ [ [ -119.961525661658214, 39.246026228309795 ], [ -119.961233991050307, 39.246221893482343 ], [ -119.961283332280445, 39.246272136159163 ], [ -119.96122693739234, 39.246504882451781 ], [ -119.960771636129707, 39.246853328295323 ], [ -119.96076852627013, 39.24692531445168 ], [ -119.960993756864212, 39.247075331804155 ], [ -119.960898066965768, 39.247144900004379 ], [ -119.960866369968386, 39.247342257437332 ], [ -119.960626366099916, 39.247534173992918 ], [ -119.960537673087771, 39.247441773048649 ], [ -119.960657286382045, 39.24735481319658 ], [ -119.960761529045342, 39.247087283299564 ], [ -119.96072470541597, 39.24679033046133 ], [ -119.960702201251635, 39.246851514706769 ], [ -119.960569551624701, 39.246703915117308 ], [ -119.960598139050759, 39.246578543917273 ], [ -119.960715418331361, 39.246545573549461 ], [ -119.960682345695645, 39.246238423316541 ], [ -119.960800401802601, 39.246187456296589 ], [ -119.960805170389378, 39.246202782560303 ], [ -119.961083580310287, 39.246068734240183 ], [ -119.961110819148203, 39.246096470883387 ], [ -119.961061990335992, 39.246032136694168 ], [ -119.961325909612597, 39.245822826799582 ], [ -119.961525661658214, 39.246026228309795 ] ], [ [ -119.960909128819694, 39.246352447671676 ], [ -119.960810574790031, 39.246220152325677 ], [ -119.96090213206088, 39.246514416556614 ], [ -119.960909128819694, 39.246352447671676 ] ] ] } }
]
}
