{
"type": "FeatureCollection",
"name": "X03085",
"crs": { "type": "name", "properties": { "name": "urn:ogc:def:crs:OGC:1.3:CRS84" } },
"features": [
{ "type": "Feature", "properties": { "part": "direct", "crossing_id": "X03085", "area_ac": 1.2, "n_upstream": null }, "geometry": { "type": "Polygon", "coordinates": [ [ [ -119.952711594076575, 39.241958154380974 ], [ -119.952941467233785, 39.242000207612456 ], [ -119.952841100879695, 39.242177747723481 ], [ -119.952875697075129, 39.242448906109587 ], [ -119.952715013703298, 39.242949169503802 ], [ -119.952579270485941, 39.242873547323036 ], [ -119.952571475982097, 39.243053511463749 ], [ -119.952501265908154, 39.243069689545528 ], [ -119.952507501663931, 39.242925718243335 ], [ -119.952258380001496, 39.242793075843551 ], [ -119.952310902984891, 39.242650316876144 ], [ -119.952209217593648, 39.242323350701646 ], [ -119.952403717612398, 39.242112242921465 ], [ -119.952711594076575, 39.241958154380974 ] ] ] } },
{ "type": "Feature", "properties": { "part": "upstream", "crossing_id": "X03085", "area_ac": 0.2, "n_upstream": 1.0 }, "geometry": { "type": "Polygon", "coordinates": [ [ [ -119.952625557439447, 39.242874759512866 ], [ -119.952756624284802, 39.243058360143742 ], [ -119.952744933105819, 39.24332830638825 ], [ -119.952832051855637, 39.243456705560838 ], [ -119.952731682913139, 39.243634245446664 ], [ -119.952663031174595, 39.243614430775516 ], [ -119.952628435522115, 39.243343272382546 ], [ -119.952680178818269, 39.243218509661347 ], [ -119.95254677352645, 39.243088898184652 ], [ -119.952625557439447, 39.242874759512866 ] ] ] } }
]
}
