{
"type": "FeatureCollection",
"name": "X03054",
"crs": { "type": "name", "properties": { "name": "urn:ogc:def:crs:OGC:1.3:CRS84" } },
"features": [
{ "type": "Feature", "properties": { "part": "direct", "crossing_id": "X03054", "area_ac": 0.1 }, "geometry": { "type": "MultiPolygon", "coordinates": [ [ [ [ -119.963295939439817, 39.252252220138779 ], [ -119.96327123870249, 39.252287609174864 ], [ -119.963272792650741, 39.252251616046387 ], [ -119.963295939439817, 39.252252220138779 ] ] ], [ [ [ -119.963790567409021, 39.252066942713491 ], [ -119.963620771444582, 39.252242680380022 ], [ -119.963273569623823, 39.252233619482013 ], [ -119.963465736210352, 39.252076482979575 ], [ -119.963790567409021, 39.252066942713491 ] ] ] ] } }
]
}
