{
"type": "FeatureCollection",
"name": "X03086",
"crs": { "type": "name", "properties": { "name": "urn:ogc:def:crs:OGC:1.3:CRS84" } },
"features": [
{ "type": "Feature", "properties": { "part": "direct", "crossing_id": "X03086", "area_ac": 3.0, "n_upstream": null }, "geometry": { "type": "MultiPolygon", "coordinates": [ [ [ [ -119.953355859590829, 39.245272103829386 ], [ -119.953330377344471, 39.245325487109639 ], [ -119.953332715310097, 39.2452714978511 ], [ -119.953355859590829, 39.245272103829386 ] ] ], [ [ [ -119.953157313674808, 39.242366196073284 ], [ -119.953503684383492, 39.242393281660121 ], [ -119.953473528188042, 39.24255464362448 ], [ -119.953674806294799, 39.242722064599945 ], [ -119.953643091947953, 39.242919419475108 ], [ -119.953755692934095, 39.242994434596781 ], [ -119.953297028476811, 39.243955335189206 ], [ -119.953342302136818, 39.244515042199694 ], [ -119.953187071814995, 39.244889331104076 ], [ -119.953223228697169, 39.245124496547056 ], [ -119.953336611905499, 39.245181515752137 ], [ -119.953332715310097, 39.2452714978511 ], [ -119.953239358849444, 39.245287070310049 ], [ -119.953040413054495, 39.245065659150697 ], [ -119.953148577070678, 39.244708154906306 ], [ -119.952987347842182, 39.244685916308597 ], [ -119.952788404447119, 39.244464504796454 ], [ -119.952924388846725, 39.243999628319621 ], [ -119.953068707445397, 39.243877289574435 ], [ -119.953072604184911, 39.243787307476019 ], [ -119.95291215646651, 39.243747072436612 ], [ -119.952921509048792, 39.243531115424162 ], [ -119.953094425603695, 39.243283407693113 ], [ -119.952982604274865, 39.243190395523605 ], [ -119.953046816108198, 39.242777689860844 ], [ -119.952979723771591, 39.242721882559614 ], [ -119.952930319489042, 39.242792656197203 ], [ -119.952933436903237, 39.242720670514466 ], [ -119.953157313674808, 39.242366196073284 ] ] ] ] } },
{ "type": "Feature", "properties": { "part": "upstream", "crossing_id": "X03086", "area_ac": 0.4, "n_upstream": 1.0 }, "geometry": { "type": "Polygon", "coordinates": [ [ [ -119.953002087872022, 39.242740484997235 ], [ -119.952982604274865, 39.243190395523605 ], [ -119.953092087620732, 39.243337396958147 ], [ -119.952921509048792, 39.243531115424162 ], [ -119.952912935852211, 39.243729076019306 ], [ -119.952727006326342, 39.24374222393309 ], [ -119.952832051855637, 39.243456705560838 ], [ -119.95271345487329, 39.242985162336595 ], [ -119.953002087872022, 39.242740484997235 ] ] ] } }
]
}
