{
"type": "FeatureCollection",
"name": "X03074",
"crs": { "type": "name", "properties": { "name": "urn:ogc:def:crs:OGC:1.3:CRS84" } },
"features": [
{ "type": "Feature", "properties": { "part": "direct", "crossing_id": "X03074", "area_ac": 0.2 }, "geometry": { "type": "Polygon", "coordinates": [ [ [ -119.964549297874385, 39.256500864739621 ], [ -119.964702014656467, 39.256721050791789 ], [ -119.964465871045093, 39.25682299130569 ], [ -119.964327757982517, 39.256801371158829 ], [ -119.964410408606852, 39.256497241284791 ], [ -119.964549297874385, 39.256500864739621 ] ] ] } }
]
}
