{
"type": "FeatureCollection",
"name": "X03015",
"crs": { "type": "name", "properties": { "name": "urn:ogc:def:crs:OGC:1.3:CRS84" } },
"features": [
{ "type": "Feature", "properties": { "part": "direct", "crossing_id": "X03015", "area_ac": 0.1 }, "geometry": { "type": "Polygon", "coordinates": [ [ [ -119.963676546514449, 39.251487428379711 ], [ -119.96383235786989, 39.251635628906683 ], [ -119.963781403711252, 39.251742400393852 ], [ -119.963531452151628, 39.25162777683579 ], [ -119.963559260033719, 39.251520401441823 ], [ -119.963676546514449, 39.251487428379711 ] ] ] } }
]
}
