{
"type": "FeatureCollection",
"name": "X03060",
"crs": { "type": "name", "properties": { "name": "urn:ogc:def:crs:OGC:1.3:CRS84" } },
"features": [
{ "type": "Feature", "properties": { "part": "direct", "crossing_id": "X03060", "area_ac": 0.0, "n_upstream": null }, "geometry": { "type": "MultiPolygon", "coordinates": [ [ [ [ -119.964854691625789, 39.251572216424329 ], [ -119.964877061680738, 39.251590816786823 ], [ -119.964853915075139, 39.251590213017124 ], [ -119.964854691625789, 39.251572216424329 ] ] ], [ [ [ -119.965017494346881, 39.251558446117521 ], [ -119.965038311435194, 39.251613039641946 ], [ -119.964942618856014, 39.251682611039051 ], [ -119.964877061680738, 39.251590816786823 ], [ -119.965017494346881, 39.251558446117521 ] ] ] ] } },
{ "type": "Feature", "properties": { "part": "upstream", "crossing_id": "X03060", "area_ac": 0.3, "n_upstream": 1.0 }, "geometry": { "type": "MultiPolygon", "coordinates": [ [ [ [ -119.964943395386527, 39.251664614445062 ], [ -119.964819896605576, 39.251841561529517 ], [ -119.964655539985642, 39.251891324709085 ], [ -119.964413976264609, 39.252119241921768 ], [ -119.964298242424718, 39.252116222533367 ], [ -119.964294358878192, 39.252206205441837 ], [ -119.964154701369466, 39.252220578591832 ], [ -119.964207208826224, 39.252077813779195 ], [ -119.964491183145768, 39.251941087646848 ], [ -119.964671072046912, 39.251531392924811 ], [ -119.964786804965499, 39.251534411905304 ], [ -119.964943395386527, 39.251664614445062 ] ] ], [ [ [ -119.964153924621982, 39.252238575170971 ], [ -119.964130777818937, 39.252237971249272 ], [ -119.964131554572347, 39.252219974670517 ], [ -119.964153924621982, 39.252238575170971 ] ] ] ] } }
]
}
