{
"type": "FeatureCollection",
"name": "X03194",
"crs": { "type": "name", "properties": { "name": "urn:ogc:def:crs:OGC:1.3:CRS84" } },
"features": [
{ "type": "Feature", "properties": { "part": "direct", "crossing_id": "X03194", "area_ac": 4.6, "n_upstream": null }, "geometry": { "type": "Polygon", "coordinates": [ [ [ -119.953315947107967, 39.248333918366491 ], [ -119.95333675417946, 39.248388513617861 ], [ -119.953939311596983, 39.248386272160843 ], [ -119.954009294950609, 39.248910591924279 ], [ -119.954278469893708, 39.24911582297144 ], [ -119.954275353145519, 39.249187808665141 ], [ -119.954135700406297, 39.249202169942158 ], [ -119.954173420204611, 39.24940134231025 ], [ -119.954308398218885, 39.249494959542226 ], [ -119.954282135746411, 39.249566339388451 ], [ -119.954575238827914, 39.249754179281304 ], [ -119.953025252618431, 39.24969558456182 ], [ -119.95302759118141, 39.249641595359194 ], [ -119.95284008681746, 39.249690735626864 ], [ -119.95274984270911, 39.249634321860427 ], [ -119.952802908630048, 39.250014064629561 ], [ -119.952661694803325, 39.250064416847124 ], [ -119.952718363628946, 39.249291178018005 ], [ -119.952609115344345, 39.248603677966479 ], [ -119.952778148864724, 39.248445953422497 ], [ -119.953220248227339, 39.248403479869502 ], [ -119.953315947107967, 39.248333918366491 ] ] ] } },
{ "type": "Feature", "properties": { "part": "upstream", "crossing_id": "X03194", "area_ac": 16.7, "n_upstream": 11.0 }, "geometry": { "type": "MultiPolygon", "coordinates": [ [ [ [ -119.952434491245583, 39.248728961539371 ], [ -119.952672314761713, 39.248749467631818 ], [ -119.952718363628946, 39.249291178018005 ], [ -119.952667931782486, 39.249920445696617 ], [ -119.952561558559495, 39.249701458066355 ], [ -119.952128028008588, 39.249545968526277 ], [ -119.952183676103488, 39.24933122441832 ], [ -119.952000070952977, 39.24929038141326 ], [ -119.951980044490071, 39.249217789575532 ], [ -119.951988621983133, 39.249019829339339 ], [ -119.952149673066145, 39.248969997523808 ], [ -119.952060397685074, 39.248967659045931 ], [ -119.952117604867013, 39.24871692216503 ], [ -119.952608335745865, 39.248621674363605 ], [ -119.952674653516624, 39.248695478438123 ], [ -119.952434491245583, 39.248728961539371 ] ], [ [ -119.952364407507332, 39.248903554741531 ], [ -119.952371591570483, 39.248737730839551 ], [ -119.95234827910005, 39.248740980990952 ], [ -119.952364407507332, 39.248903554741531 ] ] ], [ [ [ -119.95274984270911, 39.249634321860427 ], [ -119.95281927981776, 39.249636140297113 ], [ -119.952859334714759, 39.249781323749261 ], [ -119.952863232540139, 39.249691341759799 ], [ -119.95302759118141, 39.249641595359194 ], [ -119.953025252618431, 39.24969558456182 ], [ -119.953279855667631, 39.249702251367538 ], [ -119.953184934285503, 39.249753816348935 ], [ -119.95374432919597, 39.249678378583312 ], [ -119.95392715724546, 39.249737215326988 ], [ -119.954785888101412, 39.249705641925921 ], [ -119.95469018864118, 39.249775204608497 ], [ -119.954947908502589, 39.249709882054574 ], [ -119.955478703697977, 39.249759805205123 ], [ -119.95546976287288, 39.249803438311012 ], [ -119.9557109405891, 39.249747864647439 ], [ -119.956102861865332, 39.249794151500538 ], [ -119.956119777811992, 39.249938728603489 ], [ -119.955953084020251, 39.250042468778197 ], [ -119.955946074942261, 39.250204436814101 ], [ -119.955496176083287, 39.25042688474295 ], [ -119.955419727637576, 39.250587035817752 ], [ -119.955082928275431, 39.250864424311537 ], [ -119.955056176986503, 39.25095587585389 ], [ -119.954986738431685, 39.250954058700025 ], [ -119.954958917866847, 39.251061431547818 ], [ -119.954935771648593, 39.251060825813767 ], [ -119.954917299883178, 39.250952241504812 ], [ -119.954952685319341, 39.251205402977142 ], [ -119.954664801274916, 39.251432087331537 ], [ -119.954550627972935, 39.251393065457314 ], [ -119.954485578000089, 39.25145597488671 ], [ -119.954444016939817, 39.251714577692447 ], [ -119.954110615471436, 39.251922052397632 ], [ -119.95408201378585, 39.252047421364026 ], [ -119.954264068913702, 39.252124254223148 ], [ -119.954116617176652, 39.252318579364065 ], [ -119.954111941269375, 39.252426557828493 ], [ -119.954245366167683, 39.252556168139662 ], [ -119.954236014643911, 39.252772125083055 ], [ -119.953914298134464, 39.25270965285096 ], [ -119.953874239758733, 39.252564469673992 ], [ -119.953622744010246, 39.252485818155307 ], [ -119.953182957632706, 39.252474303030162 ], [ -119.953290355259668, 39.252134795861586 ], [ -119.95320946222715, 39.251862425566735 ], [ -119.953005821773601, 39.251748992209961 ], [ -119.952748872438249, 39.251796313685233 ], [ -119.952605382118648, 39.251553038173896 ], [ -119.952593085082938, 39.251648099212169 ], [ -119.952421169595794, 39.251337310844789 ], [ -119.952532130646276, 39.251019111026856 ], [ -119.952466927322931, 39.250816021860608 ], [ -119.95230802369349, 39.2507397926396 ], [ -119.95231192235633, 39.250649810711138 ], [ -119.952527432180773, 39.250667466460982 ], [ -119.952404506466777, 39.250652235684484 ], [ -119.952478622681568, 39.250546076033679 ], [ -119.952215686023735, 39.250196869771344 ], [ -119.952338432800701, 39.250037933552072 ], [ -119.952707986487312, 39.250065629188917 ], [ -119.952693695642893, 39.250138763516034 ], [ -119.952851539011604, 39.249961287723117 ], [ -119.952854657301245, 39.249889302134441 ], [ -119.952780542395814, 39.249995462084762 ], [ -119.95274984270911, 39.249634321860427 ] ], [ [ -119.952632562195987, 39.250451615873303 ], [ -119.952589391280128, 39.25067254241592 ], [ -119.95263279258819, 39.25067609801706 ], [ -119.952632562195987, 39.250451615873303 ] ], [ [ -119.952632848193346, 39.250730283360966 ], [ -119.952632803920764, 39.250687141032785 ], [ -119.952607103711188, 39.250804111059132 ], [ -119.952632848193346, 39.250730283360966 ] ], [ [ -119.953283568584268, 39.250942717343385 ], [ -119.95322607146251, 39.250944003150167 ], [ -119.952757397384531, 39.250983596692031 ], [ -119.952760809876253, 39.250985869916541 ], [ -119.953283568584268, 39.250942717343385 ] ], [ [ -119.954576340506463, 39.250799183524315 ], [ -119.954594032561957, 39.250925764290884 ], [ -119.954084037790778, 39.250930431938684 ], [ -119.954598594830784, 39.250943900514635 ], [ -119.954576340506463, 39.250799183524315 ] ], [ [ -119.953947498823283, 39.250872807194945 ], [ -119.953953078670978, 39.250887447239919 ], [ -119.954086375644565, 39.250876442694313 ], [ -119.953947498823283, 39.250872807194945 ] ], [ [ -119.955088173617185, 39.250846492635368 ], [ -119.955182034974882, 39.25072495071926 ], [ -119.955143056470419, 39.250658869997636 ], [ -119.955088173617185, 39.250846492635368 ] ], [ [ -119.955161147977137, 39.250597022082729 ], [ -119.955224005644425, 39.250442673347095 ], [ -119.955192161906737, 39.25049099707509 ], [ -119.955161147977137, 39.250597022082729 ] ] ] ] } }
]
}
