{
"type": "FeatureCollection",
"name": "X03144",
"crs": { "type": "name", "properties": { "name": "urn:ogc:def:crs:OGC:1.3:CRS84" } },
"features": [
{ "type": "Feature", "properties": { "part": "direct", "crossing_id": "X03144", "area_ac": 0.1 }, "geometry": { "type": "Polygon", "coordinates": [ [ [ -119.953483864074315, 39.252482181979104 ], [ -119.953874239758733, 39.252564469673992 ], [ -119.953914298134464, 39.25270965285096 ], [ -119.953500774896924, 39.252626759219496 ], [ -119.953483864074315, 39.252482181979104 ] ] ] } }
]
}
