{
"type": "FeatureCollection",
"name": "X03112",
"crs": { "type": "name", "properties": { "name": "urn:ogc:def:crs:OGC:1.3:CRS84" } },
"features": [
{ "type": "Feature", "properties": { "part": "direct", "crossing_id": "X03112", "area_ac": 0.1 }, "geometry": { "type": "Polygon", "coordinates": [ [ [ -119.953106795324913, 39.246742961830627 ], [ -119.953102898219456, 39.246832943886162 ], [ -119.952940884716256, 39.246828701449516 ], [ -119.952886020872796, 39.247025449761338 ], [ -119.952746372282718, 39.247039809531813 ], [ -119.952781209760332, 39.246770469570976 ], [ -119.953106795324913, 39.246742961830627 ] ] ] } }
]
}
