{
"type": "FeatureCollection",
"name": "X03114",
"crs": { "type": "name", "properties": { "name": "urn:ogc:def:crs:OGC:1.3:CRS84" } },
"features": [
{ "type": "Feature", "properties": { "part": "direct", "crossing_id": "X03114", "area_ac": 0.3 }, "geometry": { "type": "Polygon", "coordinates": [ [ [ -119.958174866313612, 39.25278507888909 ], [ -119.958498922345015, 39.252793550045084 ], [ -119.958536655866567, 39.252992721452287 ], [ -119.958334358736238, 39.253383803479856 ], [ -119.958206372587142, 39.253128222183044 ], [ -119.958174866313612, 39.25278507888909 ] ] ] } }
]
}
