{
"type": "FeatureCollection",
"name": "X03171",
"crs": { "type": "name", "properties": { "name": "urn:ogc:def:crs:OGC:1.3:CRS84" } },
"features": [
{ "type": "Feature", "properties": { "part": "direct", "crossing_id": "X03171", "area_ac": 0.4 }, "geometry": { "type": "Polygon", "coordinates": [ [ [ -119.962252002918035, 39.252279021076021 ], [ -119.962258827727055, 39.252657552855375 ], [ -119.962043509950888, 39.25281408283783 ], [ -119.962001879935329, 39.25270489488733 ], [ -119.96188692273175, 39.252683876524713 ], [ -119.96184917975468, 39.252484705830426 ], [ -119.961972687045233, 39.252307762255285 ], [ -119.962252002918035, 39.252279021076021 ] ] ] } }
]
}
