{
"type": "FeatureCollection",
"name": "X03117",
"crs": { "type": "name", "properties": { "name": "urn:ogc:def:crs:OGC:1.3:CRS84" } },
"features": [
{ "type": "Feature", "properties": { "part": "direct", "crossing_id": "X03117", "area_ac": 9.1, "n_upstream": null }, "geometry": { "type": "Polygon", "coordinates": [ [ [ -119.956009065169226, 39.250890723913464 ], [ -119.95605224241244, 39.25096392073678 ], [ -119.956563016508952, 39.250941248003983 ], [ -119.956627783332792, 39.251051042960292 ], [ -119.95683532103503, 39.251074487834238 ], [ -119.956870713450513, 39.251327648991605 ], [ -119.957134456311181, 39.251658849278058 ], [ -119.95705333869337, 39.25192698026396 ], [ -119.957230517051613, 39.252652286554543 ], [ -119.957109333180767, 39.25277523521283 ], [ -119.956922601353739, 39.252806385367919 ], [ -119.956870857302135, 39.252931149818849 ], [ -119.956735869379727, 39.2528375352165 ], [ -119.956522875546057, 39.252940065115162 ], [ -119.955456562288447, 39.252948202647744 ], [ -119.955437310413558, 39.252857614832266 ], [ -119.955090887282054, 39.252830532994082 ], [ -119.955002974690046, 39.2527201314984 ], [ -119.955153541187372, 39.252453819470766 ], [ -119.955063291701862, 39.252397407310873 ], [ -119.955121270907597, 39.252128672340412 ], [ -119.955056505607828, 39.252018876615722 ], [ -119.955108252051005, 39.251894113055471 ], [ -119.95499797312516, 39.251765109444015 ], [ -119.955018228843471, 39.251297202307882 ], [ -119.955218200305424, 39.250960115718854 ], [ -119.955913365164534, 39.25096028757482 ], [ -119.956009065169226, 39.250890723913464 ] ] ] } },
{ "type": "Feature", "properties": { "part": "upstream", "crossing_id": "X03117", "area_ac": 26.2, "n_upstream": 28.0 }, "geometry": { "type": "MultiPolygon", "coordinates": [ [ [ [ -119.957804106728105, 39.253856395032138 ], [ -119.957826475516995, 39.25387499670024 ], [ -119.957803328311982, 39.253874391500005 ], [ -119.957804106728105, 39.253856395032138 ] ] ], [ [ [ -119.95761659376825, 39.253905542662231 ], [ -119.957590332668318, 39.253976923276312 ], [ -119.957567185434854, 39.253976318027846 ], [ -119.95761659376825, 39.253905542662231 ] ] ], [ [ [ -119.957543259716203, 39.25399370923796 ], [ -119.957544038202101, 39.253975712774775 ], [ -119.957566406954854, 39.253994314491408 ], [ -119.957543259716203, 39.25399370923796 ] ] ], [ [ [ -119.957519333985772, 39.254011100442618 ], [ -119.957520112478264, 39.253993103979916 ], [ -119.957542481229623, 39.254011705701039 ], [ -119.957519333985772, 39.254011100442618 ] ] ], [ [ [ -119.958069622800352, 39.253611101360775 ], [ -119.958091213252729, 39.253647699451605 ], [ -119.958058495924661, 39.253654050836857 ], [ -119.958114360389402, 39.2536483045917 ], [ -119.959059307431843, 39.25430359343494 ], [ -119.958842421298513, 39.254496109943922 ], [ -119.958759749749049, 39.254800235098109 ], [ -119.958809737626325, 39.25525196218252 ], [ -119.958665403917067, 39.255374307324004 ], [ -119.958370710154796, 39.255222469497319 ], [ -119.958365701549639, 39.255204321747321 ], [ -119.95834834080928, 39.255203867915171 ], [ -119.958349119122872, 39.255185871442237 ], [ -119.95827967618311, 39.255184056088979 ], [ -119.958414670582584, 39.255277669123721 ], [ -119.958171518376261, 39.255541564944529 ], [ -119.958438596554913, 39.255260277746295 ], [ -119.958641477957158, 39.255391698748511 ], [ -119.958425365483066, 39.255566217797643 ], [ -119.95837886809025, 39.256105506843028 ], [ -119.958259236533891, 39.256192463544309 ], [ -119.958274600894327, 39.256373033367154 ], [ -119.958193582771202, 39.256370915345897 ], [ -119.958341709961246, 39.256428838176312 ], [ -119.958243669112946, 39.256552392896715 ], [ -119.958008296006668, 39.256636323488181 ], [ -119.958043694172233, 39.256889484355717 ], [ -119.957968021899802, 39.257031640443699 ], [ -119.957731868333568, 39.257133566851969 ], [ -119.957752681048447, 39.257188161478751 ], [ -119.957724770087296, 39.257337515928491 ], [ -119.957768822676599, 39.257350734842944 ], [ -119.957642959727835, 39.257581662419625 ], [ -119.957452322119735, 39.257702795169699 ], [ -119.957415158425491, 39.258026125930272 ], [ -119.957324121491993, 39.257987711667795 ], [ -119.95747993242307, 39.258135920605099 ], [ -119.957493737637634, 39.258352483314916 ], [ -119.957713545891124, 39.258628483082319 ], [ -119.957683389904773, 39.258789845857173 ], [ -119.957751279230948, 39.258827654608133 ], [ -119.957573665117764, 39.259183346526164 ], [ -119.957015540164335, 39.259763305477435 ], [ -119.957359450498103, 39.260384870852455 ], [ -119.957250499595489, 39.260760374516934 ], [ -119.956953450827299, 39.260662521757332 ], [ -119.956757567995311, 39.260369129569661 ], [ -119.956573931294301, 39.260328292618802 ], [ -119.95630782436379, 39.260051079584429 ], [ -119.956426686146614, 39.25998212171887 ], [ -119.956360354414556, 39.259908319335231 ], [ -119.956645933140422, 39.259735621505165 ], [ -119.95652105877808, 39.259408052660447 ], [ -119.956737967023471, 39.259215541465416 ], [ -119.956795168381603, 39.258964802335356 ], [ -119.956755101262544, 39.258819619911982 ], [ -119.956484325614809, 39.258650386013599 ], [ -119.956652597594072, 39.258510653110918 ], [ -119.956733725951935, 39.258242523023618 ], [ -119.956463731367663, 39.258055292717742 ], [ -119.956306365013731, 39.257943075368431 ], [ -119.956128407550992, 39.257235764517382 ], [ -119.956301349967035, 39.256988053398274 ], [ -119.956353877337307, 39.256845292998079 ], [ -119.956251377772631, 39.256536325935187 ], [ -119.95639961223246, 39.256324001886902 ], [ -119.956286987826559, 39.256248988524831 ], [ -119.956315587810352, 39.256123619006658 ], [ -119.956540273820011, 39.255751143320396 ], [ -119.95654884048227, 39.255553182466279 ], [ -119.956719440730552, 39.255359459775377 ], [ -119.956645540055064, 39.254925123325044 ], [ -119.956962031098868, 39.25457306471796 ], [ -119.956671802517562, 39.254853742985887 ], [ -119.956654884903159, 39.254709165977417 ], [ -119.956382567110978, 39.254575925257235 ], [ -119.956558290154362, 39.254397651050056 ], [ -119.956552386504214, 39.254400199152556 ], [ -119.956467584816494, 39.254217812843315 ], [ -119.95650319220087, 39.253930475187524 ], [ -119.956261812855672, 39.25361787531304 ], [ -119.956300535753968, 39.253258551937932 ], [ -119.956198040634888, 39.252949584878536 ], [ -119.956662535460197, 39.25292570125103 ], [ -119.956782163062684, 39.252838746010084 ], [ -119.956818334408212, 39.253073910691121 ], [ -119.956951765650473, 39.253203518128089 ], [ -119.956801416681884, 39.252929333670906 ], [ -119.95694263375853, 39.25287897655619 ], [ -119.956961887593948, 39.252969564198438 ], [ -119.957910706474649, 39.253534879342446 ], [ -119.957886780993803, 39.253552270633598 ], [ -119.958069622800352, 39.253611101360775 ] ], [ [ -119.958364032015098, 39.255198272497267 ], [ -119.958350675747965, 39.255149878496283 ], [ -119.958349119122872, 39.255185871442237 ], [ -119.958364032015098, 39.255198272497267 ] ], [ [ -119.958266356091443, 39.25514911558281 ], [ -119.958254111259805, 39.255162797119119 ], [ -119.958257306874387, 39.25516545449063 ], [ -119.958251860371107, 39.255165312107252 ], [ -119.958220097813125, 39.255200801378706 ], [ -119.95827967618311, 39.255184056088979 ], [ -119.958266356091443, 39.25514911558281 ] ], [ [ -119.956565888401343, 39.257301258990459 ], [ -119.956566667228671, 39.257283262553905 ], [ -119.956463731367663, 39.258055292717742 ], [ -119.956565888401343, 39.257301258990459 ] ], [ [ -119.95657518893313, 39.257290349002609 ], [ -119.956592695808581, 39.257269812552522 ], [ -119.956599608476481, 39.257236079373307 ], [ -119.956566667228671, 39.257283262553905 ], [ -119.95657518893313, 39.257290349002609 ] ], [ [ -119.956995300841157, 39.254339716212606 ], [ -119.956968260283503, 39.2544290931029 ], [ -119.956780024252268, 39.254237418768653 ], [ -119.95678703247961, 39.254287547639962 ], [ -119.956812458187486, 39.254280883763151 ], [ -119.956945891565638, 39.254410491273134 ], [ -119.956962031098868, 39.25457306471796 ], [ -119.956995300841157, 39.254339716212606 ] ], [ [ -119.956916705086797, 39.25422390745004 ], [ -119.956907383430121, 39.254229315990145 ], [ -119.956907383430092, 39.254229315990131 ], [ -119.956995300841157, 39.254339716212606 ], [ -119.956916705086797, 39.25422390745004 ] ], [ [ -119.957635848674968, 39.253996130224202 ], [ -119.957659152711258, 39.253981464429494 ], [ -119.957612701434257, 39.253995524984525 ], [ -119.957649989254477, 39.253957694503747 ], [ -119.957518555492584, 39.254029096905306 ], [ -119.957495408243517, 39.25402849164189 ], [ -119.957510320745655, 39.254040892792958 ], [ -119.957635848674968, 39.253996130224202 ] ], [ [ -119.957638184059761, 39.253942140829885 ], [ -119.95761659376825, 39.253905542662231 ], [ -119.957498672158707, 39.254012562038206 ], [ -119.957518555492584, 39.254029096905306 ], [ -119.957638184059761, 39.253942140829885 ] ], [ [ -119.957495992117913, 39.254014994295169 ], [ -119.957477231827141, 39.254032020092033 ], [ -119.957494629743735, 39.254046488104059 ], [ -119.957494629743735, 39.254046488104052 ], [ -119.957495408243517, 39.25402849164189 ], [ -119.957495992117913, 39.254014994295169 ] ], [ [ -119.957733886701121, 39.25387257587176 ], [ -119.957743227860846, 39.253656618266398 ], [ -119.957712501097035, 39.253894272784549 ], [ -119.957733886701121, 39.25387257587176 ] ], [ [ -119.957838151596931, 39.253605049668884 ], [ -119.957993176174583, 39.253771254146386 ], [ -119.957975959004713, 39.253670073607729 ], [ -119.957927626558373, 39.253679456283471 ], [ -119.957886780993789, 39.253552270633605 ], [ -119.957743227860846, 39.253656618266398 ], [ -119.957838151596931, 39.253605049668884 ] ], [ [ -119.957286304480505, 39.254041040523255 ], [ -119.957286526924278, 39.254035898677941 ], [ -119.957210676143973, 39.254075096430675 ], [ -119.957286304480505, 39.254041040523255 ] ], [ [ -119.957255813297905, 39.254076276801776 ], [ -119.957292091292629, 39.254041191849971 ], [ -119.957286304480505, 39.254041040523255 ], [ -119.957255813297905, 39.254076276801776 ] ], [ [ -119.957164339563292, 39.254181985580608 ], [ -119.957194473153478, 39.254227122700371 ], [ -119.957170289083038, 39.254175110215435 ], [ -119.957164339563292, 39.254181985580608 ] ], [ [ -119.957232708753395, 39.25428439573458 ], [ -119.957247664576158, 39.254197677227452 ], [ -119.957210426245851, 39.254251018820085 ], [ -119.957232708753395, 39.25428439573458 ] ], [ [ -119.957255371606237, 39.254220399793105 ], [ -119.95730439115674, 39.254158622810891 ], [ -119.957280854590749, 39.254167015732385 ], [ -119.95740515482025, 39.253972081159944 ], [ -119.957256928737095, 39.254184406877734 ], [ -119.957255371606237, 39.254220399793105 ] ], [ [ -119.957348250679658, 39.254103348648052 ], [ -119.957353410618879, 39.254096845804078 ], [ -119.957376947153151, 39.254088452866554 ], [ -119.957377336418745, 39.254079454636539 ], [ -119.957384792663362, 39.254085655219605 ], [ -119.957422209703864, 39.254072312588072 ], [ -119.95740515482025, 39.253972081159944 ], [ -119.957348250679658, 39.254103348648052 ] ], [ [ -119.957447556723636, 39.254063274024041 ], [ -119.957447556723636, 39.254063274024041 ], [ -119.957447751351765, 39.254058774908707 ], [ -119.957439711218171, 39.254066071675425 ], [ -119.957447556723636, 39.254063274024041 ] ], [ [ -119.957463247732704, 39.254057678719597 ], [ -119.957494629743707, 39.254046488104059 ], [ -119.957471482489481, 39.254045882835676 ], [ -119.957471871742399, 39.254036884604773 ], [ -119.957455791483653, 39.254051478141356 ], [ -119.957463247732704, 39.254057678719597 ] ], [ [ -119.957168311211461, 39.257839502544208 ], [ -119.957204267372347, 39.257873704666203 ], [ -119.957173769137086, 39.257793702416066 ], [ -119.957168311211461, 39.257839502544208 ] ], [ [ -119.957200484116271, 39.257569522829463 ], [ -119.957188253588143, 39.257672155918179 ], [ -119.957323553756041, 39.257465209331308 ], [ -119.957200484116271, 39.257569522829463 ] ], [ [ -119.956871916621679, 39.256120153888219 ], [ -119.956887828504705, 39.256144299510233 ], [ -119.956946811270214, 39.255995994989945 ], [ -119.956871916621679, 39.256120153888219 ] ], [ [ -119.957015322868841, 39.255751557014214 ], [ -119.956991482907711, 39.255766948471766 ], [ -119.957032294389947, 39.255761009274906 ], [ -119.957015322868841, 39.255751557014214 ] ], [ [ -119.957038246468755, 39.255668078068375 ], [ -119.95704178752132, 39.255684737861493 ], [ -119.957063767997752, 39.255649527588574 ], [ -119.957038246468755, 39.255668078068375 ] ], [ [ -119.957128312577694, 39.255550321414418 ], [ -119.957228569948782, 39.255308590244496 ], [ -119.957031828314612, 39.255637882193241 ], [ -119.957036962837535, 39.255662038893369 ], [ -119.957080459800864, 39.255585103589965 ], [ -119.957078707839685, 39.255625595603334 ], [ -119.957103607552824, 39.255585708955799 ], [ -119.957237304598578, 39.255476404418182 ], [ -119.957128312577694, 39.255550321414418 ] ], [ [ -119.957173829437522, 39.255569528573687 ], [ -119.957174218749614, 39.255560530347658 ], [ -119.957103607552824, 39.255585708955799 ], [ -119.957173829437522, 39.255569528573687 ] ], [ [ -119.957208515938234, 39.255660519745661 ], [ -119.957197755804444, 39.255552137468293 ], [ -119.957182064435159, 39.255557732721762 ], [ -119.957196977186399, 39.25557013392077 ], [ -119.957173829437522, 39.255569528573687 ], [ -119.957208515938234, 39.255660519745661 ] ], [ [ -119.957336939815079, 39.255127207029119 ], [ -119.957315019424428, 39.255163896200443 ], [ -119.957360141747287, 39.255146501413513 ], [ -119.957336939815079, 39.255127207029119 ] ], [ [ -119.957300678193448, 39.2547801059089 ], [ -119.957366282229231, 39.255000944899543 ], [ -119.957377065374374, 39.254962271597478 ], [ -119.957300678193448, 39.2547801059089 ] ], [ [ -119.957484301101928, 39.25482094119355 ], [ -119.957435149399785, 39.254899678672928 ], [ -119.957672139610395, 39.254767560944352 ], [ -119.957649447608304, 39.254753192177859 ], [ -119.957654826187763, 39.25472694198146 ], [ -119.957483522577363, 39.254838937653126 ], [ -119.957484301101928, 39.25482094119355 ] ], [ [ -119.957556734980557, 39.254704906966055 ], [ -119.957674700034985, 39.254629947324034 ], [ -119.957678822870463, 39.254609825714205 ], [ -119.95757608428984, 39.254654170274776 ], [ -119.957583897620935, 39.254661394116184 ], [ -119.957556734980557, 39.254704906966055 ] ], [ [ -119.957360208567252, 39.25447537674188 ], [ -119.957242135881543, 39.254526339562595 ], [ -119.95738335596036, 39.254475982037881 ], [ -119.957450203063956, 39.254537786098325 ], [ -119.957428093689856, 39.254513185535465 ], [ -119.957419027222713, 39.254475528910497 ], [ -119.957405724819182, 39.254494583788627 ], [ -119.957316137903902, 39.254409363754974 ], [ -119.957360208567252, 39.25447537674188 ] ], [ [ -119.957250032058454, 39.254310344247955 ], [ -119.957251392259224, 39.254312381686674 ], [ -119.957251478766949, 39.25431038208032 ], [ -119.957250032058454, 39.254310344247955 ] ], [ [ -119.957800265969325, 39.25381125256164 ], [ -119.957784518055476, 39.253902568789584 ], [ -119.957867798362159, 39.253850158169463 ], [ -119.957819916882087, 39.253783103226027 ], [ -119.957800265969325, 39.25381125256164 ] ], [ [ -119.958062785134715, 39.255376570928334 ], [ -119.958062098318237, 39.255392450164386 ], [ -119.958086009756499, 39.255350621525999 ], [ -119.958062785134715, 39.255376570928334 ] ], [ [ -119.958288348441329, 39.2551245428198 ], [ -119.958341247804498, 39.2551157180243 ], [ -119.958330641377842, 39.255077287492611 ], [ -119.958288348441329, 39.2551245428198 ] ], [ [ -119.957654708022844, 39.257307138577737 ], [ -119.957654638050755, 39.257311715606448 ], [ -119.957519702601402, 39.257246998101778 ], [ -119.957518083824766, 39.257254094509321 ], [ -119.957242640114799, 39.257192841203583 ], [ -119.957683495605096, 39.257325130624707 ], [ -119.957654708022844, 39.257307138577737 ] ], [ [ -119.957689387435849, 39.256505798572753 ], [ -119.957666761172632, 39.256518687683155 ], [ -119.957660970409933, 39.256897494495341 ], [ -119.957689387435849, 39.256505798572753 ] ], [ [ -119.957768458236302, 39.256287733317272 ], [ -119.957756009304504, 39.256269391005247 ], [ -119.957667302536152, 39.25648327335562 ], [ -119.957666788260482, 39.256516915682717 ], [ -119.957768458236302, 39.256287733317272 ] ], [ [ -119.957699807801347, 39.256093016702238 ], [ -119.957682872865874, 39.256123344191828 ], [ -119.957689152917197, 39.25613122988986 ], [ -119.957699807801347, 39.256093016702238 ] ], [ [ -119.958027958316478, 39.256322281678123 ], [ -119.957999159812331, 39.256311781955262 ], [ -119.957800169541045, 39.256090377489173 ], [ -119.957998381378118, 39.256329778418788 ], [ -119.957786704197119, 39.256450361716297 ], [ -119.958027958316478, 39.256322281678123 ] ], [ [ -119.957974700913738, 39.256011786163441 ], [ -119.957989245177671, 39.25600523687374 ], [ -119.958162177904256, 39.255757522565816 ], [ -119.957974700913738, 39.256011786163441 ] ], [ [ -119.957462653597119, 39.256928342443466 ], [ -119.957499554973339, 39.257016340978694 ], [ -119.957505075573081, 39.256701340570814 ], [ -119.957462653597119, 39.256928342443466 ] ], [ [ -119.957508153805449, 39.256525695924118 ], [ -119.95751149463193, 39.256335064761366 ], [ -119.957437215939933, 39.256034558097483 ], [ -119.957429802698243, 39.256080693196168 ], [ -119.957172213576698, 39.256381134840453 ], [ -119.957161184660166, 39.256420688156382 ], [ -119.957429024124863, 39.256098689650884 ], [ -119.957508153805449, 39.256525695924118 ] ], [ [ -119.957399078412621, 39.255719553483061 ], [ -119.957458541648734, 39.255875538250301 ], [ -119.957476804931304, 39.255851307043763 ], [ -119.957399078412621, 39.255719553483061 ] ], [ [ -119.957229327878395, 39.255715114444975 ], [ -119.957236265198418, 39.255733312677449 ], [ -119.957399078412621, 39.255719553483061 ], [ -119.957229327878395, 39.255715114444975 ] ], [ [ -119.957793575780315, 39.255171347458742 ], [ -119.957736381918352, 39.255422087481328 ], [ -119.957544486394909, 39.255761509013126 ], [ -119.957732489527544, 39.255512069790193 ], [ -119.957793575780315, 39.255171347458742 ] ], [ [ -119.957590696669016, 39.255039925059734 ], [ -119.957538856787394, 39.255077605982407 ], [ -119.957589918165581, 39.255057921520397 ], [ -119.957793575780315, 39.255171347458742 ], [ -119.957590696669016, 39.255039925059734 ] ], [ [ -119.957465616319865, 39.255252856203832 ], [ -119.957476337671466, 39.255280980725828 ], [ -119.957487985435463, 39.255271457947131 ], [ -119.957736381918352, 39.255422087481328 ], [ -119.957465616319865, 39.255252856203832 ] ], [ [ -119.956735651752538, 39.257067477127315 ], [ -119.956724862202265, 39.257114774194157 ], [ -119.956761198950019, 39.257072149062012 ], [ -119.956735651752538, 39.257067477127315 ] ], [ [ -119.956714902483924, 39.257070938151543 ], [ -119.956722878155176, 39.257065141157895 ], [ -119.956719394446949, 39.257064504075096 ], [ -119.956714902483924, 39.257070938151543 ] ], [ [ -119.956777685945411, 39.254220693173849 ], [ -119.956825454763859, 39.254194742963072 ], [ -119.956770835699231, 39.254171694247937 ], [ -119.956777685945411, 39.254220693173849 ] ], [ [ -119.957299865143852, 39.254033673644379 ], [ -119.957310230276192, 39.254023649369294 ], [ -119.957296403321905, 39.254030794799966 ], [ -119.957299865143852, 39.254033673644379 ] ], [ [ -119.957082650899281, 39.253927613837924 ], [ -119.956797310709604, 39.253559814919967 ], [ -119.957073071516419, 39.253952192147089 ], [ -119.957082650899281, 39.253927613837924 ] ] ], [ [ [ -119.957648669127821, 39.254771188640419 ], [ -119.957625521631982, 39.254770583393359 ], [ -119.957626300118335, 39.254752586931176 ], [ -119.957648669127821, 39.254771188640419 ] ] ], [ [ [ -119.957518083824766, 39.257254094509321 ], [ -119.957540453557598, 39.257272696262532 ], [ -119.957517305241467, 39.257272090961884 ], [ -119.957518083824766, 39.257254094509321 ] ] ], [ [ [ -119.956671802517562, 39.254853742985887 ], [ -119.956647097536717, 39.254889130434478 ], [ -119.956648655015584, 39.254853137543599 ], [ -119.956671802517562, 39.254853742985887 ] ] ] ] } }
]
}
