{
"type": "FeatureCollection",
"name": "X03121",
"crs": { "type": "name", "properties": { "name": "urn:ogc:def:crs:OGC:1.3:CRS84" } },
"features": [
{ "type": "Feature", "properties": { "part": "direct", "crossing_id": "X03121", "area_ac": 2.4, "n_upstream": null }, "geometry": { "type": "Polygon", "coordinates": [ [ [ -119.958161687292403, 39.248803015312369 ], [ -119.959106765506434, 39.248917801696315 ], [ -119.95903343887224, 39.249005969554212 ], [ -119.95907428442932, 39.249133154864545 ], [ -119.959535642348172, 39.249181244752108 ], [ -119.959289405114404, 39.249517130171967 ], [ -119.959353397224689, 39.249644920255072 ], [ -119.9590902352531, 39.249836228259483 ], [ -119.959060087485682, 39.249997591872862 ], [ -119.958459849116679, 39.249945869859403 ], [ -119.958495445099132, 39.249658531007817 ], [ -119.958290245323766, 39.249581099766942 ], [ -119.958227033420485, 39.249435312686842 ], [ -119.958308921278899, 39.249149184004118 ], [ -119.958161687292403, 39.248803015312369 ] ] ] } },
{ "type": "Feature", "properties": { "part": "upstream", "crossing_id": "X03121", "area_ac": 4.1, "n_upstream": 1.0 }, "geometry": { "type": "Polygon", "coordinates": [ [ [ -119.957562238365142, 39.248733292598054 ], [ -119.958184054658915, 39.24882161686623 ], [ -119.958308921278899, 39.249149184004118 ], [ -119.958246288269578, 39.249525900190442 ], [ -119.958495445099132, 39.249658531007817 ], [ -119.958459849116679, 39.249945869859403 ], [ -119.956519486857417, 39.249805049543276 ], [ -119.956416994814276, 39.249496082678903 ], [ -119.956684833785118, 39.249196802170395 ], [ -119.956873113046754, 39.249129659074761 ], [ -119.957117024662139, 39.248847768568567 ], [ -119.95753053105571, 39.248930648679924 ], [ -119.957562238365142, 39.248733292598054 ] ] ] } }
]
}
