{
"type": "FeatureCollection",
"name": "X03109",
"crs": { "type": "name", "properties": { "name": "urn:ogc:def:crs:OGC:1.3:CRS84" } },
"features": [
{ "type": "Feature", "properties": { "part": "direct", "crossing_id": "X03109", "area_ac": 2.4 }, "geometry": { "type": "Polygon", "coordinates": [ [ [ -119.953682530731569, 39.246289598615959 ], [ -119.953701779076994, 39.246380186650541 ], [ -119.953954811912951, 39.246422844362158 ], [ -119.953843531812581, 39.246852335017131 ], [ -119.95388358763519, 39.246997518196977 ], [ -119.954021677612104, 39.247019149899785 ], [ -119.954015444044302, 39.247163121303608 ], [ -119.953848754190858, 39.247266858640501 ], [ -119.953915072124119, 39.247340662023248 ], [ -119.953862548228088, 39.247483421606645 ], [ -119.953652684486215, 39.247513961123559 ], [ -119.953501344878077, 39.247798268008943 ], [ -119.953385619314318, 39.247795238053939 ], [ -119.953099542429001, 39.247445427875341 ], [ -119.953094324526006, 39.24703090440228 ], [ -119.952886020872796, 39.247025449761338 ], [ -119.952888359320454, 39.246971460540927 ], [ -119.952940884716256, 39.246828701449516 ], [ -119.953102898219456, 39.246832943886162 ], [ -119.953106795324913, 39.246742961830627 ], [ -119.95320015376241, 39.246727389558508 ], [ -119.953218079664083, 39.246313472043795 ], [ -119.953586835108553, 39.246359160565213 ], [ -119.953682530731569, 39.246289598615959 ] ] ] } }
]
}
