{
"type": "FeatureCollection",
"name": "X03104",
"crs": { "type": "name", "properties": { "name": "urn:ogc:def:crs:OGC:1.3:CRS84" } },
"features": [
{ "type": "Feature", "properties": { "part": "direct", "crossing_id": "X03104", "area_ac": 0.3 }, "geometry": { "type": "Polygon", "coordinates": [ [ [ -119.954186299457575, 39.242681403520564 ], [ -119.954533451249574, 39.242690489669769 ], [ -119.954402154389612, 39.243047389970378 ], [ -119.953917697739314, 39.242998675555363 ], [ -119.953994919252239, 39.242820528660587 ], [ -119.954156144650753, 39.242842765711799 ], [ -119.954186299457575, 39.242681403520564 ] ] ] } }
]
}
