{
"type": "FeatureCollection",
"name": "X03108",
"crs": { "type": "name", "properties": { "name": "urn:ogc:def:crs:OGC:1.3:CRS84" } },
"features": [
{ "type": "Feature", "properties": { "part": "direct", "crossing_id": "X03108", "area_ac": 2.3, "n_upstream": null }, "geometry": { "type": "Polygon", "coordinates": [ [ [ -119.957752680110531, 39.247008655906974 ], [ -119.957842147033574, 39.247083062327135 ], [ -119.958164620449082, 39.247127526375031 ], [ -119.958093629157361, 39.24716170420885 ], [ -119.95811054893511, 39.247306281214129 ], [ -119.957879098449524, 39.247300230411994 ], [ -119.957805772144653, 39.247388397522542 ], [ -119.957712210721624, 39.247944473203553 ], [ -119.957474531525023, 39.248082393372442 ], [ -119.957147176193075, 39.248686405587129 ], [ -119.9570322272467, 39.248665382726671 ], [ -119.957036898050248, 39.248557403899007 ], [ -119.956848620496089, 39.24862454733185 ], [ -119.956652768403089, 39.248331155778097 ], [ -119.956682142148154, 39.24818778940454 ], [ -119.956921380124811, 39.248013877990232 ], [ -119.956838919577422, 39.247777502631095 ], [ -119.956963208553262, 39.247582567951895 ], [ -119.957193102972298, 39.247624613564426 ], [ -119.957383712538629, 39.247503480004546 ], [ -119.957363680845177, 39.247430888876785 ], [ -119.957528809631867, 39.247363139282093 ], [ -119.957487189413385, 39.247253950028586 ], [ -119.957613032168908, 39.247023021562889 ], [ -119.957752680110531, 39.247008655906974 ] ] ] } },
{ "type": "Feature", "properties": { "part": "upstream", "crossing_id": "X03108", "area_ac": 3.3, "n_upstream": 7.0 }, "geometry": { "type": "Polygon", "coordinates": [ [ [ -119.958463949313085, 39.247171384561319 ], [ -119.958362810272845, 39.247366926058504 ], [ -119.958196632614985, 39.247351771985848 ], [ -119.958408322347196, 39.247386132563257 ], [ -119.958402097666976, 39.247530104545547 ], [ -119.95837895253544, 39.247529499541066 ], [ -119.95839898531014, 39.247602090535054 ], [ -119.958316321905087, 39.247906215926626 ], [ -119.958275478305652, 39.247779030408665 ], [ -119.958294732902459, 39.247869617911086 ], [ -119.95827508203952, 39.247909206214132 ], [ -119.958292398525373, 39.247923607394803 ], [ -119.958269253266849, 39.247923002363478 ], [ -119.958269350533428, 39.247920752801711 ], [ -119.958091672858743, 39.24827869682936 ], [ -119.958073774353423, 39.2486926160812 ], [ -119.958023592253724, 39.248781388344717 ], [ -119.957568053745646, 39.248733898858212 ], [ -119.957578378877756, 39.248895866098543 ], [ -119.957414803196926, 39.248927622655771 ], [ -119.957207271526613, 39.248904179049774 ], [ -119.957187239712042, 39.248831587898181 ], [ -119.957065725670532, 39.248828410218323 ], [ -119.957115467755287, 39.248883761512282 ], [ -119.956490325174371, 39.249407916626254 ], [ -119.956383161837962, 39.249206928498154 ], [ -119.956600037149201, 39.249014416050194 ], [ -119.956582341719084, 39.248887835430267 ], [ -119.956921170858053, 39.248554377408304 ], [ -119.957036898050248, 39.248557403899007 ], [ -119.95699395562049, 39.24869935570446 ], [ -119.957147176193075, 39.248686405587129 ], [ -119.957474531525023, 39.248082393372442 ], [ -119.957712210721624, 39.247944473203553 ], [ -119.957805772144653, 39.247388397522542 ], [ -119.957879098449524, 39.247300230411994 ], [ -119.958086185889812, 39.247333844578229 ], [ -119.958093629157361, 39.24716170420885 ], [ -119.958463949313085, 39.247171384561319 ] ], [ [ -119.957999292218346, 39.247735776731453 ], [ -119.95799851402154, 39.247753773221547 ], [ -119.957997016407305, 39.24775623062844 ], [ -119.958275478305652, 39.247779030408665 ], [ -119.957999292218346, 39.247735776731453 ] ], [ [ -119.956982822366783, 39.248736158020222 ], [ -119.957003229314026, 39.248758866258406 ], [ -119.956989184227623, 39.248715128125703 ], [ -119.956982822366783, 39.248736158020222 ] ], [ [ -119.957854702641882, 39.248382927387809 ], [ -119.957845875534517, 39.248406922977374 ], [ -119.95792187295045, 39.248454426072122 ], [ -119.957878695087217, 39.248381229900097 ], [ -119.957854702641882, 39.248382927387809 ] ], [ [ -119.957587257820265, 39.248650585320895 ], [ -119.957422586950358, 39.24874765788568 ], [ -119.957564573369311, 39.248679303158518 ], [ -119.95756700963247, 39.24871752014834 ], [ -119.957587257820265, 39.248650585320895 ] ] ] } }
]
}
