{
"type": "FeatureCollection",
"name": "X03102",
"crs": { "type": "name", "properties": { "name": "urn:ogc:def:crs:OGC:1.3:CRS84" } },
"features": [
{ "type": "Feature", "properties": { "part": "direct", "crossing_id": "X03102", "area_ac": 0.1, "n_upstream": null }, "geometry": { "type": "Polygon", "coordinates": [ [ [ -119.954294778798996, 39.243386899377867 ], [ -119.954307795203079, 39.243621458880455 ], [ -119.954191297360509, 39.24363642643398 ], [ -119.954124982368711, 39.243562623294174 ], [ -119.954294778798996, 39.243386899377867 ] ] ] } },
{ "type": "Feature", "properties": { "part": "upstream", "crossing_id": "X03102", "area_ac": 0.0, "n_upstream": 1.0 }, "geometry": { "type": "Polygon", "coordinates": [ [ [ -119.954192855471334, 39.243600433555699 ], [ -119.954259949609423, 39.243656240220453 ], [ -119.954209766808574, 39.243745010856131 ], [ -119.95411719162378, 39.243742587672585 ], [ -119.954192855471334, 39.243600433555699 ] ] ] } }
]
}
