{
"type": "FeatureCollection",
"name": "X03184",
"crs": { "type": "name", "properties": { "name": "urn:ogc:def:crs:OGC:1.3:CRS84" } },
"features": [
{ "type": "Feature", "properties": { "part": "direct", "crossing_id": "X03184", "area_ac": 0.3 }, "geometry": { "type": "Polygon", "coordinates": [ [ [ -119.952656174315422, 39.257144876062135 ], [ -119.952690773409657, 39.257416034164756 ], [ -119.952851251678609, 39.25745627064898 ], [ -119.953002373192547, 39.257712463430451 ], [ -119.952993016140269, 39.257928419932377 ], [ -119.952871035651469, 39.258069359802107 ], [ -119.952886631384658, 39.257709432343013 ], [ -119.952464750000615, 39.257283996720226 ], [ -119.952656174315422, 39.257144876062135 ] ] ] } }
]
}
