{
"type": "FeatureCollection",
"name": "X03157",
"crs": { "type": "name", "properties": { "name": "urn:ogc:def:crs:OGC:1.3:CRS84" } },
"features": [
{ "type": "Feature", "properties": { "part": "direct", "crossing_id": "X03157", "area_ac": 0.5 }, "geometry": { "type": "Polygon", "coordinates": [ [ [ -119.95986083364302, 39.248090714395602 ], [ -119.95999659495476, 39.248166328719272 ], [ -119.959805987741902, 39.248287466656784 ], [ -119.959843723403438, 39.24848663782285 ], [ -119.959621413642509, 39.248805132347677 ], [ -119.959615191128592, 39.248949104457154 ], [ -119.959566566391501, 39.249001884426981 ], [ -119.959359033536884, 39.248978444625259 ], [ -119.95964163650487, 39.248337222961482 ], [ -119.959604679270058, 39.248120055235198 ], [ -119.95986083364302, 39.248090714395602 ] ] ] } }
]
}
