{
"type": "FeatureCollection",
"name": "X03167",
"crs": { "type": "name", "properties": { "name": "urn:ogc:def:crs:OGC:1.3:CRS84" } },
"features": [
{ "type": "Feature", "properties": { "part": "direct", "crossing_id": "X03167", "area_ac": 0.0 }, "geometry": { "type": "Polygon", "coordinates": [ [ [ -119.954986738431685, 39.250954058700025 ], [ -119.954958917866847, 39.251061431547818 ], [ -119.954935771648593, 39.251060825813767 ], [ -119.954917299883178, 39.250952241504812 ], [ -119.954986738431685, 39.250954058700025 ] ] ] } }
]
}
