{
"type": "FeatureCollection",
"name": "X03174",
"crs": { "type": "name", "properties": { "name": "urn:ogc:def:crs:OGC:1.3:CRS84" } },
"features": [
{ "type": "Feature", "properties": { "part": "direct", "crossing_id": "X03174", "area_ac": 0.4 }, "geometry": { "type": "Polygon", "coordinates": [ [ [ -119.958784478287228, 39.248332839970224 ], [ -119.95903596597789, 39.248411480015911 ], [ -119.959024296646547, 39.248681427589005 ], [ -119.958876087514113, 39.248893756166133 ], [ -119.958645409708723, 39.248869710184401 ], [ -119.958626932530649, 39.248761126227556 ], [ -119.958784478287228, 39.248332839970224 ] ] ] } }
]
}
