{
"type": "FeatureCollection",
"name": "X03190",
"crs": { "type": "name", "properties": { "name": "urn:ogc:def:crs:OGC:1.3:CRS84" } },
"features": [
{ "type": "Feature", "properties": { "part": "direct", "crossing_id": "X03190", "area_ac": 1.5 }, "geometry": { "type": "Polygon", "coordinates": [ [ [ -119.952225245942287, 39.247836917763145 ], [ -119.952098604521538, 39.24808583600759 ], [ -119.952206533541727, 39.248268831178109 ], [ -119.952151666279462, 39.248465578976671 ], [ -119.9522658334471, 39.248504602984447 ], [ -119.952305886695669, 39.248649786581311 ], [ -119.952117604867013, 39.24871692216503 ], [ -119.952038811724947, 39.248931059989658 ], [ -119.952127494896246, 39.249023467031677 ], [ -119.951988621983133, 39.249019829339339 ], [ -119.951980044490071, 39.249217789575532 ], [ -119.952000070952977, 39.24929038141326 ], [ -119.952183676103488, 39.24933122441832 ], [ -119.952128028008588, 39.249545968526277 ], [ -119.952423463928767, 39.249679824448648 ], [ -119.95156785303918, 39.249639394866847 ], [ -119.951432098691598, 39.24956377096234 ], [ -119.951541059085855, 39.249188272667745 ], [ -119.95163442107139, 39.249172701799715 ], [ -119.951722324131964, 39.249283105518231 ], [ -119.951971714670975, 39.248875251958196 ], [ -119.951768864513937, 39.248743820419278 ], [ -119.951853896522735, 39.248385711716388 ], [ -119.951789139513878, 39.248275914446928 ], [ -119.952025270319879, 39.248173999145457 ], [ -119.952009142757746, 39.24801142536765 ], [ -119.952225245942287, 39.247836917763145 ] ] ] } }
]
}
