{
"type": "FeatureCollection",
"name": "X03156",
"crs": { "type": "name", "properties": { "name": "urn:ogc:def:crs:OGC:1.3:CRS84" } },
"features": [
{ "type": "Feature", "properties": { "part": "direct", "crossing_id": "X03156", "area_ac": 0.3 }, "geometry": { "type": "Polygon", "coordinates": [ [ [ -119.959711117108, 39.252627044922065 ], [ -119.959778812238355, 39.253205352245082 ], [ -119.959864399500404, 39.253369739951495 ], [ -119.959573600800454, 39.253127922848591 ], [ -119.959453390116352, 39.25269237776017 ], [ -119.959711117108, 39.252627044922065 ] ] ] } }
]
}
