{
"type": "FeatureCollection",
"name": "X03164",
"crs": { "type": "name", "properties": { "name": "urn:ogc:def:crs:OGC:1.3:CRS84" } },
"features": [
{ "type": "Feature", "properties": { "part": "direct", "crossing_id": "X03164", "area_ac": 1.1, "n_upstream": null }, "geometry": { "type": "Polygon", "coordinates": [ [ [ -119.960971695049864, 39.250804241863754 ], [ -119.961592757596151, 39.250910545296854 ], [ -119.961632054006742, 39.251073722978255 ], [ -119.961557950630848, 39.251179888975621 ], [ -119.961235456033691, 39.251135433553273 ], [ -119.961084915218706, 39.251401754522327 ], [ -119.960607211069529, 39.251731597149814 ], [ -119.960509181167978, 39.251855154279106 ], [ -119.960576288011339, 39.251910957736285 ], [ -119.960526106441009, 39.251999731071457 ], [ -119.960373412398212, 39.251779540294443 ], [ -119.960516180159871, 39.251693185602015 ], [ -119.960523956751359, 39.25151322039877 ], [ -119.960971695049864, 39.250804241863754 ] ] ] } },
{ "type": "Feature", "properties": { "part": "upstream", "crossing_id": "X03164", "area_ac": 0.7, "n_upstream": 1.0 }, "geometry": { "type": "Polygon", "coordinates": [ [ [ -119.961235456033691, 39.251135433553273 ], [ -119.961557950630848, 39.251179888975621 ], [ -119.961531694673894, 39.25125127070541 ], [ -119.961275529156353, 39.251280614788506 ], [ -119.961291678494078, 39.251443188071654 ], [ -119.960971335735749, 39.251885242665011 ], [ -119.960593213429036, 39.25205553452362 ], [ -119.960508403498721, 39.251873150798424 ], [ -119.960607211069529, 39.251731597149814 ], [ -119.961084915218706, 39.251401754522327 ], [ -119.961235456033691, 39.251135433553273 ] ] ] } }
]
}
