{
"type": "FeatureCollection",
"name": "X03143",
"crs": { "type": "name", "properties": { "name": "urn:ogc:def:crs:OGC:1.3:CRS84" } },
"features": [
{ "type": "Feature", "properties": { "part": "direct", "crossing_id": "X03143", "area_ac": 0.1 }, "geometry": { "type": "Polygon", "coordinates": [ [ [ -119.952764301050934, 39.246625892214261 ], [ -119.95311147182845, 39.246634983361716 ], [ -119.953083650566143, 39.246742355783944 ], [ -119.952781209760332, 39.246770469570976 ], [ -119.952764301050934, 39.246625892214261 ] ] ] } }
]
}
