{
"type": "FeatureCollection",
"name": "X03177",
"crs": { "type": "name", "properties": { "name": "urn:ogc:def:crs:OGC:1.3:CRS84" } },
"features": [
{ "type": "Feature", "properties": { "part": "direct", "crossing_id": "X03177", "area_ac": 0.6 }, "geometry": { "type": "Polygon", "coordinates": [ [ [ -119.957036898050248, 39.248557403899007 ], [ -119.956982822366783, 39.248736158020222 ], [ -119.957115467755287, 39.248883761512282 ], [ -119.956490325174371, 39.249407916626254 ], [ -119.956383161837962, 39.249206928498154 ], [ -119.956600037149201, 39.249014416050194 ], [ -119.956582341719084, 39.248887835430267 ], [ -119.956921170858053, 39.248554377408304 ], [ -119.957036898050248, 39.248557403899007 ] ] ] } }
]
}
