{
"type": "FeatureCollection",
"name": "X03154",
"crs": { "type": "name", "properties": { "name": "urn:ogc:def:crs:OGC:1.3:CRS84" } },
"features": [
{ "type": "Feature", "properties": { "part": "direct", "crossing_id": "X03154", "area_ac": 0.2, "n_upstream": null }, "geometry": { "type": "Polygon", "coordinates": [ [ [ -119.956715050738353, 39.246891438297546 ], [ -119.956895539108658, 39.247004259629406 ], [ -119.95677125107639, 39.247199194285727 ], [ -119.956811313162248, 39.247344376694535 ], [ -119.956403267123733, 39.247135519150014 ], [ -119.956715050738353, 39.246891438297546 ] ] ] } },
{ "type": "Feature", "properties": { "part": "upstream", "crossing_id": "X03154", "area_ac": 1.1, "n_upstream": 1.0 }, "geometry": { "type": "Polygon", "coordinates": [ [ [ -119.956907215904678, 39.246734312512793 ], [ -119.956945721187083, 39.246915487835551 ], [ -119.957613032168908, 39.247023021562889 ], [ -119.957487189413385, 39.247253950028586 ], [ -119.957528809631867, 39.247363139282093 ], [ -119.957193102972298, 39.247624613564426 ], [ -119.95666543620527, 39.247502712935876 ], [ -119.956891646808458, 39.247094241998198 ], [ -119.956762897488673, 39.24685665600267 ], [ -119.956907215904678, 39.246734312512793 ] ] ] } }
]
}
