{
"type": "FeatureCollection",
"name": "X03228",
"crs": { "type": "name", "properties": { "name": "urn:ogc:def:crs:OGC:1.3:CRS84" } },
"features": [
{ "type": "Feature", "properties": { "part": "direct", "crossing_id": "X03228", "area_ac": 0.5 }, "geometry": { "type": "Polygon", "coordinates": [ [ [ -119.954196199379268, 39.242987948805606 ], [ -119.95440137540335, 39.243065386414749 ], [ -119.954192304186122, 39.243077931010532 ], [ -119.954141342705967, 39.243184698077116 ], [ -119.9539801165364, 39.243162460975952 ], [ -119.953925259097133, 39.243359210111365 ], [ -119.953448359611613, 39.24367102811582 ], [ -119.953629845849633, 39.243225358810861 ], [ -119.953917697739314, 39.242998675555363 ], [ -119.954196199379268, 39.242987948805606 ] ] ] } }
]
}
