{
"type": "FeatureCollection",
"name": "X03227",
"crs": { "type": "name", "properties": { "name": "urn:ogc:def:crs:OGC:1.3:CRS84" } },
"features": [
{ "type": "Feature", "properties": { "part": "direct", "crossing_id": "X03227", "area_ac": 0.1 }, "geometry": { "type": "Polygon", "coordinates": [ [ [ -119.953570858569478, 39.244052588645715 ], [ -119.953965862964282, 39.244026895713645 ], [ -119.95396352558754, 39.24408088501562 ], [ -119.953779153561968, 39.244058041718269 ], [ -119.953727411469558, 39.24418280496544 ], [ -119.953470490502781, 39.244230129193504 ], [ -119.953396383023374, 39.244336289896047 ], [ -119.953570858569478, 39.244052588645715 ] ] ] } }
]
}
