{
"type": "FeatureCollection",
"name": "X03244",
"crs": { "type": "name", "properties": { "name": "urn:ogc:def:crs:OGC:1.3:CRS84" } },
"features": [
{ "type": "Feature", "properties": { "part": "direct", "crossing_id": "X03244", "area_ac": 0.5 }, "geometry": { "type": "Polygon", "coordinates": [ [ [ -119.955984833860853, 39.243953611038137 ], [ -119.956305734488993, 39.244034072595021 ], [ -119.955960696722229, 39.244511501516982 ], [ -119.95584264031875, 39.244562463608396 ], [ -119.955856440523917, 39.244779026644821 ], [ -119.95578545064717, 39.244813203130214 ], [ -119.955709226571742, 39.24443285545685 ], [ -119.955853541487102, 39.244310513107635 ], [ -119.955811925409023, 39.244201323378213 ], [ -119.955984833860853, 39.243953611038137 ] ] ] } }
]
}
