{
"type": "FeatureCollection",
"name": "X03242",
"crs": { "type": "name", "properties": { "name": "urn:ogc:def:crs:OGC:1.3:CRS84" } },
"features": [
{ "type": "Feature", "properties": { "part": "direct", "crossing_id": "X03242", "area_ac": 0.3 }, "geometry": { "type": "Polygon", "coordinates": [ [ [ -119.953400044961626, 39.244786806427413 ], [ -119.95386604423507, 39.244726939008395 ], [ -119.953862927551754, 39.244798924728805 ], [ -119.953531896387901, 39.24495240992897 ], [ -119.953497063125283, 39.245221750335439 ], [ -119.953332715310097, 39.2452714978511 ], [ -119.953297337339052, 39.245018336010112 ], [ -119.953400044961626, 39.244786806427413 ] ] ] } }
]
}
