{
"type": "FeatureCollection",
"name": "X03215",
"crs": { "type": "name", "properties": { "name": "urn:ogc:def:crs:OGC:1.3:CRS84" } },
"features": [
{ "type": "Feature", "properties": { "part": "direct", "crossing_id": "X03215", "area_ac": 0.4, "n_upstream": null }, "geometry": { "type": "Polygon", "coordinates": [ [ [ -119.955246233032369, 39.254059741385262 ], [ -119.955374209681651, 39.254315325549712 ], [ -119.955257694124171, 39.25433029346128 ], [ -119.955206724963645, 39.254437060560562 ], [ -119.954808545201118, 39.254534741053185 ], [ -119.954766925748089, 39.254425550940915 ], [ -119.955010086143531, 39.254161662546828 ], [ -119.955246233032369, 39.254059741385262 ] ] ] } },
{ "type": "Feature", "properties": { "part": "upstream", "crossing_id": "X03215", "area_ac": 0.3, "n_upstream": 1.0 }, "geometry": { "type": "Polygon", "coordinates": [ [ [ -119.954351053405858, 39.254396649152902 ], [ -119.954837926091841, 39.254391375526431 ], [ -119.954766925748089, 39.254425550940915 ], [ -119.954802311576188, 39.254678712376332 ], [ -119.95445587988111, 39.254651628310747 ], [ -119.954346377512607, 39.254504627602294 ], [ -119.954351053405858, 39.254396649152902 ] ] ] } }
]
}
