{
"type": "FeatureCollection",
"name": "X03256",
"crs": { "type": "name", "properties": { "name": "urn:ogc:def:crs:OGC:1.3:CRS84" } },
"features": [
{ "type": "Feature", "properties": { "part": "direct", "crossing_id": "X03256", "area_ac": 5.9, "n_upstream": null }, "geometry": { "type": "MultiPolygon", "coordinates": [ [ [ [ -119.9615237077019, 39.256800246486229 ], [ -119.96154530086686, 39.256836844027156 ], [ -119.961499004349662, 39.256835635024473 ], [ -119.9615237077019, 39.256800246486229 ] ] ], [ [ [ -119.962943246972969, 39.255053641665945 ], [ -119.963334426916177, 39.25511790200499 ], [ -119.963255659016795, 39.255332048285858 ], [ -119.962943080486937, 39.255594142344549 ], [ -119.962779490955072, 39.255625905902349 ], [ -119.962795644132882, 39.255788479047382 ], [ -119.962506209848314, 39.256051176003069 ], [ -119.962586365838277, 39.256341537800942 ], [ -119.961570004196844, 39.256801455478168 ], [ -119.961665707233109, 39.256731887313109 ], [ -119.961648779095896, 39.256587310651433 ], [ -119.960827293933107, 39.255755099009178 ], [ -119.960891476250183, 39.255342388425305 ], [ -119.960805884433356, 39.255178001334798 ], [ -119.961801236086913, 39.255203995854558 ], [ -119.961966379752923, 39.25513624058307 ], [ -119.962943246972969, 39.255053641665945 ] ] ] ] } },
{ "type": "Feature", "properties": { "part": "upstream", "crossing_id": "X03256", "area_ac": 3.7, "n_upstream": 2.0 }, "geometry": { "type": "MultiPolygon", "coordinates": [ [ [ [ -119.962329232714765, 39.256929380398411 ], [ -119.962481943196252, 39.25714956911694 ], [ -119.96235842785407, 39.257326512823411 ], [ -119.962339771314973, 39.257758429603662 ], [ -119.962252644079484, 39.257692566100793 ], [ -119.962315845365467, 39.257775821781991 ], [ -119.961463834572228, 39.25818597840064 ], [ -119.962009471674705, 39.257893940452846 ], [ -119.961415459109034, 39.258190418228338 ], [ -119.961391277995645, 39.258256150847068 ], [ -119.961297905465941, 39.258271729140894 ], [ -119.961397291826344, 39.258199485616167 ], [ -119.961014676780167, 39.258390449593414 ], [ -119.961327275280397, 39.258128361596135 ], [ -119.96114752961428, 39.257997549420757 ], [ -119.961249455923195, 39.257784009591013 ], [ -119.961194785672603, 39.257440262122493 ], [ -119.960950262972972, 39.257199656902351 ], [ -119.961452707835278, 39.256834426003429 ], [ -119.962208999791457, 39.256493837480875 ], [ -119.962385634588102, 39.256696634114647 ], [ -119.962329232714765, 39.256929380398411 ] ], [ [ -119.961947800492851, 39.257712161928765 ], [ -119.962126195667238, 39.257596977577769 ], [ -119.962092911239239, 39.257571816190868 ], [ -119.961947800492851, 39.257712161928765 ] ] ], [ [ [ -119.960990750295025, 39.258407841476206 ], [ -119.960991528021694, 39.258389844969003 ], [ -119.961013899059381, 39.258408446100987 ], [ -119.960990750295025, 39.258407841476206 ] ] ] ] } }
]
}
