{
"type": "FeatureCollection",
"name": "X03216",
"crs": { "type": "name", "properties": { "name": "urn:ogc:def:crs:OGC:1.3:CRS84" } },
"features": [
{ "type": "Feature", "properties": { "part": "direct", "crossing_id": "X03216", "area_ac": 5.4, "n_upstream": null }, "geometry": { "type": "Polygon", "coordinates": [ [ [ -119.955622820315057, 39.253925460760108 ], [ -119.95562048338607, 39.253979450053428 ], [ -119.956285521781155, 39.254140983151125 ], [ -119.956553944004426, 39.25436420626184 ], [ -119.955811229374348, 39.255461819248353 ], [ -119.955780291900268, 39.255641177915834 ], [ -119.956006316873726, 39.255773208983918 ], [ -119.955864314283332, 39.255841561114771 ], [ -119.956046381100435, 39.255918391601966 ], [ -119.955007066614726, 39.25583714669942 ], [ -119.954732410207257, 39.255757891325182 ], [ -119.954672867078813, 39.256062618599195 ], [ -119.954520183872091, 39.255842420640583 ], [ -119.954733968713228, 39.255721898503815 ], [ -119.954666084016793, 39.255684088154979 ], [ -119.954761012682852, 39.25563252228126 ], [ -119.954728743721247, 39.255307375208716 ], [ -119.954944084909258, 39.255150859769103 ], [ -119.954924054095841, 39.255078268316474 ], [ -119.954762800570137, 39.255056031259038 ], [ -119.954808545201118, 39.254534741053185 ], [ -119.955206724963645, 39.254437060560562 ], [ -119.955257694124171, 39.25433029346128 ], [ -119.955374209681651, 39.254315325549712 ], [ -119.9554004731487, 39.254243945532963 ], [ -119.955224643983101, 39.254023142821559 ], [ -119.955550262817155, 39.253995629549394 ], [ -119.955622820315057, 39.253925460760108 ] ] ] } },
{ "type": "Feature", "properties": { "part": "upstream", "crossing_id": "X03216", "area_ac": 9.1, "n_upstream": 28.0 }, "geometry": { "type": "MultiPolygon", "coordinates": [ [ [ [ -119.956484070091932, 39.255443387381192 ], [ -119.956568873095762, 39.255625773705034 ], [ -119.956467715197761, 39.255821312625301 ], [ -119.956459977953614, 39.255790559991375 ], [ -119.956465378759219, 39.255875301943384 ], [ -119.956290103300404, 39.256177002783801 ], [ -119.956287711062558, 39.256232277549351 ], [ -119.956400391075235, 39.256306005450099 ], [ -119.956275304700213, 39.25651893504395 ], [ -119.956212091741193, 39.25637314693715 ], [ -119.956353877337307, 39.256845292998079 ], [ -119.956301349967035, 39.256988053398274 ], [ -119.956128407550992, 39.257235764517382 ], [ -119.956350325332636, 39.257998275756343 ], [ -119.956052086568363, 39.257919096506591 ], [ -119.955952905411806, 39.258077962961188 ], [ -119.95607487994512, 39.257937019616328 ], [ -119.95641899203936, 39.258018088800213 ], [ -119.956733725951935, 39.258242523023618 ], [ -119.956652597594072, 39.258510653110918 ], [ -119.956414586653707, 39.258736461926667 ], [ -119.956529844235348, 39.258669593488051 ], [ -119.956755101262544, 39.258819619911982 ], [ -119.956775134803706, 39.258892211124952 ], [ -119.956714039242698, 39.259232932413411 ], [ -119.956608419822601, 39.258995951307021 ], [ -119.956337643898422, 39.258826717058625 ], [ -119.956436772964025, 39.258754669119377 ], [ -119.956411828386962, 39.258739078773296 ], [ -119.956338422826363, 39.258808720630604 ], [ -119.955917292586349, 39.258365300101616 ], [ -119.955930647438876, 39.258257548677975 ], [ -119.955875669502348, 39.258256110291505 ], [ -119.955720640910386, 39.258089902909219 ], [ -119.955823362587623, 39.257858372069563 ], [ -119.955843345205821, 39.257765757164904 ], [ -119.955600447871205, 39.257654354760369 ], [ -119.955635417105071, 39.257270262390058 ], [ -119.955619325478494, 39.257218287657643 ], [ -119.955601226955181, 39.257636358341067 ], [ -119.955486264105176, 39.257615333423885 ], [ -119.955552038173821, 39.257166634358846 ], [ -119.955487043217232, 39.257597337006338 ], [ -119.955353606968629, 39.257467727751326 ], [ -119.955273480204497, 39.257177362136844 ], [ -119.955331463743306, 39.256908627374607 ], [ -119.955400908193923, 39.256910444552176 ], [ -119.955123909614215, 39.256885179180237 ], [ -119.95495742590866, 39.256448418969619 ], [ -119.954960958344159, 39.256366835233464 ], [ -119.954653615629937, 39.255972030701827 ], [ -119.95475477871733, 39.255776493570892 ], [ -119.955139813847751, 39.255839772327043 ], [ -119.955146732516226, 39.255822784900296 ], [ -119.95521617588372, 39.255824602146212 ], [ -119.955186444657954, 39.256044029539211 ], [ -119.955207605391081, 39.256022562745621 ], [ -119.955215396751527, 39.255842598564669 ], [ -119.955791754914316, 39.255911729966698 ], [ -119.956085554367306, 39.255919416419601 ], [ -119.95604793894347, 39.255882398737619 ], [ -119.955885904170586, 39.255878159584888 ], [ -119.955958463412586, 39.255807990668771 ], [ -119.956062628523014, 39.25581071579527 ], [ -119.955826587385786, 39.255642389161189 ], [ -119.956311099738599, 39.255589860826703 ], [ -119.956152992523712, 39.255596878059954 ], [ -119.955780291900268, 39.255641177915834 ], [ -119.955811229374348, 39.255461819248353 ], [ -119.955957125869602, 39.255303484988623 ], [ -119.956007427535383, 39.255319214417277 ], [ -119.955911609540792, 39.255284277372077 ], [ -119.95618492626545, 39.254859024171317 ], [ -119.956299833869778, 39.254832548031779 ], [ -119.956256705265403, 39.254806851444151 ], [ -119.956450451764212, 39.254613734604263 ], [ -119.956675696173036, 39.254763760755594 ], [ -119.956719440730552, 39.255359459775377 ], [ -119.956595135943004, 39.255554393403877 ], [ -119.956484070091932, 39.255443387381192 ] ], [ [ -119.955419826887422, 39.257008745111818 ], [ -119.955417044337963, 39.257073018033701 ], [ -119.955552038173821, 39.257166634358846 ], [ -119.955419826887422, 39.257008745111818 ] ], [ [ -119.955086227960592, 39.255971341592783 ], [ -119.954966776441935, 39.256232462017785 ], [ -119.954969343383425, 39.256258325985925 ], [ -119.955086227960592, 39.255971341592783 ] ], [ [ -119.956365829154933, 39.255587431734043 ], [ -119.956420260193511, 39.255632696464318 ], [ -119.956408396477329, 39.255585542421834 ], [ -119.956365829154933, 39.255587431734043 ] ], [ [ -119.956217553152328, 39.255434551861008 ], [ -119.956231003242991, 39.255400733896408 ], [ -119.956210529254619, 39.255393268759732 ], [ -119.956217553152328, 39.255434551861008 ] ], [ [ -119.95573922723942, 39.256054490115197 ], [ -119.955763103483889, 39.255989599142993 ], [ -119.955741823917236, 39.255994502026333 ], [ -119.95573922723942, 39.256054490115197 ] ], [ [ -119.95573844823457, 39.256072486541754 ], [ -119.956084887640728, 39.256099567074138 ], [ -119.95573922723942, 39.256054490115197 ], [ -119.95573844823457, 39.256072486541754 ] ], [ [ -119.955508649780242, 39.256860811629991 ], [ -119.955416010901928, 39.256561590893334 ], [ -119.955402466421958, 39.256874451715547 ], [ -119.955508649780242, 39.256860811629991 ] ], [ [ -119.955727848153018, 39.256518125194873 ], [ -119.955745236978686, 39.256451017129699 ], [ -119.9554219440369, 39.256424541234672 ], [ -119.955722088971442, 39.256450411482774 ], [ -119.955727848153018, 39.256518125194873 ] ], [ [ -119.955953557425843, 39.256348105477279 ], [ -119.95577210463243, 39.256333245931863 ], [ -119.955745236978714, 39.256451017129585 ], [ -119.95577305902242, 39.256343644215946 ], [ -119.955955210837402, 39.256355884906142 ], [ -119.955953557425843, 39.256348105477279 ] ], [ [ -119.955680578471288, 39.256241313153197 ], [ -119.955638845420722, 39.256232031762181 ], [ -119.955634950236544, 39.256322013882958 ], [ -119.955680578471288, 39.256241313153197 ] ], [ [ -119.956070017848788, 39.256965583135631 ], [ -119.956044642644613, 39.257029382646166 ], [ -119.956114784632561, 39.256969931558643 ], [ -119.956070017848788, 39.256965583135631 ] ], [ [ -119.956044799549005, 39.256945846131821 ], [ -119.956019147793285, 39.256949141426837 ], [ -119.95604652123491, 39.256957039936388 ], [ -119.956044799549005, 39.256945846131821 ] ], [ [ -119.956041910582925, 39.257211481109209 ], [ -119.956010776448394, 39.257114530394908 ], [ -119.955992633807043, 39.257160145254495 ], [ -119.956041910582925, 39.257211481109209 ] ], [ [ -119.956078216248159, 39.257324535493453 ], [ -119.956066064340163, 39.257286694977374 ], [ -119.956005150724138, 39.257422923728242 ], [ -119.956078216248159, 39.257324535493453 ] ], [ [ -119.955703559182709, 39.25694538885287 ], [ -119.95568463475513, 39.257120967035888 ], [ -119.955799938995483, 39.256982354433227 ], [ -119.955745014431031, 39.256991515515509 ], [ -119.955703559182709, 39.25694538885287 ] ], [ [ -119.95584228119769, 39.256885959532177 ], [ -119.955840203858671, 39.25693395000053 ], [ -119.95586465035511, 39.256904561586907 ], [ -119.955864650355167, 39.256904561586914 ], [ -119.95584228119769, 39.256885959532177 ] ] ], [ [ [ -119.955887462093443, 39.255842166725614 ], [ -119.955864314283332, 39.255841561114771 ], [ -119.955865093249614, 39.2558235646854 ], [ -119.955887462093443, 39.255842166725614 ] ] ], [ [ [ -119.954479027269642, 39.25465223418626 ], [ -119.954802311576188, 39.254678712376332 ], [ -119.954798415537923, 39.254768694451087 ], [ -119.954476689403023, 39.254706223415312 ], [ -119.954479027269642, 39.25465223418626 ] ] ], [ [ [ -119.954492043934906, 39.254886793383648 ], [ -119.9544519834038, 39.254741610356902 ], [ -119.954775268104243, 39.254768088637555 ], [ -119.954762800570137, 39.255056031259038 ], [ -119.954585413072479, 39.25487122043058 ], [ -119.954492043934906, 39.254886793383648 ] ] ], [ [ [ -119.954728743721247, 39.255307375208716 ], [ -119.954747995141346, 39.255397963099192 ], [ -119.954356044043607, 39.255351670525911 ], [ -119.954404677254729, 39.255298893110698 ], [ -119.954728743721247, 39.255307375208716 ] ] ], [ [ [ -119.954401559950156, 39.255370878736301 ], [ -119.954724847501836, 39.255397357267569 ], [ -119.954761012682852, 39.25563252228126 ], [ -119.954433827402127, 39.255696025838333 ], [ -119.954401559950156, 39.255370878736301 ] ] ], [ [ [ -119.95455946572109, 39.256005600057286 ], [ -119.954427592753376, 39.255839997082582 ], [ -119.954433827402127, 39.255696025838333 ], [ -119.954666863285027, 39.255666091745226 ], [ -119.954733968713228, 39.255721898503815 ], [ -119.954520183872091, 39.255842420640583 ], [ -119.954607319978166, 39.255970818981723 ], [ -119.95455946572109, 39.256005600057286 ] ] ], [ [ [ -119.954628129943572, 39.256025414068468 ], [ -119.954604982100335, 39.25602480820497 ], [ -119.954605761393651, 39.256006811797306 ], [ -119.954628129943572, 39.256025414068468 ] ] ], [ [ [ -119.954650498505316, 39.256044016335807 ], [ -119.954627350655457, 39.256043410476515 ], [ -119.954628129943572, 39.256025414068468 ], [ -119.954650498505316, 39.256044016335807 ] ] ], [ [ [ -119.954761562234069, 39.256155024023833 ], [ -119.954650498505316, 39.256044016335807 ], [ -119.954719162793765, 39.256063830295602 ], [ -119.954761562234069, 39.256155024023833 ] ] ] ] } }
]
}
