{
"type": "FeatureCollection",
"name": "X03221",
"crs": { "type": "name", "properties": { "name": "urn:ogc:def:crs:OGC:1.3:CRS84" } },
"features": [
{ "type": "Feature", "properties": { "part": "direct", "crossing_id": "X03221", "area_ac": 0.5 }, "geometry": { "type": "Polygon", "coordinates": [ [ [ -119.955070760801874, 39.243659443100519 ], [ -119.95541324522695, 39.243776505557683 ], [ -119.955260364027254, 39.244096808398268 ], [ -119.955095241140057, 39.244164555019438 ], [ -119.95514987526208, 39.244508304455685 ], [ -119.955053404689707, 39.244595864233737 ], [ -119.954943136447397, 39.244466860884437 ], [ -119.954961829534099, 39.244034946086458 ], [ -119.955105365997724, 39.24393060113016 ], [ -119.954952705282849, 39.243710404325618 ], [ -119.955070760801874, 39.243659443100519 ] ] ] } }
]
}
