{
"type": "FeatureCollection",
"name": "X03202",
"crs": { "type": "name", "properties": { "name": "urn:ogc:def:crs:OGC:1.3:CRS84" } },
"features": [
{ "type": "Feature", "properties": { "part": "direct", "crossing_id": "X03202", "area_ac": 0.4 }, "geometry": { "type": "Polygon", "coordinates": [ [ [ -119.945408641573934, 39.23992896463389 ], [ -119.945426315570359, 39.240055546241365 ], [ -119.945281211331917, 39.240195871655573 ], [ -119.945369875014592, 39.24028828318751 ], [ -119.945342045192248, 39.240395653491518 ], [ -119.945102807272178, 39.24056954116962 ], [ -119.944950669249565, 39.240871832738229 ], [ -119.944757714129764, 39.241046934766366 ], [ -119.944867474960574, 39.240653446846018 ], [ -119.945032598291036, 39.240585714777581 ], [ -119.945228676440152, 39.240338627009471 ], [ -119.945036801418468, 39.239955236857682 ], [ -119.945312947274942, 39.239998519857579 ], [ -119.945408641573934, 39.23992896463389 ] ] ] } }
]
}
