{
"type": "FeatureCollection",
"name": "X03290",
"crs": { "type": "name", "properties": { "name": "urn:ogc:def:crs:OGC:1.3:CRS84" } },
"features": [
{ "type": "Feature", "properties": { "part": "direct", "crossing_id": "X03290", "area_ac": 1.0, "n_upstream": null }, "geometry": { "type": "Polygon", "coordinates": [ [ [ -119.955215396751527, 39.255842598564669 ], [ -119.955791754914316, 39.255911729966698 ], [ -119.955788638960229, 39.255983715677665 ], [ -119.955577971162455, 39.256032254093618 ], [ -119.955432851310746, 39.256172591346576 ], [ -119.955400908193923, 39.256910444552176 ], [ -119.955123909614215, 39.256885179180237 ], [ -119.95495742590866, 39.256448418969619 ], [ -119.9549652180267, 39.256268454843799 ], [ -119.955207605391081, 39.256022562745621 ], [ -119.955215396751527, 39.255842598564669 ] ] ] } },
{ "type": "Feature", "properties": { "part": "upstream", "crossing_id": "X03290", "area_ac": 5.2, "n_upstream": 15.0 }, "geometry": { "type": "Polygon", "coordinates": [ [ [ -119.956287711062558, 39.256232277549351 ], [ -119.956400391075235, 39.256306005450099 ], [ -119.956275304700213, 39.25651893504395 ], [ -119.956212091741193, 39.25637314693715 ], [ -119.956353877337307, 39.256845292998079 ], [ -119.956301349967035, 39.256988053398274 ], [ -119.956128407550992, 39.257235764517382 ], [ -119.956350325332636, 39.257998275756343 ], [ -119.956052086568363, 39.257919096506591 ], [ -119.955952905411806, 39.258077962961188 ], [ -119.95607487994512, 39.257937019616328 ], [ -119.95641899203936, 39.258018088800213 ], [ -119.956733725951935, 39.258242523023618 ], [ -119.956652597594072, 39.258510653110918 ], [ -119.956414586653707, 39.258736461926667 ], [ -119.956529844235348, 39.258669593488051 ], [ -119.956755101262544, 39.258819619911982 ], [ -119.956775134803706, 39.258892211124952 ], [ -119.956714039242698, 39.259232932413411 ], [ -119.956608419822601, 39.258995951307021 ], [ -119.956337643898422, 39.258826717058625 ], [ -119.956436772964025, 39.258754669119377 ], [ -119.956411828386962, 39.258739078773296 ], [ -119.956338422826363, 39.258808720630604 ], [ -119.955917292586349, 39.258365300101616 ], [ -119.955930647438876, 39.258257548677975 ], [ -119.955875669502348, 39.258256110291505 ], [ -119.955720640910386, 39.258089902909219 ], [ -119.955823362587623, 39.257858372069563 ], [ -119.955843345205821, 39.257765757164904 ], [ -119.955600447871205, 39.257654354760369 ], [ -119.955635417105071, 39.257270262390058 ], [ -119.955619325478494, 39.257218287657643 ], [ -119.955601226955181, 39.257636358341067 ], [ -119.955486264105176, 39.257615333423885 ], [ -119.955552038173821, 39.257166634358846 ], [ -119.955487043217232, 39.257597337006338 ], [ -119.955353606968629, 39.257467727751326 ], [ -119.955273480204497, 39.257177362136844 ], [ -119.955331463743306, 39.256908627374607 ], [ -119.955400908193923, 39.256910444552176 ], [ -119.955402466421958, 39.256874451715547 ], [ -119.955508649780242, 39.256860811629991 ], [ -119.955395679632659, 39.256495921202102 ], [ -119.9554219440369, 39.256424541234672 ], [ -119.955432851310746, 39.256172591346576 ], [ -119.955577971162455, 39.256032254093618 ], [ -119.95574234325187, 39.25598250440845 ], [ -119.95573922723942, 39.256054490115197 ], [ -119.955791754914316, 39.255911729966698 ], [ -119.956092676779704, 39.255919602748662 ], [ -119.956292439898462, 39.2561230134773 ], [ -119.956287711062558, 39.256232277549351 ] ], [ [ -119.955419826887422, 39.257008745111818 ], [ -119.955417044337963, 39.257073018033701 ], [ -119.955552038173821, 39.257166634358846 ], [ -119.955419826887422, 39.257008745111818 ] ], [ [ -119.955722088971442, 39.256450411482774 ], [ -119.955727848153018, 39.256518125194873 ], [ -119.955745236978686, 39.256451017129699 ], [ -119.9554219440369, 39.256424541234672 ], [ -119.955722088971442, 39.256450411482774 ] ], [ [ -119.95573844823457, 39.256072486541754 ], [ -119.956084887640728, 39.256099567074138 ], [ -119.95573922723942, 39.256054490115197 ], [ -119.95573844823457, 39.256072486541754 ] ], [ [ -119.955953557425843, 39.256348105477279 ], [ -119.95577210463243, 39.256333245931863 ], [ -119.955745236978714, 39.256451017129585 ], [ -119.95577305902242, 39.256343644215946 ], [ -119.955955210837402, 39.256355884906142 ], [ -119.955953557425843, 39.256348105477279 ] ], [ [ -119.955638845420722, 39.256232031762181 ], [ -119.955634950236544, 39.256322013882958 ], [ -119.955680578471288, 39.256241313153197 ], [ -119.955638845420722, 39.256232031762181 ] ], [ [ -119.956044642644613, 39.257029382646166 ], [ -119.956114784632561, 39.256969931558643 ], [ -119.956070017848788, 39.256965583135631 ], [ -119.956044642644613, 39.257029382646166 ] ], [ [ -119.956019147793285, 39.256949141426837 ], [ -119.95604652123491, 39.256957039936388 ], [ -119.956044799549005, 39.256945846131821 ], [ -119.956019147793285, 39.256949141426837 ] ], [ [ -119.956010776448394, 39.257114530394908 ], [ -119.955992633807043, 39.257160145254495 ], [ -119.956041910582925, 39.257211481109209 ], [ -119.956010776448394, 39.257114530394908 ] ], [ [ -119.956066064340163, 39.257286694977374 ], [ -119.956005150724138, 39.257422923728242 ], [ -119.956078216248159, 39.257324535493453 ], [ -119.956066064340163, 39.257286694977374 ] ], [ [ -119.955745014431031, 39.256991515515509 ], [ -119.955703559182709, 39.25694538885287 ], [ -119.95568463475513, 39.257120967035888 ], [ -119.955799938995483, 39.256982354433227 ], [ -119.955745014431031, 39.256991515515509 ] ], [ [ -119.955864650355167, 39.256904561586914 ], [ -119.95584228119769, 39.256885959532177 ], [ -119.955840203858671, 39.25693395000053 ], [ -119.95586465035511, 39.256904561586907 ], [ -119.955864650355167, 39.256904561586914 ] ] ] } }
]
}
