{
"type": "FeatureCollection",
"name": "X03288",
"crs": { "type": "name", "properties": { "name": "urn:ogc:def:crs:OGC:1.3:CRS84" } },
"features": [
{ "type": "Feature", "properties": { "part": "direct", "crossing_id": "X03288", "area_ac": 0.4 }, "geometry": { "type": "Polygon", "coordinates": [ [ [ -119.958900178096584, 39.256911873367805 ], [ -119.959133216722947, 39.256881930411325 ], [ -119.959154030480946, 39.256936524828987 ], [ -119.959062993881602, 39.256898111939968 ], [ -119.958725688252031, 39.257195581667965 ], [ -119.958736384212798, 39.257484130292887 ], [ -119.958617528927874, 39.257553090799618 ], [ -119.958583484003512, 39.257804436278597 ], [ -119.958448484730724, 39.257710823275815 ], [ -119.958386823013001, 39.257529043225105 ], [ -119.958481751725898, 39.257477474318129 ], [ -119.958586798364891, 39.257191951214615 ], [ -119.958900178096584, 39.256911873367805 ] ] ] } }
]
}
