{
"type": "FeatureCollection",
"name": "X03204",
"crs": { "type": "name", "properties": { "name": "urn:ogc:def:crs:OGC:1.3:CRS84" } },
"features": [
{ "type": "Feature", "properties": { "part": "direct", "crossing_id": "X03204", "area_ac": 0.0 }, "geometry": { "type": "MultiPolygon", "coordinates": [ [ [ [ -119.951369212430635, 39.253687971365046 ], [ -119.951342165107661, 39.253777346684309 ], [ -119.951346065426222, 39.253687364883845 ], [ -119.951369212430635, 39.253687971365046 ] ] ], [ [ [ -119.951323698490043, 39.253668762038089 ], [ -119.951346065426222, 39.253687364883845 ], [ -119.95132291842252, 39.25368675839804 ], [ -119.951323698490043, 39.253668762038089 ] ] ], [ [ [ -119.951301331565645, 39.25365015918851 ], [ -119.951323698490043, 39.253668762038089 ], [ -119.951300551492935, 39.253668155548084 ], [ -119.951301331565645, 39.25365015918851 ] ] ] ] } }
]
}
