{
"type": "FeatureCollection",
"name": "X03233",
"crs": { "type": "name", "properties": { "name": "urn:ogc:def:crs:OGC:1.3:CRS84" } },
"features": [
{ "type": "Feature", "properties": { "part": "direct", "crossing_id": "X03233", "area_ac": 1.0, "n_upstream": null }, "geometry": { "type": "Polygon", "coordinates": [ [ [ -119.955962896933215, 39.242854010094533 ], [ -119.956031548999633, 39.242873822826866 ], [ -119.955951996720785, 39.243105960684048 ], [ -119.956028999729469, 39.243468311797642 ], [ -119.955812919661, 39.243642827482283 ], [ -119.955853756831715, 39.243770013673966 ], [ -119.955779653382621, 39.24387617606304 ], [ -119.955206508350514, 39.243735062528629 ], [ -119.955261362605071, 39.243538312670388 ], [ -119.955644900285691, 39.243242061395328 ], [ -119.955630322056493, 39.243043494787045 ], [ -119.955769183655008, 39.243047127676974 ], [ -119.955962896933215, 39.242854010094533 ] ] ] } },
{ "type": "Feature", "properties": { "part": "upstream", "crossing_id": "X03233", "area_ac": 1.4, "n_upstream": 2.0 }, "geometry": { "type": "Polygon", "coordinates": [ [ [ -119.955595281112465, 39.243853335642754 ], [ -119.955253354838021, 39.24425877649545 ], [ -119.955642347531139, 39.243836550196399 ], [ -119.955779653382621, 39.24387617606304 ], [ -119.955704771023306, 39.244000334857795 ], [ -119.955699320250218, 39.244126310099162 ], [ -119.955789560090466, 39.244182721437625 ], [ -119.955702997027302, 39.244576827150851 ], [ -119.955794794772814, 39.24459724557979 ], [ -119.955743055740214, 39.244722009838824 ], [ -119.95582628830995, 39.244940389334268 ], [ -119.95515666375988, 39.244886835556969 ], [ -119.955214225426289, 39.244713218152171 ], [ -119.955163673328059, 39.244724867491897 ], [ -119.955053404689707, 39.244595864233737 ], [ -119.95514987526208, 39.244508304455685 ], [ -119.955095241140057, 39.244164555019438 ], [ -119.955260364027254, 39.244096808398268 ], [ -119.955290517043096, 39.243935445872239 ], [ -119.955435610318958, 39.243795107562846 ], [ -119.955595281112465, 39.243853335642754 ] ] ] } }
]
}
