{
"type": "FeatureCollection",
"name": "X03295",
"crs": { "type": "name", "properties": { "name": "urn:ogc:def:crs:OGC:1.3:CRS84" } },
"features": [
{ "type": "Feature", "properties": { "part": "direct", "crossing_id": "X03295", "area_ac": 0.9 }, "geometry": { "type": "Polygon", "coordinates": [ [ [ -119.957790413991333, 39.257387333008289 ], [ -119.957905377309913, 39.257408355660218 ], [ -119.957825811570558, 39.257640493898137 ], [ -119.957915291379308, 39.257714900678664 ], [ -119.957898164339156, 39.258110822734508 ], [ -119.957645656772172, 39.258590674316572 ], [ -119.957392009864307, 39.258025520595055 ], [ -119.957452322119735, 39.257702795169699 ], [ -119.957790413991333, 39.257387333008289 ] ] ] } }
]
}
