{
"type": "FeatureCollection",
"name": "X03210",
"crs": { "type": "name", "properties": { "name": "urn:ogc:def:crs:OGC:1.3:CRS84" } },
"features": [
{ "type": "Feature", "properties": { "part": "direct", "crossing_id": "X03210", "area_ac": 4.1, "n_upstream": null }, "geometry": { "type": "Polygon", "coordinates": [ [ [ -119.950898198969426, 39.251189310864781 ], [ -119.951152026873118, 39.251213978896196 ], [ -119.951168152698386, 39.251376552666905 ], [ -119.951388695288827, 39.251634566478401 ], [ -119.951550719616307, 39.251638811506481 ], [ -119.951795970637519, 39.251861438296729 ], [ -119.951861510479176, 39.251953239260182 ], [ -119.951810538214559, 39.25206000477322 ], [ -119.951987911525208, 39.252244819346906 ], [ -119.95187504820187, 39.252710299659931 ], [ -119.951524474751494, 39.253313686518283 ], [ -119.951580908388408, 39.253080946642342 ], [ -119.951365821098307, 39.252696958500593 ], [ -119.951155940850569, 39.252727492833181 ], [ -119.951112767860593, 39.252654294368412 ], [ -119.950829546835351, 39.252772990321333 ], [ -119.950658417091304, 39.252444203243776 ], [ -119.950379097626296, 39.252472916358542 ], [ -119.950395483256656, 39.252094993039428 ], [ -119.950606142044848, 39.252046463662559 ], [ -119.950548405972768, 39.251774698529125 ], [ -119.950691965185172, 39.251670360019162 ], [ -119.950651133810894, 39.251543172349756 ], [ -119.950898198969426, 39.251189310864781 ] ] ] } },
{ "type": "Feature", "properties": { "part": "upstream", "crossing_id": "X03210", "area_ac": 25.8, "n_upstream": 26.0 }, "geometry": { "type": "MultiPolygon", "coordinates": [ [ [ [ -119.951301913080997, 39.253668191224094 ], [ -119.951311217325994, 39.253956703788432 ], [ -119.951119945534856, 39.254366738614991 ], [ -119.951431378657858, 39.254392255317299 ], [ -119.951783795163067, 39.254815874731896 ], [ -119.95210707871604, 39.25484236040532 ], [ -119.95211228838005, 39.255256883238154 ], [ -119.952321396094263, 39.255244343842811 ], [ -119.952365351634498, 39.255299545570338 ], [ -119.952186161066535, 39.255691221462335 ], [ -119.95204259535106, 39.25579556151974 ], [ -119.952133626366759, 39.255833979705386 ], [ -119.952171342787537, 39.256033152444708 ], [ -119.952134156286306, 39.256356480677837 ], [ -119.952376305210862, 39.256651092275348 ], [ -119.952521184595767, 39.257051256527369 ], [ -119.952634585802855, 39.257108277049866 ], [ -119.952536534207184, 39.2572318265142 ], [ -119.952468533790992, 39.257250934479863 ], [ -119.952483360731051, 39.257270471115952 ], [ -119.952656174315422, 39.257144876062135 ], [ -119.952690773409657, 39.257416034164756 ], [ -119.952851251678609, 39.25745627064898 ], [ -119.953002373192547, 39.257712463430451 ], [ -119.952993016140269, 39.257928419932377 ], [ -119.952871035651498, 39.258069359802107 ], [ -119.952916552826409, 39.258088568639288 ], [ -119.952887166011706, 39.25823193338757 ], [ -119.952840243818756, 39.258197013130889 ], [ -119.952636805216329, 39.258409783608528 ], [ -119.952742036176417, 39.258372266846962 ], [ -119.953052080634293, 39.258704688855161 ], [ -119.953346776144159, 39.258856540206885 ], [ -119.953475533020224, 39.259094129973377 ], [ -119.953953083538977, 39.259304817940603 ], [ -119.953742404583537, 39.259353352566258 ], [ -119.953976232446834, 39.259305423975782 ], [ -119.954473037858847, 39.259606697906015 ], [ -119.954589562354357, 39.259591731142294 ], [ -119.954765402260151, 39.259812535100778 ], [ -119.954715207221753, 39.259901305314862 ], [ -119.954853322617069, 39.259922936993796 ], [ -119.955232831536676, 39.260257171362269 ], [ -119.955287083700071, 39.260533059736311 ], [ -119.955431045175729, 39.260496576639227 ], [ -119.955917737120856, 39.261031798264177 ], [ -119.955886796541847, 39.261211156726809 ], [ -119.955996311768033, 39.261358156374946 ], [ -119.955615788426442, 39.261582418565737 ], [ -119.955138217441799, 39.261371736696375 ], [ -119.955569489042958, 39.261581207084149 ], [ -119.955520852020584, 39.261633984801342 ], [ -119.955404324247738, 39.261648952368908 ], [ -119.955316401014173, 39.261538550802072 ], [ -119.955130424351864, 39.261551700693225 ], [ -119.954859642761122, 39.261382462819853 ], [ -119.954666105342923, 39.261035078220608 ], [ -119.954529546757513, 39.260977453457343 ], [ -119.954572727939819, 39.261050650903655 ], [ -119.954391429435034, 39.260955821319726 ], [ -119.954397665292149, 39.260811850207034 ], [ -119.954017919841959, 39.261018110717067 ], [ -119.953788764073266, 39.260958060885756 ], [ -119.953938575155121, 39.26070974801025 ], [ -119.953715657637318, 39.260505727033042 ], [ -119.953762283030443, 39.260379028556862 ], [ -119.953562189082817, 39.260303524077784 ], [ -119.953519789073795, 39.260212329930937 ], [ -119.953287517395779, 39.260224264721273 ], [ -119.953174890526839, 39.260149248272832 ], [ -119.953340053646798, 39.260081506086259 ], [ -119.953434515143158, 39.259930215558356 ], [ -119.953093990738623, 39.259876877875683 ], [ -119.953075520405221, 39.259768293436444 ], [ -119.953325724156059, 39.259342442382476 ], [ -119.953587378969814, 39.259187142469365 ], [ -119.953421438537788, 39.259272881485892 ], [ -119.95283906352509, 39.258807211007223 ], [ -119.952657773127513, 39.258712379007392 ], [ -119.95244943499317, 39.258706922235284 ], [ -119.952600805126352, 39.258422618267204 ], [ -119.952618459018183, 39.258416324349518 ], [ -119.95253603869368, 39.258312821167529 ], [ -119.952186169907563, 39.258182740066012 ], [ -119.952193490346517, 39.25819574789282 ], [ -119.952100676472185, 39.258142110986597 ], [ -119.952147973320066, 39.258176538777882 ], [ -119.951548453022312, 39.258106782249087 ], [ -119.951303962498059, 39.257866157970227 ], [ -119.951445973381524, 39.25779781176464 ], [ -119.951327891058071, 39.257848768166468 ], [ -119.95123763818934, 39.257792352930466 ], [ -119.951265876753922, 39.257751911630621 ], [ -119.951215270047271, 39.257773750024974 ], [ -119.951063374841823, 39.257535551517229 ], [ -119.950854260205688, 39.25754808836907 ], [ -119.950665434347158, 39.257092720069046 ], [ -119.950674017939789, 39.256894760343506 ], [ -119.950608475503898, 39.256802958657545 ], [ -119.950657112502881, 39.256750182971217 ], [ -119.950680260499524, 39.256750789628718 ], [ -119.950681821132463, 39.256714796949375 ], [ -119.950594691555793, 39.256586395925773 ], [ -119.950678961274903, 39.256246285445854 ], [ -119.950657635346047, 39.255669189211197 ], [ -119.950691913236312, 39.255647861226549 ], [ -119.950596775801472, 39.25546940949328 ], [ -119.950669339661502, 39.255399244064662 ], [ -119.950681894664783, 39.255401210989781 ], [ -119.950626946020833, 39.255308049060389 ], [ -119.950836053979302, 39.255295512353001 ], [ -119.951022798692463, 39.254574992981752 ], [ -119.950979098430025, 39.254668673077795 ], [ -119.950222524424674, 39.25394618984366 ], [ -119.950281303979338, 39.253659461783656 ], [ -119.95035152521352, 39.253643285503564 ], [ -119.950336961733129, 39.253444719039834 ], [ -119.950522136975465, 39.253449572340415 ], [ -119.950549185175589, 39.253360197243602 ], [ -119.950465180703873, 39.253159810841936 ], [ -119.950188199358081, 39.253134534347161 ], [ -119.950128123242663, 39.252916758105229 ], [ -119.951134354344831, 39.252690893602441 ], [ -119.951365821098307, 39.252696958500593 ], [ -119.951577788442378, 39.253152932106133 ], [ -119.951390799333993, 39.253724570563563 ], [ -119.951367131870029, 39.253694846389962 ], [ -119.951342165107661, 39.253777346684309 ], [ -119.951346065426222, 39.253687364883845 ], [ -119.951361496762445, 39.25368776920515 ], [ -119.951346845487848, 39.253669368523497 ], [ -119.951301331565645, 39.25365015918851 ], [ -119.951323698490043, 39.253668762038089 ], [ -119.951301913080997, 39.253668191224094 ] ], [ [ -119.954986301618604, 39.261133542613749 ], [ -119.954740230204479, 39.260928917586689 ], [ -119.955138217441799, 39.261371736696375 ], [ -119.954986301618604, 39.261133542613749 ] ], [ [ -119.954308185652977, 39.260737440744691 ], [ -119.954246532640866, 39.260555658895434 ], [ -119.954187339031563, 39.260502311049457 ], [ -119.954262666393305, 39.26071823237762 ], [ -119.954397665292149, 39.260811850207034 ], [ -119.954308185652977, 39.260737440744691 ] ], [ [ -119.951778631163549, 39.257608342639891 ], [ -119.952112067149827, 39.257400876126034 ], [ -119.95214982489118, 39.257456516141289 ], [ -119.952135995354752, 39.25738348614064 ], [ -119.95237215716287, 39.257281571454016 ], [ -119.952397647229319, 39.257330539460249 ], [ -119.952462449541514, 39.257252644137928 ], [ -119.952184631678136, 39.257330709790587 ], [ -119.951803339573701, 39.257572956373835 ], [ -119.951735454841796, 39.257535144315924 ], [ -119.951778631163549, 39.257608342639891 ] ], [ [ -119.951661329478085, 39.257641303049709 ], [ -119.951683697703956, 39.25765990587275 ], [ -119.951784264957254, 39.257616507277284 ], [ -119.951778631163549, 39.257608342639891 ], [ -119.951661329478085, 39.257641303049709 ] ], [ [ -119.951655272883912, 39.257628275233898 ], [ -119.951446753531627, 39.257779815415368 ], [ -119.951661329478085, 39.257641303049709 ], [ -119.951655272883912, 39.257628275233898 ] ], [ [ -119.951333352315359, 39.257722793735219 ], [ -119.951313671948881, 39.257731286458991 ], [ -119.951446753531627, 39.257779815415368 ], [ -119.951333352315359, 39.257722793735219 ] ], [ [ -119.951667570184171, 39.257497332221014 ], [ -119.951666400055174, 39.257524326751742 ], [ -119.951691529466601, 39.257510677670496 ], [ -119.951667570184171, 39.257497332221014 ] ], [ [ -119.951059066692906, 39.255419413840514 ], [ -119.950884169825827, 39.25543290015581 ], [ -119.95094554991509, 39.255442516110399 ], [ -119.950797460863072, 39.255582188477526 ], [ -119.951059066692906, 39.255419413840514 ] ], [ [ -119.950927083644032, 39.255333931434834 ], [ -119.951157778886994, 39.255357993436505 ], [ -119.950904716328267, 39.255315328496792 ], [ -119.950807444740676, 39.255420880167925 ], [ -119.950824286830027, 39.255423518706088 ], [ -119.950927083644032, 39.255333931434834 ] ], [ [ -119.952460602339727, 39.257914475872759 ], [ -119.952398176268204, 39.257750689618057 ], [ -119.952299147926993, 39.257676558452893 ], [ -119.952460602339727, 39.257914475872759 ] ], [ [ -119.952587798216882, 39.257408082250315 ], [ -119.952619768955373, 39.257450208091782 ], [ -119.952617429430106, 39.257504197201371 ], [ -119.952576230427326, 39.257492308068734 ], [ -119.952731560884658, 39.257553056163722 ], [ -119.952587798216882, 39.257408082250315 ] ], [ [ -119.952425640823265, 39.257384316819021 ], [ -119.952457731090689, 39.257445964028449 ], [ -119.952470995933766, 39.257451151799884 ], [ -119.952425640823265, 39.257384316819021 ] ], [ [ -119.952825518502237, 39.25805015094798 ], [ -119.952871035651498, 39.258069359802086 ], [ -119.952886631384658, 39.257709432343013 ], [ -119.952825518502237, 39.25805015094798 ] ], [ [ -119.953643371667098, 39.259945313847687 ], [ -119.953646450204801, 39.259963411244968 ], [ -119.953647229852365, 39.259945414865498 ], [ -119.953643371667098, 39.259945313847687 ] ], [ [ -119.953993687045823, 39.259972502331436 ], [ -119.953951286638429, 39.259881308323351 ], [ -119.953971317483123, 39.259953899906286 ], [ -119.953647229852365, 39.259945414865498 ], [ -119.953993687045823, 39.259972502331436 ] ], [ [ -119.95374372441357, 39.259857857348841 ], [ -119.953627978997915, 39.259854826860447 ], [ -119.953951286638429, 39.259881308323351 ], [ -119.95374372441357, 39.259857857348841 ] ], [ [ -119.954652308874572, 39.260818515582052 ], [ -119.954558514933126, 39.260866977587355 ], [ -119.954653945761081, 39.260857165842275 ], [ -119.954650750044337, 39.260854508369135 ], [ -119.954954158239303, 39.260684606245512 ], [ -119.954642551098303, 39.260812416894922 ], [ -119.954652308874572, 39.260818515582052 ] ], [ [ -119.954471790290754, 39.260705689747397 ], [ -119.954605373986396, 39.260789180890015 ], [ -119.954460043006918, 39.260613645366561 ], [ -119.954471790290754, 39.260705689747397 ] ], [ [ -119.954340592300028, 39.260052734771755 ], [ -119.9544025768962, 39.260163374188743 ], [ -119.954404739802698, 39.260180321550621 ], [ -119.954436769563088, 39.26016890210952 ], [ -119.954340592300028, 39.260052734771755 ] ], [ [ -119.954482157190341, 39.259931238935842 ], [ -119.954450618920802, 39.260163964450001 ], [ -119.954495953136188, 39.260147801595593 ], [ -119.954482157190341, 39.259931238935842 ] ], [ [ -119.954369529420219, 39.259856223609852 ], [ -119.954277125771384, 39.25987751108056 ], [ -119.954482157190341, 39.259931238935842 ], [ -119.954369529420219, 39.259856223609852 ] ], [ [ -119.95425199111196, 39.259894585440144 ], [ -119.954252484789549, 39.259883187726651 ], [ -119.954246392053093, 39.259884591334874 ], [ -119.95425199111196, 39.259894585440144 ] ], [ [ -119.954138038476813, 39.259850163762401 ], [ -119.954166276321729, 39.259809721737341 ], [ -119.954141156547522, 39.259778178209885 ], [ -119.954138038476813, 39.259850163762401 ] ], [ [ -119.954102328100817, 39.259933769256889 ], [ -119.954266799687929, 39.260087752794099 ], [ -119.954135254475673, 39.259914436576203 ], [ -119.954134920394949, 39.259922149313766 ], [ -119.954102328100817, 39.259933769256889 ] ], [ [ -119.954257445724878, 39.260303709462036 ], [ -119.954132814491274, 39.26020006757922 ], [ -119.954144038109376, 39.260246690295311 ], [ -119.954286664904188, 39.260399603016268 ], [ -119.954266799687929, 39.260087752794099 ], [ -119.954257445724878, 39.260303709462036 ] ], [ [ -119.954114576139474, 39.260124305663659 ], [ -119.954090784994136, 39.259937884651123 ], [ -119.954071365411821, 39.259944808193971 ], [ -119.954114576139474, 39.260124305663659 ] ], [ [ -119.953656345307735, 39.260269955795913 ], [ -119.953763141784634, 39.260376694998527 ], [ -119.953768193278577, 39.260362968184623 ], [ -119.953656345307735, 39.260269955795913 ] ], [ [ -119.954486365661296, 39.260904255997744 ], [ -119.954500759350481, 39.260928655152433 ], [ -119.954526192068656, 39.260883678321115 ], [ -119.954486365661296, 39.260904255997744 ] ], [ [ -119.953999136142812, 39.260332693736189 ], [ -119.953999685828862, 39.260369028833068 ], [ -119.954129432326141, 39.260450122913092 ], [ -119.953999136142812, 39.260332693736189 ] ] ], [ [ [ -119.951323698490043, 39.253668762038089 ], [ -119.951346065426222, 39.253687364883845 ], [ -119.95132291842252, 39.25368675839804 ], [ -119.951323698490043, 39.253668762038089 ] ] ], [ [ [ -119.950680260499524, 39.256750789628718 ], [ -119.95063474483554, 39.256731579970257 ], [ -119.95063786614304, 39.256659594614099 ], [ -119.950680260499524, 39.256750789628718 ] ] ], [ [ [ -119.952193490346517, 39.25819574789282 ], [ -119.952215858886859, 39.258214350624364 ], [ -119.952192710375783, 39.258213744253275 ], [ -119.952193490346517, 39.25819574789282 ] ] ] ] } }
]
}
