{
"type": "FeatureCollection",
"name": "X03222",
"crs": { "type": "name", "properties": { "name": "urn:ogc:def:crs:OGC:1.3:CRS84" } },
"features": [
{ "type": "Feature", "properties": { "part": "direct", "crossing_id": "X03222", "area_ac": 1.1 }, "geometry": { "type": "Polygon", "coordinates": [ [ [ -119.955642347531139, 39.243836550196399 ], [ -119.955779653382621, 39.24387617606304 ], [ -119.955704771023306, 39.244000334857795 ], [ -119.955699320250218, 39.244126310099162 ], [ -119.955789560090466, 39.244182721437625 ], [ -119.955702997027302, 39.244576827150851 ], [ -119.955794794772814, 39.24459724557979 ], [ -119.955743055740214, 39.244722009838824 ], [ -119.95582628830995, 39.244940389334268 ], [ -119.95515666375988, 39.244886835556969 ], [ -119.955316556511576, 39.24440456487909 ], [ -119.955253354838021, 39.24425877649545 ], [ -119.955642347531139, 39.243836550196399 ] ] ] } }
]
}
