{
"type": "FeatureCollection",
"name": "X03282",
"crs": { "type": "name", "properties": { "name": "urn:ogc:def:crs:OGC:1.3:CRS84" } },
"features": [
{ "type": "Feature", "properties": { "part": "direct", "crossing_id": "X03282", "area_ac": 1.7, "n_upstream": null }, "geometry": { "type": "Polygon", "coordinates": [ [ [ -119.957695742590317, 39.254754402657426 ], [ -119.958213346638587, 39.255110254811406 ], [ -119.958068233859635, 39.255250595653862 ], [ -119.958059671562296, 39.255448556797987 ], [ -119.957682872865874, 39.256123344191828 ], [ -119.957770793709713, 39.256233743937564 ], [ -119.957667302536152, 39.25648327335562 ], [ -119.957654638050755, 39.257311715606448 ], [ -119.957495714103743, 39.257235492752166 ], [ -119.95751149463193, 39.256335064761366 ], [ -119.957412883385643, 39.255936116251519 ], [ -119.957732489527544, 39.255512069790193 ], [ -119.957793575780315, 39.255171347458742 ], [ -119.957590696669016, 39.255039925059734 ], [ -119.957399287600097, 39.25517905449356 ], [ -119.957332180445945, 39.255123249206171 ], [ -119.957387039771888, 39.254926498791562 ], [ -119.957695742590317, 39.254754402657426 ] ] ] } },
{ "type": "Feature", "properties": { "part": "upstream", "crossing_id": "X03282", "area_ac": 3.0, "n_upstream": 6.0 }, "geometry": { "type": "MultiPolygon", "coordinates": [ [ [ [ -119.957736381918352, 39.255422087481328 ], [ -119.957485441228343, 39.255865946325599 ], [ -119.957399078412621, 39.255719553483061 ], [ -119.957461514816927, 39.255883337488036 ], [ -119.957429802698243, 39.256080693196168 ], [ -119.957172213576698, 39.256381134840453 ], [ -119.957161184660166, 39.256420688156382 ], [ -119.957429024124863, 39.256098689650884 ], [ -119.957522964262012, 39.256605616879483 ], [ -119.957462653597119, 39.256928342443466 ], [ -119.957546682157229, 39.257128724636843 ], [ -119.957518083824766, 39.257254094509321 ], [ -119.957242640114799, 39.257192841203583 ], [ -119.957768822676599, 39.257350734842944 ], [ -119.957642959727835, 39.257581662419625 ], [ -119.957452322119735, 39.257702795169699 ], [ -119.957415158425491, 39.258026125930272 ], [ -119.957233084661354, 39.257949297337738 ], [ -119.957149834871373, 39.257730918493685 ], [ -119.957323553756041, 39.257465209331308 ], [ -119.957179212783316, 39.257587552308159 ], [ -119.957120669232779, 39.257333785931522 ], [ -119.957245754715927, 39.257120855410264 ], [ -119.957231171616527, 39.256922289119821 ], [ -119.957117766679104, 39.256865272944708 ], [ -119.957062338509317, 39.256539520754096 ], [ -119.957099007282579, 39.256495437705254 ], [ -119.956931237247474, 39.256355923915208 ], [ -119.956980648032271, 39.256285148935461 ], [ -119.95686880174911, 39.25619213966894 ], [ -119.956946811270214, 39.255995994989945 ], [ -119.956836522908304, 39.255866992815811 ], [ -119.956909859925304, 39.255778826821675 ], [ -119.957032294389947, 39.255761009274906 ], [ -119.957004008524038, 39.255745255505794 ], [ -119.957063767997752, 39.255649527588574 ], [ -119.957030270988199, 39.255673875092043 ], [ -119.957080459800864, 39.255585103589965 ], [ -119.957078707839685, 39.255625595603334 ], [ -119.957103607552824, 39.255585708955799 ], [ -119.957237304598578, 39.255476404418182 ], [ -119.957128312577694, 39.255550321414418 ], [ -119.957283549484046, 39.255176027938347 ], [ -119.957589918165581, 39.255057921520397 ], [ -119.957793575780315, 39.255171347458742 ], [ -119.957736381918352, 39.255422087481328 ] ], [ [ -119.957465616319865, 39.255252856203832 ], [ -119.957476337671466, 39.255280980725828 ], [ -119.957487985435463, 39.255271457947131 ], [ -119.957736381918352, 39.255422087481328 ], [ -119.957465616319865, 39.255252856203832 ] ], [ [ -119.957229327878395, 39.255715114444975 ], [ -119.957236265198418, 39.255733312677449 ], [ -119.957399078412621, 39.255719553483061 ], [ -119.957229327878395, 39.255715114444975 ] ], [ [ -119.957173829437522, 39.255569528573687 ], [ -119.957174218749614, 39.255560530347658 ], [ -119.957103607552824, 39.255585708955799 ], [ -119.957173829437522, 39.255569528573687 ] ], [ [ -119.957208515938234, 39.255660519745661 ], [ -119.957197755804444, 39.255552137468293 ], [ -119.957182064435159, 39.255557732721762 ], [ -119.957196977186399, 39.25557013392077 ], [ -119.957173829437522, 39.255569528573687 ], [ -119.957208515938234, 39.255660519745661 ] ] ], [ [ [ -119.957517305241467, 39.257272090961884 ], [ -119.957518083824766, 39.257254094509321 ], [ -119.957540453557598, 39.257272696262532 ], [ -119.957517305241467, 39.257272090961884 ] ] ], [ [ [ -119.957179212783316, 39.257587552308159 ], [ -119.957153728314154, 39.257640936267933 ], [ -119.957156064371475, 39.257586946931667 ], [ -119.957179212783316, 39.257587552308159 ] ] ] ] } }
]
}
