{
"type": "FeatureCollection",
"name": "X03280",
"crs": { "type": "name", "properties": { "name": "urn:ogc:def:crs:OGC:1.3:CRS84" } },
"features": [
{ "type": "Feature", "properties": { "part": "direct", "crossing_id": "X03280", "area_ac": 0.3 }, "geometry": { "type": "Polygon", "coordinates": [ [ [ -119.955601226955181, 39.257636358341067 ], [ -119.955850406186698, 39.25776899559974 ], [ -119.955720640910386, 39.258089902909219 ], [ -119.955584086946814, 39.258032279550015 ], [ -119.955436850834261, 39.257686107658884 ], [ -119.955601226955181, 39.257636358341067 ] ] ] } }
]
}
