{
"type": "FeatureCollection",
"name": "X03226",
"crs": { "type": "name", "properties": { "name": "urn:ogc:def:crs:OGC:1.3:CRS84" } },
"features": [
{ "type": "Feature", "properties": { "part": "direct", "crossing_id": "X03226", "area_ac": 0.5 }, "geometry": { "type": "Polygon", "coordinates": [ [ [ -119.955435267930497, 39.24273210528623 ], [ -119.955573350211679, 39.242753734849742 ], [ -119.955541641140428, 39.24295109045044 ], [ -119.955631100728112, 39.243025498322041 ], [ -119.955644900285691, 39.243242061395328 ], [ -119.955431156240181, 39.243362586980155 ], [ -119.955160999531174, 39.243715854887391 ], [ -119.955076212608802, 39.243533467922731 ], [ -119.95524133399087, 39.24346572126484 ], [ -119.955374963787222, 39.243054830520364 ], [ -119.955288619475809, 39.242908436622919 ], [ -119.955435267930497, 39.24273210528623 ] ] ] } }
]
}
