{
"type": "FeatureCollection",
"name": "X03229",
"crs": { "type": "name", "properties": { "name": "urn:ogc:def:crs:OGC:1.3:CRS84" } },
"features": [
{ "type": "Feature", "properties": { "part": "direct", "crossing_id": "X03229", "area_ac": 0.1 }, "geometry": { "type": "Polygon", "coordinates": [ [ [ -119.953555819822881, 39.244935019439204 ], [ -119.953859031681873, 39.244888906877783 ], [ -119.953785703211295, 39.244977071385343 ], [ -119.953551144283409, 39.245042997984392 ], [ -119.953555819822881, 39.244935019439204 ] ] ] } }
]
}
