{
"type": "FeatureCollection",
"name": "X03271",
"crs": { "type": "name", "properties": { "name": "urn:ogc:def:crs:OGC:1.3:CRS84" } },
"features": [
{ "type": "Feature", "properties": { "part": "direct", "crossing_id": "X03271", "area_ac": 0.4, "n_upstream": null }, "geometry": { "type": "Polygon", "coordinates": [ [ [ -119.954187454683407, 39.259779390213033 ], [ -119.9544025768962, 39.260163374188743 ], [ -119.954471790290754, 39.260705689747397 ], [ -119.954652308874572, 39.260818515582052 ], [ -119.954486365661296, 39.260904255997744 ], [ -119.954572727939819, 39.261050650903655 ], [ -119.954391429435034, 39.260955821319726 ], [ -119.954397665292149, 39.260811850207034 ], [ -119.954308185652977, 39.260737440744691 ], [ -119.954266799687929, 39.260087752794099 ], [ -119.954113330334977, 39.259885550527457 ], [ -119.954187454683407, 39.259779390213033 ] ] ] } },
{ "type": "Feature", "properties": { "part": "upstream", "crossing_id": "X03271", "area_ac": 0.4, "n_upstream": 1.0 }, "geometry": { "type": "Polygon", "coordinates": [ [ [ -119.954673899476916, 39.260855114285526 ], [ -119.955138217441799, 39.261371736696375 ], [ -119.955569489042958, 39.261581207084149 ], [ -119.955520852020584, 39.261633984801342 ], [ -119.955404324247738, 39.261648952368908 ], [ -119.955316401014173, 39.261538550802072 ], [ -119.955130424351864, 39.261551700693225 ], [ -119.954859642761122, 39.261382462819853 ], [ -119.954666105342923, 39.261035078220608 ], [ -119.954484027280472, 39.260958245169121 ], [ -119.954534223446245, 39.260869475109793 ], [ -119.954673899476916, 39.260855114285526 ] ] ] } }
]
}
