{
"type": "FeatureCollection",
"name": "X03294",
"crs": { "type": "name", "properties": { "name": "urn:ogc:def:crs:OGC:1.3:CRS84" } },
"features": [
{ "type": "Feature", "properties": { "part": "direct", "crossing_id": "X03294", "area_ac": 1.0 }, "geometry": { "type": "Polygon", "coordinates": [ [ [ -119.958039596806714, 39.257519965707253 ], [ -119.958079666041456, 39.25766514779081 ], [ -119.957983179838038, 39.257752709264381 ], [ -119.958182953506693, 39.25795611710835 ], [ -119.95828079283973, 39.258373061590227 ], [ -119.957697974331069, 39.258988412101274 ], [ -119.957751279230948, 39.258827654608133 ], [ -119.957683389904773, 39.258789845857173 ], [ -119.957673477000739, 39.258483300901361 ], [ -119.957898164339156, 39.258110822734508 ], [ -119.957895256904365, 39.2576423096165 ], [ -119.958039596806714, 39.257519965707253 ] ] ] } }
]
}
