{
"type": "FeatureCollection",
"name": "X03355",
"crs": { "type": "name", "properties": { "name": "urn:ogc:def:crs:OGC:1.3:CRS84" } },
"features": [
{ "type": "Feature", "properties": { "part": "direct", "crossing_id": "X03355", "area_ac": 0.4, "n_upstream": null }, "geometry": { "type": "Polygon", "coordinates": [ [ [ -119.9554219440369, 39.256424541234672 ], [ -119.955722088971442, 39.256450411482774 ], [ -119.95573744680425, 39.25663098138056 ], [ -119.955659988804811, 39.257349626978119 ], [ -119.955395679632659, 39.256495921202102 ], [ -119.9554219440369, 39.256424541234672 ] ] ] } },
{ "type": "Feature", "properties": { "part": "upstream", "crossing_id": "X03355", "area_ac": 1.1, "n_upstream": 3.0 }, "geometry": { "type": "MultiPolygon", "coordinates": [ [ [ [ -119.955941884584192, 39.256726414171141 ], [ -119.956011328894547, 39.256728230977707 ], [ -119.956048277753027, 39.256945399311725 ], [ -119.956019147793285, 39.256949141426837 ], [ -119.956070646985452, 39.2569640013295 ], [ -119.955992633807043, 39.257160145254495 ], [ -119.95608133205468, 39.257252549779693 ], [ -119.955850406186698, 39.25776899559974 ], [ -119.955600447871205, 39.257654354760369 ], [ -119.95564463113449, 39.257169057090962 ], [ -119.955799938995483, 39.256982354433227 ], [ -119.955745014431031, 39.256991515515509 ], [ -119.955678686059358, 39.256917712849067 ], [ -119.955717414839725, 39.256558390031778 ], [ -119.956041487500443, 39.256566868703217 ], [ -119.955941884584192, 39.256726414171141 ] ], [ [ -119.95584228119769, 39.256885959532177 ], [ -119.955840203858671, 39.25693395000053 ], [ -119.95586465035511, 39.256904561586907 ], [ -119.955864650355167, 39.256904561586914 ], [ -119.95584228119769, 39.256885959532177 ] ] ], [ [ [ -119.955601226955181, 39.257636358341067 ], [ -119.955486264105176, 39.257615333423885 ], [ -119.955552038173821, 39.257166634358846 ], [ -119.955397791729482, 39.256982430224603 ], [ -119.955402466421958, 39.256874451715547 ], [ -119.955518986211473, 39.256859483828777 ], [ -119.955626157273514, 39.257060472886764 ], [ -119.955601226955181, 39.257636358341067 ] ] ] ] } }
]
}
