{
"type": "FeatureCollection",
"name": "X03366",
"crs": { "type": "name", "properties": { "name": "urn:ogc:def:crs:OGC:1.3:CRS84" } },
"features": [
{ "type": "Feature", "properties": { "part": "direct", "crossing_id": "X03366", "area_ac": 0.1 }, "geometry": { "type": "Polygon", "coordinates": [ [ [ -119.954429698570664, 39.261677494757258 ], [ -119.954751456172659, 39.261739967109285 ], [ -119.954632589771165, 39.261808923063079 ], [ -119.954519958951153, 39.261733907779238 ], [ -119.954421903584276, 39.261857458625954 ], [ -119.95428222551584, 39.261871819065156 ], [ -119.954429698570664, 39.261677494757258 ] ] ] } }
]
}
