{
"type": "FeatureCollection",
"name": "X03397",
"crs": { "type": "name", "properties": { "name": "urn:ogc:def:crs:OGC:1.3:CRS84" } },
"features": [
{ "type": "Feature", "properties": { "part": "direct", "crossing_id": "X03397", "area_ac": 0.2 }, "geometry": { "type": "Polygon", "coordinates": [ [ [ -119.963811763239491, 39.261238064337761 ], [ -119.963712170226813, 39.261397616783619 ], [ -119.963457522404838, 39.261390971137168 ], [ -119.963055425824194, 39.261578661353383 ], [ -119.963043158002492, 39.261326105647072 ], [ -119.963552453065432, 39.261339398177931 ], [ -119.963811763239491, 39.261238064337761 ] ] ] } }
]
}
