{
"type": "FeatureCollection",
"name": "X03376",
"crs": { "type": "name", "properties": { "name": "urn:ogc:def:crs:OGC:1.3:CRS84" } },
"features": [
{ "type": "Feature", "properties": { "part": "direct", "crossing_id": "X03376", "area_ac": 0.1 }, "geometry": { "type": "Polygon", "coordinates": [ [ [ -119.953540116103497, 39.26134791997233 ], [ -119.953720634680366, 39.261460747248961 ], [ -119.953670437038625, 39.261549516892359 ], [ -119.953445178612341, 39.261399484467447 ], [ -119.953540116103497, 39.26134791997233 ] ] ] } }
]
}
