{
"type": "FeatureCollection",
"name": "X03304",
"crs": { "type": "name", "properties": { "name": "urn:ogc:def:crs:OGC:1.3:CRS84" } },
"features": [
{ "type": "Feature", "properties": { "part": "direct", "crossing_id": "X03304", "area_ac": 0.2 }, "geometry": { "type": "Polygon", "coordinates": [ [ [ -119.952683014180451, 39.25919949346958 ], [ -119.952714494382917, 39.259542636986573 ], [ -119.952620338754798, 39.259576204529836 ], [ -119.952378179490566, 39.259281593132023 ], [ -119.952683014180451, 39.25919949346958 ] ] ] } }
]
}
