{
"type": "FeatureCollection",
"name": "X03319",
"crs": { "type": "name", "properties": { "name": "urn:ogc:def:crs:OGC:1.3:CRS84" } },
"features": [
{ "type": "Feature", "properties": { "part": "direct", "crossing_id": "X03319", "area_ac": 0.4, "n_upstream": null }, "geometry": { "type": "MultiPolygon", "coordinates": [ [ [ [ -119.958829176941478, 39.256946051227914 ], [ -119.958851546944928, 39.25696465273947 ], [ -119.958828398701911, 39.256964047703377 ], [ -119.958829176941478, 39.256946051227914 ] ] ], [ [ [ -119.95885310341157, 39.256928659787711 ], [ -119.958875473416427, 39.256947261294748 ], [ -119.958852325178597, 39.256946656263622 ], [ -119.95885310341157, 39.256928659787711 ] ] ], [ [ [ -119.958877029869868, 39.256911268342044 ], [ -119.958899399876088, 39.256929869844591 ], [ -119.958876251643503, 39.256929264818439 ], [ -119.958877029869868, 39.256911268342044 ] ] ], [ [ [ -119.959571084855042, 39.255866414462218 ], [ -119.959798674054937, 39.255962445474381 ], [ -119.959579450365638, 39.256208952665517 ], [ -119.959175818573115, 39.256432623334831 ], [ -119.95913944197838, 39.256737958562745 ], [ -119.958900178096584, 39.256911873367805 ], [ -119.958978182965396, 39.256715727155836 ], [ -119.958843185134569, 39.256622114657624 ], [ -119.959415080100911, 39.25625870785953 ], [ -119.959571084855042, 39.255866414462218 ] ] ] ] } },
{ "type": "Feature", "properties": { "part": "upstream", "crossing_id": "X03319", "area_ac": 0.2, "n_upstream": 1.0 }, "geometry": { "type": "Polygon", "coordinates": [ [ [ -119.958951921993304, 39.256787108060877 ], [ -119.958825285736637, 39.257036033604621 ], [ -119.958538166778908, 39.257244730436199 ], [ -119.958474170155895, 39.257116939834887 ], [ -119.958694178897773, 39.256852438550332 ], [ -119.958951921993304, 39.256787108060877 ] ] ] } }
]
}
