{
"type": "FeatureCollection",
"name": "X03344",
"crs": { "type": "name", "properties": { "name": "urn:ogc:def:crs:OGC:1.3:CRS84" } },
"features": [
{ "type": "Feature", "properties": { "part": "direct", "crossing_id": "X03344", "area_ac": 0.3, "n_upstream": null }, "geometry": { "type": "Polygon", "coordinates": [ [ [ -119.957589918165581, 39.255057921520397 ], [ -119.957793575780315, 39.255171347458742 ], [ -119.957736381918352, 39.255422087481328 ], [ -119.957465616319865, 39.255252856203832 ], [ -119.957486428362557, 39.255307450863512 ], [ -119.957128312577694, 39.255550321414418 ], [ -119.957283549484046, 39.255176027938347 ], [ -119.957589918165581, 39.255057921520397 ] ] ] } },
{ "type": "Feature", "properties": { "part": "upstream", "crossing_id": "X03344", "area_ac": 1.2, "n_upstream": 3.0 }, "geometry": { "type": "Polygon", "coordinates": [ [ [ -119.957485441228343, 39.255865946325599 ], [ -119.957399078412621, 39.255719553483061 ], [ -119.957461514816927, 39.255883337488036 ], [ -119.957429802698243, 39.256080693196168 ], [ -119.957172213576698, 39.256381134840453 ], [ -119.957132561369278, 39.256523340436985 ], [ -119.956931237247474, 39.256355923915208 ], [ -119.956980648032271, 39.256285148935461 ], [ -119.95686880174911, 39.25619213966894 ], [ -119.956946811270214, 39.255995994989945 ], [ -119.956836522908304, 39.255866992815811 ], [ -119.956909859925304, 39.255778826821675 ], [ -119.957032294389947, 39.255761009274906 ], [ -119.957004008524038, 39.255745255505794 ], [ -119.957063767997752, 39.255649527588574 ], [ -119.957030270988199, 39.255673875092043 ], [ -119.957080459800864, 39.255585103589965 ], [ -119.957078707839685, 39.255625595603334 ], [ -119.957103607552824, 39.255585708955799 ], [ -119.957487985435463, 39.255271457947131 ], [ -119.957736381918352, 39.255422087481328 ], [ -119.957485441228343, 39.255865946325599 ] ], [ [ -119.957229327878395, 39.255715114444975 ], [ -119.957236265198418, 39.255733312677449 ], [ -119.957399078412621, 39.255719553483061 ], [ -119.957229327878395, 39.255715114444975 ] ], [ [ -119.957173829437522, 39.255569528573687 ], [ -119.957174218749614, 39.255560530347658 ], [ -119.957103607552824, 39.255585708955799 ], [ -119.957173829437522, 39.255569528573687 ] ], [ [ -119.957208515938234, 39.255660519745661 ], [ -119.957197755804444, 39.255552137468293 ], [ -119.957182064435159, 39.255557732721762 ], [ -119.957196977186399, 39.25557013392077 ], [ -119.957173829437522, 39.255569528573687 ], [ -119.957208515938234, 39.255660519745661 ] ] ] } }
]
}
