{
"type": "FeatureCollection",
"name": "X03398",
"crs": { "type": "name", "properties": { "name": "urn:ogc:def:crs:OGC:1.3:CRS84" } },
"features": [
{ "type": "Feature", "properties": { "part": "direct", "crossing_id": "X03398", "area_ac": 5.5, "n_upstream": null }, "geometry": { "type": "Polygon", "coordinates": [ [ [ -119.95315428730683, 39.268112126281991 ], [ -119.953538508953159, 39.268338389101686 ], [ -119.953570774455187, 39.268663535896899 ], [ -119.953291923227269, 39.269214753771514 ], [ -119.952827848778341, 39.269761119744359 ], [ -119.953117128175791, 39.27003894759423 ], [ -119.95279820337305, 39.27044498043788 ], [ -119.952535977241553, 39.270077776610243 ], [ -119.952708966532114, 39.269830073042961 ], [ -119.952699076930543, 39.269523528953975 ], [ -119.952335663365815, 39.269351858725848 ], [ -119.951685841842334, 39.269370867895162 ], [ -119.951151264610687, 39.268870407408102 ], [ -119.951554994172852, 39.268646768817085 ], [ -119.952656397988221, 39.268369337832141 ], [ -119.9528494137368, 39.268194225575968 ], [ -119.95315428730683, 39.268112126281991 ] ] ] } },
{ "type": "Feature", "properties": { "part": "upstream", "crossing_id": "X03398", "area_ac": 203.2, "n_upstream": 24.0 }, "geometry": { "type": "MultiPolygon", "coordinates": [ [ [ [ -119.958864069729216, 39.266856206442689 ], [ -119.958864848233475, 39.26683820999726 ], [ -119.958887221226831, 39.266856811598466 ], [ -119.958864069729216, 39.266856206442689 ] ] ], [ [ [ -119.958954340277828, 39.266912616378811 ], [ -119.958931188760388, 39.266912011235654 ], [ -119.958931967249029, 39.266894014789273 ], [ -119.958954340277828, 39.266912616378811 ] ] ], [ [ [ -119.958954340277828, 39.266912616378811 ], [ -119.958976713318464, 39.266931217964498 ], [ -119.958953561794402, 39.266930612825547 ], [ -119.958954340277828, 39.266912616378811 ] ] ], [ [ [ -119.958976713318464, 39.266931217964498 ], [ -119.958999086370866, 39.266949819546241 ], [ -119.958975934840225, 39.266949214411497 ], [ -119.958976713318464, 39.266931217964498 ] ] ], [ [ [ -119.959043832511128, 39.266987022698125 ], [ -119.959066205598987, 39.267005624268201 ], [ -119.959043054048536, 39.26700501914609 ], [ -119.959043832511128, 39.266987022698125 ] ] ], [ [ [ -119.959065427141581, 39.267023620716515 ], [ -119.959066205598987, 39.267005624268201 ], [ -119.959088578698641, 39.267024225834419 ], [ -119.959065427141581, 39.267023620716515 ] ] ], [ [ [ -119.959087800246465, 39.267042222283017 ], [ -119.959088578698641, 39.267024225834419 ], [ -119.959110951810089, 39.2670428273967 ], [ -119.959087800246465, 39.267042222283017 ] ] ], [ [ [ -119.959133324933347, 39.267061428955117 ], [ -119.959110173363086, 39.267060823845632 ], [ -119.959110951810089, 39.2670428273967 ], [ -119.959133324933347, 39.267061428955117 ] ] ], [ [ [ -119.959154919631871, 39.267098026959204 ], [ -119.959155698068457, 39.267080030509653 ], [ -119.959178071215348, 39.267098632060261 ], [ -119.959154919631871, 39.267098026959204 ] ] ], [ [ [ -119.959177292783977, 39.267116628510166 ], [ -119.959178071215348, 39.267098632060261 ], [ -119.959200444374005, 39.26711723360701 ], [ -119.959177292783977, 39.267116628510166 ] ] ], [ [ [ -119.959222817544529, 39.267135835149858 ], [ -119.959245190726833, 39.267154436688791 ], [ -119.95922203912356, 39.267153831600353 ], [ -119.959222817544529, 39.267135835149858 ] ] ], [ [ [ -119.95926756392096, 39.267173038223852 ], [ -119.959289937126911, 39.267191639755005 ], [ -119.959266785510437, 39.267191034674987 ], [ -119.95926756392096, 39.267173038223852 ] ] ], [ [ [ -119.959311531944508, 39.267228237734074 ], [ -119.959312310344629, 39.267210241282299 ], [ -119.959334683574184, 39.267228842805665 ], [ -119.959311531944508, 39.267228237734074 ] ] ], [ [ [ -119.962452454058877, 39.269634451707525 ], [ -119.962474828889711, 39.269653052682649 ], [ -119.962451676394835, 39.269652448204305 ], [ -119.962452454058877, 39.269634451707525 ] ] ], [ [ [ -119.962474051230856, 39.269671049179713 ], [ -119.962474828889711, 39.269653052682649 ], [ -119.962497203732312, 39.269671653653845 ], [ -119.962474051230856, 39.269671049179713 ] ] ], [ [ [ -119.958529254749891, 39.266559185511603 ], [ -119.958551627566123, 39.266577787171215 ], [ -119.958528476167501, 39.266577181952286 ], [ -119.958529254749891, 39.266559185511603 ] ] ], [ [ [ -119.958551627566123, 39.266577787171215 ], [ -119.958574000394194, 39.266596388826962 ], [ -119.958550848988963, 39.266595783612239 ], [ -119.958551627566123, 39.266577787171215 ] ] ], [ [ [ -119.958573221822235, 39.266614385268277 ], [ -119.958574000394194, 39.266596388826962 ], [ -119.95859637323403, 39.266614990478793 ], [ -119.958573221822235, 39.266614385268277 ] ] ], [ [ [ -119.95859637323403, 39.266614990478793 ], [ -119.958618746085719, 39.266633592126716 ], [ -119.958595594667301, 39.266632986920413 ], [ -119.95859637323403, 39.266614990478793 ] ] ], [ [ [ -119.958640340392876, 39.26667019021307 ], [ -119.958641118949203, 39.26665219377081 ], [ -119.958663491824481, 39.266670795410953 ], [ -119.958640340392876, 39.26667019021307 ] ] ], [ [ [ -119.958663491824481, 39.266670795410953 ], [ -119.958685864711555, 39.266689397047237 ], [ -119.95866271327337, 39.266688791853575 ], [ -119.958663491824481, 39.266670795410953 ] ] ], [ [ [ -119.958707459069785, 39.266725995122819 ], [ -119.95870823761048, 39.266707998679607 ], [ -119.958730610521201, 39.266726600308068 ], [ -119.958707459069785, 39.266725995122819 ] ] ], [ [ [ -119.958752204913438, 39.26676319837653 ], [ -119.95875298344373, 39.266745201932693 ], [ -119.958775356378084, 39.26676380355336 ], [ -119.958752204913438, 39.26676319837653 ] ] ], [ [ [ -119.958819323767472, 39.266819003227909 ], [ -119.958820102282147, 39.266801006783105 ], [ -119.958842475251913, 39.266819608392119 ], [ -119.958819323767472, 39.266819003227909 ] ] ], [ [ [ -119.958842475251913, 39.266819608392119 ], [ -119.958864848233475, 39.26683820999726 ], [ -119.958841696742454, 39.266837604837256 ], [ -119.958842475251913, 39.266819608392119 ] ] ], [ [ [ -119.954330891530617, 39.268773520923055 ], [ -119.954476820833364, 39.268615190047868 ], [ -119.95493674236937, 39.268699295682531 ], [ -119.955053282004087, 39.268684329061699 ], [ -119.955056400118096, 39.268612343557265 ], [ -119.955335003541634, 39.268601618096724 ], [ -119.955410695011921, 39.268459464663273 ], [ -119.955411797485752, 39.268459493513994 ], [ -119.955435795526398, 39.268415079568378 ], [ -119.955436185238625, 39.26840608137676 ], [ -119.95544059513071, 39.268406196778486 ], [ -119.955738168110017, 39.267855463302247 ], [ -119.957338409106839, 39.266762266741281 ], [ -119.957101659209911, 39.266341688816539 ], [ -119.957219752400604, 39.266290727009768 ], [ -119.957225983654183, 39.266146755650361 ], [ -119.958035498385428, 39.266185940882373 ], [ -119.958053977479821, 39.266294524797139 ], [ -119.958262339163554, 39.266299972418452 ], [ -119.958507660532291, 39.266522587407628 ], [ -119.95846135777397, 39.266521376949107 ], [ -119.958506103357863, 39.266558580288468 ], [ -119.958506881945439, 39.266540583848112 ], [ -119.958529254749891, 39.266559185511603 ], [ -119.958506103357863, 39.266558580288468 ], [ -119.958550848988963, 39.266595783612239 ], [ -119.958617967524177, 39.266651588568699 ], [ -119.958618746085719, 39.266633592126716 ], [ -119.958641118949203, 39.26665219377081 ], [ -119.958617967524191, 39.26665158856872 ], [ -119.95866271327337, 39.266688791853575 ], [ -119.958685086165659, 39.26670739349013 ], [ -119.958685864711555, 39.266689397047237 ], [ -119.95870823761048, 39.266707998679607 ], [ -119.958685086165659, 39.266707393490151 ], [ -119.958729831985707, 39.266744596751643 ], [ -119.958730610521201, 39.266726600308068 ], [ -119.95875298344373, 39.266745201932693 ], [ -119.958729831985707, 39.266744596751643 ], [ -119.958774577852978, 39.26678179999756 ], [ -119.958775356378084, 39.26676380355336 ], [ -119.958797729324218, 39.266782405170204 ], [ -119.958820102282147, 39.266801006783105 ], [ -119.958796950804313, 39.266800401614688 ], [ -119.958886442727788, 39.266874808044236 ], [ -119.958887221226831, 39.266856811598466 ], [ -119.95890959423204, 39.266875413195841 ], [ -119.958931967249029, 39.266894014789273 ], [ -119.958908815738184, 39.266893409641909 ], [ -119.958998307897843, 39.26696781599361 ], [ -119.958999086370866, 39.266949819546241 ], [ -119.959021459435078, 39.266968421124162 ], [ -119.959043832511128, 39.266987022698125 ], [ -119.959020680967271, 39.266986417571808 ], [ -119.959132546491574, 39.267079425404383 ], [ -119.959133324933347, 39.267061428955117 ], [ -119.959155698068457, 39.267080030509653 ], [ -119.959132546491574, 39.267079425404383 ], [ -119.95919966594785, 39.267135230057207 ], [ -119.959200444374005, 39.26711723360701 ], [ -119.959222817544529, 39.267135835149858 ], [ -119.95919966594785, 39.267135230057214 ], [ -119.959244412311108, 39.267172433139635 ], [ -119.959245190726833, 39.267154436688791 ], [ -119.95926756392096, 39.267173038223852 ], [ -119.959244412311108, 39.267172433139635 ], [ -119.959289158721575, 39.267209636206495 ], [ -119.959289937126911, 39.267191639755005 ], [ -119.959312310344629, 39.267210241282299 ], [ -119.959289158721589, 39.267209636206502 ], [ -119.959311531944508, 39.267228237734074 ], [ -119.95962942825858, 39.267380679973172 ], [ -119.959731955602507, 39.267689644763834 ], [ -119.959528839001123, 39.268098723076982 ], [ -119.959507808026643, 39.268094367096104 ], [ -119.959731758085056, 39.268230143458815 ], [ -119.960057442180343, 39.26820262013085 ], [ -119.960441102041486, 39.267906358596804 ], [ -119.960696550792861, 39.267895015284168 ], [ -119.96083234995379, 39.267970629943967 ], [ -119.961023789082702, 39.267831496219472 ], [ -119.961163478226567, 39.267817128103182 ], [ -119.962264236809816, 39.267017101042995 ], [ -119.962329803565581, 39.267108896988546 ], [ -119.962111328821464, 39.267337411034234 ], [ -119.962495577160183, 39.267563645239797 ], [ -119.962508620246339, 39.267798204233046 ], [ -119.962736251431039, 39.2678942309946 ], [ -119.962729192284812, 39.267904342026441 ], [ -119.962760180890228, 39.267876838886522 ], [ -119.962895982394656, 39.267952451221518 ], [ -119.962974595423873, 39.268278805853079 ], [ -119.963203006256236, 39.26835683526798 ], [ -119.963088628770976, 39.268858320274745 ], [ -119.962893302911425, 39.269087439958973 ], [ -119.962392328722927, 39.269416680293382 ], [ -119.962413425294329, 39.26949309131858 ], [ -119.962483383090913, 39.269455091210205 ], [ -119.962706353876584, 39.269659097213314 ], [ -119.962961031442674, 39.269665745666288 ], [ -119.963200331295297, 39.269491824137965 ], [ -119.963528352692236, 39.269410301727468 ], [ -119.963663380589523, 39.269503909813643 ], [ -119.963655607051138, 39.269683874984558 ], [ -119.96314996680853, 39.270121097591222 ], [ -119.962915329969263, 39.270187039895234 ], [ -119.962433091626437, 39.269564321932698 ], [ -119.962452454058877, 39.269634451707525 ], [ -119.962318205321978, 39.2695228457751 ], [ -119.962914552408321, 39.270205036398046 ], [ -119.961778332880243, 39.270751907572922 ], [ -119.961769906629797, 39.270740600265015 ], [ -119.961713301271018, 39.270781738668617 ], [ -119.961800707860931, 39.27077050868165 ], [ -119.962246654438843, 39.271178523015514 ], [ -119.962613814612112, 39.271800680341968 ], [ -119.9625816591372, 39.271778514829812 ], [ -119.963186251579657, 39.272500262218699 ], [ -119.963105127567673, 39.272768396562689 ], [ -119.963010180613153, 39.272819968452623 ], [ -119.962972252253451, 39.273161297449384 ], [ -119.96181264548737, 39.274248061282186 ], [ -119.961775488086076, 39.274571393088195 ], [ -119.961584031130371, 39.2747105272515 ], [ -119.961449586897444, 39.27513941873633 ], [ -119.961105194792523, 39.275598859658785 ], [ -119.959880724478509, 39.276575807950529 ], [ -119.959755608330084, 39.276788739650492 ], [ -119.959854283250536, 39.276491217964775 ], [ -119.959737124877222, 39.27668015596376 ], [ -119.959645860372675, 39.277182240581475 ], [ -119.959631445516308, 39.277168142751748 ], [ -119.959765325765346, 39.277635782007742 ], [ -119.959822132042689, 39.27846603808436 ], [ -119.958704866600343, 39.27749996330494 ], [ -119.95807366491664, 39.277087091576689 ], [ -119.956840448815029, 39.276658470401919 ], [ -119.955565071013865, 39.275598146241414 ], [ -119.955068151954947, 39.275296873072165 ], [ -119.95449787572845, 39.275083761298916 ], [ -119.954301544886505, 39.274922521108024 ], [ -119.953610467394697, 39.274700192018067 ], [ -119.953364355213523, 39.274495562782299 ], [ -119.952973860026148, 39.274413268883286 ], [ -119.952588047730003, 39.274222995803541 ], [ -119.951916848879748, 39.273664909515098 ], [ -119.951594259818961, 39.273620423685955 ], [ -119.951348937977869, 39.27339779422865 ], [ -119.951058872214148, 39.273137958143678 ], [ -119.951303411622945, 39.273378584448608 ], [ -119.951191547463708, 39.273285569182143 ], [ -119.950797938954892, 39.273275253495818 ], [ -119.950687126021663, 39.272623745931526 ], [ -119.951022467135402, 39.271839797620942 ], [ -119.952382762727467, 39.270938567908111 ], [ -119.952871561698927, 39.270356817977188 ], [ -119.952895494347416, 39.270339428034575 ], [ -119.952895494347374, 39.270339428034575 ], [ -119.95289627447471, 39.27032143169987 ], [ -119.952907460667177, 39.270330733061265 ], [ -119.95291942698428, 39.270322038086391 ], [ -119.95291942698401, 39.270322038086569 ], [ -119.952921767344179, 39.27026804908084 ], [ -119.95309892138242, 39.270191613303105 ], [ -119.953158752700872, 39.270148138307363 ], [ -119.953666547084808, 39.270197469252587 ], [ -119.953113227853649, 39.270128929290017 ], [ -119.952993565123833, 39.270215879200045 ], [ -119.953092415616851, 39.2700743339282 ], [ -119.953831977900137, 39.269589230623161 ], [ -119.953116348112772, 39.270056943933511 ], [ -119.952827848778341, 39.269761119744359 ], [ -119.953417043539289, 39.269001829028802 ], [ -119.953570774455187, 39.268663535896899 ], [ -119.95350911775175, 39.268481753671523 ], [ -119.954151133642355, 39.268642697579558 ], [ -119.954032254571473, 39.268711652367926 ], [ -119.954173505872362, 39.26866130005655 ], [ -119.954333230678884, 39.268719531831977 ], [ -119.954283028011659, 39.268808301471545 ], [ -119.954256349952061, 39.26879801967651 ], [ -119.954239091628466, 39.268831370530414 ], [ -119.95436146387307, 39.268781184788594 ], [ -119.954330891530617, 39.268773520923055 ] ], [ [ -119.958774577853006, 39.266781799997581 ], [ -119.958796950804313, 39.266800401614674 ], [ -119.958797729324218, 39.266782405170204 ], [ -119.958774577853006, 39.266781799997581 ] ], [ [ -119.958886442727831, 39.266874808044264 ], [ -119.958908815738184, 39.266893409641909 ], [ -119.95890959423204, 39.266875413195841 ], [ -119.958886442727831, 39.266874808044264 ] ], [ [ -119.958998307897872, 39.266967815993624 ], [ -119.959020680967271, 39.266986417571808 ], [ -119.959021459435078, 39.266968421124162 ], [ -119.958998307897872, 39.266967815993624 ] ], [ [ -119.95415947018212, 39.268985234548836 ], [ -119.954273671197228, 39.269024257818792 ], [ -119.954242582862719, 39.269044006577019 ], [ -119.954480480859004, 39.269065705249758 ], [ -119.95415947018212, 39.268985234548836 ] ], [ [ -119.954082995806431, 39.269145383393443 ], [ -119.954056724466625, 39.269216762684188 ], [ -119.954153244710284, 39.269100758221398 ], [ -119.954082995806431, 39.269145383393443 ] ], [ [ -119.954147773600724, 39.269255179942071 ], [ -119.954122621842615, 39.269281785784877 ], [ -119.954206197407117, 39.269259888899093 ], [ -119.954056724466625, 39.269216762684188 ], [ -119.954147773600724, 39.269255179942071 ] ], [ [ -119.957966111495153, 39.275823105323987 ], [ -119.957933045443198, 39.275515955570221 ], [ -119.957947630985203, 39.275714521455477 ], [ -119.957966111495153, 39.275823105323987 ] ], [ [ -119.957609596963991, 39.27522733930482 ], [ -119.957598974725087, 39.275200934477382 ], [ -119.957061974362873, 39.274754487396493 ], [ -119.957609596963991, 39.27522733930482 ] ], [ [ -119.956875515511939, 39.272101144524555 ], [ -119.95647534488927, 39.27149065715664 ], [ -119.956590108792042, 39.271733343235965 ], [ -119.956875515511939, 39.272101144524555 ] ], [ [ -119.956271872622537, 39.270517893862085 ], [ -119.955957425483163, 39.269890046376354 ], [ -119.955968777883911, 39.270023510898241 ], [ -119.956271872622537, 39.270517893862085 ] ], [ [ -119.955738261674682, 39.269458959199554 ], [ -119.955731247260829, 39.269620926662164 ], [ -119.955729025552856, 39.269618706514379 ], [ -119.955813478966832, 39.269856610114118 ], [ -119.955813591572792, 39.269856599115194 ], [ -119.955738261674682, 39.269458959199554 ] ], [ [ -119.954812406753973, 39.268894225900873 ], [ -119.954381577260179, 39.268786226801154 ], [ -119.954398008523867, 39.268829328248074 ], [ -119.954812406753973, 39.268894225900873 ] ], [ [ -119.956046807742752, 39.26982736792489 ], [ -119.957182055896922, 39.269839048057932 ], [ -119.957281483453826, 39.269812995254313 ], [ -119.95667270232974, 39.269825725269961 ], [ -119.956046807742752, 39.26982736792489 ] ], [ [ -119.957733225878854, 39.275312545897165 ], [ -119.957633726876693, 39.274143143378211 ], [ -119.957617109984994, 39.27424651976655 ], [ -119.957733225878854, 39.275312545897165 ] ], [ [ -119.95766363713399, 39.273957065864316 ], [ -119.957988000162899, 39.273175211778501 ], [ -119.957680555983302, 39.273851809888484 ], [ -119.95766363713399, 39.273957065864316 ] ], [ [ -119.957557168592047, 39.26974075747485 ], [ -119.957566273776123, 39.269744598939376 ], [ -119.957605810147697, 39.269687979128918 ], [ -119.957519657366589, 39.269750586589559 ], [ -119.957557168592047, 39.26974075747485 ] ], [ [ -119.957726759567024, 39.269713963202022 ], [ -119.957736586377237, 39.269722133420849 ], [ -119.957986645200165, 39.26964871306113 ], [ -119.957978585096299, 39.269643676387695 ], [ -119.957743945702234, 39.269709608131308 ], [ -119.957856000437019, 39.269506164134498 ], [ -119.957821191430568, 39.269531460169311 ], [ -119.957726759567024, 39.269713963202022 ] ], [ [ -119.958920457074413, 39.268767460381255 ], [ -119.958411110441247, 39.268754145499173 ], [ -119.958976395905765, 39.268785863709397 ], [ -119.958967857163458, 39.268751935071528 ], [ -119.958920457074413, 39.268767460381255 ] ], [ [ -119.958968522035335, 39.2681921794087 ], [ -119.958893616475919, 39.268316339016124 ], [ -119.959021976276816, 39.268162047217658 ], [ -119.958951375884098, 39.268192514573428 ], [ -119.958968522035335, 39.2681921794087 ] ], [ [ -119.958574160555756, 39.268199887555674 ], [ -119.95837028027357, 39.267983597345136 ], [ -119.958395174396074, 39.268051074076375 ], [ -119.958574160555756, 39.268199887555674 ] ], [ [ -119.95815623658865, 39.267422914292069 ], [ -119.958191688975489, 39.267397149655359 ], [ -119.958125541376006, 39.26739542021177 ], [ -119.95815623658865, 39.267422914292069 ] ], [ [ -119.957518947515155, 39.266875088814082 ], [ -119.957732091654506, 39.266911006541932 ], [ -119.957704938135436, 39.26686193564705 ], [ -119.957542877832935, 39.266857697814288 ], [ -119.9575830212802, 39.266822713994458 ], [ -119.957567586974534, 39.266822310385216 ], [ -119.957528675412959, 39.266864533130203 ], [ -119.957542098990046, 39.266875694237541 ], [ -119.957518947515155, 39.266875088814082 ] ], [ [ -119.957567976392085, 39.266813312173291 ], [ -119.957521284059467, 39.266821099545233 ], [ -119.957532911892329, 39.266804446640293 ], [ -119.957431707420483, 39.266825191595359 ], [ -119.957461306679946, 39.26682982639371 ], [ -119.957567586974534, 39.266822310385216 ], [ -119.957567976392085, 39.266813312173291 ] ], [ [ -119.957586670682488, 39.266819533646427 ], [ -119.95759992377225, 39.266807983960398 ], [ -119.957577314857488, 39.266811754696604 ], [ -119.957586670682488, 39.266819533646427 ] ], [ [ -119.95757852370096, 39.266795097070393 ], [ -119.957605711036905, 39.266802940524201 ], [ -119.957625840912897, 39.266785397902808 ], [ -119.95757852370096, 39.266795097070393 ] ], [ [ -119.957943673890668, 39.266683974429988 ], [ -119.958061554828973, 39.266655058772713 ], [ -119.958229844024274, 39.266515324380826 ], [ -119.957943673890668, 39.266683974429988 ] ], [ [ -119.959088205289177, 39.26813346625147 ], [ -119.959210698113182, 39.268116740727159 ], [ -119.959110547594761, 39.268123824470756 ], [ -119.959088205289177, 39.26813346625147 ] ], [ [ -119.959573333546558, 39.270285322730828 ], [ -119.959573567071971, 39.270279923796814 ], [ -119.959173947045102, 39.269873110265202 ], [ -119.959086973174536, 39.269840300072623 ], [ -119.959573333546558, 39.270285322730828 ] ], [ [ -119.959515916778074, 39.269867726761838 ], [ -119.959502752610916, 39.269773603025627 ], [ -119.959372983325707, 39.26966571416996 ], [ -119.959515916778074, 39.269867726761838 ] ], [ [ -119.959084654473159, 39.269258205555154 ], [ -119.959096332115053, 39.268988258922427 ], [ -119.959042903954298, 39.268986862435042 ], [ -119.959084654473159, 39.269258205555154 ] ], [ [ -119.960759003980471, 39.268058797947887 ], [ -119.960830911673071, 39.26811112340264 ], [ -119.960774445253662, 39.268040236267389 ], [ -119.960759003980471, 39.268058797947887 ] ], [ [ -119.960913406517491, 39.268225943379427 ], [ -119.961723607724622, 39.268264160251114 ], [ -119.960936796773254, 39.268192442563617 ], [ -119.960913406517491, 39.268225943379427 ] ], [ [ -119.960864649290571, 39.26829577604741 ], [ -119.960960959069908, 39.268748711770876 ], [ -119.960877320097211, 39.268277628267072 ], [ -119.960864649290571, 39.26829577604741 ] ], [ [ -119.961033929336352, 39.269741541646667 ], [ -119.96106700792329, 39.270048691204913 ], [ -119.961102417944957, 39.27006362919542 ], [ -119.961033929336352, 39.269741541646667 ] ], [ [ -119.95995607727022, 39.268938660100119 ], [ -119.959875727461053, 39.268928711629826 ], [ -119.960202191137881, 39.269143275538347 ], [ -119.95995607727022, 39.268938660100119 ] ], [ [ -119.959232292915388, 39.268631476676454 ], [ -119.959345758242577, 39.2685803917961 ], [ -119.959452811597444, 39.268650752582069 ], [ -119.959346536671376, 39.268562395347928 ], [ -119.959232292915388, 39.268631476676454 ] ], [ [ -119.960265294313771, 39.271557043341495 ], [ -119.960261530699981, 39.27152304244639 ], [ -119.960081516052938, 39.271305674483138 ], [ -119.96008408941951, 39.271338238263048 ], [ -119.960265294313771, 39.271557043341495 ] ], [ [ -119.961644861141906, 39.270622304358632 ], [ -119.961464306450111, 39.270509488119622 ], [ -119.961748841015208, 39.270712331992947 ], [ -119.961662706229063, 39.270596746135226 ], [ -119.961644861141906, 39.270622304358632 ] ], [ [ -119.961359434196424, 39.270254513956701 ], [ -119.961304165080804, 39.270223740748129 ], [ -119.961464306450111, 39.270509488119622 ], [ -119.961359434196424, 39.270254513956701 ] ], [ [ -119.962578572901336, 39.268038019945863 ], [ -119.962515411949298, 39.268066459175955 ], [ -119.962543260139455, 39.268069360670189 ], [ -119.962578572901336, 39.268038019945863 ] ], [ [ -119.961677226012512, 39.270767283952971 ], [ -119.961684165735761, 39.27078548198277 ], [ -119.96170256712675, 39.270783117785228 ], [ -119.961677226012512, 39.270767283952971 ] ], [ [ -119.962548706440401, 39.271755799751091 ], [ -119.961826011354972, 39.271257622941626 ], [ -119.962363795871212, 39.271686051896488 ], [ -119.962548706440401, 39.271755799751091 ] ], [ [ -119.961635526320734, 39.270838262116676 ], [ -119.961657164305251, 39.270754748832111 ], [ -119.961617040912472, 39.270729678580828 ], [ -119.961635526320734, 39.270838262116676 ] ], [ [ -119.958539536028866, 39.267928730538436 ], [ -119.95823799229845, 39.26739836024354 ], [ -119.958226416467426, 39.267398057598228 ], [ -119.958539536028866, 39.267928730538436 ] ], [ [ -119.954552038218793, 39.269554031321448 ], [ -119.955509077148292, 39.26939891169696 ], [ -119.954809052322872, 39.269506708485309 ], [ -119.954552038218793, 39.269554031321448 ] ], [ [ -119.954400108538351, 39.26931583614504 ], [ -119.954285647067024, 39.269282811766679 ], [ -119.954408643887362, 39.269329217900925 ], [ -119.954400108538351, 39.26931583614504 ] ], [ [ -119.951398936156551, 39.273168162370006 ], [ -119.951334371202876, 39.273199228198031 ], [ -119.951450695877838, 39.273189407321979 ], [ -119.951404612061239, 39.273183052086033 ], [ -119.951398936156551, 39.273168162370006 ] ], [ [ -119.951553498272062, 39.273203584322083 ], [ -119.951952210617307, 39.273331866839222 ], [ -119.951727198976727, 39.273227538360736 ], [ -119.951553498272062, 39.273203584322083 ] ], [ [ -119.952662445733296, 39.273576341292198 ], [ -119.95404805299961, 39.274765699970793 ], [ -119.954133817251076, 39.274784770985974 ], [ -119.952662445733296, 39.273576341292198 ] ], [ [ -119.951225629795047, 39.27303422777571 ], [ -119.951394818344738, 39.273157360026865 ], [ -119.951362988811795, 39.273073860830195 ], [ -119.951225629795047, 39.27303422777571 ] ] ], [ [ [ -119.952992785024293, 39.270233875536732 ], [ -119.952969632542434, 39.27023326916575 ], [ -119.952970412647872, 39.270215272829425 ], [ -119.952992785024293, 39.270233875536732 ] ] ] ] } }
]
}
