{
"type": "FeatureCollection",
"name": "X03331",
"crs": { "type": "name", "properties": { "name": "urn:ogc:def:crs:OGC:1.3:CRS84" } },
"features": [
{ "type": "Feature", "properties": { "part": "direct", "crossing_id": "X03331", "area_ac": 1.5, "n_upstream": null }, "geometry": { "type": "MultiPolygon", "coordinates": [ [ [ [ -119.9547727912624, 39.256966074096603 ], [ -119.955014953540754, 39.25726068068834 ], [ -119.954981675247041, 39.25749402821404 ], [ -119.955231631913406, 39.257608670324487 ], [ -119.955452207995663, 39.257866677543205 ], [ -119.955447533214553, 39.257974656038776 ], [ -119.955329453223598, 39.25802561660565 ], [ -119.955320103206745, 39.258241573563808 ], [ -119.955427275539364, 39.258442562824385 ], [ -119.955339908523882, 39.258854663079319 ], [ -119.955447081735628, 39.259055652342383 ], [ -119.955176308563239, 39.258886415491382 ], [ -119.955137803324178, 39.258705239824934 ], [ -119.954973424368191, 39.258754988368793 ], [ -119.95475128887594, 39.258532973039962 ], [ -119.955107869813887, 39.258326103654404 ], [ -119.955113324398823, 39.258200128790065 ], [ -119.95486726231556, 39.25799550433149 ], [ -119.954850348093942, 39.257850927243595 ], [ -119.954948396682667, 39.257727375713472 ], [ -119.954793371449512, 39.257561167213531 ], [ -119.954871388440978, 39.257365024253637 ], [ -119.954856032803008, 39.257184454342109 ], [ -119.954701008910703, 39.257018245761209 ], [ -119.9547727912624, 39.256966074096603 ] ] ], [ [ [ -119.954704126091656, 39.256946260135905 ], [ -119.954726494951771, 39.256964862398362 ], [ -119.954703346797473, 39.256964256542354 ], [ -119.954704126091656, 39.256946260135905 ] ] ], [ [ [ -119.954681757243378, 39.256927657869603 ], [ -119.954704126091656, 39.256946260135905 ], [ -119.95468097794398, 39.25694565427569 ], [ -119.954681757243378, 39.256927657869603 ] ] ] ] } },
{ "type": "Feature", "properties": { "part": "upstream", "crossing_id": "X03331", "area_ac": 12.7, "n_upstream": 6.0 }, "geometry": { "type": "Polygon", "coordinates": [ [ [ -119.955603339997268, 39.258122867334933 ], [ -119.955945115317562, 39.258257927196432 ], [ -119.955917292586349, 39.258365300101616 ], [ -119.956338422826363, 39.258808720630604 ], [ -119.955908500940083, 39.259103759010017 ], [ -119.955879759599512, 39.259098502843798 ], [ -119.955897443859314, 39.259113208534089 ], [ -119.95636079270038, 39.258827322613683 ], [ -119.956673193326196, 39.259105746401168 ], [ -119.956666183645751, 39.259267714293109 ], [ -119.95652105877808, 39.259408052660447 ], [ -119.956557231199824, 39.259643217292613 ], [ -119.95664904863348, 39.259663635783241 ], [ -119.956550221118562, 39.259805185152082 ], [ -119.956480773737653, 39.259803368548447 ], [ -119.956477658057025, 39.259875354257368 ], [ -119.956360354414556, 39.259908319335231 ], [ -119.956402758019649, 39.259999512587605 ], [ -119.955979840309695, 39.26013258311901 ], [ -119.956354122772538, 39.260052290733221 ], [ -119.956573931294301, 39.260328292618802 ], [ -119.956757567995311, 39.260369129569661 ], [ -119.956908709656943, 39.260625317967317 ], [ -119.957182608757776, 39.260722565421737 ], [ -119.957290568595894, 39.260905556811416 ], [ -119.95762846736794, 39.261130594528197 ], [ -119.957426917644142, 39.261503676950447 ], [ -119.957066217155671, 39.262341033501308 ], [ -119.957026117217296, 39.26227306519403 ], [ -119.957035278695372, 39.26252039232719 ], [ -119.956859208294645, 39.262840089600743 ], [ -119.956944236325086, 39.262481977572691 ], [ -119.956192751164394, 39.262174051475839 ], [ -119.956153462967563, 39.262010872475798 ], [ -119.95604083011844, 39.261935858591244 ], [ -119.95587510981872, 39.261481102915006 ], [ -119.955994753595235, 39.261394149203682 ], [ -119.955886796541847, 39.261211156726809 ], [ -119.955917737120856, 39.261031798264177 ], [ -119.955429486761588, 39.260532569454391 ], [ -119.955502830735668, 39.260444404668846 ], [ -119.955502898491019, 39.260442839763705 ], [ -119.955290590715464, 39.260528934813131 ], [ -119.955232831536676, 39.260257171362269 ], [ -119.954853322617069, 39.259922936993796 ], [ -119.954715207221753, 39.259901305314862 ], [ -119.954765402260151, 39.259812535100778 ], [ -119.954655112501712, 39.259683530852236 ], [ -119.955764933152366, 39.259208103554613 ], [ -119.955765225309293, 39.259201354898146 ], [ -119.955599774254281, 39.259275849366922 ], [ -119.955508736830694, 39.259237433665511 ], [ -119.955339908523882, 39.258854663079319 ], [ -119.955427275539364, 39.258442562824385 ], [ -119.95533701844117, 39.258386150616623 ], [ -119.955329453223598, 39.25802561660565 ], [ -119.955447533214553, 39.257974656038776 ], [ -119.955603339997268, 39.258122867334933 ] ], [ [ -119.955793535606148, 39.259082734303441 ], [ -119.955792951300054, 39.259096231617015 ], [ -119.955831857375713, 39.259089742551303 ], [ -119.955793535606148, 39.259082734303441 ] ], [ [ -119.955887315207491, 39.260243806808397 ], [ -119.955863502979625, 39.260272431225751 ], [ -119.955899781824144, 39.260258693930354 ], [ -119.955887315207491, 39.260243806808397 ] ], [ [ -119.956531650232918, 39.261840597829149 ], [ -119.956981725733286, 39.262197822673251 ], [ -119.956936663776034, 39.262121443544068 ], [ -119.956531650232918, 39.261840597829149 ] ], [ [ -119.95589764591611, 39.260833087830214 ], [ -119.956011114270581, 39.261016224488181 ], [ -119.955926307143002, 39.260833837704517 ], [ -119.95589764591611, 39.260833087830214 ] ], [ [ -119.955634714253705, 39.260610006749545 ], [ -119.955772831381921, 39.260631637399619 ], [ -119.955555584070169, 39.260510645516661 ], [ -119.955634714253705, 39.260610006749545 ] ] ] } }
]
}
