{
"type": "FeatureCollection",
"name": "X03382",
"crs": { "type": "name", "properties": { "name": "urn:ogc:def:crs:OGC:1.3:CRS84" } },
"features": [
{ "type": "Feature", "properties": { "part": "direct", "crossing_id": "X03382", "area_ac": 0.0 }, "geometry": { "type": "MultiPolygon", "coordinates": [ [ [ [ -119.952026107872854, 39.271145425722182 ], [ -119.952048480267649, 39.271164028610485 ], [ -119.952025327500053, 39.271163422039798 ], [ -119.952026107872854, 39.271145425722182 ] ] ], [ [ [ -119.952050041000717, 39.271128035974442 ], [ -119.95207241339692, 39.27114663885817 ], [ -119.952049260634524, 39.271146032292471 ], [ -119.952050041000717, 39.271128035974442 ] ] ], [ [ [ -119.9520739741168, 39.271110646221246 ], [ -119.952096346514367, 39.271129249100483 ], [ -119.952073193757201, 39.271128642539757 ], [ -119.9520739741168, 39.271110646221246 ] ] ], [ [ [ -119.952097907221045, 39.271093256462642 ], [ -119.95212027961999, 39.271111859337296 ], [ -119.952097126868068, 39.271111252781573 ], [ -119.952097907221045, 39.271093256462642 ] ] ], [ [ [ -119.952168926129758, 39.271059083474448 ], [ -119.952191298538111, 39.2710776863359 ], [ -119.952168145795881, 39.271077079794729 ], [ -119.952168926129758, 39.271059083474448 ] ] ], [ [ [ -119.952121840313467, 39.271075866698595 ], [ -119.952167365461293, 39.271095076114896 ], [ -119.952121059967084, 39.271093863017988 ], [ -119.952121840313467, 39.271075866698595 ] ] ], [ [ [ -119.952192859193346, 39.271041693694556 ], [ -119.952215231603105, 39.271060296551433 ], [ -119.952192078866091, 39.271059690015235 ], [ -119.952192859193346, 39.271041693694556 ] ] ], [ [ [ -119.952216792245139, 39.271024303909186 ], [ -119.952239164656319, 39.271042906761579 ], [ -119.952216011924463, 39.271042300230363 ], [ -119.952216792245139, 39.271024303909186 ] ] ], [ [ [ -119.952240725285108, 39.271006914118423 ], [ -119.952263097697696, 39.27102551696624 ], [ -119.952239944971055, 39.271024910440005 ], [ -119.952240725285108, 39.271006914118423 ] ] ], [ [ [ -119.952264658313283, 39.270989524322189 ], [ -119.952287030727263, 39.271008127165508 ], [ -119.952263878005851, 39.271007520644261 ], [ -119.952264658313283, 39.270989524322189 ] ] ], [ [ [ -119.952288591329676, 39.270972134520498 ], [ -119.952310963745035, 39.270990737359327 ], [ -119.952287811028825, 39.270990130843053 ], [ -119.952288591329676, 39.270972134520498 ] ] ], [ [ [ -119.952312524334232, 39.270954744713421 ], [ -119.952334896750969, 39.270973347547667 ], [ -119.952311744039974, 39.270972741036381 ], [ -119.952312524334232, 39.270954744713421 ] ] ] ] } }
]
}
