{
"type": "FeatureCollection",
"name": "X03359",
"crs": { "type": "name", "properties": { "name": "urn:ogc:def:crs:OGC:1.3:CRS84" } },
"features": [
{ "type": "Feature", "properties": { "part": "direct", "crossing_id": "X03359", "area_ac": 0.1 }, "geometry": { "type": "Polygon", "coordinates": [ [ [ -119.956863424825599, 39.254174115857388 ], [ -119.956995300841157, 39.254339716212606 ], [ -119.956968260283503, 39.2544290931029 ], [ -119.956768499630215, 39.254225683596573 ], [ -119.956863424825599, 39.254174115857388 ] ] ] } }
]
}
