{
"type": "FeatureCollection",
"name": "X03330",
"crs": { "type": "name", "properties": { "name": "urn:ogc:def:crs:OGC:1.3:CRS84" } },
"features": [
{ "type": "Feature", "properties": { "part": "direct", "crossing_id": "X03330", "area_ac": 0.7, "n_upstream": null }, "geometry": { "type": "Polygon", "coordinates": [ [ [ -119.955123909614215, 39.256885179180237 ], [ -119.955331463743306, 39.256908627374607 ], [ -119.955273480204497, 39.257177362136844 ], [ -119.955353606968629, 39.257467727751326 ], [ -119.955509412490429, 39.257615939132641 ], [ -119.955457661875229, 39.257740702628546 ], [ -119.955584086946814, 39.258032279550015 ], [ -119.955766938003819, 39.258091114241132 ], [ -119.955854858005068, 39.258201515382126 ], [ -119.955468344334875, 39.258029251007841 ], [ -119.955452207995663, 39.257866677543205 ], [ -119.955276370336776, 39.257645874666302 ], [ -119.954981675247041, 39.25749402821404 ], [ -119.954934828371691, 39.256970314895753 ], [ -119.955123909614215, 39.256885179180237 ] ] ] } },
{ "type": "Feature", "properties": { "part": "upstream", "crossing_id": "X03330", "area_ac": 0.3, "n_upstream": 1.0 }, "geometry": { "type": "Polygon", "coordinates": [ [ [ -119.955601226955181, 39.257636358341067 ], [ -119.955850406186698, 39.25776899559974 ], [ -119.955720640910386, 39.258089902909219 ], [ -119.955584086946814, 39.258032279550015 ], [ -119.955436850834261, 39.257686107658884 ], [ -119.955601226955181, 39.257636358341067 ] ] ] } }
]
}
