{
"type": "FeatureCollection",
"name": "X03324",
"crs": { "type": "name", "properties": { "name": "urn:ogc:def:crs:OGC:1.3:CRS84" } },
"features": [
{ "type": "Feature", "properties": { "part": "direct", "crossing_id": "X03324", "area_ac": 0.1 }, "geometry": { "type": "Polygon", "coordinates": [ [ [ -119.954728743721247, 39.255307375208716 ], [ -119.954747995141346, 39.255397963099192 ], [ -119.954356044043607, 39.255351670525911 ], [ -119.954404677254729, 39.255298893110698 ], [ -119.954728743721247, 39.255307375208716 ] ] ] } }
]
}
