{
"type": "FeatureCollection",
"name": "X03372",
"crs": { "type": "name", "properties": { "name": "urn:ogc:def:crs:OGC:1.3:CRS84" } },
"features": [
{ "type": "Feature", "properties": { "part": "direct", "crossing_id": "X03372", "area_ac": 6.4 }, "geometry": { "type": "Polygon", "coordinates": [ [ [ -119.953155484301433, 39.263806147758118 ], [ -119.954140815696888, 39.26406616530533 ], [ -119.953860429998613, 39.264653378550094 ], [ -119.953671325841469, 39.26473851123265 ], [ -119.953567805857858, 39.264988035625066 ], [ -119.95328375763718, 39.265124731910895 ], [ -119.953250468205326, 39.265358078297972 ], [ -119.95284052315138, 39.265725694625715 ], [ -119.95297708919928, 39.265783321640257 ], [ -119.952946918276581, 39.265944682468522 ], [ -119.95303484273515, 39.266055085825684 ], [ -119.952862644746887, 39.266284794079205 ], [ -119.953214345215244, 39.266726407441958 ], [ -119.953378744273294, 39.26667666222454 ], [ -119.953537684080587, 39.266752891262783 ], [ -119.953412568574123, 39.266965816377557 ], [ -119.953656316406054, 39.267224433781521 ], [ -119.953544458255877, 39.267131420956758 ], [ -119.953381618045697, 39.267145173662712 ], [ -119.953248948791838, 39.266997565264106 ], [ -119.952816872416719, 39.266806081747063 ], [ -119.952509916322725, 39.266401672789065 ], [ -119.952525518524766, 39.266041745966895 ], [ -119.952183713536201, 39.265906674979931 ], [ -119.952341343225982, 39.265478401590066 ], [ -119.9522549808609, 39.265332005091317 ], [ -119.952251333752358, 39.264881490138286 ], [ -119.952730728323772, 39.26451569483276 ], [ -119.952839710234443, 39.264140196788723 ], [ -119.953155484301433, 39.263806147758118 ] ] ] } }
]
}
