{
"type": "FeatureCollection",
"name": "X03316",
"crs": { "type": "name", "properties": { "name": "urn:ogc:def:crs:OGC:1.3:CRS84" } },
"features": [
{ "type": "Feature", "properties": { "part": "direct", "crossing_id": "X03316", "area_ac": 0.3 }, "geometry": { "type": "Polygon", "coordinates": [ [ [ -119.958805068429911, 39.255359941063858 ], [ -119.958918472492996, 39.255416955564328 ], [ -119.958773360392087, 39.25555729731088 ], [ -119.958808761037417, 39.255810458072581 ], [ -119.958735426289522, 39.255898625356139 ], [ -119.958847274717655, 39.25599163290952 ], [ -119.958816344618995, 39.25617099266541 ], [ -119.958509395456559, 39.255766599379321 ], [ -119.958655286769471, 39.255608261527449 ], [ -119.958637586727505, 39.255481681133546 ], [ -119.958805068429911, 39.255359941063858 ] ] ] } }
]
}
