{
"type": "FeatureCollection",
"name": "X03393",
"crs": { "type": "name", "properties": { "name": "urn:ogc:def:crs:OGC:1.3:CRS84" } },
"features": [
{ "type": "Feature", "properties": { "part": "direct", "crossing_id": "X03393", "area_ac": 2.2, "n_upstream": null }, "geometry": { "type": "Polygon", "coordinates": [ [ [ -119.951619574435867, 39.247911136051762 ], [ -119.951790699109708, 39.248239921677886 ], [ -119.951640130217854, 39.248506229370648 ], [ -119.951652357736265, 39.248758785062776 ], [ -119.951861446071348, 39.24874624572638 ], [ -119.951971714670975, 39.248875251958196 ], [ -119.951722324131964, 39.249283105518231 ], [ -119.95163442107139, 39.249172701799715 ], [ -119.951541059085855, 39.249188272667745 ], [ -119.951437558153586, 39.249437796339343 ], [ -119.951498416008278, 39.249637575683948 ], [ -119.951220667947538, 39.24963029853906 ], [ -119.951222481518542, 39.249053808194489 ], [ -119.951113774059223, 39.248888808556281 ], [ -119.951009221905764, 39.248093329367073 ], [ -119.951619574435867, 39.247911136051762 ] ] ] } },
{ "type": "Feature", "properties": { "part": "upstream", "crossing_id": "X03393", "area_ac": 29.3, "n_upstream": 11.0 }, "geometry": { "type": "MultiPolygon", "coordinates": [ [ [ [ -119.951072417558365, 39.248239119764612 ], [ -119.951040692456019, 39.248436473384011 ], [ -119.951232367591004, 39.249360352970477 ], [ -119.951226127800723, 39.249504323942297 ], [ -119.951220667947538, 39.24963029853906 ], [ -119.952377952197523, 39.249660615613692 ], [ -119.952583924644529, 39.249720060648151 ], [ -119.952662474428138, 39.250046420453558 ], [ -119.952316066688027, 39.25001933092252 ], [ -119.952217245508066, 39.250160876999928 ], [ -119.952478622681568, 39.250546076033679 ], [ -119.952404506466777, 39.250652235684484 ], [ -119.95231192235633, 39.250649810711138 ], [ -119.952528568762631, 39.250997804399134 ], [ -119.952439637541772, 39.251445895396593 ], [ -119.952748872438249, 39.251796313685233 ], [ -119.953005821773601, 39.251748992209961 ], [ -119.95320946222715, 39.251862425566735 ], [ -119.953291914302071, 39.252098803066126 ], [ -119.953197771485534, 39.252474690935045 ], [ -119.953483864074315, 39.252482181979104 ], [ -119.953874239758733, 39.252564469673992 ], [ -119.953913652030479, 39.25270731118691 ], [ -119.953937444872778, 39.252710258809181 ], [ -119.953604816552328, 39.252899735386542 ], [ -119.954030031832971, 39.252712682596147 ], [ -119.954167353665952, 39.252752310959856 ], [ -119.954117729194408, 39.25278838013265 ], [ -119.95467346575272, 39.252837625560652 ], [ -119.954668011420821, 39.252963600489629 ], [ -119.954385573825121, 39.253064308871231 ], [ -119.954256591356952, 39.25336721843744 ], [ -119.954217578840144, 39.253350754249603 ], [ -119.954231885764457, 39.253402605353372 ], [ -119.954113812869267, 39.253453564986941 ], [ -119.954085210388641, 39.253578933901508 ], [ -119.953803548953076, 39.253661644326868 ], [ -119.953777284143499, 39.253733023933862 ], [ -119.953548151962707, 39.253672974503999 ], [ -119.953704725088926, 39.253803191508879 ], [ -119.953741665820885, 39.254020360329719 ], [ -119.953645959230542, 39.25408992183722 ], [ -119.953462340828338, 39.254049080648571 ], [ -119.953297192370385, 39.254116823630397 ], [ -119.95333593080241, 39.253757501874965 ], [ -119.953256355088342, 39.253989636680934 ], [ -119.953292274614412, 39.254765299797867 ], [ -119.953101637925371, 39.254886425470175 ], [ -119.953120107506152, 39.254995009934838 ], [ -119.95332375722252, 39.25510844341354 ], [ -119.953314402022613, 39.255324400076844 ], [ -119.953261090282368, 39.255485155325054 ], [ -119.953029613952609, 39.255479093835604 ], [ -119.952809589221246, 39.255743583786654 ], [ -119.952746138983713, 39.256138291631366 ], [ -119.952878788121808, 39.256285899994545 ], [ -119.952854615777881, 39.256843787676942 ], [ -119.953008855055927, 39.257027994915376 ], [ -119.95289383997229, 39.257085545365975 ], [ -119.952933172643725, 39.257170147317822 ], [ -119.952937071399077, 39.257080165436541 ], [ -119.953640871150014, 39.256882393034395 ], [ -119.953676253561682, 39.257135554609938 ], [ -119.953596674406811, 39.257367689426907 ], [ -119.953906940479655, 39.25783853673444 ], [ -119.953970707547811, 39.25782790198943 ], [ -119.953869538999143, 39.258023438177332 ], [ -119.953885671674868, 39.258186011715644 ], [ -119.953977486318635, 39.258206432215353 ], [ -119.953897906703048, 39.258438567193231 ], [ -119.953994941333917, 39.258873510668934 ], [ -119.953805853336107, 39.258958644259749 ], [ -119.953724952144697, 39.258686274211513 ], [ -119.953805073756484, 39.258976640644875 ], [ -119.953612866734687, 39.25913375943184 ], [ -119.953475533020224, 39.259094129973377 ], [ -119.953346776144159, 39.258856540206885 ], [ -119.953052080634293, 39.258704688855161 ], [ -119.952696518874873, 39.258353057936908 ], [ -119.952991692821087, 39.258169396827057 ], [ -119.952913433690682, 39.258160554130633 ], [ -119.952873375029256, 39.258015370684994 ], [ -119.952993016140269, 39.257928419932377 ], [ -119.953002373192547, 39.257712463430451 ], [ -119.952916017912656, 39.257566067575254 ], [ -119.952917577447622, 39.257530074825944 ], [ -119.95266996463026, 39.257361438785388 ], [ -119.952715186611528, 39.257174938272804 ], [ -119.952700911031584, 39.257182081332459 ], [ -119.952521184595767, 39.257051256527369 ], [ -119.952376305210862, 39.256651092275348 ], [ -119.952134156286306, 39.256356480677837 ], [ -119.952171342787537, 39.256033152444708 ], [ -119.952044935175067, 39.255741572423176 ], [ -119.952186161066535, 39.255691221462335 ], [ -119.952365351634498, 39.255299545570338 ], [ -119.952321396094263, 39.255244343842811 ], [ -119.95211228838005, 39.255256883238154 ], [ -119.952084711221175, 39.25482375768685 ], [ -119.951783795163067, 39.254815874731896 ], [ -119.951431378657858, 39.254392255317299 ], [ -119.951109657822983, 39.254329775146111 ], [ -119.951501327866794, 39.253313080072736 ], [ -119.95187504820187, 39.252710299659931 ], [ -119.952090635491786, 39.252013291752476 ], [ -119.952059159330716, 39.2516701479368 ], [ -119.951903373752202, 39.251521932604923 ], [ -119.95193353871025, 39.251360571554493 ], [ -119.951711435052601, 39.2511385514699 ], [ -119.951836524301214, 39.250925626783683 ], [ -119.951591276218679, 39.250703000171455 ], [ -119.95133744993214, 39.250678333163556 ], [ -119.951338483166623, 39.250119839241115 ], [ -119.951236013824754, 39.249810868700699 ], [ -119.951121845220044, 39.249771843628345 ], [ -119.951140429637562, 39.249628196129663 ], [ -119.951128085282932, 39.249627872677152 ], [ -119.951128865287657, 39.249609876307908 ], [ -119.95114144597018, 39.249620340406807 ], [ -119.95115021519986, 39.249552558726279 ], [ -119.95103550262958, 39.249625446741781 ], [ -119.9507585348356, 39.249600172131764 ], [ -119.950750991141604, 39.249239638314407 ], [ -119.950821987876267, 39.249205465197036 ], [ -119.950733306271886, 39.24911305722015 ], [ -119.950832128747834, 39.248971512441663 ], [ -119.950677131572633, 39.248805299379214 ], [ -119.950713538414007, 39.248499967723383 ], [ -119.950600152322082, 39.248442945861605 ], [ -119.950517712912628, 39.248206566849888 ], [ -119.950545538779252, 39.248099195241707 ], [ -119.951008441912535, 39.248111325738989 ], [ -119.951072417558365, 39.248239119764612 ] ], [ [ -119.953228167861596, 39.258426412954549 ], [ -119.953225817262663, 39.258438986556371 ], [ -119.953724952144697, 39.258686274211513 ], [ -119.953228167861596, 39.258426412954549 ] ], [ [ -119.953884760725046, 39.252703731924825 ], [ -119.953542127172724, 39.25263504864715 ], [ -119.953546288831589, 39.252645967694015 ], [ -119.953179839392064, 39.252546288608883 ], [ -119.953384261885077, 39.252641725351616 ], [ -119.953884760725046, 39.252703731924825 ] ], [ [ -119.954186603870326, 39.252842898921649 ], [ -119.954109247455662, 39.25279454501446 ], [ -119.954095575396039, 39.252804482434435 ], [ -119.954186603870326, 39.252842898921649 ] ], [ [ -119.953300793537267, 39.25799019004026 ], [ -119.953221381712879, 39.258006467322957 ], [ -119.95305544374996, 39.258092205923973 ], [ -119.953300793537267, 39.25799019004026 ] ], [ [ -119.953120990565296, 39.258184006385662 ], [ -119.953143359359245, 39.258202608948338 ], [ -119.953165728165004, 39.258221211507063 ], [ -119.953180640708695, 39.258233613210713 ], [ -119.953255983207356, 39.258277625325114 ], [ -119.95305544374996, 39.258092205923973 ], [ -119.953120990565296, 39.258184006385662 ] ], [ [ -119.953089661215358, 39.258180466446042 ], [ -119.953120366778762, 39.258198403486524 ], [ -119.953120990565296, 39.258184006385662 ], [ -119.953089661215358, 39.258180466446042 ] ], [ [ -119.953126824696952, 39.258202175958388 ], [ -119.953142969495303, 39.258211607136502 ], [ -119.953143359359245, 39.258202608948338 ], [ -119.953126824696952, 39.258202175958388 ] ], [ [ -119.95315911429816, 39.258221038312577 ], [ -119.953165572220485, 39.258224810782409 ], [ -119.953165728165004, 39.258221211507063 ], [ -119.95315911429816, 39.258221038312577 ] ] ], [ [ [ -119.954021750730732, 39.259324632420061 ], [ -119.953611307466304, 39.259169752194467 ], [ -119.953828222553199, 39.258977246705257 ], [ -119.953984027865317, 39.259125460102737 ], [ -119.954021750730732, 39.259324632420061 ] ] ] ] } }
]
}
