{
"type": "FeatureCollection",
"name": "X03388",
"crs": { "type": "name", "properties": { "name": "urn:ogc:def:crs:OGC:1.3:CRS84" } },
"features": [
{ "type": "Feature", "properties": { "part": "direct", "crossing_id": "X03388", "area_ac": 1.8, "n_upstream": null }, "geometry": { "type": "Polygon", "coordinates": [ [ [ -119.956782163062684, 39.252838746010084 ], [ -119.956818334408212, 39.253073910691121 ], [ -119.956951765650473, 39.253203518128089 ], [ -119.956783507629979, 39.253343252095014 ], [ -119.956797310709604, 39.253559814919967 ], [ -119.957081093693574, 39.253963606749011 ], [ -119.957026234446914, 39.254160357043176 ], [ -119.956907383430121, 39.254229315990145 ], [ -119.956770835699231, 39.254171694247937 ], [ -119.956788532183552, 39.254298274805791 ], [ -119.956552386504214, 39.254400199152556 ], [ -119.956467584816494, 39.254217812843315 ], [ -119.95650319220087, 39.253930475187524 ], [ -119.956261812855672, 39.25361787531304 ], [ -119.956300535753968, 39.253258551937932 ], [ -119.956198040634888, 39.252949584878536 ], [ -119.956662535460197, 39.25292570125103 ], [ -119.956782163062684, 39.252838746010084 ] ] ] } },
{ "type": "Feature", "properties": { "part": "upstream", "crossing_id": "X03388", "area_ac": 0.5, "n_upstream": 2.0 }, "geometry": { "type": "MultiPolygon", "coordinates": [ [ [ [ -119.956995300841157, 39.254339716212606 ], [ -119.956968260283503, 39.2544290931029 ], [ -119.956768499630215, 39.254225683596573 ], [ -119.956863424825599, 39.254174115857388 ], [ -119.956995300841157, 39.254339716212606 ] ] ], [ [ [ -119.956962031098868, 39.25457306471796 ], [ -119.956671802517562, 39.254853742985887 ], [ -119.956654884903159, 39.254709165977417 ], [ -119.956382567110978, 39.254575925257235 ], [ -119.956624943486077, 39.254330029719277 ], [ -119.956812458187486, 39.254280883763151 ], [ -119.956945891565638, 39.254410491273134 ], [ -119.956962031098868, 39.25457306471796 ] ] ], [ [ [ -119.956648655015584, 39.254853137543599 ], [ -119.956671802517562, 39.254853742985887 ], [ -119.956647097536717, 39.254889130434478 ], [ -119.956648655015584, 39.254853137543599 ] ] ] ] } }
]
}
