{
"type": "FeatureCollection",
"name": "X03327",
"crs": { "type": "name", "properties": { "name": "urn:ogc:def:crs:OGC:1.3:CRS84" } },
"features": [
{ "type": "Feature", "properties": { "part": "direct", "crossing_id": "X03327", "area_ac": 0.0 }, "geometry": { "type": "MultiPolygon", "coordinates": [ [ [ [ -119.956566667228671, 39.257283262553905 ], [ -119.956589036706546, 39.257301864480588 ], [ -119.956565888401343, 39.257301258990459 ], [ -119.956566667228671, 39.257283262553905 ] ] ], [ [ [ -119.956738829493617, 39.257053547168908 ], [ -119.956710229772085, 39.257178916788703 ], [ -119.956589815528005, 39.257283868043636 ], [ -119.956619194327288, 39.25714050202761 ], [ -119.956738829493617, 39.257053547168908 ] ] ] ] } }
]
}
