{
"type": "FeatureCollection",
"name": "X03468",
"crs": { "type": "name", "properties": { "name": "urn:ogc:def:crs:OGC:1.3:CRS84" } },
"features": [
{ "type": "Feature", "properties": { "part": "direct", "crossing_id": "X03468", "area_ac": 22.7 }, "geometry": { "type": "Polygon", "coordinates": [ [ [ -120.034712520552048, 38.82765455530312 ], [ -120.034959654348185, 38.827804977806785 ], [ -120.035375332775814, 38.827779500404382 ], [ -120.035603193726757, 38.827839341824173 ], [ -120.035621721373133, 38.827947920642707 ], [ -120.036070722273081, 38.828229593835466 ], [ -120.036017231395931, 38.82840841595587 ], [ -120.036246588856557, 38.828432258058669 ], [ -120.036505535707605, 38.828853247990487 ], [ -120.036934522299902, 38.829062337600185 ], [ -120.036922573394861, 38.829350322999382 ], [ -120.036478646742538, 38.829501214885838 ], [ -120.035429559475119, 38.830357457593401 ], [ -120.034941843466953, 38.830453177133002 ], [ -120.034655994244133, 38.830680149658157 ], [ -120.034358183177375, 38.831195106042642 ], [ -120.034291391846935, 38.83113935484657 ], [ -120.033645580852976, 38.831158979547723 ], [ -120.033295925166243, 38.83125820076944 ], [ -120.032677612055622, 38.831170410856139 ], [ -120.032203352346457, 38.830942136433798 ], [ -120.032027491909531, 38.830739466397659 ], [ -120.032285850222536, 38.830619909616523 ], [ -120.032584994222546, 38.830627515375866 ], [ -120.032887474430069, 38.829446015196218 ], [ -120.033114760599233, 38.828965305926943 ], [ -120.033404345666284, 38.828648341886371 ], [ -120.034138600022445, 38.828162496597656 ], [ -120.034152802046137, 38.827820514727108 ], [ -120.034528439224815, 38.827649878578043 ], [ -120.034712520552048, 38.82765455530312 ] ] ] } }
]
}
