{
"type": "FeatureCollection",
"name": "X03411",
"crs": { "type": "name", "properties": { "name": "urn:ogc:def:crs:OGC:1.3:CRS84" } },
"features": [
{ "type": "Feature", "properties": { "part": "direct", "crossing_id": "X03411", "area_ac": 2.1, "n_upstream": null }, "geometry": { "type": "Polygon", "coordinates": [ [ [ -119.951795874539201, 39.247050947537041 ], [ -119.951931624628642, 39.247126570869575 ], [ -119.952232262988787, 39.24767495022234 ], [ -119.952093392721707, 39.247671312758854 ], [ -119.95199535444678, 39.247794862418772 ], [ -119.951032367063874, 39.248093935843343 ], [ -119.95103860693736, 39.247949964862578 ], [ -119.950839661327748, 39.247728550001071 ], [ -119.951046660759232, 39.247229503435072 ], [ -119.951329078623857, 39.247128802344207 ], [ -119.951512677751367, 39.247169646184723 ], [ -119.951795874539201, 39.247050947537041 ] ] ] } },
{ "type": "Feature", "properties": { "part": "upstream", "crossing_id": "X03411", "area_ac": 34.8, "n_upstream": 17.0 }, "geometry": { "type": "MultiPolygon", "coordinates": [ [ [ [ -119.952777369313836, 39.248463949822941 ], [ -119.952608335745865, 39.248621674363605 ], [ -119.952281961644232, 39.248667176742508 ], [ -119.952281112790516, 39.24865862022903 ], [ -119.952117604867013, 39.24871692216503 ], [ -119.952038811724947, 39.248931059989658 ], [ -119.952127494896246, 39.249023467031677 ], [ -119.951988621983133, 39.249019829339339 ], [ -119.951980044490071, 39.249217789575532 ], [ -119.952000070952977, 39.24929038141326 ], [ -119.952183676103488, 39.24933122441832 ], [ -119.952128028008588, 39.249545968526277 ], [ -119.952386534375535, 39.24966309249718 ], [ -119.952583924644529, 39.249720060648151 ], [ -119.952662474428138, 39.250046420453558 ], [ -119.952316066688027, 39.25001933092252 ], [ -119.952217245508066, 39.250160876999928 ], [ -119.952478622681568, 39.250546076033679 ], [ -119.952404506466777, 39.250652235684484 ], [ -119.95231192235633, 39.250649810711138 ], [ -119.952528568762631, 39.250997804399134 ], [ -119.952439637541772, 39.251445895396593 ], [ -119.952748872438249, 39.251796313685233 ], [ -119.953005821773601, 39.251748992209961 ], [ -119.95320946222715, 39.251862425566735 ], [ -119.953291914302071, 39.252098803066126 ], [ -119.953197771485534, 39.252474690935045 ], [ -119.953483864074315, 39.252482181979104 ], [ -119.953874239758733, 39.252564469673992 ], [ -119.953913652030479, 39.25270731118691 ], [ -119.953937444872778, 39.252710258809181 ], [ -119.953604816552328, 39.252899735386542 ], [ -119.954030031832971, 39.252712682596147 ], [ -119.954167353665952, 39.252752310959856 ], [ -119.954117729194408, 39.25278838013265 ], [ -119.95467346575272, 39.252837625560652 ], [ -119.954668011420821, 39.252963600489629 ], [ -119.954385573825121, 39.253064308871231 ], [ -119.954256591356952, 39.25336721843744 ], [ -119.954217578840144, 39.253350754249603 ], [ -119.954231885764457, 39.253402605353372 ], [ -119.954113812869267, 39.253453564986941 ], [ -119.954085210388641, 39.253578933901508 ], [ -119.953803548953076, 39.253661644326868 ], [ -119.953777284143499, 39.253733023933862 ], [ -119.953548151962707, 39.253672974503999 ], [ -119.953704725088926, 39.253803191508879 ], [ -119.953741665820885, 39.254020360329719 ], [ -119.953645959230542, 39.25408992183722 ], [ -119.953462340828338, 39.254049080648571 ], [ -119.953297192370385, 39.254116823630397 ], [ -119.95333593080241, 39.253757501874965 ], [ -119.953256355088342, 39.253989636680934 ], [ -119.953292274614412, 39.254765299797867 ], [ -119.953101637925371, 39.254886425470175 ], [ -119.953120107506152, 39.254995009934838 ], [ -119.95332375722252, 39.25510844341354 ], [ -119.953314402022613, 39.255324400076844 ], [ -119.953261090282368, 39.255485155325054 ], [ -119.953029613952609, 39.255479093835604 ], [ -119.952809589221246, 39.255743583786654 ], [ -119.952746138983713, 39.256138291631366 ], [ -119.952878788121808, 39.256285899994545 ], [ -119.952854615777881, 39.256843787676942 ], [ -119.953008855055927, 39.257027994915376 ], [ -119.95289383997229, 39.257085545365975 ], [ -119.952933172643725, 39.257170147317822 ], [ -119.952937071399077, 39.257080165436541 ], [ -119.953640871150014, 39.256882393034395 ], [ -119.953676253561682, 39.257135554609938 ], [ -119.953596674406811, 39.257367689426907 ], [ -119.953906940479655, 39.25783853673444 ], [ -119.953970707547811, 39.25782790198943 ], [ -119.953869538999143, 39.258023438177332 ], [ -119.953885671674868, 39.258186011715644 ], [ -119.953977486318635, 39.258206432215353 ], [ -119.953897906703048, 39.258438567193231 ], [ -119.953994941333917, 39.258873510668934 ], [ -119.953805853336107, 39.258958644259749 ], [ -119.953724952144697, 39.258686274211513 ], [ -119.953805073756484, 39.258976640644875 ], [ -119.953612866734687, 39.25913375943184 ], [ -119.953475533020224, 39.259094129973377 ], [ -119.953346776144159, 39.258856540206885 ], [ -119.953052080634293, 39.258704688855161 ], [ -119.952696518874873, 39.258353057936908 ], [ -119.952991692821087, 39.258169396827057 ], [ -119.952913433690682, 39.258160554130633 ], [ -119.952873375029256, 39.258015370684994 ], [ -119.952993016140269, 39.257928419932377 ], [ -119.953002373192547, 39.257712463430451 ], [ -119.952916017912656, 39.257566067575254 ], [ -119.952917577447622, 39.257530074825944 ], [ -119.95266996463026, 39.257361438785388 ], [ -119.952715186611528, 39.257174938272804 ], [ -119.952700911031584, 39.257182081332459 ], [ -119.952521184595767, 39.257051256527369 ], [ -119.952376305210862, 39.256651092275348 ], [ -119.952134156286306, 39.256356480677837 ], [ -119.952171342787537, 39.256033152444708 ], [ -119.952044935175067, 39.255741572423176 ], [ -119.952186161066535, 39.255691221462335 ], [ -119.952365351634498, 39.255299545570338 ], [ -119.952321396094263, 39.255244343842811 ], [ -119.95211228838005, 39.255256883238154 ], [ -119.952084711221175, 39.25482375768685 ], [ -119.951783795163067, 39.254815874731896 ], [ -119.951431378657858, 39.254392255317299 ], [ -119.951109657822983, 39.254329775146111 ], [ -119.951501327866794, 39.253313080072736 ], [ -119.95187504820187, 39.252710299659931 ], [ -119.952090635491786, 39.252013291752476 ], [ -119.952059159330716, 39.2516701479368 ], [ -119.951903373752202, 39.251521932604923 ], [ -119.95193353871025, 39.251360571554493 ], [ -119.951711435052601, 39.2511385514699 ], [ -119.951836524301214, 39.250925626783683 ], [ -119.951591276218679, 39.250703000171455 ], [ -119.95133744993214, 39.250678333163556 ], [ -119.951338483166623, 39.250119839241115 ], [ -119.951236013824754, 39.249810868700699 ], [ -119.951121845220044, 39.249771843628345 ], [ -119.951140429637562, 39.249628196129663 ], [ -119.951128085282932, 39.249627872677152 ], [ -119.951128865287657, 39.249609876307908 ], [ -119.95114144597018, 39.249620340406807 ], [ -119.95115021519986, 39.249552558726279 ], [ -119.95103550262958, 39.249625446741781 ], [ -119.9507585348356, 39.249600172131764 ], [ -119.950750991141604, 39.249239638314407 ], [ -119.950821987876267, 39.249205465197036 ], [ -119.950733306271886, 39.24911305722015 ], [ -119.950832128747834, 39.248971512441663 ], [ -119.950677131572633, 39.248805299379214 ], [ -119.950713538414007, 39.248499967723383 ], [ -119.950600152322082, 39.248442945861605 ], [ -119.950517712912628, 39.248206566849888 ], [ -119.950545538779252, 39.248099195241707 ], [ -119.951008441912535, 39.248111325738989 ], [ -119.95101270694876, 39.248119845341591 ], [ -119.951009221905764, 39.248093329367073 ], [ -119.951609281837818, 39.247914208479308 ], [ -119.951597209162557, 39.247892533312161 ], [ -119.95199535444678, 39.247794862418772 ], [ -119.952139682807953, 39.24767252526506 ], [ -119.952165290174449, 39.247739719632158 ], [ -119.952232262988787, 39.24767495022234 ], [ -119.95229702021318, 39.247784747260198 ], [ -119.952300138828363, 39.247712761681697 ], [ -119.952604142971111, 39.247648656516809 ], [ -119.952887879541677, 39.248052457050377 ], [ -119.952894654953212, 39.248430987620431 ], [ -119.952777369313836, 39.248463949822941 ] ], [ [ -119.952615352107031, 39.248459706786818 ], [ -119.952604892890378, 39.248440929108952 ], [ -119.952577745614136, 39.248479814741877 ], [ -119.952777369313836, 39.248463949822941 ], [ -119.952615352107031, 39.248459706786818 ] ], [ [ -119.953228167861596, 39.258426412954549 ], [ -119.953225817262663, 39.258438986556371 ], [ -119.953724952144697, 39.258686274211513 ], [ -119.953228167861596, 39.258426412954549 ] ], [ [ -119.952151666279462, 39.248465578976671 ], [ -119.9522658334471, 39.248504602984447 ], [ -119.952474486288935, 39.248488021048431 ], [ -119.952151666279462, 39.248465578976671 ] ], [ [ -119.952112675837185, 39.248058178433851 ], [ -119.952098604521538, 39.24808583600759 ], [ -119.952206533541727, 39.248268831178109 ], [ -119.952112675837185, 39.248058178433851 ] ], [ [ -119.952245272360429, 39.247909509567933 ], [ -119.952216468844583, 39.247854169528544 ], [ -119.952145125969608, 39.247994396673626 ], [ -119.952245272360429, 39.247909509567933 ] ], [ [ -119.95218823014531, 39.247799914582366 ], [ -119.952202100842925, 39.247836311527237 ], [ -119.952009142757746, 39.24801142536765 ], [ -119.952212744134442, 39.247847013256617 ], [ -119.95218823014531, 39.247799914582366 ] ], [ [ -119.951811380640976, 39.248564766082154 ], [ -119.951853896522735, 39.248385711716388 ], [ -119.951851583769098, 39.248381790385857 ], [ -119.951811380640976, 39.248564766082154 ] ], [ [ -119.951770305008395, 39.24875171163756 ], [ -119.951780133947011, 39.24875112218001 ], [ -119.95177164327805, 39.248745620853526 ], [ -119.951770305008395, 39.24875171163756 ] ], [ [ -119.951484892013667, 39.249593180276115 ], [ -119.951498416008278, 39.249637575683948 ], [ -119.95156785303918, 39.249639394866847 ], [ -119.951484892013667, 39.249593180276115 ] ], [ [ -119.951222481518542, 39.249053808194489 ], [ -119.951144080331773, 39.248934808464014 ], [ -119.951221679274056, 39.249308835527849 ], [ -119.951222481518542, 39.249053808194489 ] ], [ [ -119.951048191135854, 39.24838982616685 ], [ -119.951040692456019, 39.248436473384011 ], [ -119.951077882820002, 39.248615733621314 ], [ -119.951048191135854, 39.24838982616685 ] ], [ [ -119.951437558153586, 39.249437796339343 ], [ -119.95145348354346, 39.249490075048676 ], [ -119.951541059085855, 39.249188272667745 ], [ -119.951437558153586, 39.249437796339343 ] ], [ [ -119.953884760725046, 39.252703731924825 ], [ -119.953542127172724, 39.25263504864715 ], [ -119.953546288831589, 39.252645967694015 ], [ -119.953179839392064, 39.252546288608883 ], [ -119.953384261885077, 39.252641725351616 ], [ -119.953884760725046, 39.252703731924825 ] ], [ [ -119.954095575396039, 39.252804482434435 ], [ -119.954186603870326, 39.252842898921649 ], [ -119.954109247455662, 39.25279454501446 ], [ -119.954095575396039, 39.252804482434435 ] ], [ [ -119.95305544374996, 39.258092205923973 ], [ -119.953300793537267, 39.25799019004026 ], [ -119.953221381712879, 39.258006467322957 ], [ -119.95305544374996, 39.258092205923973 ] ], [ [ -119.953120990565296, 39.258184006385662 ], [ -119.953143359359245, 39.258202608948338 ], [ -119.953165728165004, 39.258221211507063 ], [ -119.953180640708695, 39.258233613210713 ], [ -119.953255983207356, 39.258277625325114 ], [ -119.95305544374996, 39.258092205923973 ], [ -119.953120990565296, 39.258184006385662 ] ], [ [ -119.953089661215358, 39.258180466446042 ], [ -119.953120366778762, 39.258198403486524 ], [ -119.953120990565296, 39.258184006385662 ], [ -119.953089661215358, 39.258180466446042 ] ], [ [ -119.953126824696952, 39.258202175958388 ], [ -119.953142969495303, 39.258211607136502 ], [ -119.953143359359245, 39.258202608948338 ], [ -119.953126824696952, 39.258202175958388 ] ], [ [ -119.95315911429816, 39.258221038312577 ], [ -119.953165572220485, 39.258224810782409 ], [ -119.953165728165004, 39.258221211507063 ], [ -119.95315911429816, 39.258221038312577 ] ] ], [ [ [ -119.953611307466304, 39.259169752194467 ], [ -119.953828222553199, 39.258977246705257 ], [ -119.953984027865317, 39.259125460102737 ], [ -119.954021750730732, 39.259324632420061 ], [ -119.953611307466304, 39.259169752194467 ] ] ] ] } }
]
}
