{
"type": "FeatureCollection",
"name": "X03490",
"crs": { "type": "name", "properties": { "name": "urn:ogc:def:crs:OGC:1.3:CRS84" } },
"features": [
{ "type": "Feature", "properties": { "part": "direct", "crossing_id": "X03490", "area_ac": 0.1 }, "geometry": { "type": "Polygon", "coordinates": [ [ [ -120.004778093693673, 38.879556489099329 ], [ -120.004911713964759, 38.879668026226049 ], [ -120.005161978735032, 38.879746521724421 ], [ -120.004863392625154, 38.879720839230082 ], [ -120.004707502332536, 38.879590712504147 ], [ -120.004778093693673, 38.879556489099329 ] ] ] } }
]
}
