{
"type": "FeatureCollection",
"name": "X03454",
"crs": { "type": "name", "properties": { "name": "urn:ogc:def:crs:OGC:1.3:CRS84" } },
"features": [
{ "type": "Feature", "properties": { "part": "direct", "crossing_id": "X03454", "area_ac": 2.0 }, "geometry": { "type": "Polygon", "coordinates": [ [ [ -120.028275909205007, 38.820698059423108 ], [ -120.028640290678254, 38.820797425777521 ], [ -120.028742602881678, 38.821106336781433 ], [ -120.02868984901535, 38.821267156240637 ], [ -120.028384755265165, 38.821403533819371 ], [ -120.028060396492535, 38.821449329914991 ], [ -120.027776062190711, 38.821640288514089 ], [ -120.027641009444267, 38.821564777417912 ], [ -120.027513446685759, 38.8213092765981 ], [ -120.027440888287288, 38.820838960025277 ], [ -120.028275909205007, 38.820698059423108 ] ] ] } }
]
}
