{
"type": "FeatureCollection",
"name": "X03475",
"crs": { "type": "name", "properties": { "name": "urn:ogc:def:crs:OGC:1.3:CRS84" } },
"features": [
{ "type": "Feature", "properties": { "part": "direct", "crossing_id": "X03475", "area_ac": 0.4 }, "geometry": { "type": "Polygon", "coordinates": [ [ [ -120.044063970720501, 38.839909799741996 ], [ -120.044219854110708, 38.840039874031625 ], [ -120.044216127810074, 38.840129869894383 ], [ -120.043788452319589, 38.840443362705557 ], [ -120.043082361623988, 38.840803854515549 ], [ -120.042643593427343, 38.840828773299428 ], [ -120.042716365445955, 38.840740527076242 ], [ -120.04341276605679, 38.840614026584035 ], [ -120.043983002723607, 38.840196037771712 ], [ -120.044063970720501, 38.839909799741996 ] ] ] } }
]
}
