{
"type": "FeatureCollection",
"name": "X03450",
"crs": { "type": "name", "properties": { "name": "urn:ogc:def:crs:OGC:1.3:CRS84" } },
"features": [
{ "type": "Feature", "properties": { "part": "direct", "crossing_id": "X03450", "area_ac": 1.6 }, "geometry": { "type": "Polygon", "coordinates": [ [ [ -120.029266609900532, 38.816813362043227 ], [ -120.029362933127473, 38.81726626457116 ], [ -120.02922339600066, 38.817298749514833 ], [ -120.029149136700397, 38.817422985904443 ], [ -120.028017313862591, 38.817502282914226 ], [ -120.028013774208915, 38.817033723705087 ], [ -120.028591185429335, 38.816994369276209 ], [ -120.028920014500699, 38.8168405768957 ], [ -120.029266609900532, 38.816813362043227 ] ] ] } }
]
}
