{
"type": "FeatureCollection",
"name": "X03470",
"crs": { "type": "name", "properties": { "name": "urn:ogc:def:crs:OGC:1.3:CRS84" } },
"features": [
{ "type": "Feature", "properties": { "part": "direct", "crossing_id": "X03470", "area_ac": 2.0 }, "geometry": { "type": "Polygon", "coordinates": [ [ [ -120.038449164062541, 38.836974663359413 ], [ -120.038444684267333, 38.837082657887755 ], [ -120.038622817817284, 38.837231322114206 ], [ -120.038652419518883, 38.837628469936895 ], [ -120.038083668277068, 38.838010434267211 ], [ -120.037855026191977, 38.837968595503774 ], [ -120.037636093566704, 38.837692768361762 ], [ -120.037475139496024, 38.837130124037948 ], [ -120.037640713477487, 38.837026218510907 ], [ -120.037982925258518, 38.837106976026149 ], [ -120.038449164062541, 38.836974663359413 ] ] ] } }
]
}
