{
"type": "FeatureCollection",
"name": "X03483",
"crs": { "type": "name", "properties": { "name": "urn:ogc:def:crs:OGC:1.3:CRS84" } },
"features": [
{ "type": "Feature", "properties": { "part": "direct", "crossing_id": "X03483", "area_ac": 1.0 }, "geometry": { "type": "Polygon", "coordinates": [ [ [ -120.028848171061156, 38.846802701960037 ], [ -120.029021811006956, 38.847059374218667 ], [ -120.028836181991124, 38.847090684371217 ], [ -120.027969368503463, 38.847987529474985 ], [ -120.027690920730493, 38.848034491901409 ], [ -120.027512035826575, 38.847903809926912 ], [ -120.027586333054515, 38.847779576503044 ], [ -120.027820246081603, 38.847695444167151 ], [ -120.028390628514032, 38.847277537851234 ], [ -120.028848171061156, 38.846802701960037 ] ] ] } }
]
}
