{
"type": "FeatureCollection",
"name": "X03410",
"crs": { "type": "name", "properties": { "name": "urn:ogc:def:crs:OGC:1.3:CRS84" } },
"features": [
{ "type": "Feature", "properties": { "part": "direct", "crossing_id": "X03410", "area_ac": 0.2 }, "geometry": { "type": "Polygon", "coordinates": [ [ [ -119.952777369313836, 39.248463949822941 ], [ -119.952608335745865, 39.248621674363605 ], [ -119.952281961644232, 39.248667176742508 ], [ -119.9522658334471, 39.248504602984447 ], [ -119.952777369313836, 39.248463949822941 ] ] ] } }
]
}
