{
"type": "FeatureCollection",
"name": "X03437",
"crs": { "type": "name", "properties": { "name": "urn:ogc:def:crs:OGC:1.3:CRS84" } },
"features": [
{ "type": "Feature", "properties": { "part": "direct", "crossing_id": "X03437", "area_ac": 77.8 }, "geometry": { "type": "MultiPolygon", "coordinates": [ [ [ [ -119.969594588981394, 38.944214086326923 ], [ -119.969616868510428, 38.944232682842184 ], [ -119.969593822080626, 38.944232083949217 ], [ -119.969594588981394, 38.944214086326923 ] ] ], [ [ [ -119.970167638900307, 38.943760520053146 ], [ -119.970189918451979, 38.943779116460426 ], [ -119.97016687215681, 38.943778517686432 ], [ -119.970167638900307, 38.943760520053146 ] ] ], [ [ [ -119.975342608099069, 38.936003157763906 ], [ -119.975589204451765, 38.936171711417259 ], [ -119.975533934383165, 38.936386489141498 ], [ -119.975787418606288, 38.936393062707708 ], [ -119.975814288199814, 38.936303671526602 ], [ -119.975975596186387, 38.936307854373837 ], [ -119.975972535895082, 38.936379845385297 ], [ -119.976086990976725, 38.936400830759304 ], [ -119.97601097328392, 38.936561017978164 ], [ -119.976237589084519, 38.936656981833018 ], [ -119.976251453047325, 38.93687355239215 ], [ -119.976637849920948, 38.937009693340919 ], [ -119.976631061864595, 38.937712203425498 ], [ -119.976465160677989, 38.937816007898356 ], [ -119.976234715722043, 38.937810033107546 ], [ -119.976231655528863, 38.937882024117627 ], [ -119.976024254917888, 38.937876646403843 ], [ -119.97595053066469, 38.937982840236486 ], [ -119.976033527586267, 38.938201203422878 ], [ -119.976237103855027, 38.938296569914471 ], [ -119.975966105194217, 38.939244475127666 ], [ -119.976145874164857, 38.9393572420475 ], [ -119.976112117463643, 38.939608612943843 ], [ -119.97599612695727, 38.939623622885073 ], [ -119.97596772572922, 38.939749009508034 ], [ -119.975899355574427, 38.939729219008463 ], [ -119.975917809599281, 38.939837803046828 ], [ -119.975754197951616, 38.939887613018385 ], [ -119.975838726522298, 38.940069980869517 ], [ -119.975746545666837, 38.940067590397547 ], [ -119.975764234280248, 38.940194172186395 ], [ -119.97564594697441, 38.940263174945308 ], [ -119.975686680748993, 38.940390354385862 ], [ -119.975591438369889, 38.940459954713084 ], [ -119.97581806563899, 38.940555919800317 ], [ -119.975788133142956, 38.940717301807972 ], [ -119.975669079683698, 38.940804302286182 ], [ -119.975687533526425, 38.940912886340826 ], [ -119.975573071409244, 38.940891900304209 ], [ -119.975566183697353, 38.941053879890703 ], [ -119.975474001591181, 38.941051489153111 ], [ -119.975510908801368, 38.941268657295268 ], [ -119.975248222576852, 38.941478055145751 ], [ -119.975189119226812, 38.941782820950529 ], [ -119.974954068823862, 38.941884829446366 ], [ -119.974927276540868, 38.94251474956166 ], [ -119.974650724743483, 38.942507575392611 ], [ -119.974637709861014, 38.942813536483413 ], [ -119.974426466982948, 38.942898143904145 ], [ -119.974420341818174, 38.943042125556872 ], [ -119.974052369292309, 38.943014560442997 ], [ -119.973999385235047, 38.94317534372815 ], [ -119.973789672195849, 38.943223954523766 ], [ -119.97377895075023, 38.94347592225072 ], [ -119.973686765660034, 38.943473529977545 ], [ -119.973683702272226, 38.943545520748067 ], [ -119.973775887455403, 38.943547913027345 ], [ -119.97374288529916, 38.943781284976041 ], [ -119.973646870492843, 38.943868881114049 ], [ -119.973710648730957, 38.943996659207116 ], [ -119.973499401250038, 38.944081264748583 ], [ -119.973476423655555, 38.944621195351239 ], [ -119.973058520133506, 38.944682418925098 ], [ -119.973075438508204, 38.944826998569255 ], [ -119.973282858803088, 38.944832382324101 ], [ -119.973388900806015, 38.945051345340254 ], [ -119.973106977294648, 38.945170150883101 ], [ -119.973193036388722, 38.945316525134238 ], [ -119.971143452427583, 38.945767800117743 ], [ -119.970936029817551, 38.945762412453114 ], [ -119.970916815902683, 38.945671825602602 ], [ -119.970432063924846, 38.945677250530643 ], [ -119.970357555942542, 38.945801437677972 ], [ -119.970362923182151, 38.94567545426542 ], [ -119.970064080189843, 38.945649672351223 ], [ -119.970120866291936, 38.944858375555377 ], [ -119.970008700333764, 38.944783390993265 ], [ -119.9698466071806, 38.944797196764 ], [ -119.969867311952399, 38.944311260871721 ], [ -119.969617635405399, 38.944214685219492 ], [ -119.969646816918669, 38.944071303120701 ], [ -119.969468581328883, 38.943922530946935 ], [ -119.969728225823943, 38.943785137743255 ], [ -119.969980968237977, 38.94380972259102 ], [ -119.970137691843135, 38.943921899968224 ], [ -119.970301316384749, 38.943872098438838 ], [ -119.970172239346908, 38.943652534252315 ], [ -119.970056241316172, 38.943667537959293 ], [ -119.970060075151494, 38.943577549799947 ], [ -119.969968657035238, 38.943557156953965 ], [ -119.970022417203054, 38.943378378253136 ], [ -119.969865694932636, 38.943266200766914 ], [ -119.969918688300609, 38.943105419738593 ], [ -119.97003315190787, 38.943126411398005 ], [ -119.970106123857008, 38.943038219588949 ], [ -119.970338117790419, 38.94300821187278 ], [ -119.970471747457722, 38.942579262090881 ], [ -119.970797456513395, 38.942515652865502 ], [ -119.970840432327975, 38.942048312627904 ], [ -119.970933381832452, 38.942032709424552 ], [ -119.970824285340171, 38.941885735157257 ], [ -119.970833483601766, 38.941669763352287 ], [ -119.97088494038158, 38.941544977015646 ], [ -119.971048558886707, 38.941495174180702 ], [ -119.971006300081413, 38.941403988754089 ], [ -119.97131125693349, 38.941285786293122 ], [ -119.971153770491156, 38.941191608266053 ], [ -119.971203693500954, 38.941102817060568 ], [ -119.971342732591239, 38.941088410541155 ], [ -119.971328883639615, 38.940871840095717 ], [ -119.971557038519734, 38.940931817960013 ], [ -119.971934959664949, 38.940725420762995 ], [ -119.971984881355183, 38.940636629164828 ], [ -119.971802817576517, 38.940577848992497 ], [ -119.972036335280166, 38.940511842190446 ], [ -119.971947985194191, 38.940419460327597 ], [ -119.972001737553754, 38.940240680337965 ], [ -119.972304389490446, 38.940176468027076 ], [ -119.972314348798108, 38.939942498182077 ], [ -119.972582399415714, 38.939607123213328 ], [ -119.972376526621005, 38.939565743450657 ], [ -119.972403401912572, 38.939476353316472 ], [ -119.972565482598313, 38.9394625434754 ], [ -119.97259695365716, 38.939265167160727 ], [ -119.973155392160336, 38.939153539700023 ], [ -119.973121556328877, 38.938864380284201 ], [ -119.973239077670598, 38.938813377778111 ], [ -119.973243672647541, 38.938705391578594 ], [ -119.973429561975891, 38.9386741808568 ], [ -119.973426355787083, 38.937665113264259 ], [ -119.973523127699679, 38.937559519196689 ], [ -119.973457823348966, 38.937467736537826 ], [ -119.973529253481914, 38.937415537527961 ], [ -119.97349847936573, 38.937054387281485 ], [ -119.973590656128422, 38.937056779374331 ], [ -119.973617528756833, 38.936967388828464 ], [ -119.973526883523661, 38.936929001340907 ], [ -119.973579863057608, 38.93676821797937 ], [ -119.973514559291885, 38.936676435367588 ], [ -119.973586754236052, 38.936606238571258 ], [ -119.973503766487454, 38.936387873963973 ], [ -119.973575961130194, 38.936317677160091 ], [ -119.973487613824503, 38.936225296535156 ], [ -119.973784887981267, 38.936287063611083 ], [ -119.973834803933244, 38.936198270946143 ], [ -119.973947726794094, 38.936255253822537 ], [ -119.974225785150793, 38.936226433247796 ], [ -119.97427493502002, 38.93615563809481 ], [ -119.974502312442254, 38.936233607458036 ], [ -119.974648995560258, 38.936039219272786 ], [ -119.974784197420362, 38.936114796879629 ], [ -119.97496931406377, 38.936101581128895 ], [ -119.975011575338314, 38.936192765266668 ], [ -119.975203579522741, 38.936017569494624 ], [ -119.975342608099069, 38.936003157763906 ] ] ] ] } }
]
}
