{
"type": "FeatureCollection",
"name": "X03419",
"crs": { "type": "name", "properties": { "name": "urn:ogc:def:crs:OGC:1.3:CRS84" } },
"features": [
{ "type": "Feature", "properties": { "part": "direct", "crossing_id": "X03419", "area_ac": 0.9 }, "geometry": { "type": "Polygon", "coordinates": [ [ [ -120.011896187463549, 38.857667116855218 ], [ -120.012235447599124, 38.857819946808689 ], [ -120.012122262810053, 38.858321549834592 ], [ -120.012255914034824, 38.859532170655292 ], [ -120.012343471032125, 38.859642519764783 ], [ -120.012272149517841, 38.859694747363093 ], [ -120.012021191022811, 38.859634267950142 ], [ -120.012143829651578, 38.859457229248328 ], [ -120.011929813491264, 38.858514818875321 ], [ -120.012006761179165, 38.857778055581491 ], [ -120.011709016921699, 38.857734395482971 ], [ -120.011711278690569, 38.857680399723037 ], [ -120.011896187463549, 38.857667116855218 ] ] ] } }
]
}
