{
"type": "FeatureCollection",
"name": "X03478",
"crs": { "type": "name", "properties": { "name": "urn:ogc:def:crs:OGC:1.3:CRS84" } },
"features": [
{ "type": "Feature", "properties": { "part": "direct", "crossing_id": "X03478", "area_ac": 5.0 }, "geometry": { "type": "Polygon", "coordinates": [ [ [ -120.038303762150534, 38.842700706253574 ], [ -120.038437371972677, 38.842812204918566 ], [ -120.038453666024438, 38.84297478057659 ], [ -120.038777985869828, 38.843487514573262 ], [ -120.039473672548553, 38.84337903805973 ], [ -120.039564240839098, 38.843417371525433 ], [ -120.039380736283661, 38.843953257197988 ], [ -120.039049559144033, 38.844161071661631 ], [ -120.038560257864404, 38.8442928007685 ], [ -120.03839242706357, 38.844450704073267 ], [ -120.038187526886915, 38.844391450178826 ], [ -120.037902516035246, 38.844041874437302 ], [ -120.037886970112737, 38.843861299709964 ], [ -120.037661297675925, 38.84374746364908 ], [ -120.037626472092185, 38.843476309438103 ], [ -120.037301413696227, 38.842981571615773 ], [ -120.03744622803589, 38.842823085583426 ], [ -120.037679367090945, 38.842756931372776 ], [ -120.038303762150534, 38.842700706253574 ] ] ] } }
]
}
