{
"type": "FeatureCollection",
"name": "X03477",
"crs": { "type": "name", "properties": { "name": "urn:ogc:def:crs:OGC:1.3:CRS84" } },
"features": [
{ "type": "Feature", "properties": { "part": "direct", "crossing_id": "X03477", "area_ac": 2.3 }, "geometry": { "type": "Polygon", "coordinates": [ [ [ -120.039609777391348, 38.842319427120891 ], [ -120.040806557932385, 38.842349778187241 ], [ -120.041305428145165, 38.842542606517036 ], [ -120.040404854598137, 38.842591844515511 ], [ -120.040260047099608, 38.842750334503123 ], [ -120.040052910817948, 38.842745081295632 ], [ -120.040003894968095, 38.842815910249101 ], [ -120.03944630554254, 38.842927893254384 ], [ -120.038984508654266, 38.842952213867953 ], [ -120.038738062111364, 38.842783798766263 ], [ -120.038770784366903, 38.842550394747654 ], [ -120.038983146349324, 38.842429656647568 ], [ -120.039609777391348, 38.842319427120891 ] ] ] } }
]
}
