{
"type": "FeatureCollection",
"name": "X03535",
"crs": { "type": "name", "properties": { "name": "urn:ogc:def:crs:OGC:1.3:CRS84" } },
"features": [
{ "type": "Feature", "properties": { "part": "direct", "crossing_id": "X03535", "area_ac": 0.2 }, "geometry": { "type": "Polygon", "coordinates": [ [ [ -119.946726477595163, 38.788197379651102 ], [ -119.946769395295362, 38.788270573311245 ], [ -119.946652880258313, 38.788303561777646 ], [ -119.946601509947143, 38.788428342985959 ], [ -119.946439003186796, 38.788460128377828 ], [ -119.946175290970174, 38.788705480098351 ], [ -119.946301797527113, 38.788438521878454 ], [ -119.946540975786007, 38.788228563816219 ], [ -119.946726477595163, 38.788197379651102 ] ] ] } }
]
}
