{
"type": "FeatureCollection",
"name": "X03552",
"crs": { "type": "name", "properties": { "name": "urn:ogc:def:crs:OGC:1.3:CRS84" } },
"features": [
{ "type": "Feature", "properties": { "part": "direct", "crossing_id": "X03552", "area_ac": 4.7 }, "geometry": { "type": "Polygon", "coordinates": [ [ [ -119.973902981284738, 38.796634624625042 ], [ -119.973831699128894, 38.796686830596137 ], [ -119.973942884848455, 38.796779802119808 ], [ -119.973997408016004, 38.797123555392496 ], [ -119.974364018103614, 38.797709630065675 ], [ -119.9744989670248, 38.797785199055014 ], [ -119.974529732257153, 38.798146354265818 ], [ -119.974680065195159, 38.798402500693143 ], [ -119.974375739770778, 38.798520739101576 ], [ -119.97345132817108, 38.799145421332007 ], [ -119.97263961339381, 38.799827072141916 ], [ -119.972887141515073, 38.799419079487713 ], [ -119.973816132678152, 38.798686413243708 ], [ -119.97361889923863, 38.797906531070133 ], [ -119.973414953240024, 38.797829172324498 ], [ -119.973378860068081, 38.797594004002121 ], [ -119.973135774931691, 38.797353469049376 ], [ -119.972997642085957, 38.79680935076717 ], [ -119.973369434974771, 38.79672890079452 ], [ -119.973436146030764, 38.796784683971289 ], [ -119.973555712071999, 38.796679676279027 ], [ -119.973902981284738, 38.796634624625042 ] ] ] } }
]
}
