{
"type": "FeatureCollection",
"name": "X03577",
"crs": { "type": "name", "properties": { "name": "urn:ogc:def:crs:OGC:1.3:CRS84" } },
"features": [
{ "type": "Feature", "properties": { "part": "direct", "crossing_id": "X03577", "area_ac": 0.0 }, "geometry": { "type": "MultiPolygon", "coordinates": [ [ [ [ -120.009465451429747, 38.798523983722944 ], [ -120.009510699084046, 38.798543160798353 ], [ -120.009464698531971, 38.798541982455284 ], [ -120.009465451429747, 38.798523983722944 ] ] ], [ [ [ -120.009443204063402, 38.798505395812981 ], [ -120.009465451429747, 38.798523983722944 ], [ -120.009442451160538, 38.798523394545008 ], [ -120.009443204063402, 38.798505395812981 ] ] ], [ [ [ -120.009420956708567, 38.798486807899131 ], [ -120.009443204063402, 38.798505395812981 ], [ -120.009420203800588, 38.798504806630888 ], [ -120.009420956708567, 38.798486807899131 ] ] ], [ [ [ -120.009353461790027, 38.798449042865478 ], [ -120.009426979948074, 38.798342818042826 ], [ -120.009420956708567, 38.798486807899131 ], [ -120.009353461790027, 38.798449042865478 ] ] ] ] } }
]
}
