{
"type": "FeatureCollection",
"name": "X03511",
"crs": { "type": "name", "properties": { "name": "urn:ogc:def:crs:OGC:1.3:CRS84" } },
"features": [
{ "type": "Feature", "properties": { "part": "direct", "crossing_id": "X03511", "area_ac": 5.5 }, "geometry": { "type": "Polygon", "coordinates": [ [ [ -119.998561768973516, 38.899630700463597 ], [ -119.998922708178242, 38.899820164083245 ], [ -119.999242891281213, 38.899882453949139 ], [ -119.999844307306887, 38.9003844022156 ], [ -120.000278142565506, 38.900485647667111 ], [ -120.000182220915448, 38.900573269830375 ], [ -119.999928100355902, 38.90058475250629 ], [ -119.999638816767543, 38.900883614302032 ], [ -119.999633509826083, 38.901009602081899 ], [ -119.99915995779628, 38.901303723060913 ], [ -119.999022517066436, 38.901282169665151 ], [ -119.998857493233956, 38.901368012984648 ], [ -119.998375313365571, 38.901319571501041 ], [ -119.998311801950507, 38.901732345465774 ], [ -119.99782734431308, 38.901737896310763 ], [ -119.997936924836267, 38.901326308237593 ], [ -119.998055883334615, 38.901239280812355 ], [ -119.99822593880009, 38.900486911402709 ], [ -119.998472194404869, 38.90011487505803 ], [ -119.998534944465348, 38.899720099052985 ], [ -119.998422814858401, 38.899645142968822 ], [ -119.998561768973516, 38.899630700463597 ] ] ] } }
]
}
