{
"type": "FeatureCollection",
"name": "X03502",
"crs": { "type": "name", "properties": { "name": "urn:ogc:def:crs:OGC:1.3:CRS84" } },
"features": [
{ "type": "Feature", "properties": { "part": "direct", "crossing_id": "X03502", "area_ac": 12.8, "n_upstream": null }, "geometry": { "type": "Polygon", "coordinates": [ [ [ -120.003480331391387, 38.891234737214965 ], [ -120.003316093545834, 38.891302589761338 ], [ -120.00283580924723, 38.891758714298732 ], [ -120.002839912382228, 38.892209264335655 ], [ -120.0024102228289, 38.892558580065916 ], [ -120.002152344638219, 38.892660060365429 ], [ -120.002166287798147, 38.892876632030948 ], [ -120.001931438655916, 38.89297870358839 ], [ -120.001804925341091, 38.893245718949984 ], [ -120.00161613578652, 38.893348973566773 ], [ -120.001681440688472, 38.893440740881935 ], [ -120.001487348154683, 38.893669983420878 ], [ -120.001428409347255, 38.893974770701405 ], [ -120.00072611894204, 38.894226983926309 ], [ -120.000220954461653, 38.894177959774211 ], [ -120.000250047719632, 38.894034565700188 ], [ -120.000158682146932, 38.894014198562012 ], [ -120.00005413770856, 38.893759261434084 ], [ -120.000106261784083, 38.893616459629051 ], [ -119.999997928833679, 38.893451513887356 ], [ -120.000010054196608, 38.893163541344585 ], [ -119.99987111297159, 38.89317798610108 ], [ -119.999850356018172, 38.893123398984962 ], [ -119.999827031040425, 38.892582265965899 ], [ -119.999678702679788, 38.892272149189118 ], [ -119.999714616868943, 38.891966770675467 ], [ -119.999854313570225, 38.891934327725018 ], [ -119.999897342592732, 38.892007505372725 ], [ -120.000014009127554, 38.891974469980823 ], [ -120.000401733754899, 38.892074528619183 ], [ -120.000615066923018, 38.89193587139799 ], [ -120.000840823212712, 38.892049782039663 ], [ -120.000891429112201, 38.891942976340431 ], [ -120.001732634029324, 38.891676314178753 ], [ -120.001992780962283, 38.89152083970918 ], [ -120.002270656321699, 38.891491944673938 ], [ -120.002460197060529, 38.89137069040612 ], [ -120.002550802924205, 38.891409053972176 ], [ -120.002764130083833, 38.891270392560159 ], [ -120.003480331391387, 38.891234737214965 ] ] ] } },
{ "type": "Feature", "properties": { "part": "upstream", "crossing_id": "X03502", "area_ac": 0.5, "n_upstream": 1.0 }, "geometry": { "type": "Polygon", "coordinates": [ [ [ -119.999987781470111, 38.893144950817529 ], [ -119.999997928833679, 38.893451513887356 ], [ -120.000106261784083, 38.893616459629051 ], [ -120.00005413770856, 38.893759261434084 ], [ -120.000158682146932, 38.894014198562012 ], [ -120.000250047719632, 38.894034565700188 ], [ -120.000221712265272, 38.894159961489379 ], [ -120.000177923931503, 38.894104782204444 ], [ -119.999855491823823, 38.894096490686572 ], [ -119.999815199389587, 38.893410779207599 ], [ -119.99987111297159, 38.89317798610108 ], [ -119.999987781470111, 38.893144950817529 ] ] ] } }
]
}
