{
"type": "FeatureCollection",
"name": "X03531",
"crs": { "type": "name", "properties": { "name": "urn:ogc:def:crs:OGC:1.3:CRS84" } },
"features": [
{ "type": "Feature", "properties": { "part": "direct", "crossing_id": "X03531", "area_ac": 2.9 }, "geometry": { "type": "Polygon", "coordinates": [ [ [ -119.999567981557377, 38.897638596109026 ], [ -120.000150139518666, 38.898049958573452 ], [ -120.000141044352418, 38.898265937828889 ], [ -120.000362271946557, 38.898487839690084 ], [ -120.000376967526748, 38.898686412938979 ], [ -120.000650324546541, 38.898765512585875 ], [ -120.00085003833135, 38.898950824880465 ], [ -120.000762753795712, 38.899381007098654 ], [ -120.00103762940077, 38.899424109391155 ], [ -120.001033082951267, 38.899532099082485 ], [ -120.001258105575999, 38.899664008050507 ], [ -120.001182188117454, 38.899824216350694 ], [ -120.001067024434917, 38.899821255823397 ], [ -120.000755175684048, 38.899560989872178 ], [ -120.000721235528772, 38.899271833084271 ], [ -120.000142096345741, 38.898788479944059 ], [ -119.99997859572062, 38.898838328629616 ], [ -119.999867981865705, 38.898727377389406 ], [ -119.999003368064294, 38.898452889701865 ], [ -119.999192933325986, 38.898331641825081 ], [ -119.999451305391545, 38.897671630651281 ], [ -119.999567981557377, 38.897638596109026 ] ] ] } }
]
}
