{
"type": "FeatureCollection",
"name": "X03513",
"crs": { "type": "name", "properties": { "name": "urn:ogc:def:crs:OGC:1.3:CRS84" } },
"features": [
{ "type": "Feature", "properties": { "part": "direct", "crossing_id": "X03513", "area_ac": 2.7 }, "geometry": { "type": "Polygon", "coordinates": [ [ [ -119.999114649726309, 38.901284539783582 ], [ -119.998890667888318, 38.901675168205152 ], [ -119.998975976144706, 38.901839522615845 ], [ -119.998920051023674, 38.902072314609228 ], [ -119.998981567959831, 38.902254074693282 ], [ -119.998861850387769, 38.902359101264956 ], [ -119.998925642443353, 38.90248686666289 ], [ -119.998567245637389, 38.902783947491855 ], [ -119.998176432421303, 38.902755873602757 ], [ -119.997897202767732, 38.901721676407938 ], [ -119.998311801950507, 38.901732345465774 ], [ -119.998375313365571, 38.901319571501041 ], [ -119.998857493233956, 38.901368012984648 ], [ -119.999114649726309, 38.901284539783582 ] ] ] } }
]
}
