{
"type": "FeatureCollection",
"name": "X03558",
"crs": { "type": "name", "properties": { "name": "urn:ogc:def:crs:OGC:1.3:CRS84" } },
"features": [
{ "type": "Feature", "properties": { "part": "direct", "crossing_id": "X03558", "area_ac": 1.3, "n_upstream": null }, "geometry": { "type": "Polygon", "coordinates": [ [ [ -119.98191348126204, 38.796679827089385 ], [ -119.982790485588168, 38.796630424495547 ], [ -119.9831999127329, 38.796749112823093 ], [ -119.982581425598894, 38.797219612812555 ], [ -119.982523272776021, 38.79750639655537 ], [ -119.982147478281945, 38.797136324294151 ], [ -119.98191348126204, 38.796679827089385 ] ] ] } },
{ "type": "Feature", "properties": { "part": "upstream", "crossing_id": "X03558", "area_ac": 16.8, "n_upstream": 2.0 }, "geometry": { "type": "Polygon", "coordinates": [ [ [ -119.982147478281945, 38.797136324294151 ], [ -119.982415112968525, 38.797341439571838 ], [ -119.982543993224269, 38.797560985890534 ], [ -119.982380375893712, 38.798709903849961 ], [ -119.98223250055716, 38.798940314371869 ], [ -119.981827826044295, 38.799254175446727 ], [ -119.98048129476031, 38.80060673456385 ], [ -119.980418760510773, 38.801542048376085 ], [ -119.980408357993952, 38.801506364795742 ], [ -119.980371998962639, 38.801558856745707 ], [ -119.980194076669022, 38.801410111157864 ], [ -119.979937079748638, 38.800953015245454 ], [ -119.980094661082575, 38.799948088815547 ], [ -119.980037065803884, 38.79967633024323 ], [ -119.980158148297591, 38.799535319145633 ], [ -119.980192552558435, 38.799265940416156 ], [ -119.980169929799061, 38.798166262482631 ], [ -119.980278459924946, 38.797232138166677 ], [ -119.980123547208962, 38.79708398771561 ], [ -119.98012886886346, 38.796957999951829 ], [ -119.981054915269937, 38.796837807396187 ], [ -119.980987437919381, 38.796800026603414 ], [ -119.981914241039277, 38.79666182880667 ], [ -119.982147478281945, 38.797136324294151 ] ] ] } }
]
}
