{
"type": "FeatureCollection",
"name": "X03551",
"crs": { "type": "name", "properties": { "name": "urn:ogc:def:crs:OGC:1.3:CRS84" } },
"features": [
{ "type": "Feature", "properties": { "part": "direct", "crossing_id": "X03551", "area_ac": 1.8 }, "geometry": { "type": "Polygon", "coordinates": [ [ [ -119.970050847194344, 38.797345515067761 ], [ -119.970234839669828, 38.797350290271943 ], [ -119.970250974158603, 38.79751286993001 ], [ -119.970494049694167, 38.79775341051996 ], [ -119.97060928455393, 38.798837473668783 ], [ -119.970676757875822, 38.798875260310226 ], [ -119.970562641438008, 38.799394817522348 ], [ -119.970420829379378, 38.799481226791009 ], [ -119.970450165908559, 38.8004189176674 ], [ -119.970309760982403, 38.799928791274439 ], [ -119.970354881170451, 38.799407443823476 ], [ -119.970216003998601, 38.798881321186371 ], [ -119.97022580358248, 38.798106806734914 ], [ -119.970057065069525, 38.79774206980867 ], [ -119.970050847194344, 38.797345515067761 ] ] ] } }
]
}
