{
"type": "FeatureCollection",
"name": "X03536",
"crs": { "type": "name", "properties": { "name": "urn:ogc:def:crs:OGC:1.3:CRS84" } },
"features": [
{ "type": "Feature", "properties": { "part": "direct", "crossing_id": "X03536", "area_ac": 27.5, "n_upstream": null }, "geometry": { "type": "Polygon", "coordinates": [ [ [ -119.94681615495665, 38.788253778346274 ], [ -119.94727908871694, 38.788734347175904 ], [ -119.947013073151169, 38.789033694032277 ], [ -119.947005389660958, 38.789213671263667 ], [ -119.946600626373822, 38.78952740655776 ], [ -119.946301617636649, 38.790060120320348 ], [ -119.94617581481593, 38.790849613323957 ], [ -119.945932014207145, 38.791167556350921 ], [ -119.94587449070788, 38.791436318632392 ], [ -119.945679489390358, 38.793845602763852 ], [ -119.945667889784858, 38.794656100260063 ], [ -119.945773652388198, 38.794875080838366 ], [ -119.945743600489521, 38.796117522604554 ], [ -119.94534878737656, 38.796197281642598 ], [ -119.945183186259598, 38.796301055195734 ], [ -119.944861980763932, 38.796274631894185 ], [ -119.944276257356066, 38.796511551090042 ], [ -119.94408481877845, 38.795065116793779 ], [ -119.944074366517214, 38.793154957036641 ], [ -119.944328333710757, 38.791521984958528 ], [ -119.944449469353572, 38.791381013048088 ], [ -119.944565295375554, 38.790825492583991 ], [ -119.944862782501389, 38.790328779353658 ], [ -119.9450314451407, 38.790153014875386 ], [ -119.945383307438604, 38.790000061377725 ], [ -119.94549758583598, 38.789480534881775 ], [ -119.945854824329132, 38.789201595865315 ], [ -119.946008171874993, 38.788845251106288 ], [ -119.946439003186796, 38.788460128377828 ], [ -119.946601509947143, 38.788428342985959 ], [ -119.946652880258313, 38.788303561777646 ], [ -119.94681615495665, 38.788253778346274 ] ] ] } },
{ "type": "Feature", "properties": { "part": "upstream", "crossing_id": "X03536", "area_ac": 0.2, "n_upstream": 1.0 }, "geometry": { "type": "Polygon", "coordinates": [ [ [ -119.946726477595163, 38.788197379651102 ], [ -119.946769395295362, 38.788270573311245 ], [ -119.946652880258313, 38.788303561777646 ], [ -119.946601509947143, 38.788428342985959 ], [ -119.946439003186796, 38.788460128377828 ], [ -119.946175290970174, 38.788705480098351 ], [ -119.946301797527113, 38.788438521878454 ], [ -119.946540975786007, 38.788228563816219 ], [ -119.946726477595163, 38.788197379651102 ] ] ] } }
]
}
