{
"type": "FeatureCollection",
"name": "X03525",
"crs": { "type": "name", "properties": { "name": "urn:ogc:def:crs:OGC:1.3:CRS84" } },
"features": [
{ "type": "Feature", "properties": { "part": "direct", "crossing_id": "X03525", "area_ac": 170.5, "n_upstream": null }, "geometry": { "type": "Polygon", "coordinates": [ [ [ -119.92634443056339, 38.937586828009152 ], [ -119.92674443743077, 38.937939701073752 ], [ -119.927580721944125, 38.938340102743894 ], [ -119.928139713746361, 38.938751211939383 ], [ -119.929764424838851, 38.940127287192247 ], [ -119.930778894980733, 38.940676496866004 ], [ -119.931180494295859, 38.940993362162473 ], [ -119.931726576350172, 38.941169888327352 ], [ -119.932126630152752, 38.94152274462197 ], [ -119.932490688954772, 38.941640426211933 ], [ -119.932689554345941, 38.941843848835298 ], [ -119.933146571503713, 38.94194595603183 ], [ -119.933700192774097, 38.942483019932581 ], [ -119.934548983097756, 38.942595422522828 ], [ -119.934797825832092, 38.94271006823729 ], [ -119.934783863902169, 38.94303401501022 ], [ -119.935005785117184, 38.943238039813586 ], [ -119.93530537492191, 38.9432459136791 ], [ -119.935518987220675, 38.943107387933388 ], [ -119.935797857520356, 38.943060663730236 ], [ -119.936133458169834, 38.943303708352232 ], [ -119.936416980509975, 38.943149000278837 ], [ -119.936720656172014, 38.942526367495567 ], [ -119.937114749387902, 38.942482666772165 ], [ -119.937515816850166, 38.942276990882526 ], [ -119.937746267966205, 38.942283042689972 ], [ -119.938029008011682, 38.94214632746354 ], [ -119.938117889973356, 38.942761254326619 ], [ -119.938540256075612, 38.943132692353259 ], [ -119.939038734623963, 38.943343969772265 ], [ -119.939462658031431, 38.943679410524027 ], [ -119.939691565214233, 38.943721452915433 ], [ -119.940272168329784, 38.94416910715838 ], [ -119.940888211375636, 38.944329409096007 ], [ -119.940952704037855, 38.944439205620824 ], [ -119.941094075791526, 38.944370844279142 ], [ -119.941007133077932, 38.944782964964752 ], [ -119.941096220573939, 38.944857371687462 ], [ -119.941326680815607, 38.944863416760228 ], [ -119.941934219427779, 38.945221682163975 ], [ -119.942097090302227, 38.945189918319883 ], [ -119.94241586746935, 38.945288364408533 ], [ -119.942837497509231, 38.945677785394253 ], [ -119.943091007113352, 38.94568443128427 ], [ -119.943077855100782, 38.945990383232711 ], [ -119.94292951852232, 38.94622072144179 ], [ -119.943109248638621, 38.946333537816876 ], [ -119.943209782335572, 38.946678504816639 ], [ -119.94356924631245, 38.946904136559588 ], [ -119.943628330483563, 38.94713991207081 ], [ -119.943873337135813, 38.947344525457943 ], [ -119.943841008252264, 38.947559887616826 ], [ -119.944056782238846, 38.947907874116616 ], [ -119.944217338342398, 38.947930099085738 ], [ -119.944597538969063, 38.948210323519639 ], [ -119.944659720670742, 38.948374109876895 ], [ -119.945874268026586, 38.948568083616131 ], [ -119.946828346253852, 38.948917382355518 ], [ -119.947526592931155, 38.949314029143473 ], [ -119.9474996821898, 38.949403412007193 ], [ -119.947613375148705, 38.94944242304944 ], [ -119.94765251710038, 38.949605604795103 ], [ -119.947972867409916, 38.949668042237292 ], [ -119.94809351345117, 38.949545077631107 ], [ -119.948271715469829, 38.949693881149258 ], [ -119.948869412391105, 38.949745556699575 ], [ -119.949087534292346, 38.950039543245722 ], [ -119.949384067984084, 38.950119371174679 ], [ -119.949417809123801, 38.950408533348835 ], [ -119.949534593403911, 38.950375553549819 ], [ -119.94973893697049, 38.950452968866557 ], [ -119.949856493258551, 38.950401991469789 ], [ -119.950102301344486, 38.950588595555921 ], [ -119.950285913971186, 38.950611415296557 ], [ -119.950545618043918, 38.950474067436602 ], [ -119.950889023354804, 38.950537099847388 ], [ -119.950915158611849, 38.950465713352848 ], [ -119.951261651116909, 38.950456755500639 ], [ -119.951416814146583, 38.950604951946737 ], [ -119.951432917226001, 38.950767530199329 ], [ -119.951700235874867, 38.950990728287742 ], [ -119.951886936466593, 38.950941556349711 ], [ -119.951992919139144, 38.951160536366572 ], [ -119.951810075966989, 38.951119721935314 ], [ -119.950374797960663, 38.951766857858701 ], [ -119.950300248678218, 38.951891030409918 ], [ -119.950139681250647, 38.951868813400644 ], [ -119.947033142610053, 38.953282968833825 ], [ -119.946856480591336, 38.953098168814385 ], [ -119.946839614955152, 38.952953587598593 ], [ -119.946612992081953, 38.952857566310556 ], [ -119.947034961226521, 38.952165934365887 ], [ -119.946896670147567, 38.952162313572778 ], [ -119.94674228664806, 38.95199611416718 ], [ -119.946236766868267, 38.951946841487924 ], [ -119.946125389973375, 38.95185383736878 ], [ -119.945614459588484, 38.951930542451457 ], [ -119.945437031317539, 38.951763737721897 ], [ -119.945442443814486, 38.95163775735746 ], [ -119.945301060976746, 38.951706123489288 ], [ -119.945140495980056, 38.951683899669646 ], [ -119.944942341189517, 38.951462498865205 ], [ -119.944767388612021, 38.950701182195715 ], [ -119.944520821495573, 38.950532564587846 ], [ -119.943861714695572, 38.950299082719674 ], [ -119.943539044970649, 38.950290625513254 ], [ -119.943496817634411, 38.950199431434598 ], [ -119.943403079055599, 38.950233009228278 ], [ -119.94288071777062, 38.950039141145822 ], [ -119.941099849947662, 38.950136577850209 ], [ -119.94032087430287, 38.950008036221263 ], [ -119.940110347223296, 38.95007458173086 ], [ -119.939749914369614, 38.950407454309818 ], [ -119.939504135509608, 38.950220829496956 ], [ -119.938978686895311, 38.950098932731244 ], [ -119.938802828847955, 38.949896124484596 ], [ -119.938807477890208, 38.949788141950279 ], [ -119.938624647136848, 38.949747307266101 ], [ -119.938537881268743, 38.949618907309258 ], [ -119.938243688556241, 38.949485061103296 ], [ -119.937934200032331, 38.949170638223535 ], [ -119.937897405929789, 38.948953462880766 ], [ -119.937653962275604, 38.948712843299298 ], [ -119.936710016044415, 38.948129509590458 ], [ -119.936722421121374, 38.947841556636824 ], [ -119.935888299011367, 38.947387223413216 ], [ -119.935853062794152, 38.947134053561157 ], [ -119.935973724390536, 38.947011102129089 ], [ -119.936048509392975, 38.946346422329462 ], [ -119.935740594741844, 38.945996000316725 ], [ -119.935224492081844, 38.945658123526343 ], [ -119.935095523104778, 38.94543852476945 ], [ -119.935098625726013, 38.945366536608326 ], [ -119.935260723749323, 38.945352779499267 ], [ -119.935428250705911, 38.945213042838695 ], [ -119.935433679653286, 38.945087063511835 ], [ -119.935295403828121, 38.94508342952409 ], [ -119.935071149388364, 38.944933396186237 ], [ -119.934886782087631, 38.944928550276231 ], [ -119.934868390372785, 38.944819962288896 ], [ -119.934710947949739, 38.944725736685143 ], [ -119.934658101063619, 38.944345981553695 ], [ -119.93446985642916, 38.944431120216684 ], [ -119.93421945673191, 38.944352467666882 ], [ -119.934215577482391, 38.944442452809675 ], [ -119.93407652718038, 38.944456814455151 ], [ -119.93375621479656, 38.944394340197121 ], [ -119.933563547643331, 38.944046942913019 ], [ -119.933643548199584, 38.943796802629222 ], [ -119.933536080665291, 38.943613802442556 ], [ -119.932287456857452, 38.942608020972166 ], [ -119.931960413211343, 38.942166998944131 ], [ -119.931359165415046, 38.941664708548238 ], [ -119.929597676837659, 38.94024901888536 ], [ -119.929212140159066, 38.940094727985993 ], [ -119.92787612750044, 38.938978494771561 ], [ -119.927199584790742, 38.938618339198364 ], [ -119.926550758350132, 38.938150805765162 ], [ -119.926160573771767, 38.938104486937078 ], [ -119.925845742572477, 38.937916013949206 ], [ -119.925571554856759, 38.937854733505681 ], [ -119.925762124668921, 38.937715618143748 ], [ -119.92634443056339, 38.937586828009152 ] ], [ [ -119.948612550988457, 38.950891953175606 ], [ -119.948582551269268, 38.951053325299526 ], [ -119.948743888603346, 38.951057547111532 ], [ -119.948714661457814, 38.951200922023048 ], [ -119.948575599630345, 38.951215300544021 ], [ -119.948501820350344, 38.951321474603795 ], [ -119.948294385918857, 38.951316046057997 ], [ -119.948268247698081, 38.951387431837652 ], [ -119.948639986319407, 38.951865614027149 ], [ -119.948778277046713, 38.951869232731688 ], [ -119.949298471347021, 38.951576546503787 ], [ -119.949528955111631, 38.951582576249486 ], [ -119.949601188884998, 38.951512396023602 ], [ -119.949806307826691, 38.951571814075912 ], [ -119.949958381686713, 38.951792001494219 ], [ -119.950050575520137, 38.951794412936891 ], [ -119.95007748419431, 38.951705029423181 ], [ -119.950191954347375, 38.951726040866589 ], [ -119.950218862814282, 38.951636657311163 ], [ -119.950067560460965, 38.95139847293526 ], [ -119.94979947364061, 38.951193268528328 ], [ -119.949408425522265, 38.951165021420749 ], [ -119.948933680350777, 38.950936390976921 ], [ -119.948612550988457, 38.950891953175606 ] ] ] } },
{ "type": "Feature", "properties": { "part": "upstream", "crossing_id": "X03525", "area_ac": 2.3, "n_upstream": 1.0 }, "geometry": { "type": "Polygon", "coordinates": [ [ [ -119.94863482674161, 38.950910553548319 ], [ -119.949138797025569, 38.950995810120332 ], [ -119.949408425522265, 38.951165021420749 ], [ -119.94979947364061, 38.951193268528328 ], [ -119.950067560460965, 38.95139847293526 ], [ -119.950218862814282, 38.951636657311163 ], [ -119.950191954347375, 38.951726040866589 ], [ -119.95007748419431, 38.951705029423181 ], [ -119.950050575520137, 38.951794412936891 ], [ -119.949958381686713, 38.951792001494219 ], [ -119.949806307826691, 38.951571814075912 ], [ -119.949601188884998, 38.951512396023602 ], [ -119.949528955111631, 38.951582576249486 ], [ -119.949298471347021, 38.951576546503787 ], [ -119.948778277046713, 38.951869232731688 ], [ -119.948639986319407, 38.951865614027149 ], [ -119.948268247698081, 38.951387431837652 ], [ -119.948294385918857, 38.951316046057997 ], [ -119.948501820350344, 38.951321474603795 ], [ -119.948575599630345, 38.951215300544021 ], [ -119.948714661457814, 38.951200922023048 ], [ -119.948743888603346, 38.951057547111532 ], [ -119.94856027548812, 38.951034724915999 ], [ -119.94863482674161, 38.950910553548319 ] ] ] } }
]
}
