{
"type": "FeatureCollection",
"name": "X03522",
"crs": { "type": "name", "properties": { "name": "urn:ogc:def:crs:OGC:1.3:CRS84" } },
"features": [
{ "type": "Feature", "properties": { "part": "direct", "crossing_id": "X03522", "area_ac": 22.7 }, "geometry": { "type": "Polygon", "coordinates": [ [ [ -119.980266254017295, 38.925986831878049 ], [ -119.98106594464808, 38.926710221779615 ], [ -119.981062890548515, 38.926782213248075 ], [ -119.981356316324295, 38.926933949136796 ], [ -119.981375540145848, 38.927024534844136 ], [ -119.981281085270354, 38.927076143021111 ], [ -119.981367905573208, 38.927204513554862 ], [ -119.981311134556123, 38.927455291013125 ], [ -119.981424813905846, 38.927494268534254 ], [ -119.981397955333051, 38.927583661537859 ], [ -119.981490120510543, 38.927586046908502 ], [ -119.981504000544973, 38.927802617698489 ], [ -119.981732124083535, 38.927862574432154 ], [ -119.981795141282703, 38.928008346284706 ], [ -119.981886543691829, 38.928028729240296 ], [ -119.981879673495683, 38.928190710128789 ], [ -119.982015632532608, 38.928248281268665 ], [ -119.980985140927118, 38.929158527549674 ], [ -119.980999019414611, 38.929375098300561 ], [ -119.980540603342334, 38.929849706809897 ], [ -119.98058057749661, 38.929994882695198 ], [ -119.980276447951468, 38.930095114304137 ], [ -119.980170530428381, 38.930416688994711 ], [ -119.98032724285666, 38.930528852355444 ], [ -119.980187461831193, 38.930561268350971 ], [ -119.980063847972147, 38.930756261373787 ], [ -119.979950928270199, 38.930699284529929 ], [ -119.979760478425717, 38.930838493631747 ], [ -119.979681419655464, 38.931070675267542 ], [ -119.979445647475174, 38.931190692476164 ], [ -119.979296695652451, 38.931439081227374 ], [ -119.979110063268465, 38.93148830001595 ], [ -119.978916552848162, 38.93169949884296 ], [ -119.978874288768125, 38.931608315967829 ], [ -119.979095426410424, 38.931289727140481 ], [ -119.97903011989375, 38.931197947462181 ], [ -119.979086138592606, 38.93096516951374 ], [ -119.978973983581326, 38.9308901939227 ], [ -119.979130576411308, 38.93046182733125 ], [ -119.979062214018384, 38.930442038980154 ], [ -119.979095189762731, 38.930208664124848 ], [ -119.978985328308895, 38.930079695114635 ], [ -119.979126637035762, 38.930011284893354 ], [ -119.979662592446729, 38.929340496367175 ], [ -119.979081079377437, 38.928911030183563 ], [ -119.978845196257424, 38.928490514869026 ], [ -119.978797996333739, 38.926885723963288 ], [ -119.980008986924815, 38.926070258760994 ], [ -119.980266254017295, 38.925986831878049 ] ] ] } }
]
}
