{
"type": "FeatureCollection",
"name": "X03517",
"crs": { "type": "name", "properties": { "name": "urn:ogc:def:crs:OGC:1.3:CRS84" } },
"features": [
{ "type": "Feature", "properties": { "part": "direct", "crossing_id": "X03517", "area_ac": 0.4 }, "geometry": { "type": "Polygon", "coordinates": [ [ [ -120.003936803118108, 38.912723638331229 ], [ -120.003973031375338, 38.912958799509951 ], [ -120.003740388723415, 38.913006877034555 ], [ -120.003490768619514, 38.912910376031391 ], [ -120.003345728835967, 38.913068809625607 ], [ -120.003165977763899, 38.912956085145368 ], [ -120.003195075261473, 38.912812690804166 ], [ -120.003472276533202, 38.912801794539909 ], [ -120.003474548988663, 38.912747799696774 ], [ -120.003678851949644, 38.912825118904422 ], [ -120.003728713042136, 38.912736311002675 ], [ -120.003936803118108, 38.912723638331229 ] ] ] } }
]
}
