{
"type": "FeatureCollection",
"name": "X03572",
"crs": { "type": "name", "properties": { "name": "urn:ogc:def:crs:OGC:1.3:CRS84" } },
"features": [
{ "type": "Feature", "properties": { "part": "direct", "crossing_id": "X03572", "area_ac": 0.5 }, "geometry": { "type": "Polygon", "coordinates": [ [ [ -120.009267605699478, 38.794446842441346 ], [ -120.009352073345468, 38.794629186485459 ], [ -120.009642780352323, 38.794834831252729 ], [ -120.009768731298081, 38.795126345709612 ], [ -120.010035689577464, 38.795349399282344 ], [ -120.010196684422652, 38.795353522333748 ], [ -120.010278144951997, 38.795607860836874 ], [ -120.009981411532678, 38.795546207481777 ], [ -120.009603220393274, 38.795230214558877 ], [ -120.009570019228946, 38.794923057677423 ], [ -120.009236325426315, 38.794644239426759 ], [ -120.009267605699478, 38.794446842441346 ] ] ] } }
]
}
