{
"type": "FeatureCollection",
"name": "X03550",
"crs": { "type": "name", "properties": { "name": "urn:ogc:def:crs:OGC:1.3:CRS84" } },
"features": [
{ "type": "Feature", "properties": { "part": "direct", "crossing_id": "X03550", "area_ac": 257.8 }, "geometry": { "type": "Polygon", "coordinates": [ [ [ -119.969376245336917, 38.797508183247068 ], [ -119.969543453991932, 38.797908917155098 ], [ -119.969588801296069, 38.798468648480899 ], [ -119.969510869030216, 38.799763912444064 ], [ -119.969665764258508, 38.799912076279092 ], [ -119.969757112875257, 38.800473001523834 ], [ -119.970022433359304, 38.800732138417963 ], [ -119.97010299103394, 38.801004497353667 ], [ -119.969837781547426, 38.80128589966133 ], [ -119.969778810634651, 38.801590672756177 ], [ -119.969541176270695, 38.801764682878108 ], [ -119.96923911784954, 38.801828912735893 ], [ -119.969209249340324, 38.801990298094879 ], [ -119.968733210801915, 38.802356313289849 ], [ -119.968759367726165, 38.802825456955119 ], [ -119.968606097099112, 38.803181834251966 ], [ -119.968710518116595, 38.803977331686646 ], [ -119.968304993866226, 38.804309140116374 ], [ -119.96818922414748, 38.804324151331627 ], [ -119.968152480796803, 38.804647518489823 ], [ -119.96788572238475, 38.804964911405968 ], [ -119.967695602085172, 38.805104115882067 ], [ -119.967418820474393, 38.805114943788283 ], [ -119.9673904733489, 38.805240332353122 ], [ -119.967321468738248, 38.805238539701371 ], [ -119.967238717457306, 38.805560711219073 ], [ -119.967071595982176, 38.805700512128624 ], [ -119.96715291037269, 38.805954874666952 ], [ -119.966942839352996, 38.806021488105316 ], [ -119.966796426494696, 38.806215880194507 ], [ -119.966705183006823, 38.806195491464955 ], [ -119.965908603940022, 38.806517129102794 ], [ -119.965287627391447, 38.80704152267262 ], [ -119.964911950949684, 38.807211934073379 ], [ -119.964435090504338, 38.807595927119337 ], [ -119.964431268139521, 38.807685916908426 ], [ -119.964265665225511, 38.807789717421336 ], [ -119.964258784525299, 38.807951699009607 ], [ -119.963949814262747, 38.808177895420613 ], [ -119.963873160738984, 38.808356080089339 ], [ -119.963591013568418, 38.80849288397885 ], [ -119.963442292099302, 38.808741265032381 ], [ -119.963255977087456, 38.808790471762805 ], [ -119.962400343503873, 38.809416851415051 ], [ -119.962277678988471, 38.809593837619914 ], [ -119.961947987925271, 38.809765435788137 ], [ -119.961779315803383, 38.809941224029906 ], [ -119.961741773774492, 38.81028258552027 ], [ -119.961414374160668, 38.810400188279999 ], [ -119.961184343499013, 38.810394200186416 ], [ -119.96078334044536, 38.810617991934834 ], [ -119.960706676136724, 38.8107961740346 ], [ -119.960772623762054, 38.810869962355078 ], [ -119.960702886715737, 38.811426698938341 ], [ -119.960362464904804, 38.811850262397279 ], [ -119.960200674674311, 38.81186406707274 ], [ -119.959936915955268, 38.812109447479919 ], [ -119.95956579535877, 38.81217185275684 ], [ -119.959338057028518, 38.812111867219031 ], [ -119.958612689526035, 38.812381254843622 ], [ -119.957944051585088, 38.812399867058708 ], [ -119.956957195209895, 38.812320091105079 ], [ -119.956546963589545, 38.812219306911409 ], [ -119.956096093039704, 38.811991336981933 ], [ -119.955718069481946, 38.811675176221108 ], [ -119.955468099940134, 38.811596585593811 ], [ -119.955158324021127, 38.81130022087661 ], [ -119.954616218342281, 38.811051847678968 ], [ -119.95386173211773, 38.810383520758442 ], [ -119.95325369907934, 38.81006134976024 ], [ -119.952964639412698, 38.80981957345697 ], [ -119.952881070421896, 38.809619196311054 ], [ -119.952515330911055, 38.80955559516849 ], [ -119.952360453167913, 38.809407409362151 ], [ -119.9524317634624, 38.809355217756277 ], [ -119.952960054687395, 38.809387026780357 ], [ -119.953173983952937, 38.809230450662255 ], [ -119.953358004111792, 38.809235253669399 ], [ -119.953500622858598, 38.809130869114227 ], [ -119.953961439986116, 38.809124876999668 ], [ -119.954080288083546, 38.809037889230332 ], [ -119.954288077446435, 38.809025293181008 ], [ -119.955433602501103, 38.808082214807619 ], [ -119.955882143872287, 38.80782364553712 ], [ -119.956338347108044, 38.807385096171764 ], [ -119.956392782453165, 38.807188319588846 ], [ -119.956560693936297, 38.807030537165737 ], [ -119.956569891131238, 38.806814563224137 ], [ -119.95676080307274, 38.806657380142994 ], [ -119.956767700433232, 38.806495399647197 ], [ -119.957127285496213, 38.806162434954182 ], [ -119.957096607775711, 38.805801278990181 ], [ -119.95674774269736, 38.805341739283612 ], [ -119.956712457895875, 38.804548035525428 ], [ -119.956848153247819, 38.80406509194377 ], [ -119.957541228205201, 38.803470551511573 ], [ -119.957619423342962, 38.803256375586578 ], [ -119.958428252322008, 38.802646828483738 ], [ -119.958482677501266, 38.802450050410087 ], [ -119.9587893409157, 38.802277861628937 ], [ -119.959049971970103, 38.801563937981804 ], [ -119.959877176651375, 38.80106296592399 ], [ -119.960311075882089, 38.800605800979746 ], [ -119.961206542191931, 38.800665149622311 ], [ -119.961997719108169, 38.800469527617537 ], [ -119.96228830471766, 38.800675285688797 ], [ -119.962986714970341, 38.800495260827397 ], [ -119.963327891038745, 38.800594225368847 ], [ -119.963751894620884, 38.800911557395423 ], [ -119.96425636762676, 38.800960712747802 ], [ -119.964687255731761, 38.801116059799121 ], [ -119.964941021637912, 38.801104639790502 ], [ -119.965166438564893, 38.801218607232371 ], [ -119.965764443930993, 38.801234151880507 ], [ -119.965951501338282, 38.801166942222508 ], [ -119.966179211775554, 38.8012269137635 ], [ -119.966694381553594, 38.801024086555934 ], [ -119.966991092840544, 38.801085849382005 ], [ -119.96747867822512, 38.800990409159944 ], [ -119.967810605444342, 38.800764798867277 ], [ -119.967831981380826, 38.800260853849352 ], [ -119.967933141847183, 38.800047266913538 ], [ -119.96843293112758, 38.79966385362529 ], [ -119.968784585566553, 38.798429751814666 ], [ -119.969031366748567, 38.798039766011307 ], [ -119.969139387297773, 38.79766419509334 ], [ -119.96926048688978, 38.797523195992873 ], [ -119.969376245336917, 38.797508183247068 ] ] ] } }
]
}
