{
"type": "FeatureCollection",
"name": "X03524",
"crs": { "type": "name", "properties": { "name": "urn:ogc:def:crs:OGC:1.3:CRS84" } },
"features": [
{ "type": "Feature", "properties": { "part": "direct", "crossing_id": "X03524", "area_ac": 35.3 }, "geometry": { "type": "Polygon", "coordinates": [ [ [ -119.973275883947693, 38.932526196460699 ], [ -119.973311250374167, 38.932779360568446 ], [ -119.973702978104754, 38.932789526158146 ], [ -119.973722193189687, 38.932880112724412 ], [ -119.974160772771341, 38.932873474929494 ], [ -119.974249882520056, 38.932947857224214 ], [ -119.974258382480031, 38.933290412006748 ], [ -119.974464238651322, 38.933331787803468 ], [ -119.974574096266423, 38.933460760887392 ], [ -119.975359855785726, 38.933427089320944 ], [ -119.97542515929014, 38.933518870918746 ], [ -119.975703971565238, 38.933472048600223 ], [ -119.976047322866989, 38.933535004643147 ], [ -119.976188641273396, 38.933466598404934 ], [ -119.97697287131983, 38.933468911481093 ], [ -119.977152627980217, 38.933581676426904 ], [ -119.977250153276998, 38.933458080977111 ], [ -119.977482878202707, 38.933410059845464 ], [ -119.977753279033465, 38.933561208237784 ], [ -119.97792146162837, 38.933403408013717 ], [ -119.977950620666007, 38.933260022763982 ], [ -119.978224844128334, 38.93332118109393 ], [ -119.978221786436706, 38.9333931722919 ], [ -119.978057426852743, 38.933460983995907 ], [ -119.977745739978118, 38.934281716985538 ], [ -119.977462545304789, 38.93551759216939 ], [ -119.977254386618284, 38.935530214691745 ], [ -119.977195298411843, 38.935834982320536 ], [ -119.977033226523389, 38.93584879897324 ], [ -119.97702787296538, 38.93597478337557 ], [ -119.976730596739571, 38.935913024509524 ], [ -119.976795139282075, 38.936022803234195 ], [ -119.976742932465029, 38.936165590620398 ], [ -119.976903475443933, 38.936187769940801 ], [ -119.97691275241371, 38.936512327121754 ], [ -119.976725340190768, 38.936579539224937 ], [ -119.97664549911876, 38.936829715719028 ], [ -119.976251453047325, 38.93687355239215 ], [ -119.97621607500561, 38.936620388832331 ], [ -119.97601097328392, 38.936561017978164 ], [ -119.976086990976725, 38.936400830759304 ], [ -119.975972535895082, 38.936379845385297 ], [ -119.975975596186387, 38.936307854373837 ], [ -119.975814288199814, 38.936303671526602 ], [ -119.975787418606288, 38.936393062707708 ], [ -119.975533934383165, 38.936386489141498 ], [ -119.975589204451765, 38.936171711417259 ], [ -119.975342608099069, 38.936003157763906 ], [ -119.975203579522741, 38.936017569494624 ], [ -119.975011575338314, 38.936192765266668 ], [ -119.97496931406377, 38.936101581128895 ], [ -119.974784197420362, 38.936114796879629 ], [ -119.974648995560258, 38.936039219272786 ], [ -119.974502312442254, 38.936233607458036 ], [ -119.97427493502002, 38.93615563809481 ], [ -119.974225785150793, 38.936226433247796 ], [ -119.973947726794094, 38.936255253822537 ], [ -119.973834803933244, 38.936198270946143 ], [ -119.973738800088498, 38.936285867670165 ], [ -119.973420013494973, 38.936187507021742 ], [ -119.973107354145995, 38.935945163886061 ], [ -119.973073519186343, 38.935656004387802 ], [ -119.972959832187641, 38.935617018429951 ], [ -119.972853803710706, 38.935398055330879 ], [ -119.972534256487137, 38.93531769015469 ], [ -119.972452805123751, 38.935063329548612 ], [ -119.972547276930754, 38.935011729265597 ], [ -119.972654002552915, 38.93467216566463 ], [ -119.972889031428153, 38.934570160881542 ], [ -119.972778409562025, 38.934459183989233 ], [ -119.972908176318953, 38.93412021818537 ], [ -119.972746107917558, 38.934134029001605 ], [ -119.9727990866987, 38.933973245916007 ], [ -119.972718401425979, 38.933700887761368 ], [ -119.972558631557959, 38.933660705238566 ], [ -119.972562460863742, 38.933570716716183 ], [ -119.972424202624296, 38.933567127599943 ], [ -119.972477181617734, 38.933406344659389 ], [ -119.97236349850121, 38.933367358263133 ], [ -119.972292071820632, 38.933419556717546 ], [ -119.972249049583027, 38.933346369460871 ], [ -119.972298199187989, 38.933275575110528 ], [ -119.972435690961618, 38.933297162057016 ], [ -119.97230049693944, 38.933221582006773 ], [ -119.972351178202359, 38.933114792223066 ], [ -119.972284347286006, 38.933059004473336 ], [ -119.97249632831651, 38.932956402044837 ], [ -119.97240875223828, 38.932846023073452 ], [ -119.972573881065159, 38.932760221780669 ], [ -119.972511645367334, 38.932596447922471 ], [ -119.972811200858374, 38.932604223748221 ], [ -119.972897245804361, 38.932750597859759 ], [ -119.973011694007781, 38.932771585996711 ], [ -119.973066968095566, 38.932556809545446 ], [ -119.973275883947693, 38.932526196460699 ] ] ] } }
]
}
