{
"type": "FeatureCollection",
"name": "X03554",
"crs": { "type": "name", "properties": { "name": "urn:ogc:def:crs:OGC:1.3:CRS84" } },
"features": [
{ "type": "Feature", "properties": { "part": "direct", "crossing_id": "X03554", "area_ac": 2.5 }, "geometry": { "type": "Polygon", "coordinates": [ [ [ -119.976310856494578, 38.796318637929161 ], [ -119.977225484794175, 38.796468448685879 ], [ -119.97758814169363, 38.796603963509902 ], [ -119.977695528216259, 38.796786922707604 ], [ -119.977620444208881, 38.796929122153948 ], [ -119.977217284399046, 38.797206970560978 ], [ -119.97693748925245, 38.797289815151622 ], [ -119.976522742876924, 38.797297092487128 ], [ -119.976147143643672, 38.79746754345009 ], [ -119.976321839889764, 38.797147746002267 ], [ -119.976278723394188, 38.796534020532597 ], [ -119.976310856494578, 38.796318637929161 ] ] ] } }
]
}
