{
"type": "FeatureCollection",
"name": "X03523",
"crs": { "type": "name", "properties": { "name": "urn:ogc:def:crs:OGC:1.3:CRS84" } },
"features": [
{ "type": "Feature", "properties": { "part": "direct", "crossing_id": "X03523", "area_ac": 0.1 }, "geometry": { "type": "Polygon", "coordinates": [ [ [ -119.978664727599039, 38.93219746839241 ], [ -119.978587956413463, 38.932375655610443 ], [ -119.978697820398565, 38.932504625063856 ], [ -119.978604884789945, 38.932520235045374 ], [ -119.978400556759027, 38.932442870945259 ], [ -119.978403614166339, 38.932370879723663 ], [ -119.978472742503882, 38.932372670715267 ], [ -119.978549513969583, 38.932194483584396 ], [ -119.978664727599039, 38.93219746839241 ] ] ] } }
]
}
