{
"type": "FeatureCollection",
"name": "X03570",
"crs": { "type": "name", "properties": { "name": "urn:ogc:def:crs:OGC:1.3:CRS84" } },
"features": [
{ "type": "Feature", "properties": { "part": "direct", "crossing_id": "X03570", "area_ac": 1.4, "n_upstream": null }, "geometry": { "type": "Polygon", "coordinates": [ [ [ -120.010106016783183, 38.793116964587732 ], [ -120.010536969391765, 38.79327214454289 ], [ -120.010976952497131, 38.793211337698004 ], [ -120.010800587201658, 38.794125742004105 ], [ -120.01056984589313, 38.794137851971357 ], [ -120.01039187521225, 38.793989150514726 ], [ -120.010396390455867, 38.793881157943787 ], [ -120.010127178383613, 38.793712101595595 ], [ -120.010106016783183, 38.793116964587732 ] ] ] } },
{ "type": "Feature", "properties": { "part": "upstream", "crossing_id": "X03570", "area_ac": 5.9, "n_upstream": 2.0 }, "geometry": { "type": "Polygon", "coordinates": [ [ [ -120.010510020001746, 38.791207308218105 ], [ -120.0105552595425, 38.79118252062112 ], [ -120.010684218406297, 38.791402039045813 ], [ -120.010967069070347, 38.792346218890614 ], [ -120.010976952497131, 38.793211337698004 ], [ -120.010905699539677, 38.793263567562555 ], [ -120.010400482820174, 38.793232613544646 ], [ -120.010357495765533, 38.793159440632664 ], [ -120.010150508714688, 38.793154140061283 ], [ -120.010085276025777, 38.793062379326472 ], [ -120.009741803552998, 38.793017546544604 ], [ -120.009609081516771, 38.792888020891496 ], [ -120.009422835576842, 38.792937304386797 ], [ -120.009066905611277, 38.792639898102493 ], [ -120.009642952781661, 38.792078076976445 ], [ -120.009700239132371, 38.791809273738444 ], [ -120.009936993707456, 38.791653175105843 ], [ -120.010018029070224, 38.791366961864284 ], [ -120.010409543753568, 38.790996159469948 ], [ -120.010402551118176, 38.790980411956404 ], [ -120.010450051743419, 38.790945592194632 ], [ -120.010536023760949, 38.791091937887018 ], [ -120.010510020001746, 38.791207308218105 ] ], [ [ -120.010436026219097, 38.79105579829406 ], [ -120.010461010464539, 38.791234161426878 ], [ -120.010461762915455, 38.791216162655601 ], [ -120.010474474626704, 38.791226784173922 ], [ -120.010504618263496, 38.791210267929941 ], [ -120.010436026219097, 38.79105579829406 ] ] ] } }
]
}
