{
"type": "FeatureCollection",
"name": "X03519",
"crs": { "type": "name", "properties": { "name": "urn:ogc:def:crs:OGC:1.3:CRS84" } },
"features": [
{ "type": "Feature", "properties": { "part": "direct", "crossing_id": "X03519", "area_ac": 3.9 }, "geometry": { "type": "Polygon", "coordinates": [ [ [ -119.990012644389139, 38.92241902520604 ], [ -119.990236192653782, 38.922586953125723 ], [ -119.990208586175612, 38.922694346768665 ], [ -119.98762258777009, 38.924393316487986 ], [ -119.987580316053894, 38.924302136401131 ], [ -119.987723890667155, 38.924179720960147 ], [ -119.987616307025178, 38.923996765765281 ], [ -119.987673052452507, 38.923745984115989 ], [ -119.988002470310917, 38.923592332645349 ], [ -119.987940205191748, 38.92342856571323 ], [ -119.988200500874584, 38.923273128557248 ], [ -119.988203547378887, 38.923201136571876 ], [ -119.988650446004826, 38.922996463801852 ], [ -119.989246240457533, 38.922543385539669 ], [ -119.989548803362709, 38.922479124671682 ], [ -119.989889833582382, 38.922596032487796 ], [ -119.990030356193841, 38.922545605992369 ], [ -119.990012644389139, 38.92241902520604 ] ] ] } }
]
}
