{
"type": "FeatureCollection",
"name": "X03549",
"crs": { "type": "name", "properties": { "name": "urn:ogc:def:crs:OGC:1.3:CRS84" } },
"features": [
{ "type": "Feature", "properties": { "part": "direct", "crossing_id": "X03549", "area_ac": 0.2 }, "geometry": { "type": "Polygon", "coordinates": [ [ [ -119.967139898088035, 38.797035695503077 ], [ -119.967175206932765, 38.797288862973168 ], [ -119.966863239396488, 38.79758706181066 ], [ -119.966975088113827, 38.797121503143828 ], [ -119.967139898088035, 38.797035695503077 ] ] ] } }
]
}
