{
"type": "FeatureCollection",
"name": "X03539",
"crs": { "type": "name", "properties": { "name": "urn:ogc:def:crs:OGC:1.3:CRS84" } },
"features": [
{ "type": "Feature", "properties": { "part": "direct", "crossing_id": "X03539", "area_ac": 8.1 }, "geometry": { "type": "MultiPolygon", "coordinates": [ [ [ [ -119.952021504745886, 38.791975339090676 ], [ -119.952043734530662, 38.791993937284943 ], [ -119.952020737578735, 38.791993336889092 ], [ -119.952021504745886, 38.791975339090676 ] ] ], [ [ [ -119.95199927497265, 38.791956740892616 ], [ -119.952021504745886, 38.791975339090676 ], [ -119.951998507800425, 38.791974738690698 ], [ -119.95199927497265, 38.791956740892616 ] ] ], [ [ [ -119.951571540576509, 38.791729358946803 ], [ -119.952023039078156, 38.791939343493631 ], [ -119.950598707437948, 38.792947182411503 ], [ -119.949735490057137, 38.793753451417963 ], [ -119.949093823872005, 38.794223165334259 ], [ -119.948741947381038, 38.794376129408214 ], [ -119.946552379166036, 38.796048590407992 ], [ -119.94641592772922, 38.79600898578208 ], [ -119.946014196699664, 38.796250726314426 ], [ -119.945229951632527, 38.796284261114678 ], [ -119.94534878737656, 38.796197281642598 ], [ -119.945696066463796, 38.796152314580638 ], [ -119.946027266110349, 38.795944765669184 ], [ -119.946034185129776, 38.795782786495984 ], [ -119.947270812498147, 38.79486018638007 ], [ -119.948042848793293, 38.794033534891383 ], [ -119.948320355412875, 38.794004753594386 ], [ -119.948884584204421, 38.793731216112384 ], [ -119.949022568873445, 38.793734822257811 ], [ -119.950542764323927, 38.792639418212886 ], [ -119.951143784361278, 38.792042509633816 ], [ -119.951571540576509, 38.791729358946803 ] ] ] ] } }
]
}
