{
"type": "FeatureCollection",
"name": "X03507",
"crs": { "type": "name", "properties": { "name": "urn:ogc:def:crs:OGC:1.3:CRS84" } },
"features": [
{ "type": "Feature", "properties": { "part": "direct", "crossing_id": "X03507", "area_ac": 137.4, "n_upstream": null }, "geometry": { "type": "Polygon", "coordinates": [ [ [ -120.006659357415458, 38.889100158252894 ], [ -120.007375133998039, 38.88962301971349 ], [ -120.007321515946387, 38.88980182237524 ], [ -120.007593336605339, 38.889916901638536 ], [ -120.007984841153828, 38.889926942948158 ], [ -120.008151338774226, 38.889805088222701 ], [ -120.008383146552077, 38.889774997053735 ], [ -120.008448457440636, 38.889866760841514 ], [ -120.008770117432022, 38.889893026319506 ], [ -120.008882243881189, 38.889967972382685 ], [ -120.008787858431688, 38.89001960586215 ], [ -120.008828629253571, 38.890146775867571 ], [ -120.009153312475277, 38.890101046573136 ], [ -120.009496492978428, 38.890163897390735 ], [ -120.009590878149112, 38.890112263325896 ], [ -120.009952557536479, 38.890283693860084 ], [ -120.01035086121469, 38.890131741163735 ], [ -120.01045694886794, 38.890350673508564 ], [ -120.010661952561932, 38.890409980031464 ], [ -120.010787296308564, 38.890719494571307 ], [ -120.011528415147097, 38.891188926904789 ], [ -120.011779482606201, 38.891249411465616 ], [ -120.011679813499725, 38.891427036672894 ], [ -120.011538612532846, 38.891495491007973 ], [ -120.011549564801868, 38.891784056620992 ], [ -120.011451404118986, 38.891925684612112 ], [ -120.011285661602685, 38.892029545565997 ], [ -120.011124448584681, 38.892025415438383 ], [ -120.01120373570312, 38.892333749562532 ], [ -120.011401196351557, 38.892573039747006 ], [ -120.01158393147827, 38.892613756447304 ], [ -120.011580911897212, 38.892685750353969 ], [ -120.01097380962149, 38.892868393187854 ], [ -120.010524898935003, 38.893127157828779 ], [ -120.010144322299297, 38.893405689807082 ], [ -120.009803006206553, 38.893847387048076 ], [ -120.009663309458361, 38.893879841942287 ], [ -120.009446964885854, 38.894090509896714 ], [ -120.009415623517924, 38.894287902303212 ], [ -120.009654612768074, 38.894636366776886 ], [ -120.009459030559796, 38.894901620304708 ], [ -120.009528491492574, 38.895443934923101 ], [ -120.009107124249084, 38.895595292973454 ], [ -120.008864718286858, 38.895877362735241 ], [ -120.008725772844272, 38.895891817901678 ], [ -120.008739736049549, 38.896108389491317 ], [ -120.008409734449984, 38.896280105396279 ], [ -120.008424452486977, 38.896478678563547 ], [ -120.007990982306254, 38.89691800674504 ], [ -120.007540522957171, 38.897212755100917 ], [ -120.007560530850597, 38.897285339490679 ], [ -120.00741931426171, 38.897353788161951 ], [ -120.007073833262197, 38.897344925165122 ], [ -120.006931103725748, 38.897449369993829 ], [ -120.005967956067408, 38.896776014481219 ], [ -120.005664759513195, 38.896858321482163 ], [ -120.005321551233649, 38.896795458306052 ], [ -120.005110481431288, 38.896880128756386 ], [ -120.005066687652587, 38.896824951114304 ], [ -120.004191477791593, 38.896802478827546 ], [ -120.004011764710526, 38.896689756949016 ], [ -120.002859419082, 38.896678174792228 ], [ -120.002543032817442, 38.896525903696556 ], [ -120.001966483065473, 38.896529105990901 ], [ -120.001832080235502, 38.896435563002662 ], [ -120.001465088906187, 38.896390095059218 ], [ -120.001048246623171, 38.896433433294959 ], [ -120.00098218239448, 38.896359663880126 ], [ -120.000637466005472, 38.896332783741606 ], [ -120.000585340638281, 38.896475585690204 ], [ -120.000126981562687, 38.89640974656826 ], [ -120.000062434146841, 38.896299980118521 ], [ -119.999902729012859, 38.896259837569744 ], [ -119.999969255967983, 38.895775068743148 ], [ -119.999877130354847, 38.89577269957919 ], [ -119.9999745613258, 38.895649080811353 ], [ -119.999972456673234, 38.894603996152995 ], [ -120.000089127511075, 38.894570960865579 ], [ -120.000174134858895, 38.894194773625266 ], [ -120.00072611894204, 38.894226983926309 ], [ -120.001428409347255, 38.893974770701405 ], [ -120.001487348154683, 38.893669983420878 ], [ -120.001681440688472, 38.893440740881935 ], [ -120.00161613578652, 38.893348973566773 ], [ -120.001804925341091, 38.893245718949984 ], [ -120.001931438655916, 38.89297870358839 ], [ -120.002166287798147, 38.892876632030948 ], [ -120.002152344638219, 38.892660060365429 ], [ -120.0024102228289, 38.892558580065916 ], [ -120.002839912382228, 38.892209264335655 ], [ -120.00283580924723, 38.891758714298732 ], [ -120.003029134951987, 38.891547467411364 ], [ -120.003480331391387, 38.891234737214965 ], [ -120.003651380634608, 38.891004899266186 ], [ -120.003910007540114, 38.890885416948564 ], [ -120.004022886823847, 38.890942369177417 ], [ -120.004255456246497, 38.890894288076609 ], [ -120.004306812867313, 38.890769482279197 ], [ -120.004518621570526, 38.890666814162934 ], [ -120.004643606518442, 38.890435791909724 ], [ -120.005376439956976, 38.890004160241205 ], [ -120.005503689933064, 38.889719141732968 ], [ -120.00569397689064, 38.889579883383497 ], [ -120.005832154051234, 38.889583429746693 ], [ -120.006231973915789, 38.889395494507923 ], [ -120.006659357415458, 38.889100158252894 ] ] ] } },
{ "type": "Feature", "properties": { "part": "upstream", "crossing_id": "X03507", "area_ac": 0.3, "n_upstream": 1.0 }, "geometry": { "type": "Polygon", "coordinates": [ [ [ -119.999968203855204, 38.895252526445091 ], [ -119.9999745613258, 38.895649080811353 ], [ -119.999877130354847, 38.89577269957919 ], [ -119.999785004752596, 38.895770330342664 ], [ -119.999635912849442, 38.895478211674487 ], [ -119.999968203855204, 38.895252526445091 ] ] ] } }
]
}
