{
"type": "FeatureCollection",
"name": "X03565",
"crs": { "type": "name", "properties": { "name": "urn:ogc:def:crs:OGC:1.3:CRS84" } },
"features": [
{ "type": "Feature", "properties": { "part": "direct", "crossing_id": "X03565", "area_ac": 0.0 }, "geometry": { "type": "MultiPolygon", "coordinates": [ [ [ [ -119.990699882504188, 38.795248990995603 ], [ -119.990722123802172, 38.79526758225407 ], [ -119.99069912497481, 38.795266989428384 ], [ -119.990699882504188, 38.795248990995603 ] ] ], [ [ [ -119.99069912497481, 38.795266989428384 ], [ -119.990695337317845, 38.795356981591148 ], [ -119.990578827921837, 38.795390014246259 ], [ -119.990605614565297, 38.79530061494274 ], [ -119.99069912497481, 38.795266989428384 ] ] ], [ [ [ -119.990723638848678, 38.795231585387725 ], [ -119.99074588014804, 38.795250176641702 ], [ -119.990722881325766, 38.795249583820919 ], [ -119.990723638848678, 38.795231585387725 ] ] ], [ [ [ -119.990747395181643, 38.795214179774511 ], [ -119.990769636482355, 38.795232771024025 ], [ -119.990746637665168, 38.795232178208146 ], [ -119.990747395181643, 38.795214179774511 ] ] ] ] } }
]
}
