{
"type": "FeatureCollection",
"name": "X03571",
"crs": { "type": "name", "properties": { "name": "urn:ogc:def:crs:OGC:1.3:CRS84" } },
"features": [
{ "type": "Feature", "properties": { "part": "direct", "crossing_id": "X03571", "area_ac": 4.0, "n_upstream": null }, "geometry": { "type": "Polygon", "coordinates": [ [ [ -120.009609081516771, 38.792888020891496 ], [ -120.009741803552998, 38.793017546544604 ], [ -120.010085276025777, 38.793062379326472 ], [ -120.010106437466476, 38.793657516335429 ], [ -120.010396390455867, 38.793881157943787 ], [ -120.01039187521225, 38.793989150514726 ], [ -120.01056984589313, 38.794137851971357 ], [ -120.010824338523477, 38.794108332090595 ], [ -120.010666780771018, 38.794572766791866 ], [ -120.010423244603388, 38.794890855354268 ], [ -120.010194758648751, 38.794848968206345 ], [ -120.010108783324469, 38.794702622192261 ], [ -120.009791312891849, 38.794586383243249 ], [ -120.009595613169665, 38.794311100300753 ], [ -120.009206890201312, 38.794247088781823 ], [ -120.009140904989763, 38.794173326283271 ], [ -120.009314694930993, 38.793871471820346 ], [ -120.009445834050396, 38.792937893497715 ], [ -120.009609081516771, 38.792888020891496 ] ] ] } },
{ "type": "Feature", "properties": { "part": "upstream", "crossing_id": "X03571", "area_ac": 7.4, "n_upstream": 3.0 }, "geometry": { "type": "Polygon", "coordinates": [ [ [ -120.0105552595425, 38.79118252062112 ], [ -120.010684218406297, 38.791402039045813 ], [ -120.010967069070347, 38.792346218890614 ], [ -120.010976952497131, 38.793211337698004 ], [ -120.010800587201658, 38.794125742004105 ], [ -120.01056984589313, 38.794137851971357 ], [ -120.01039187521225, 38.793989150514726 ], [ -120.010396390455867, 38.793881157943787 ], [ -120.010127178383613, 38.793712101595595 ], [ -120.010106016783183, 38.793116964587732 ], [ -120.010130295751452, 38.793125707160847 ], [ -120.010085276025777, 38.793062379326472 ], [ -120.009741803552998, 38.793017546544604 ], [ -120.009609081516771, 38.792888020891496 ], [ -120.009422835576842, 38.792937304386797 ], [ -120.009066905611277, 38.792639898102493 ], [ -120.009642952781661, 38.792078076976445 ], [ -120.009700239132371, 38.791809273738444 ], [ -120.009936993707456, 38.791653175105843 ], [ -120.010018029070224, 38.791366961864284 ], [ -120.010409543753568, 38.790996159469948 ], [ -120.010402551118176, 38.790980411956404 ], [ -120.010450051743419, 38.790945592194632 ], [ -120.010536023760949, 38.791091937887018 ], [ -120.010510020001746, 38.791207308218105 ], [ -120.0105552595425, 38.79118252062112 ] ], [ [ -120.010432662211912, 38.793234585202867 ], [ -120.010536969391765, 38.79327214454289 ], [ -120.01069322514779, 38.793250549782108 ], [ -120.010432662211912, 38.793234585202867 ] ], [ [ -120.010357495765533, 38.793159440632664 ], [ -120.010213754752257, 38.793155759719156 ], [ -120.010393318305191, 38.79322041806018 ], [ -120.010357495765533, 38.793159440632664 ] ], [ [ -120.010461010464539, 38.791234161426878 ], [ -120.010461762915455, 38.791216162655601 ], [ -120.010474474626704, 38.791226784173922 ], [ -120.010504618263496, 38.791210267929941 ], [ -120.010436026219097, 38.79105579829406 ], [ -120.010461010464539, 38.791234161426878 ] ] ] } }
]
}
