{
"type": "FeatureCollection",
"name": "X03559",
"crs": { "type": "name", "properties": { "name": "urn:ogc:def:crs:OGC:1.3:CRS84" } },
"features": [
{ "type": "Feature", "properties": { "part": "direct", "crossing_id": "X03559", "area_ac": 197.8, "n_upstream": null }, "geometry": { "type": "MultiPolygon", "coordinates": [ [ [ [ -119.9831999127329, 38.796749112823093 ], [ -119.983679857572454, 38.79683358585428 ], [ -119.984003364696619, 38.796805907990759 ], [ -119.983987862080724, 38.798264959827996 ], [ -119.984181951648793, 38.798576278686241 ], [ -119.98627109151586, 38.800359950404648 ], [ -119.986400747495495, 38.800561494711879 ], [ -119.986391642397749, 38.800777474849127 ], [ -119.986545058711002, 38.800961614428545 ], [ -119.988814544712767, 38.802839986728678 ], [ -119.989122157328282, 38.803190261697857 ], [ -119.989374414036888, 38.803214785445633 ], [ -119.989438111660732, 38.803342553706059 ], [ -119.989419159817487, 38.803792513357905 ], [ -119.989505859553958, 38.803920874782371 ], [ -119.989430790135529, 38.80406308232083 ], [ -119.989388336223882, 38.805070991750675 ], [ -119.98945506775452, 38.805126766509261 ], [ -119.989072630366707, 38.805459243875511 ], [ -119.989075918780742, 38.805927794871273 ], [ -119.988748074042093, 38.806604019737904 ], [ -119.988723300883805, 38.807738510003524 ], [ -119.988811520353778, 38.807830875286314 ], [ -119.988736444963962, 38.807973082076408 ], [ -119.988870670526353, 38.80806663407008 ], [ -119.988659094087282, 38.808169283880865 ], [ -119.988596403186918, 38.808564060950857 ], [ -119.988254639246207, 38.809023709861691 ], [ -119.988290785018421, 38.809258875373772 ], [ -119.987853967350446, 38.809788142242425 ], [ -119.987771301138054, 38.810110331604406 ], [ -119.987929291399027, 38.810186480014679 ], [ -119.987553130049349, 38.810915507732361 ], [ -119.987434317225876, 38.811002531091454 ], [ -119.987605449265217, 38.811313251973282 ], [ -119.987849388239098, 38.811535761789685 ], [ -119.987931541548832, 38.811772114513666 ], [ -119.988156272012191, 38.811904038500032 ], [ -119.988173207203545, 38.812048618753842 ], [ -119.988438637515799, 38.812307717707299 ], [ -119.988061465607103, 38.812514201313938 ], [ -119.987717159684507, 38.812487298962765 ], [ -119.986871836943919, 38.811780801521827 ], [ -119.986638001431615, 38.811864854944382 ], [ -119.986439314298636, 38.811661528783112 ], [ -119.986230760061545, 38.811692180332408 ], [ -119.986204719627153, 38.811763579642694 ], [ -119.985929430424903, 38.81173845393274 ], [ -119.985762328542236, 38.811878282380114 ], [ -119.98546251648294, 38.811888558136296 ], [ -119.985293894672282, 38.812064382443872 ], [ -119.98492734782252, 38.812018879588209 ], [ -119.984478117419968, 38.812295561827789 ], [ -119.984179822896721, 38.812269837660686 ], [ -119.984182861411398, 38.812197844571294 ], [ -119.984067840757945, 38.812194872879282 ], [ -119.983935133815308, 38.812065318819769 ], [ -119.983825978216572, 38.811377818316778 ], [ -119.983671029066386, 38.811229671364188 ], [ -119.983444579547822, 38.810593193280376 ], [ -119.983458255290529, 38.810269224495912 ], [ -119.983260341510515, 38.810047895146162 ], [ -119.983247215522439, 38.809813323232277 ], [ -119.982807666164319, 38.809315479755625 ], [ -119.982681045990802, 38.809041938456531 ], [ -119.982686159681862, 38.808375408319037 ], [ -119.98242684444125, 38.807972311495242 ], [ -119.982612180518501, 38.807400529391401 ], [ -119.98238899451438, 38.807232599096324 ], [ -119.982334426169018, 38.806888848332434 ], [ -119.982118082346645, 38.806558933285565 ], [ -119.982067315599821, 38.806125191153711 ], [ -119.981729884439062, 38.805936288149411 ], [ -119.981799249451043, 38.804838989410179 ], [ -119.981634997437226, 38.804366277057611 ], [ -119.9816102759454, 38.803861136463993 ], [ -119.98154735226305, 38.803715366225923 ], [ -119.980837917613968, 38.803066393777328 ], [ -119.980625392635574, 38.802646485295348 ], [ -119.980634322356266, 38.801889964141758 ], [ -119.980393479008399, 38.801595448169309 ], [ -119.98048129476031, 38.80060673456385 ], [ -119.981827826044295, 38.799254175446727 ], [ -119.98223250055716, 38.798940314371869 ], [ -119.982380375893712, 38.798709903849961 ], [ -119.982581425598894, 38.797219612812555 ], [ -119.9831999127329, 38.796749112823093 ] ] ], [ [ [ -119.983177673050093, 38.796730520194451 ], [ -119.9831999127329, 38.796749112823093 ], [ -119.983176913588736, 38.796748518497928 ], [ -119.983177673050093, 38.796730520194451 ] ] ], [ [ [ -119.983132434247523, 38.796711333228515 ], [ -119.983177673050093, 38.796730520194451 ], [ -119.983131674775322, 38.796729331531338 ], [ -119.983132434247523, 38.796711333228515 ] ] ], [ [ [ -119.983110194594218, 38.796692740588078 ], [ -119.983132434247523, 38.796711333228515 ], [ -119.98310943511693, 38.79671073889056 ], [ -119.983110194594218, 38.796692740588078 ] ] ] ] } },
{ "type": "Feature", "properties": { "part": "upstream", "crossing_id": "X03559", "area_ac": 18.0, "n_upstream": 3.0 }, "geometry": { "type": "Polygon", "coordinates": [ [ [ -119.982790485588168, 38.796630424495547 ], [ -119.9831999127329, 38.796749112823093 ], [ -119.982581425598894, 38.797219612812555 ], [ -119.982523272776021, 38.79750639655537 ], [ -119.982496430184568, 38.79747996285807 ], [ -119.982543993224269, 38.797560985890534 ], [ -119.982380375893712, 38.798709903849961 ], [ -119.98223250055716, 38.798940314371869 ], [ -119.981827826044295, 38.799254175446727 ], [ -119.98048129476031, 38.80060673456385 ], [ -119.980418760510773, 38.801542048376085 ], [ -119.980408357993952, 38.801506364795742 ], [ -119.980371998962639, 38.801558856745707 ], [ -119.980194076669022, 38.801410111157864 ], [ -119.979937079748638, 38.800953015245454 ], [ -119.980094661082575, 38.799948088815547 ], [ -119.980037065803884, 38.79967633024323 ], [ -119.980158148297591, 38.799535319145633 ], [ -119.980192552558435, 38.799265940416156 ], [ -119.980169929799061, 38.798166262482631 ], [ -119.980278459924946, 38.797232138166677 ], [ -119.980123547208962, 38.79708398771561 ], [ -119.98012886886346, 38.796957999951829 ], [ -119.981054915269937, 38.796837807396187 ], [ -119.980987437919381, 38.796800026603414 ], [ -119.981914241039277, 38.79666182880667 ], [ -119.98192282918049, 38.79667930054638 ], [ -119.982790485588168, 38.796630424495547 ] ] ] } }
]
}
