{
"type": "FeatureCollection",
"name": "X03529",
"crs": { "type": "name", "properties": { "name": "urn:ogc:def:crs:OGC:1.3:CRS84" } },
"features": [
{ "type": "Feature", "properties": { "part": "direct", "crossing_id": "X03529", "area_ac": 0.2 }, "geometry": { "type": "Polygon", "coordinates": [ [ [ -120.005446468543113, 38.875717830779948 ], [ -120.005484958844235, 38.87589899694877 ], [ -120.004956893851613, 38.875849407251039 ], [ -120.005053530700636, 38.875743780868412 ], [ -120.005446468543113, 38.875717830779948 ] ] ] } }
]
}
