{
"type": "FeatureCollection",
"name": "X03568",
"crs": { "type": "name", "properties": { "name": "urn:ogc:def:crs:OGC:1.3:CRS84" } },
"features": [
{ "type": "Feature", "properties": { "part": "direct", "crossing_id": "X03568", "area_ac": 0.0 }, "geometry": { "type": "MultiPolygon", "coordinates": [ [ [ [ -120.0105552595425, 38.79118252062112 ], [ -120.010599750579502, 38.791219695895471 ], [ -120.010554507115998, 38.791200519394039 ], [ -120.0105552595425, 38.79118252062112 ] ] ], [ [ [ -120.010556764393499, 38.791146523075042 ], [ -120.010532261609669, 38.791181931750828 ], [ -120.010533766472193, 38.791145934205495 ], [ -120.010556764393499, 38.791146523075042 ] ] ] ] } }
]
}
