{
"type": "FeatureCollection",
"name": "X03687",
"crs": { "type": "name", "properties": { "name": "urn:ogc:def:crs:OGC:1.3:CRS84" } },
"features": [
{ "type": "Feature", "properties": { "part": "direct", "crossing_id": "X03687", "area_ac": 0.0 }, "geometry": { "type": "MultiPolygon", "coordinates": [ [ [ [ -120.010461762915455, 38.791216162655601 ], [ -120.010484008412632, 38.791234750311858 ], [ -120.010461010464539, 38.791234161426878 ], [ -120.010461762915455, 38.791216162655601 ] ] ], [ [ [ -120.010450051743419, 38.790945592194632 ], [ -120.010536023760949, 38.791091937887018 ], [ -120.01050775880077, 38.791217340420296 ], [ -120.010402551118176, 38.790980411956404 ], [ -120.010450051743419, 38.790945592194632 ] ] ] ] } }
]
}
