{
"type": "FeatureCollection",
"name": "X03608",
"crs": { "type": "name", "properties": { "name": "urn:ogc:def:crs:OGC:1.3:CRS84" } },
"features": [
{ "type": "Feature", "properties": { "part": "direct", "crossing_id": "X03608", "area_ac": 0.0 }, "geometry": { "type": "MultiPolygon", "coordinates": [ [ [ [ -120.016667212014113, 38.815194734861691 ], [ -120.016689466268559, 38.815213321628143 ], [ -120.01666646048092, 38.815212733660914 ], [ -120.016667212014113, 38.815194734861691 ] ] ], [ [ [ -120.016487675245415, 38.815082038185167 ], [ -120.01666646048092, 38.815212733660914 ], [ -120.016665708947073, 38.815230732460137 ], [ -120.01650617155974, 38.815190618967101 ], [ -120.016487675245415, 38.815082038185167 ] ] ], [ [ [ -120.016421664387835, 38.815008278972932 ], [ -120.016466924243574, 38.815027453790627 ], [ -120.016465421084689, 38.815063451383544 ], [ -120.016421664387835, 38.815008278972932 ] ] ] ] } }
]
}
