{
"type": "FeatureCollection",
"name": "X03662",
"crs": { "type": "name", "properties": { "name": "urn:ogc:def:crs:OGC:1.3:CRS84" } },
"features": [
{ "type": "Feature", "properties": { "part": "direct", "crossing_id": "X03662", "area_ac": 0.0 }, "geometry": { "type": "MultiPolygon", "coordinates": [ [ [ [ -119.993841052775437, 38.794465054230976 ], [ -119.993863294699082, 38.794483644915559 ], [ -119.993840296057229, 38.7944830527181 ], [ -119.993841052775437, 38.794465054230976 ] ] ], [ [ [ -119.993727573097303, 38.794426096207118 ], [ -119.993841052775437, 38.794465054230976 ], [ -119.993726816351611, 38.794444094692494 ], [ -119.993727573097303, 38.794426096207118 ] ] ] ] } }
]
}
