{
"type": "FeatureCollection",
"name": "X03612",
"crs": { "type": "name", "properties": { "name": "urn:ogc:def:crs:OGC:1.3:CRS84" } },
"features": [
{ "type": "Feature", "properties": { "part": "direct", "crossing_id": "X03612", "area_ac": 1.2 }, "geometry": { "type": "Polygon", "coordinates": [ [ [ -120.017584693534587, 38.819146104895722 ], [ -120.017975062546782, 38.819174096304081 ], [ -120.018222881825096, 38.81930655309808 ], [ -120.018524228190103, 38.819260196556883 ], [ -120.018587240300377, 38.819405950045613 ], [ -120.018524699957581, 38.819800748706477 ], [ -120.018431168328149, 38.819834395651782 ], [ -120.018495683077518, 38.81994415156182 ], [ -120.018038541509128, 38.819860402045386 ], [ -120.017954776922679, 38.819660064107943 ], [ -120.017817484826367, 38.819638538589743 ], [ -120.017687706753662, 38.819437024887101 ], [ -120.017580936486908, 38.819236098905613 ], [ -120.017584693534587, 38.819146104895722 ] ] ] } }
]
}
