{
"type": "FeatureCollection",
"name": "X03648",
"crs": { "type": "name", "properties": { "name": "urn:ogc:def:crs:OGC:1.3:CRS84" } },
"features": [
{ "type": "Feature", "properties": { "part": "direct", "crossing_id": "X03648", "area_ac": 13.4, "n_upstream": null }, "geometry": { "type": "Polygon", "coordinates": [ [ [ -119.9866477913354, 38.795793118121551 ], [ -119.986871712409581, 38.795943041156185 ], [ -119.986866402818819, 38.796069029725132 ], [ -119.986956123358951, 38.796125399163707 ], [ -119.986992234412028, 38.798000197093621 ], [ -119.987175717751256, 38.798563488565421 ], [ -119.987372856137952, 38.79880280922751 ], [ -119.987413792904363, 38.799470529354664 ], [ -119.987811869134546, 38.799859177932177 ], [ -119.987819701754404, 38.800219738793459 ], [ -119.987928636658467, 38.800366692997812 ], [ -119.987981712444139, 38.800746439094709 ], [ -119.988436668385333, 38.8014248401552 ], [ -119.988568102423514, 38.802130930233645 ], [ -119.989317539414373, 38.80292503168392 ], [ -119.989287715317303, 38.803086423953737 ], [ -119.989151223726267, 38.803046867872581 ], [ -119.989089043137639, 38.802883102715981 ], [ -119.98717921349153, 38.801212215405435 ], [ -119.987116280228108, 38.801066447753257 ], [ -119.987113761391257, 38.800579898531154 ], [ -119.987047035792557, 38.800524122638528 ], [ -119.987119829971292, 38.800435911673482 ], [ -119.987058414573681, 38.800254147290772 ], [ -119.986793790055103, 38.799977048371396 ], [ -119.986737445414661, 38.79912875108981 ], [ -119.986451343572881, 38.798815061202163 ], [ -119.986286312868714, 38.798360352652189 ], [ -119.986268906479609, 38.797134683538879 ], [ -119.985469009828662, 38.796447367931371 ], [ -119.985968683452001, 38.79606387453078 ], [ -119.9866477913354, 38.795793118121551 ] ] ] } },
{ "type": "Feature", "properties": { "part": "upstream", "crossing_id": "X03648", "area_ac": 19.0, "n_upstream": 1.0 }, "geometry": { "type": "Polygon", "coordinates": [ [ [ -119.985492008924609, 38.796447961801533 ], [ -119.986268906479609, 38.797134683538879 ], [ -119.986286312868714, 38.798360352652189 ], [ -119.986451343572881, 38.798815061202163 ], [ -119.986737445414661, 38.79912875108981 ], [ -119.986716203492179, 38.79963270500815 ], [ -119.9868243766159, 38.799797658483797 ], [ -119.986793790055103, 38.799977048371396 ], [ -119.9871006224284, 38.80034532628634 ], [ -119.987047035792557, 38.800524122638528 ], [ -119.98717921349153, 38.801212215405435 ], [ -119.98838030304384, 38.802216175273635 ], [ -119.988443239791295, 38.802361942362651 ], [ -119.989397415390869, 38.803215378633581 ], [ -119.989122157328282, 38.803190261697857 ], [ -119.988814544712767, 38.802839986728678 ], [ -119.986545058711002, 38.800961614428545 ], [ -119.986391642397749, 38.800777474849127 ], [ -119.986400747495495, 38.800561494711879 ], [ -119.98627109151586, 38.800359950404648 ], [ -119.984358357534617, 38.798761014937561 ], [ -119.984029305643062, 38.798374138070159 ], [ -119.984004123951664, 38.796787909673697 ], [ -119.984743893209725, 38.79671692899641 ], [ -119.985492008924609, 38.796447961801533 ] ] ] } }
]
}
