{
"type": "FeatureCollection",
"name": "X03652",
"crs": { "type": "name", "properties": { "name": "urn:ogc:def:crs:OGC:1.3:CRS84" } },
"features": [
{ "type": "Feature", "properties": { "part": "direct", "crossing_id": "X03652", "area_ac": 1.6 }, "geometry": { "type": "Polygon", "coordinates": [ [ [ -120.008017136927009, 38.797369757735169 ], [ -120.008447356425862, 38.797542944866095 ], [ -120.008459812593685, 38.797795516287351 ], [ -120.008596306497779, 38.797835049832791 ], [ -120.008726022956196, 38.798036571722619 ], [ -120.00922750758852, 38.798157527938542 ], [ -120.009413014585576, 38.798126244071469 ], [ -120.009325943958956, 38.798556446047627 ], [ -120.009072940951796, 38.79854996453512 ], [ -120.008621219886919, 38.798340192660177 ], [ -120.008482465602739, 38.798354655258471 ], [ -120.008266774328916, 38.798006785803658 ], [ -120.007995292953311, 38.79789172035791 ], [ -120.008006591631073, 38.797621739698101 ], [ -120.007878384464703, 38.797384219686975 ], [ -120.008017136927009, 38.797369757735169 ] ] ] } }
]
}
