{
"type": "FeatureCollection",
"name": "X03684",
"crs": { "type": "name", "properties": { "name": "urn:ogc:def:crs:OGC:1.3:CRS84" } },
"features": [
{ "type": "Feature", "properties": { "part": "direct", "crossing_id": "X03684", "area_ac": 8.6, "n_upstream": null }, "geometry": { "type": "MultiPolygon", "coordinates": [ [ [ [ -120.010143737514852, 38.784505306079893 ], [ -120.010363163178582, 38.784763177558297 ], [ -120.010464601493013, 38.785090099859708 ], [ -120.010578076856788, 38.785129041430366 ], [ -120.010818245371567, 38.785441497336137 ], [ -120.010813732123992, 38.785549490104962 ], [ -120.01103918052047, 38.785663370125135 ], [ -120.01161226459503, 38.78627263548907 ], [ -120.010934839110263, 38.786507547372025 ], [ -120.01047491046134, 38.78649577178772 ], [ -120.0102181878908, 38.786579288355014 ], [ -120.009055233858959, 38.787414368562764 ], [ -120.008731021899479, 38.787460116767676 ], [ -120.008154942783491, 38.786922832942352 ], [ -120.009057412776585, 38.786261269597475 ], [ -120.009775897122609, 38.785594987083655 ], [ -120.009881425588375, 38.785273364818558 ], [ -120.010026173317726, 38.785114909247199 ], [ -120.010022739571355, 38.784646351979021 ], [ -120.0099560093105, 38.784590588938947 ], [ -120.010126008212225, 38.784378725706752 ], [ -120.0101490039509, 38.784379314570671 ], [ -120.010143737514852, 38.784505306079893 ] ] ], [ [ [ -120.010175009044445, 38.78430790827894 ], [ -120.0101490039509, 38.784379314570671 ], [ -120.010152013328138, 38.784307319421025 ], [ -120.010175009044445, 38.78430790827894 ] ] ] ] } },
{ "type": "Feature", "properties": { "part": "upstream", "crossing_id": "X03684", "area_ac": 23.9, "n_upstream": 1.0 }, "geometry": { "type": "MultiPolygon", "coordinates": [ [ [ [ -120.006615862753279, 38.781892386645637 ], [ -120.006592867887619, 38.781891797118057 ], [ -120.006593621060119, 38.781873798381568 ], [ -120.006615862753279, 38.781892386645637 ] ] ], [ [ [ -120.00725746024446, 38.781962887825486 ], [ -120.007457637761476, 38.782130180994294 ], [ -120.007920548477912, 38.782069972314588 ], [ -120.008328435752858, 38.78222456857209 ], [ -120.008550106266583, 38.782428446712743 ], [ -120.008756309359541, 38.782451747663934 ], [ -120.009116705344567, 38.782641160625637 ], [ -120.009918198810894, 38.783292320817779 ], [ -120.009977404268653, 38.783528071715054 ], [ -120.010285799559639, 38.783860293908518 ], [ -120.0101490039509, 38.784379314570671 ], [ -120.0099560093105, 38.784590588938947 ], [ -120.010022739571355, 38.784646351979021 ], [ -120.010026173317726, 38.785114909247199 ], [ -120.009881425588375, 38.785273364818558 ], [ -120.009800398175912, 38.785559578476246 ], [ -120.009057412776585, 38.786261269597475 ], [ -120.00817793929798, 38.786923422226437 ], [ -120.007164938431131, 38.786374936769924 ], [ -120.007263701816441, 38.786215306026222 ], [ -120.007269323856192, 38.78553076463966 ], [ -120.007627818801438, 38.785215628408963 ], [ -120.007663615594637, 38.784910239124372 ], [ -120.007465689297433, 38.784688949823085 ], [ -120.00745926010832, 38.784292388091487 ], [ -120.007511275461297, 38.784149576907716 ], [ -120.00769749922749, 38.784100295542466 ], [ -120.007960991253626, 38.783854795481169 ], [ -120.007966261408612, 38.783728804209289 ], [ -120.007801873328461, 38.783256122269314 ], [ -120.007515734680638, 38.782942482154546 ], [ -120.007243557245914, 38.78284541577014 ], [ -120.006846966030949, 38.782420834609539 ], [ -120.006672043710992, 38.782200133736161 ], [ -120.006638104457963, 38.781910974905813 ], [ -120.00725746024446, 38.781962887825486 ] ] ] ] } }
]
}
