{
"type": "FeatureCollection",
"name": "X03699",
"crs": { "type": "name", "properties": { "name": "urn:ogc:def:crs:OGC:1.3:CRS84" } },
"features": [
{ "type": "Feature", "properties": { "part": "direct", "crossing_id": "X03699", "area_ac": 685.7 }, "geometry": { "type": "Polygon", "coordinates": [ [ [ -120.028192079456559, 38.905127988179203 ], [ -120.02853385006496, 38.905226783739749 ], [ -120.02874416922036, 38.905160069578301 ], [ -120.029675845150095, 38.90549009993952 ], [ -120.029783514528702, 38.905673019956865 ], [ -120.030799839760959, 38.906185375286171 ], [ -120.030908263417174, 38.906350295649581 ], [ -120.031431327150841, 38.906525768465713 ], [ -120.03201149853048, 38.9069909776236 ], [ -120.03226114098365, 38.907087418333468 ], [ -120.032811537062543, 38.907714026769241 ], [ -120.033111544385235, 38.908262193143351 ], [ -120.033382729374622, 38.908395215133339 ], [ -120.034917518670042, 38.909749540982965 ], [ -120.035440617892391, 38.909924997082065 ], [ -120.035459907958256, 38.910015576613695 ], [ -120.035620415939306, 38.910037673541005 ], [ -120.035819505132181, 38.910240929232302 ], [ -120.035956976918982, 38.910262440324878 ], [ -120.036017846243553, 38.910462183443606 ], [ -120.036196897402718, 38.910592857916129 ], [ -120.036190154916326, 38.910754847331724 ], [ -120.036408539154081, 38.911048681588916 ], [ -120.036381007277569, 38.911156089254966 ], [ -120.037082994910662, 38.912020761588963 ], [ -120.036885030253302, 38.912898607992304 ], [ -120.036764598129054, 38.913021673643016 ], [ -120.036825288005929, 38.913779965264489 ], [ -120.036998356291278, 38.914054629431263 ], [ -120.037008660495303, 38.914361194685732 ], [ -120.036584234051929, 38.914584644827336 ], [ -120.03643776325103, 38.914779119942864 ], [ -120.036404985037422, 38.91501251920122 ], [ -120.036466420642867, 38.915752811889369 ], [ -120.036407606154413, 38.916057621006587 ], [ -120.036514558258034, 38.916258534630906 ], [ -120.036329309628812, 38.916830399069532 ], [ -120.036284350704065, 38.91791032737666 ], [ -120.035729713666115, 38.918490822232847 ], [ -120.035708727651595, 38.918994788389213 ], [ -120.035515415674951, 38.919206089496029 ], [ -120.035468389362563, 38.919781465051763 ], [ -120.035110795863872, 38.920060661268224 ], [ -120.035081758289351, 38.920204065823924 ], [ -120.034428932815004, 38.920926200633438 ], [ -120.034252652388162, 38.921282075121262 ], [ -120.034110660312237, 38.921368553785037 ], [ -120.034099410580694, 38.921638535131699 ], [ -120.033840714961428, 38.921758081496044 ], [ -120.033969957758018, 38.921977582016275 ], [ -120.03389483560639, 38.922119814293268 ], [ -120.033682969310163, 38.922222533304229 ], [ -120.03363088701191, 38.922365351337156 ], [ -120.033470352252479, 38.922343250648161 ], [ -120.032712569886669, 38.923369008562368 ], [ -120.0327458954864, 38.923676159271835 ], [ -120.032563595581578, 38.924176020259793 ], [ -120.032612457656029, 38.924663744396035 ], [ -120.032530575438471, 38.924967964007536 ], [ -120.032861190540672, 38.925336731389471 ], [ -120.032964392799883, 38.925627641770802 ], [ -120.033862058132186, 38.926227043740276 ], [ -120.033986807365054, 38.926554536845302 ], [ -120.033980806167307, 38.926698526754429 ], [ -120.033885637005596, 38.926768177818253 ], [ -120.033036080024644, 38.926674498508085 ], [ -120.031532802799347, 38.925663286620868 ], [ -120.031215474418261, 38.925529085253316 ], [ -120.030893641883011, 38.92550287521712 ], [ -120.030603862945256, 38.925261266671079 ], [ -120.030542999001128, 38.925061521263927 ], [ -120.030183347666537, 38.924836150587282 ], [ -120.029998265115296, 38.924849455618407 ], [ -120.030025062057831, 38.924760048942666 ], [ -120.029915112928279, 38.924631124548419 ], [ -120.029544948801544, 38.924657733500702 ], [ -120.029276716637881, 38.924452706085418 ], [ -120.029000221206459, 38.924445663415071 ], [ -120.028801866482354, 38.924224397050914 ], [ -120.02841542651214, 38.924088427610094 ], [ -120.028422189884054, 38.923926439707479 ], [ -120.028219329192268, 38.923813164389834 ], [ -120.028069315280305, 38.923539075074352 ], [ -120.027552903568676, 38.923201595247804 ], [ -120.027278668681106, 38.923140552764337 ], [ -120.02708832771458, 38.923279843793587 ], [ -120.027060024175952, 38.92340524696229 ], [ -120.026922530606782, 38.923383724529586 ], [ -120.026804318630482, 38.923452782432314 ], [ -120.026464720689802, 38.92329998285495 ], [ -120.026346508443183, 38.923369040282182 ], [ -120.025902237236352, 38.922961321263465 ], [ -120.024930294539018, 38.922486089104886 ], [ -120.023878707844872, 38.9222610658774 ], [ -120.023715919330087, 38.922292947636507 ], [ -120.021456005019218, 38.921730760750314 ], [ -120.021592294328812, 38.921229743100596 ], [ -120.021579045029256, 38.920995173574383 ], [ -120.021464598147077, 38.920974233278073 ], [ -120.021458127661901, 38.920577676776908 ], [ -120.021348953735611, 38.9204307465317 ], [ -120.021483734454122, 38.919965725952103 ], [ -120.021351521706023, 38.919818207386847 ], [ -120.021318246259185, 38.919511055242367 ], [ -120.021161488786646, 38.919398945231897 ], [ -120.0211750461999, 38.919074971297562 ], [ -120.020948418622979, 38.918979094394466 ], [ -120.020929898730174, 38.918870514661975 ], [ -120.02075010398012, 38.91875781572714 ], [ -120.018211597167394, 38.918242504617695 ], [ -120.018219890134532, 38.918044521042042 ], [ -120.018430256429241, 38.91797782748511 ], [ -120.018510680713149, 38.917709616539412 ], [ -120.018692730480012, 38.917768323155741 ], [ -120.018835486362732, 38.917663865163313 ], [ -120.018864555063999, 38.917520465844696 ], [ -120.01872933713264, 38.91744493871677 ], [ -120.018694565990913, 38.917173783239022 ], [ -120.018467194145643, 38.917095900369056 ], [ -120.018523824688984, 38.916845098948578 ], [ -120.018432424093248, 38.916824744845009 ], [ -120.018438454599092, 38.916680756726777 ], [ -120.018302484847723, 38.916623227688561 ], [ -120.018359869305073, 38.916354427823791 ], [ -120.018221638663647, 38.916350894255935 ], [ -120.018206138814463, 38.916170320187327 ], [ -120.018095470220317, 38.916059384351925 ], [ -120.017843556393956, 38.916016908471889 ], [ -120.017573882661111, 38.915847853473132 ], [ -120.017675837440535, 38.915616229119102 ], [ -120.01781632840418, 38.91556576775298 ], [ -120.017796305997322, 38.915493184706854 ], [ -120.01802668755073, 38.915499074626844 ], [ -120.018146401463184, 38.915394028332457 ], [ -120.018400574689409, 38.91538250792734 ], [ -120.018615455172721, 38.915207822568377 ], [ -120.018695874963157, 38.914939611234225 ], [ -120.01883636391527, 38.914889148552653 ], [ -120.018704165608327, 38.914741627459016 ], [ -120.018634298118187, 38.914757859484702 ], [ -120.01857196783962, 38.914594106233764 ], [ -120.018571541455245, 38.914053561651457 ], [ -120.018296596620559, 38.91401049816055 ], [ -120.018305641867286, 38.913794515904037 ], [ -120.018425352356047, 38.913689469167714 ], [ -120.018290141943623, 38.913613941791567 ], [ -120.017965354699214, 38.913659692387853 ], [ -120.018021983481304, 38.913408891045329 ], [ -120.017790100913331, 38.913438998409056 ], [ -120.017677175228627, 38.91338205786456 ], [ -120.017736066409952, 38.913077261139271 ], [ -120.01758611373873, 38.912803160367694 ], [ -120.01726736192002, 38.91270492107261 ], [ -120.017011690134012, 38.912752436387429 ], [ -120.016945594714201, 38.912678674951202 ], [ -120.016689922854198, 38.91272618955567 ], [ -120.016507887576111, 38.912667480339024 ], [ -120.016510150143887, 38.912613484851427 ], [ -120.016810387835136, 38.912603145984349 ], [ -120.018954357210418, 38.912621922350091 ], [ -120.019049520394418, 38.91255228316269 ], [ -120.019005275915973, 38.911956565203731 ], [ -120.018765433349955, 38.911626115245696 ], [ -120.018264650961953, 38.911469172881723 ], [ -120.017749126326137, 38.9111136557527 ], [ -120.017588623071703, 38.911091534342475 ], [ -120.017352224373383, 38.911229632229563 ], [ -120.017144139530757, 38.911242329120299 ], [ -120.016965877719713, 38.911093628194728 ], [ -120.016975680082524, 38.910859647583138 ], [ -120.016619159754896, 38.910562245056234 ], [ -120.01627210344607, 38.910589403772448 ], [ -120.016090073908074, 38.910530694113113 ], [ -120.016050034863554, 38.910385527566511 ], [ -120.015893305329925, 38.910273411435057 ], [ -120.015920113122959, 38.910184008288944 ], [ -120.015683714532798, 38.910322102801899 ], [ -120.015615359580465, 38.910302336194505 ], [ -120.015692012180821, 38.910124119413538 ], [ -120.01562365741249, 38.910104352817747 ], [ -120.015549267771689, 38.910228574086041 ], [ -120.015437103343487, 38.910153633128296 ], [ -120.015359291631654, 38.909809304224332 ], [ -120.015454454206235, 38.90973966793343 ], [ -120.015342290621319, 38.90966472691327 ], [ -120.015369853214324, 38.909557325417317 ], [ -120.015574915852469, 38.909616625469667 ], [ -120.015784504602294, 38.909567934214543 ], [ -120.015937052499694, 38.909229498722596 ], [ -120.017150344245294, 38.908341622829333 ], [ -120.018642293175859, 38.907406802647152 ], [ -120.019264253429, 38.907422697125149 ], [ -120.01968642632508, 38.907253305963231 ], [ -120.02079439133955, 38.907227554796513 ], [ -120.021395875501526, 38.906630309171369 ], [ -120.021475520394802, 38.906380093382175 ], [ -120.02209250058408, 38.905963417790737 ], [ -120.022645635620336, 38.90541898451491 ], [ -120.02324605036884, 38.905398271922238 ], [ -120.023681459000258, 38.905463435437994 ], [ -120.023861978586893, 38.9055581303002 ], [ -120.024230539758904, 38.905567532799068 ], [ -120.024502448859906, 38.905682575802423 ], [ -120.024808672645122, 38.905528225916953 ], [ -120.025177233979818, 38.905537625421395 ], [ -120.02536677703759, 38.905416334096294 ], [ -120.026384077553317, 38.905352181631642 ], [ -120.02694443261953, 38.905186286044732 ], [ -120.027564875799527, 38.905238132941314 ], [ -120.027868838129962, 38.905137770781003 ], [ -120.028192079456559, 38.905127988179203 ] ] ] } }
]
}
