{
"type": "FeatureCollection",
"name": "X03673",
"crs": { "type": "name", "properties": { "name": "urn:ogc:def:crs:OGC:1.3:CRS84" } },
"features": [
{ "type": "Feature", "properties": { "part": "direct", "crossing_id": "X03673", "area_ac": 8.2 }, "geometry": { "type": "Polygon", "coordinates": [ [ [ -119.999540079749025, 38.784845903361159 ], [ -120.000064450866589, 38.784967485852619 ], [ -120.000572621081403, 38.784926487654346 ], [ -120.000754322640191, 38.78498520942626 ], [ -120.001469059168343, 38.7855080720595 ], [ -120.001630785134864, 38.78549420739359 ], [ -120.00182944926388, 38.785697507290926 ], [ -120.001926322361427, 38.78613242734594 ], [ -120.002083523174747, 38.786226553993757 ], [ -120.002077487768446, 38.78637054318142 ], [ -120.002385102028441, 38.786720783796333 ], [ -120.002225636551003, 38.786680653452009 ], [ -120.001815114160408, 38.786039481555925 ], [ -120.001518428635919, 38.785977808458846 ], [ -120.001000084793716, 38.785712243069533 ], [ -120.000169965473788, 38.785744971557271 ], [ -119.999811844806175, 38.78550153552645 ], [ -119.998185181944152, 38.785315580830385 ], [ -119.997286079918254, 38.785346515228404 ], [ -119.996367760977307, 38.78528685829604 ], [ -119.99617699212115, 38.78544411245656 ], [ -119.995786063844136, 38.785434054185806 ], [ -119.995444907640319, 38.785335185448368 ], [ -119.995274551718566, 38.785006477455475 ], [ -119.99534656293666, 38.78493625865957 ], [ -119.995827958889933, 38.784984682174134 ], [ -119.996106930087478, 38.784919787881961 ], [ -119.997323431971125, 38.785005133738835 ], [ -119.99765065994346, 38.784887422747509 ], [ -119.998252323536079, 38.784812802787336 ], [ -119.999540079749025, 38.784845903361159 ] ] ] } }
]
}
