{
"type": "FeatureCollection",
"name": "X03638",
"crs": { "type": "name", "properties": { "name": "urn:ogc:def:crs:OGC:1.3:CRS84" } },
"features": [
{ "type": "Feature", "properties": { "part": "direct", "crossing_id": "X03638", "area_ac": 5.2 }, "geometry": { "type": "Polygon", "coordinates": [ [ [ -120.110560744460386, 38.954566765108311 ], [ -120.110858235466537, 38.954628189820582 ], [ -120.110894100704058, 38.954881330535358 ], [ -120.111537768923526, 38.955509887817357 ], [ -120.111554971555663, 38.955654458007366 ], [ -120.11179685564899, 38.955948737196373 ], [ -120.112090697741365, 38.956100158527576 ], [ -120.112915160094246, 38.956823275611207 ], [ -120.113410643263165, 38.957123829769152 ], [ -120.112884796606878, 38.957002704014059 ], [ -120.112377618610125, 38.956990146252956 ], [ -120.110519046360224, 38.955592758483185 ], [ -120.110202156903469, 38.955440762118478 ], [ -120.109858557279651, 38.955378192969938 ], [ -120.110300580279016, 38.95472248071335 ], [ -120.110560744460386, 38.954566765108311 ] ] ] } }
]
}
