{
"type": "FeatureCollection",
"name": "X03665",
"crs": { "type": "name", "properties": { "name": "urn:ogc:def:crs:OGC:1.3:CRS84" } },
"features": [
{ "type": "Feature", "properties": { "part": "direct", "crossing_id": "X03665", "area_ac": 4.6 }, "geometry": { "type": "Polygon", "coordinates": [ [ [ -119.993123899076977, 38.792356501052211 ], [ -119.993726385959306, 38.792263908726518 ], [ -119.993882831564264, 38.792376044939651 ], [ -119.994224774857017, 38.792456920897635 ], [ -119.994614984460341, 38.792484984420042 ], [ -119.995202344555949, 38.79275235467469 ], [ -119.995410083887393, 38.79273968315934 ], [ -119.995894870109112, 38.793256661896208 ], [ -119.996209285332924, 38.793444931667381 ], [ -119.996249233362917, 38.793590103338516 ], [ -119.995918937849382, 38.793779802661128 ], [ -119.995360168153823, 38.793927585228943 ], [ -119.995052560805604, 38.793577326600399 ], [ -119.994666883904685, 38.793441273278503 ], [ -119.993442843297785, 38.792436786947377 ], [ -119.993123899076977, 38.792356501052211 ] ] ] } }
]
}
