{
"type": "FeatureCollection",
"name": "X03659",
"crs": { "type": "name", "properties": { "name": "urn:ogc:def:crs:OGC:1.3:CRS84" } },
"features": [
{ "type": "Feature", "properties": { "part": "direct", "crossing_id": "X03659", "area_ac": 6.0, "n_upstream": null }, "geometry": { "type": "MultiPolygon", "coordinates": [ [ [ [ -120.010492865169226, 38.80754128549605 ], [ -120.010515115484054, 38.80755987330339 ], [ -120.010492112287679, 38.807559284217469 ], [ -120.010492865169226, 38.80754128549605 ] ] ], [ [ [ -120.010516621234913, 38.807523875859751 ], [ -120.010538871551091, 38.807542463662649 ], [ -120.010515868359818, 38.807541874581609 ], [ -120.010516621234913, 38.807523875859751 ] ] ], [ [ [ -120.01054037728909, 38.807506466218086 ], [ -120.010562627606589, 38.807525054016558 ], [ -120.010539624420417, 38.807524464940421 ], [ -120.01054037728909, 38.807506466218086 ] ] ], [ [ [ -120.010554681665738, 38.807164490481156 ], [ -120.010728166853426, 38.807421185069948 ], [ -120.010632390014706, 38.807508822494015 ], [ -120.010565639054079, 38.807453059125365 ], [ -120.00982727903056, 38.807488202626821 ], [ -120.009547475577634, 38.807571125213023 ], [ -120.009403431252139, 38.807711579112024 ], [ -120.008989373363093, 38.807700970899241 ], [ -120.008636038393846, 38.807890115195256 ], [ -120.00812921327703, 38.807895144710798 ], [ -120.007939912525856, 38.808016418852503 ], [ -120.007617112923242, 38.808026162731608 ], [ -120.007171759573041, 38.808212943689178 ], [ -120.006385122925579, 38.808300881479724 ], [ -120.005144451601737, 38.808233022691695 ], [ -120.006227485097952, 38.807666209346536 ], [ -120.006620800163446, 38.807622241516619 ], [ -120.00704239420385, 38.807452871458842 ], [ -120.007641228348888, 38.807450205172074 ], [ -120.007852023998424, 38.807365518429748 ], [ -120.008680135250202, 38.807386741298131 ], [ -120.009006698252492, 38.807287000867809 ], [ -120.00971979397049, 38.807305269388024 ], [ -120.010554681665738, 38.807164490481156 ] ] ] ] } },
{ "type": "Feature", "properties": { "part": "upstream", "crossing_id": "X03659", "area_ac": 10.5, "n_upstream": 1.0 }, "geometry": { "type": "Polygon", "coordinates": [ [ [ -120.010565639054079, 38.807453059125365 ], [ -120.010511351095076, 38.807649866911426 ], [ -120.010204779640773, 38.807822195579085 ], [ -120.008700528132081, 38.807999875692936 ], [ -120.008186167466732, 38.808184892276515 ], [ -120.007097110049827, 38.808895713362141 ], [ -120.006817298230388, 38.80897862903749 ], [ -120.006311219739445, 38.808965651689974 ], [ -120.005039236309358, 38.809095186391858 ], [ -120.004120602890239, 38.809035578301284 ], [ -120.003538359187047, 38.808642256718393 ], [ -120.003170304905993, 38.808632808604038 ], [ -120.002946309532717, 38.808482914192659 ], [ -120.002648021124614, 38.808457237609524 ], [ -120.002492282327765, 38.808327112882104 ], [ -120.002354262692506, 38.808323568763214 ], [ -120.001662304977941, 38.807801294809906 ], [ -120.001413046910486, 38.807704802554262 ], [ -120.001529572458807, 38.807671759738412 ], [ -120.002071075611056, 38.807937919083251 ], [ -120.00305945651499, 38.807981315789561 ], [ -120.003689208132755, 38.808339823154071 ], [ -120.004355549781408, 38.808374942556348 ], [ -120.004636870414316, 38.80825603555278 ], [ -120.004957408049464, 38.808300295862978 ], [ -120.005121448301892, 38.808232432539853 ], [ -120.006385122925579, 38.808300881479724 ], [ -120.006870454823826, 38.808259272533867 ], [ -120.007686876383545, 38.808009933017871 ], [ -120.007939912525856, 38.808016418852503 ], [ -120.00812921327703, 38.807895144710798 ], [ -120.008636038393846, 38.807890115195256 ], [ -120.008989373363093, 38.807700970899241 ], [ -120.009403431252139, 38.807711579112024 ], [ -120.009547475577634, 38.807571125213023 ], [ -120.00982727903056, 38.807488202626821 ], [ -120.010565639054079, 38.807453059125365 ] ] ] } }
]
}
