{
"type": "FeatureCollection",
"name": "X03654",
"crs": { "type": "name", "properties": { "name": "urn:ogc:def:crs:OGC:1.3:CRS84" } },
"features": [
{ "type": "Feature", "properties": { "part": "direct", "crossing_id": "X03654", "area_ac": 15.1 }, "geometry": { "type": "Polygon", "coordinates": [ [ [ -120.006079120635647, 38.797464217758602 ], [ -120.006190351464923, 38.797557160254087 ], [ -120.006767609573558, 38.797517907970125 ], [ -120.007246086821681, 38.797638282738923 ], [ -120.00737805926353, 38.797785809869914 ], [ -120.007650292497502, 38.797882877993963 ], [ -120.007869746811423, 38.798140754925271 ], [ -120.007961747268183, 38.79814311282874 ], [ -120.007956474393694, 38.798269103788776 ], [ -120.008472674724075, 38.798588638570273 ], [ -120.008512650144041, 38.798733807035731 ], [ -120.008987373671161, 38.798944168682326 ], [ -120.009264131414056, 38.798933240930509 ], [ -120.009138244953746, 38.799740826627342 ], [ -120.009039464996903, 38.799900458061956 ], [ -120.008549266082355, 38.79950951988949 ], [ -120.008367521165638, 38.799450808662556 ], [ -120.008013824945479, 38.79909940221161 ], [ -120.007631104931136, 38.798891394882716 ], [ -120.007357361101214, 38.798830323970442 ], [ -120.007090399278653, 38.798607264199212 ], [ -120.005649677517795, 38.798372122276788 ], [ -120.005174214425352, 38.798179746234169 ], [ -120.003650176554245, 38.798284784437122 ], [ -120.002989575350639, 38.798664223554283 ], [ -120.002641554279109, 38.798727360741623 ], [ -120.001831619528616, 38.799373228794991 ], [ -120.001339552070263, 38.799576806475585 ], [ -120.000627639840815, 38.800081039691193 ], [ -120.000455307651805, 38.800346881717076 ], [ -120.000124990125173, 38.80053659195967 ], [ -120.000160417446168, 38.800789754045923 ], [ -119.99985611944291, 38.800908060163444 ], [ -119.999638535872336, 38.801154719982392 ], [ -119.999607225018607, 38.801352113014048 ], [ -119.999533352379046, 38.800917782917104 ], [ -119.999629550378472, 38.800271608087556 ], [ -119.99998513439995, 38.800028494594017 ], [ -120.000218161023483, 38.79996241067515 ], [ -120.002635910287324, 38.79831280196322 ], [ -120.003076684001655, 38.798234027836457 ], [ -120.00321921102514, 38.798129578549101 ], [ -120.003403211137524, 38.798134301605643 ], [ -120.00380477184558, 38.797892356171353 ], [ -120.004242525162908, 38.797885572062825 ], [ -120.005386109626897, 38.797518515535614 ], [ -120.006079120635647, 38.797464217758602 ] ] ] } }
]
}
