{
"type": "FeatureCollection",
"name": "X03691",
"crs": { "type": "name", "properties": { "name": "urn:ogc:def:crs:OGC:1.3:CRS84" } },
"features": [
{ "type": "Feature", "properties": { "part": "direct", "crossing_id": "X03691", "area_ac": 0.5 }, "geometry": { "type": "Polygon", "coordinates": [ [ [ -120.009859845197212, 38.916659352886164 ], [ -120.009972013219439, 38.91673429931113 ], [ -120.009964453679913, 38.9169142830659 ], [ -120.010078134064187, 38.916953232653917 ], [ -120.010029033371552, 38.917024045036406 ], [ -120.010273386121852, 38.917246521551903 ], [ -120.01011136028437, 38.917260386167392 ], [ -120.010062259392157, 38.917331198553548 ], [ -120.009587522025285, 38.917102815290264 ], [ -120.009645695675971, 38.916816022676635 ], [ -120.009859845197212, 38.916659352886164 ] ] ] } }
]
}
