{
"type": "FeatureCollection",
"name": "X03617",
"crs": { "type": "name", "properties": { "name": "urn:ogc:def:crs:OGC:1.3:CRS84" } },
"features": [
{ "type": "Feature", "properties": { "part": "direct", "crossing_id": "X03617", "area_ac": 151.9, "n_upstream": null }, "geometry": { "type": "MultiPolygon", "coordinates": [ [ [ [ -120.000251551766354, 38.822755984348156 ], [ -120.000273803772956, 38.822774574149683 ], [ -120.000250795897742, 38.82277398285391 ], [ -120.000251551766354, 38.822755984348156 ] ] ], [ [ [ -120.000229299771277, 38.822737394542798 ], [ -120.000251551766354, 38.822755984348156 ], [ -120.000228543897578, 38.822755393048226 ], [ -120.000229299771277, 38.822737394542798 ] ] ], [ [ [ -120.000207047787782, 38.822718804733547 ], [ -120.000229299771277, 38.822737394542798 ], [ -120.000206291908981, 38.822736803238719 ], [ -120.000207047787782, 38.822718804733547 ] ] ], [ [ [ -120.005026656266438, 38.822031762183428 ], [ -120.005785911944457, 38.822051241206786 ], [ -120.006055215592667, 38.822220310697524 ], [ -120.006308301642733, 38.822226802050849 ], [ -120.006508583585429, 38.822394100244281 ], [ -120.007079256062895, 38.82251684206711 ], [ -120.008252661675982, 38.822546923634249 ], [ -120.008792397124154, 38.822308504917395 ], [ -120.009599181218647, 38.822293141173546 ], [ -120.010194373874327, 38.82238046005147 ], [ -120.01090912723572, 38.822362729891367 ], [ -120.011248975183477, 38.822497558105333 ], [ -120.011829446453191, 38.822386294024575 ], [ -120.012192304466922, 38.822521708575117 ], [ -120.012513664388919, 38.822547952043806 ], [ -120.01311488468076, 38.822491266525688 ], [ -120.013661810781244, 38.822631386578294 ], [ -120.014260021901492, 38.822646690081861 ], [ -120.014554614038403, 38.822762333135579 ], [ -120.014832968744599, 38.822715398343455 ], [ -120.014999290975908, 38.822593525969396 ], [ -120.015110571000349, 38.822686461622858 ], [ -120.015431933252842, 38.822712697122114 ], [ -120.015589230458104, 38.822806808955285 ], [ -120.015707279419985, 38.822737755246941 ], [ -120.016167443323212, 38.822749519414465 ], [ -120.016589860355424, 38.82256211909413 ], [ -120.016948219244625, 38.822805511907376 ], [ -120.016864912430435, 38.8231457246509 ], [ -120.017019957586712, 38.823293830998431 ], [ -120.018214892308961, 38.823360398592037 ], [ -120.018217613882925, 38.823846953928829 ], [ -120.018302886090467, 38.824011294178632 ], [ -120.018235830190051, 38.824514084974503 ], [ -120.018344863371169, 38.824661014191456 ], [ -120.018274334021299, 38.824695248488425 ], [ -120.018265317376915, 38.824911234039597 ], [ -120.018080494427892, 38.824924530468721 ], [ -120.018066968435946, 38.825248508721806 ], [ -120.017904402148062, 38.825280391443478 ], [ -120.017853123503528, 38.825405207240593 ], [ -120.017850117465812, 38.825477202388974 ], [ -120.018034941872088, 38.825463906384236 ], [ -120.017963085810877, 38.826633239736907 ], [ -120.017825028885767, 38.826629712503703 ], [ -120.017813755590353, 38.826899694241007 ], [ -120.017841274464487, 38.826792289434827 ], [ -120.01793331262256, 38.826794640937152 ], [ -120.017946552355212, 38.827029212996003 ], [ -120.017869719432596, 38.82776598729933 ], [ -120.017500058562788, 38.827792578006985 ], [ -120.017345003198258, 38.827644471970999 ], [ -120.017069637386797, 38.827619416959827 ], [ -120.017171284859614, 38.826288684004972 ], [ -120.016944198312544, 38.826210808597793 ], [ -120.01664056603687, 38.826311156102499 ], [ -120.016550032330017, 38.826272806079963 ], [ -120.01647799678895, 38.826343036710156 ], [ -120.016412728172654, 38.826251278443337 ], [ -120.01565191634495, 38.826267864225059 ], [ -120.015362573227421, 38.826026232151136 ], [ -120.01379493630597, 38.826058207873047 ], [ -120.013536566667113, 38.826177723203763 ], [ -120.013051114351313, 38.826219355105643 ], [ -120.01270070583287, 38.82633651318428 ], [ -120.011963656087886, 38.826335665033106 ], [ -120.011590989227003, 38.826434231958885 ], [ -120.011060269204137, 38.826456678551246 ], [ -120.010709103275602, 38.826591829135197 ], [ -120.009786470146551, 38.826622249996319 ], [ -120.009529599545104, 38.826705758797715 ], [ -120.008954366361706, 38.826691019369612 ], [ -120.00888232320068, 38.82676124499136 ], [ -120.008310859640858, 38.826656509226503 ], [ -120.007962704173636, 38.826719656800947 ], [ -120.007458007896957, 38.82667068223541 ], [ -120.007005365129586, 38.826478896714903 ], [ -120.005992206036126, 38.826470930270965 ], [ -120.00550222145776, 38.826620521999885 ], [ -120.005066555850931, 38.826573308095249 ], [ -120.004831934980729, 38.826675395306594 ], [ -120.004578833523368, 38.826668900133335 ], [ -120.001705098216021, 38.824342873532885 ], [ -120.00138600303427, 38.824262604568332 ], [ -120.000739922237088, 38.823741502680967 ], [ -120.000518154390562, 38.823537606733034 ], [ -120.00048120809609, 38.823320442124569 ], [ -120.000347694924528, 38.823208903450755 ], [ -120.000273803772956, 38.822774574149683 ], [ -120.000459378431557, 38.822743307334775 ], [ -120.000602716110237, 38.822620865210446 ], [ -120.001943970505138, 38.822493161947861 ], [ -120.002620260737928, 38.822294315364921 ], [ -120.00287334625402, 38.822300814169701 ], [ -120.003084947134241, 38.822198139642197 ], [ -120.004050518303373, 38.822240944990796 ], [ -120.004328876236329, 38.822194035456725 ], [ -120.004424681347999, 38.822106404488515 ], [ -120.005026656266438, 38.822031762183428 ] ], [ [ -120.017168571402109, 38.825802129098236 ], [ -120.017211583090656, 38.825875300199939 ], [ -120.017214589814159, 38.825803305098383 ], [ -120.017168571402109, 38.825802129098236 ] ], [ [ -120.012297742241074, 38.824956833647086 ], [ -120.013068752334263, 38.8252468360864 ], [ -120.013438400699997, 38.82522025895728 ], [ -120.013894817126086, 38.825322026303702 ], [ -120.014323711547362, 38.825531195731728 ], [ -120.014622077038652, 38.825556845382295 ], [ -120.01506301061734, 38.825478032418012 ], [ -120.015126772408109, 38.825605788837969 ], [ -120.015492661757762, 38.825669198970175 ], [ -120.015564697506207, 38.825598968953003 ], [ -120.0157695233748, 38.825658259888058 ], [ -120.015912090181814, 38.825553796948263 ], [ -120.016093907129118, 38.825612499068313 ], [ -120.016510326984587, 38.825569089890998 ], [ -120.016514086229009, 38.825479096066672 ], [ -120.01633302111766, 38.825402395837919 ], [ -120.016314523425791, 38.825293815098817 ], [ -120.016079921507512, 38.825395925759082 ], [ -120.015757794848611, 38.825387690321563 ], [ -120.015279870186305, 38.825249344285943 ], [ -120.014637875729122, 38.825178871958983 ], [ -120.014480574835559, 38.825084758718731 ], [ -120.012297742241074, 38.824956833647086 ] ] ] ] } },
{ "type": "Feature", "properties": { "part": "upstream", "crossing_id": "X03617", "area_ac": 92.3, "n_upstream": 6.0 }, "geometry": { "type": "MultiPolygon", "coordinates": [ [ [ [ -119.996550921501026, 38.820931099780665 ], [ -119.996594665689571, 38.820986279130977 ], [ -119.996590125230796, 38.821094269834958 ], [ -119.996550921501026, 38.820931099780665 ] ] ], [ [ [ -120.012298495135482, 38.824938834949677 ], [ -120.012366768737166, 38.824958600486354 ], [ -120.012297742241074, 38.824956833647086 ], [ -120.012298495135482, 38.824938834949677 ] ] ], [ [ [ -120.014637875729122, 38.825178871958983 ], [ -120.015279870186305, 38.825249344285943 ], [ -120.015757794848611, 38.825387690321563 ], [ -120.016079921507512, 38.825395925759082 ], [ -120.016314523425791, 38.825293815098817 ], [ -120.01633302111766, 38.825402395837919 ], [ -120.016514086229009, 38.825479096066672 ], [ -120.016510326984587, 38.825569089890998 ], [ -120.016165190312151, 38.825560267412669 ], [ -120.016116916251221, 38.825613087279912 ], [ -120.015912090181814, 38.825553796948263 ], [ -120.0157695233748, 38.825658259888058 ], [ -120.015564697506207, 38.825598968953003 ], [ -120.015492661757762, 38.825669198970175 ], [ -120.015126772408109, 38.825605788837969 ], [ -120.01506301061734, 38.825478032418012 ], [ -120.014622077038652, 38.825556845382295 ], [ -120.014323711547362, 38.825531195731728 ], [ -120.013894817126086, 38.825322026303702 ], [ -120.013438400699997, 38.82522025895728 ], [ -120.013068752334263, 38.8252468360864 ], [ -120.012366015859399, 38.824976599184843 ], [ -120.012781680614069, 38.824951201961547 ], [ -120.013376147544207, 38.825056504310737 ], [ -120.014480574835559, 38.825084758718731 ], [ -120.014637875729122, 38.825178871958983 ] ] ], [ [ [ -119.997691005049802, 38.821753218658856 ], [ -119.997970120667446, 38.821688325918004 ], [ -119.998127391150334, 38.821782460310288 ], [ -119.998182799107198, 38.822108207937269 ], [ -119.998271804181158, 38.822182568588509 ], [ -119.998589373612361, 38.822298842548584 ], [ -119.998959765232314, 38.822254312418941 ], [ -119.998995950348331, 38.822489475823595 ], [ -119.999150955547208, 38.822637604409721 ], [ -119.999401017153872, 38.822716104746149 ], [ -119.99947230886076, 38.822663883640423 ], [ -119.999930197613992, 38.822729707236952 ], [ -120.000185551699076, 38.822682216415593 ], [ -120.000317551967527, 38.822829752247983 ], [ -120.000347694924528, 38.823208903450755 ], [ -120.00048120809609, 38.823320442124569 ], [ -120.000518154390562, 38.823537606733034 ], [ -120.000739922237088, 38.823741502680967 ], [ -120.00138600303427, 38.824262604568332 ], [ -120.001705098216021, 38.824342873532885 ], [ -120.004578833523368, 38.826668900133335 ], [ -120.004831934980729, 38.826675395306594 ], [ -120.005066555850931, 38.826573308095249 ], [ -120.00550222145776, 38.826620521999885 ], [ -120.005992206036126, 38.826470930270965 ], [ -120.007005365129586, 38.826478896714903 ], [ -120.007458007896957, 38.82667068223541 ], [ -120.007962704173636, 38.826719656800947 ], [ -120.008310859640858, 38.826656509226503 ], [ -120.00888232320068, 38.82676124499136 ], [ -120.008954366361706, 38.826691019369612 ], [ -120.009529599545104, 38.826705758797715 ], [ -120.009786470146551, 38.826622249996319 ], [ -120.010709103275602, 38.826591829135197 ], [ -120.011060269204137, 38.826456678551246 ], [ -120.011590989227003, 38.826434231958885 ], [ -120.011963656087886, 38.826335665033106 ], [ -120.01270070583287, 38.82633651318428 ], [ -120.013725841604071, 38.82609247606355 ], [ -120.013724403527362, 38.826092439270653 ], [ -120.013725156093059, 38.826074440553292 ], [ -120.013759652989222, 38.826084426961565 ], [ -120.01379418375825, 38.826076206591644 ], [ -120.015362573227421, 38.826026232151136 ], [ -120.015963518809315, 38.826528082655763 ], [ -120.015674925668719, 38.826268452531998 ], [ -120.016412728172654, 38.826251278443337 ], [ -120.01647799678895, 38.826343036710156 ], [ -120.016550032330017, 38.826272806079963 ], [ -120.01664056603687, 38.826311156102499 ], [ -120.016990216978257, 38.826211984696663 ], [ -120.01719354252397, 38.826307270786607 ], [ -120.017211290028342, 38.826433850206776 ], [ -120.0170888883722, 38.827709998843403 ], [ -120.016832021279342, 38.827793523897363 ], [ -120.016719979518399, 38.827718588314987 ], [ -120.016349566752609, 38.827763174126837 ], [ -120.016180978096216, 38.827939044204101 ], [ -120.016021413079031, 38.827898929011383 ], [ -120.015786049876382, 38.828019037432853 ], [ -120.015348862088885, 38.828007858822161 ], [ -120.014942207499686, 38.82781727973596 ], [ -120.013442808032522, 38.827869013255892 ], [ -120.013309265593762, 38.827757488355957 ], [ -120.012502418788614, 38.827772875337622 ], [ -120.01172159418762, 38.827716851112115 ], [ -120.011220653460938, 38.82757789908117 ], [ -120.009632989072955, 38.827537233609767 ], [ -120.009068698267725, 38.827811062225074 ], [ -120.008512696473247, 38.827886903044529 ], [ -120.008016674124988, 38.828180494093544 ], [ -120.007463685433507, 38.82818433530413 ], [ -120.007459160229416, 38.828292326950383 ], [ -120.007149472893047, 38.82853663766754 ], [ -120.00689410125301, 38.828584143047536 ], [ -120.006680977055453, 38.828722821041971 ], [ -120.005969933466289, 38.828650529798487 ], [ -120.005569709211784, 38.828856477857258 ], [ -120.005272844290573, 38.828794807503918 ], [ -120.004694576885555, 38.828852040694187 ], [ -120.004537282191293, 38.828757914293647 ], [ -120.004281908381685, 38.828805413852031 ], [ -120.002510966325588, 38.827642835245129 ], [ -120.002022135379136, 38.827215868053308 ], [ -120.001942186984081, 38.826925527670028 ], [ -120.001319088146417, 38.826405019086344 ], [ -120.000471532715167, 38.826293151545642 ], [ -119.999447902161023, 38.825438016785469 ], [ -119.99945319514498, 38.825312027394041 ], [ -119.998635909790252, 38.824480208010399 ], [ -119.998624246234186, 38.824209639261326 ], [ -119.998489978181468, 38.824116096998281 ], [ -119.998366299732638, 38.823770575998417 ], [ -119.997277489347312, 38.822823656964459 ], [ -119.997184392713848, 38.82229874227508 ], [ -119.997029392456355, 38.822150611259588 ], [ -119.996891040030519, 38.821606514092181 ], [ -119.996581800993084, 38.821292252785895 ], [ -119.99661237574847, 38.821112860281055 ], [ -119.997258402378122, 38.821633983090429 ], [ -119.997579750161464, 38.821660267332014 ], [ -119.997691005049802, 38.821753218658856 ] ], [ [ -120.016206545607929, 38.827327086597677 ], [ -120.016274070723895, 38.827364848728116 ], [ -120.016298584317397, 38.827329439414974 ], [ -120.016206545607929, 38.827327086597677 ] ] ], [ [ [ -120.017168571402109, 38.825802129098236 ], [ -120.017211583090656, 38.825875300199939 ], [ -120.017165564632393, 38.825874124196787 ], [ -120.017168571402109, 38.825802129098236 ] ] ], [ [ [ -120.017825028885767, 38.826629712503703 ], [ -120.017963085810877, 38.826633239736907 ], [ -120.017957073682794, 38.826777230016738 ], [ -120.017841274464487, 38.826792289434827 ], [ -120.017813755590353, 38.826899694241007 ], [ -120.017825028885767, 38.826629712503703 ] ] ] ] } }
]
}
