{
"type": "FeatureCollection",
"name": "X03683",
"crs": { "type": "name", "properties": { "name": "urn:ogc:def:crs:OGC:1.3:CRS84" } },
"features": [
{ "type": "Feature", "properties": { "part": "direct", "crossing_id": "X03683", "area_ac": 0.0 }, "geometry": { "type": "MultiPolygon", "coordinates": [ [ [ [ -120.008172668914682, 38.787049413453737 ], [ -120.008171916000094, 38.787067412200209 ], [ -120.008148919439478, 38.787066822913104 ], [ -120.008149672359849, 38.787048824166995 ], [ -120.008172668914682, 38.787049413453737 ] ] ], [ [ [ -120.008200182909036, 38.786942010253341 ], [ -120.008172668914682, 38.787049413453737 ], [ -120.008177186388096, 38.786941420973392 ], [ -120.008200182909036, 38.786942010253341 ] ] ] ] } }
]
}
