{
"type": "FeatureCollection",
"name": "X03664",
"crs": { "type": "name", "properties": { "name": "urn:ogc:def:crs:OGC:1.3:CRS84" } },
"features": [
{ "type": "Feature", "properties": { "part": "direct", "crossing_id": "X03664", "area_ac": 4.9 }, "geometry": { "type": "Polygon", "coordinates": [ [ [ -119.992872435552997, 38.792313988374097 ], [ -119.993442843297785, 38.792436786947377 ], [ -119.994666883904685, 38.793441273278503 ], [ -119.995052560805604, 38.793577326600399 ], [ -119.995317952820699, 38.793836408866056 ], [ -119.995378628743893, 38.794036168204983 ], [ -119.995148643473854, 38.794030249066651 ], [ -119.994261837826954, 38.794313726637995 ], [ -119.994125359546942, 38.794274176884372 ], [ -119.994186489167078, 38.793915391278915 ], [ -119.993380492420528, 38.793372115898208 ], [ -119.992692526296892, 38.792759803583273 ], [ -119.992555294923136, 38.792738250609069 ], [ -119.992728392495707, 38.792454421919764 ], [ -119.992843382334698, 38.792457383826573 ], [ -119.992872435552997, 38.792313988374097 ] ] ] } }
]
}
