{
"type": "FeatureCollection",
"name": "X03671",
"crs": { "type": "name", "properties": { "name": "urn:ogc:def:crs:OGC:1.3:CRS84" } },
"features": [
{ "type": "Feature", "properties": { "part": "direct", "crossing_id": "X03671", "area_ac": 0.3 }, "geometry": { "type": "MultiPolygon", "coordinates": [ [ [ [ -119.999950861984658, 38.787126728778475 ], [ -120.000286749350622, 38.787351575213428 ], [ -120.000538955897497, 38.78737607280155 ], [ -120.000737621682973, 38.787579374586116 ], [ -120.000643370946889, 38.787631007394879 ], [ -120.000483904604451, 38.787590874633317 ], [ -119.999835124945974, 38.787141772813861 ], [ -119.999950861984658, 38.787126728778475 ] ] ], [ [ [ -119.999813638573315, 38.787105184668221 ], [ -119.999835879958667, 38.787123774205028 ], [ -119.999812883555506, 38.787123183276798 ], [ -119.999813638573315, 38.787105184668221 ] ] ] ] } }
]
}
