{
"type": "FeatureCollection",
"name": "X03688",
"crs": { "type": "name", "properties": { "name": "urn:ogc:def:crs:OGC:1.3:CRS84" } },
"features": [
{ "type": "Feature", "properties": { "part": "direct", "crossing_id": "X03688", "area_ac": 0.7 }, "geometry": { "type": "Polygon", "coordinates": [ [ [ -120.00560629165264, 38.914153874372211 ], [ -120.00581741349113, 38.914069205239556 ], [ -120.005741488638733, 38.914229415965799 ], [ -120.005928059290753, 38.914180151889141 ], [ -120.006133882914739, 38.914221470406495 ], [ -120.006100249340406, 38.914472855577984 ], [ -120.006166334665565, 38.914546622767141 ], [ -120.0060190263697, 38.914759054706693 ], [ -120.005907622659521, 38.914666106427212 ], [ -120.005813958236672, 38.914699737617475 ], [ -120.005303019393637, 38.914236177281587 ], [ -120.005352122558563, 38.914165366970359 ], [ -120.00560629165264, 38.914153874372211 ] ] ] } }
]
}
