{
"type": "FeatureCollection",
"name": "X03676",
"crs": { "type": "name", "properties": { "name": "urn:ogc:def:crs:OGC:1.3:CRS84" } },
"features": [
{ "type": "Feature", "properties": { "part": "direct", "crossing_id": "X03676", "area_ac": 1.0 }, "geometry": { "type": "Polygon", "coordinates": [ [ [ -120.002350836204457, 38.784791975673443 ], [ -120.002755323213208, 38.785577135005617 ], [ -120.003542085481556, 38.786029762032555 ], [ -120.003555278966019, 38.786264334966226 ], [ -120.003346804927745, 38.786295020473965 ], [ -120.003304583092387, 38.786203846672031 ], [ -120.003100634153881, 38.786126539741119 ], [ -120.002744009586777, 38.78584711492519 ], [ -120.002661076563413, 38.785628769622861 ], [ -120.002392668094274, 38.785441698526412 ], [ -120.002380987051779, 38.785171128276957 ], [ -120.002208335848422, 38.784896425114241 ], [ -120.002350836204457, 38.784791975673443 ] ] ] } }
]
}
