{
"type": "FeatureCollection",
"name": "X03633",
"crs": { "type": "name", "properties": { "name": "urn:ogc:def:crs:OGC:1.3:CRS84" } },
"features": [
{ "type": "Feature", "properties": { "part": "direct", "crossing_id": "X03633", "area_ac": 0.8 }, "geometry": { "type": "Polygon", "coordinates": [ [ [ -120.09408186823643, 38.947292451046827 ], [ -120.094436695753913, 38.947643633458263 ], [ -120.094172847307291, 38.94788931107378 ], [ -120.093844259661367, 38.948025266968386 ], [ -120.093585312139979, 38.947586382487863 ], [ -120.09408186823643, 38.947292451046827 ] ] ] } }
]
}
