{
"type": "FeatureCollection",
"name": "X03606",
"crs": { "type": "name", "properties": { "name": "urn:ogc:def:crs:OGC:1.3:CRS84" } },
"features": [
{ "type": "Feature", "properties": { "part": "direct", "crossing_id": "X03606", "area_ac": 0.5 }, "geometry": { "type": "Polygon", "coordinates": [ [ [ -120.01518221824854, 38.813805422531665 ], [ -120.015687583344601, 38.813836361591079 ], [ -120.01586410895689, 38.814021054505496 ], [ -120.015630296304565, 38.814105167084463 ], [ -120.015400994067292, 38.814081286481489 ], [ -120.015334985230538, 38.814007526724353 ], [ -120.015055161282419, 38.814090461683875 ], [ -120.014871870118881, 38.814067756585466 ], [ -120.014877885733142, 38.813923766396996 ], [ -120.01518221824854, 38.813805422531665 ] ] ] } }
]
}
