{
"type": "FeatureCollection",
"name": "X03770",
"crs": { "type": "name", "properties": { "name": "urn:ogc:def:crs:OGC:1.3:CRS84" } },
"features": [
{ "type": "Feature", "properties": { "part": "direct", "crossing_id": "X03770", "area_ac": 1.7 }, "geometry": { "type": "MultiPolygon", "coordinates": [ [ [ [ -120.106801257677432, 38.97946447823638 ], [ -120.106823585265559, 38.979483050217397 ], [ -120.106800524548945, 38.979482477985286 ], [ -120.106801257677432, 38.97946447823638 ] ] ], [ [ [ -120.106800524548945, 38.979482477985286 ], [ -120.106324645316761, 38.979831027205648 ], [ -120.105645613775877, 38.980066423852307 ], [ -120.105241108675557, 38.980362686481158 ], [ -120.105154320040327, 38.980792962067163 ], [ -120.104821193270993, 38.98103694154311 ], [ -120.104633035256455, 38.981122358788191 ], [ -120.104451480708221, 38.981045778353909 ], [ -120.104237012926433, 38.98064405746652 ], [ -120.104539741437137, 38.980579504062426 ], [ -120.105371083753397, 38.98000555471414 ], [ -120.106351372391558, 38.979741600832227 ], [ -120.106800524548945, 38.979482477985286 ] ] ], [ [ [ -120.106825051510285, 38.979447050718754 ], [ -120.10684737909969, 38.979465622695329 ], [ -120.106824318388249, 38.979465050468136 ], [ -120.106825051510285, 38.979447050718754 ] ] ], [ [ [ -120.106848845331456, 38.979429623195813 ], [ -120.106871172922183, 38.979448195167869 ], [ -120.106848112215886, 38.979447622945592 ], [ -120.106848845331456, 38.979429623195813 ] ] ] ] } }
]
}
