{
"type": "FeatureCollection",
"name": "X03782",
"crs": { "type": "name", "properties": { "name": "urn:ogc:def:crs:OGC:1.3:CRS84" } },
"features": [
{ "type": "Feature", "properties": { "part": "direct", "crossing_id": "X03782", "area_ac": 5.0 }, "geometry": { "type": "MultiPolygon", "coordinates": [ [ [ [ -120.111297758687556, 38.98696332702584 ], [ -120.111103733757901, 38.987192752704622 ], [ -120.111132286689582, 38.987625890694218 ], [ -120.110822209390932, 38.987870458120518 ], [ -120.110742033557102, 38.988138740253497 ], [ -120.11040962139657, 38.988364735079827 ], [ -120.110405959154107, 38.988454733973214 ], [ -120.109780661697584, 38.989069861887813 ], [ -120.108921822554152, 38.988616137531636 ], [ -120.109318685737549, 38.987941296841569 ], [ -120.109796073052678, 38.987556737777069 ], [ -120.110072833863157, 38.987563598343321 ], [ -120.110353989404132, 38.98746245957085 ], [ -120.110923621045941, 38.987080181988269 ], [ -120.111274695452948, 38.986962755586468 ], [ -120.111297758687556, 38.98696332702584 ] ] ], [ [ [ -120.111322286280597, 38.986927898865211 ], [ -120.111297758687556, 38.98696332702584 ], [ -120.11129922305696, 38.986927327431118 ], [ -120.111322286280597, 38.986927898865211 ] ] ] ] } }
]
}
