{
"type": "FeatureCollection",
"name": "X03724",
"crs": { "type": "name", "properties": { "name": "urn:ogc:def:crs:OGC:1.3:CRS84" } },
"features": [
{ "type": "Feature", "properties": { "part": "direct", "crossing_id": "X03724", "area_ac": 0.1 }, "geometry": { "type": "Polygon", "coordinates": [ [ [ -120.082374332760423, 38.948081214636609 ], [ -120.082414525021534, 38.94822636362246 ], [ -120.082182547112367, 38.948256595624436 ], [ -120.082186978336239, 38.948148598911928 ], [ -120.082374332760423, 38.948081214636609 ] ] ] } }
]
}
