{
"type": "FeatureCollection",
"name": "X03799",
"crs": { "type": "name", "properties": { "name": "urn:ogc:def:crs:OGC:1.3:CRS84" } },
"features": [
{ "type": "Feature", "properties": { "part": "direct", "crossing_id": "X03799", "area_ac": 0.3 }, "geometry": { "type": "Polygon", "coordinates": [ [ [ -120.117928782540432, 39.006172395627395 ], [ -120.118341842848892, 39.006236660930938 ], [ -120.11760361485328, 39.006218409645292 ], [ -120.117318005563391, 39.006427562208039 ], [ -120.116851493157952, 39.006542150381897 ], [ -120.116902020218959, 39.006435292573933 ], [ -120.117326779527588, 39.006211564210744 ], [ -120.117928782540432, 39.006172395627395 ] ] ] } }
]
}
