{
"type": "FeatureCollection",
"name": "X03762",
"crs": { "type": "name", "properties": { "name": "urn:ogc:def:crs:OGC:1.3:CRS84" } },
"features": [
{ "type": "Feature", "properties": { "part": "direct", "crossing_id": "X03762", "area_ac": 1.3 }, "geometry": { "type": "MultiPolygon", "coordinates": [ [ [ [ -120.099861616458313, 38.973598405314128 ], [ -120.099883940398854, 38.97361697850215 ], [ -120.099860881726414, 38.973616404970635 ], [ -120.099861616458313, 38.973598405314128 ] ] ], [ [ [ -120.098650995869349, 38.972721444875987 ], [ -120.099325845377933, 38.973152647637292 ], [ -120.099396490588106, 38.973118369217282 ], [ -120.099415140092276, 38.973226940738783 ], [ -120.099707553500636, 38.973414393925964 ], [ -120.099863820650086, 38.973544406344352 ], [ -120.099861616458313, 38.973598405314128 ], [ -120.09970534920042, 38.973468392889494 ], [ -120.099566997486505, 38.973464951431367 ], [ -120.099142388634476, 38.973688621461683 ], [ -120.099004771511744, 38.973667179677342 ], [ -120.098564179831158, 38.973151714881482 ], [ -120.09851264573804, 38.972718002222891 ], [ -120.098650995869349, 38.972721444875987 ] ] ] ] } }
]
}
