{
"type": "FeatureCollection",
"name": "X03798",
"crs": { "type": "name", "properties": { "name": "urn:ogc:def:crs:OGC:1.3:CRS84" } },
"features": [
{ "type": "Feature", "properties": { "part": "direct", "crossing_id": "X03798", "area_ac": 36.8 }, "geometry": { "type": "MultiPolygon", "coordinates": [ [ [ [ -120.126087484794752, 39.004860313875653 ], [ -120.126109825241571, 39.004878882581579 ], [ -120.126086755889972, 39.004878313852011 ], [ -120.126087484794752, 39.004860313875653 ] ] ], [ [ [ -120.119687688567254, 39.003801466691101 ], [ -120.121555539295358, 39.003865620363058 ], [ -120.121876314547137, 39.003927594271637 ], [ -120.122305866764449, 39.004154413982711 ], [ -120.122856605077715, 39.004240079675526 ], [ -120.123374791221181, 39.004559172709691 ], [ -120.123882313617571, 39.00457169541987 ], [ -120.124199447565672, 39.004723662847482 ], [ -120.124707700755962, 39.004718182059392 ], [ -120.125028483109148, 39.004780147529182 ], [ -120.125094045231535, 39.004871854132553 ], [ -120.126085298078422, 39.004914313804555 ], [ -120.125653282216746, 39.005318075165093 ], [ -120.124086017567151, 39.005243384790226 ], [ -120.123665661243351, 39.005359139235871 ], [ -120.123109805414117, 39.005399476513283 ], [ -120.122304564335579, 39.005325547539783 ], [ -120.121745788325001, 39.005437877927768 ], [ -120.121052244878257, 39.005456787758177 ], [ -120.120608083216737, 39.005589961084844 ], [ -120.12006068511559, 39.00599085113349 ], [ -120.119472986381965, 39.006246599305818 ], [ -120.117559668927186, 39.006163269273287 ], [ -120.117488266789479, 39.006215557460614 ], [ -120.117049944296141, 39.006204718120323 ], [ -120.11674272648014, 39.006377299022923 ], [ -120.116427065369791, 39.006189312018819 ], [ -120.115914021502263, 39.005744190201945 ], [ -120.115873734768769, 39.005599050188415 ], [ -120.115759119427494, 39.005578196520666 ], [ -120.115425516548299, 39.005263637574295 ], [ -120.115533156913941, 39.004887924938828 ], [ -120.115699030133342, 39.004783921686787 ], [ -120.115802279180102, 39.004516207577993 ], [ -120.116279750127589, 39.004131625789341 ], [ -120.116602714927836, 39.004139614609144 ], [ -120.117047605084537, 39.003988456630175 ], [ -120.117665347929361, 39.004129857613016 ], [ -120.117965975113293, 39.004119272420517 ], [ -120.11813111221332, 39.004033265342926 ], [ -120.118659505142432, 39.004100380498066 ], [ -120.119200319914867, 39.003861495505156 ], [ -120.119687688567254, 39.003801466691101 ] ] ] ] } }
]
}
