{
"type": "FeatureCollection",
"name": "X03763",
"crs": { "type": "name", "properties": { "name": "urn:ogc:def:crs:OGC:1.3:CRS84" } },
"features": [
{ "type": "Feature", "properties": { "part": "direct", "crossing_id": "X03763", "area_ac": 5.1 }, "geometry": { "type": "Polygon", "coordinates": [ [ [ -120.09970534920042, 38.973468392889494 ], [ -120.099947973441516, 38.973744696673002 ], [ -120.100563213403518, 38.973940176674795 ], [ -120.100579661154782, 38.974102747071797 ], [ -120.100917464624331, 38.974309343912687 ], [ -120.100934647705344, 38.974453914613839 ], [ -120.101118385015567, 38.974476500797365 ], [ -120.101272453879247, 38.974660510517531 ], [ -120.101371592717371, 38.975059369688879 ], [ -120.100972976500756, 38.975211620756625 ], [ -120.100610927477362, 38.975599012826649 ], [ -120.100427187495697, 38.975576425742368 ], [ -120.100018450054122, 38.974845543296169 ], [ -120.099795941918003, 38.974641811720865 ], [ -120.099472102531678, 38.974093218388539 ], [ -120.099072477661082, 38.973704900054926 ], [ -120.099404117495439, 38.973496935489045 ], [ -120.09970534920042, 38.973468392889494 ] ] ] } }
]
}
