{
"type": "FeatureCollection",
"name": "X03703",
"crs": { "type": "name", "properties": { "name": "urn:ogc:def:crs:OGC:1.3:CRS84" } },
"features": [
{ "type": "Feature", "properties": { "part": "direct", "crossing_id": "X03703", "area_ac": 252.2 }, "geometry": { "type": "MultiPolygon", "coordinates": [ [ [ [ -120.036984124179028, 38.914396607125077 ], [ -120.037169746348624, 38.914923839875833 ], [ -120.037550164716322, 38.915203769845213 ], [ -120.038010010138322, 38.915792019058948 ], [ -120.038021816176467, 38.91606258665054 ], [ -120.038150314126142, 38.916300081658548 ], [ -120.038095999248853, 38.916496898843846 ], [ -120.038581891029082, 38.917013735856187 ], [ -120.03859894028345, 38.917158311533235 ], [ -120.040338374731505, 38.918589835266353 ], [ -120.040968521014989, 38.918966179968074 ], [ -120.041137876300738, 38.919330833275907 ], [ -120.041403133681811, 38.919607829655263 ], [ -120.041376353229964, 38.91969723964862 ], [ -120.041642360886541, 38.919956236675553 ], [ -120.041736468194884, 38.921021676956343 ], [ -120.041891019261783, 38.921187757324581 ], [ -120.041882043134535, 38.921403743931158 ], [ -120.042017294624017, 38.921479245406509 ], [ -120.042035847346625, 38.921587823027942 ], [ -120.042619199373917, 38.921980990277021 ], [ -120.044020950072706, 38.922106612461086 ], [ -120.044243136670232, 38.92231043957257 ], [ -120.04421486360836, 38.92243584811844 ], [ -120.04457156104074, 38.922733172528631 ], [ -120.044496458759809, 38.922875412417149 ], [ -120.04452983537054, 38.923182561752142 ], [ -120.044365557264655, 38.923250470465746 ], [ -120.04411944760767, 38.923622608739464 ], [ -120.044119316035321, 38.924181158941714 ], [ -120.043998875600849, 38.924304231604239 ], [ -120.043990652432285, 38.924502219598601 ], [ -120.043710414944584, 38.924585206288405 ], [ -120.043777296986619, 38.924640955025502 ], [ -120.043731078548177, 38.925198337010393 ], [ -120.043810536156982, 38.925506654394326 ], [ -120.043988890908508, 38.925655317540517 ], [ -120.043933835602672, 38.925870136426589 ], [ -120.043768802950524, 38.925956042909398 ], [ -120.044077935606552, 38.92628819903512 ], [ -120.044071207269482, 38.926450189169344 ], [ -120.044180437944959, 38.926597100187877 ], [ -120.044427175623653, 38.926765513509821 ], [ -120.044396658033506, 38.92694491868297 ], [ -120.043843504943766, 38.927489453404739 ], [ -120.043585550161652, 38.927591022210137 ], [ -120.043534230613588, 38.927715846284627 ], [ -120.043306795504321, 38.927638009620985 ], [ -120.043220607787944, 38.927491681964597 ], [ -120.043083100288655, 38.927470178111548 ], [ -120.04288469238108, 38.927248933779204 ], [ -120.042678806038523, 38.927207677938377 ], [ -120.04250119847606, 38.92704101390072 ], [ -120.042333917254666, 38.927180914786049 ], [ -120.042008330540426, 38.927244729345865 ], [ -120.041865586746781, 38.927349216150169 ], [ -120.041036057548339, 38.927328174320643 ], [ -120.03920072781078, 38.927641954992069 ], [ -120.03875468118342, 38.927828827195398 ], [ -120.038698859125603, 38.928061641668918 ], [ -120.038455698590582, 38.92836177068164 ], [ -120.038154644661148, 38.928390161609627 ], [ -120.038098070935504, 38.928640974482086 ], [ -120.037910731477041, 38.928708288135191 ], [ -120.037834110601096, 38.928886520428968 ], [ -120.037527809076735, 38.929040901177288 ], [ -120.036921947436397, 38.929187671087696 ], [ -120.03660814713993, 38.929522037032399 ], [ -120.036421553662237, 38.929571349366931 ], [ -120.036384267700228, 38.929912740446156 ], [ -120.036289096264071, 38.929982393363282 ], [ -120.036389319708775, 38.930345296384417 ], [ -120.036293398003735, 38.930432948043411 ], [ -120.036155137788171, 38.930429434649014 ], [ -120.03612234815435, 38.930662832966838 ], [ -120.036189979082721, 38.930700587236913 ], [ -120.036117100117551, 38.930788824292584 ], [ -120.036272407041878, 38.930936913424375 ], [ -120.036354085830041, 38.931191238329816 ], [ -120.036580024342442, 38.931305086199657 ], [ -120.036793220899142, 38.931724912735667 ], [ -120.036650460435439, 38.931829392433563 ], [ -120.036731391812694, 38.932101715899591 ], [ -120.036584882259632, 38.932296189301461 ], [ -120.036659067095798, 38.93273050167857 ], [ -120.036515554655836, 38.93285297987083 ], [ -120.036598735411459, 38.933071307130497 ], [ -120.036499061613924, 38.933248952589885 ], [ -120.03565167278812, 38.93310129302818 ], [ -120.035075567465256, 38.933086648801805 ], [ -120.035072024395618, 38.93261809581152 ], [ -120.035203744635055, 38.932225052566835 ], [ -120.035072231283308, 38.932059549093083 ], [ -120.035102025255654, 38.931898146241721 ], [ -120.034969012628878, 38.931768640155724 ], [ -120.034954969333697, 38.931552069456764 ], [ -120.03415186779003, 38.93034247459839 ], [ -120.034008570466895, 38.929906403196732 ], [ -120.034003532808399, 38.929473847693394 ], [ -120.033851234822919, 38.929253760902121 ], [ -120.033881029963922, 38.929092358357813 ], [ -120.033674610373083, 38.928510538761927 ], [ -120.033669574302678, 38.928077983237507 ], [ -120.033815331939536, 38.9279015120824 ], [ -120.033782751115226, 38.927576362881659 ], [ -120.033962802316424, 38.927130496455838 ], [ -120.033948974934262, 38.926355378794895 ], [ -120.03379593299934, 38.926153290834563 ], [ -120.032964392799883, 38.925627641770802 ], [ -120.032861190540672, 38.925336731389471 ], [ -120.032530575438471, 38.924967964007536 ], [ -120.032610956767215, 38.924699741840563 ], [ -120.032563595581578, 38.924176020259793 ], [ -120.0327458954864, 38.923676159271835 ], [ -120.032764654866668, 38.923226191061865 ], [ -120.033246481081491, 38.922733948660991 ], [ -120.033277024126491, 38.922554547322079 ], [ -120.033393728312618, 38.922521480024827 ], [ -120.033470352252479, 38.922343250648161 ], [ -120.03363088701191, 38.922365351337156 ], [ -120.033682969310163, 38.922222533304229 ], [ -120.03389483560639, 38.922119814293268 ], [ -120.033969957758018, 38.921977582016275 ], [ -120.033840714961428, 38.921758081496044 ], [ -120.034099410580694, 38.921638535131699 ], [ -120.034110660312237, 38.921368553785037 ], [ -120.034252652388162, 38.921282075121262 ], [ -120.034428932815004, 38.920926200633438 ], [ -120.035081758289351, 38.920204065823924 ], [ -120.035110795863872, 38.920060661268224 ], [ -120.035468389362563, 38.919781465051763 ], [ -120.035515415674951, 38.919206089496029 ], [ -120.035708727651595, 38.918994788389213 ], [ -120.035729713666115, 38.918490822232847 ], [ -120.036284350704065, 38.91791032737666 ], [ -120.036329309628812, 38.916830399069532 ], [ -120.036513059790224, 38.916294532254661 ], [ -120.036407606154413, 38.916057621006587 ], [ -120.03643776325103, 38.914779119942864 ], [ -120.036631808873608, 38.914549817771686 ], [ -120.036961085980295, 38.914396021908303 ], [ -120.036984124179028, 38.914396607125077 ] ] ], [ [ [ -120.037008660495303, 38.914361194685732 ], [ -120.036984124179028, 38.914396607125077 ], [ -120.036985622307483, 38.914360609474237 ], [ -120.037008660495303, 38.914361194685732 ] ] ] ] } }
]
}
