{
"type": "FeatureCollection",
"name": "X03767",
"crs": { "type": "name", "properties": { "name": "urn:ogc:def:crs:OGC:1.3:CRS84" } },
"features": [
{ "type": "Feature", "properties": { "part": "direct", "crossing_id": "X03767", "area_ac": 5.7 }, "geometry": { "type": "Polygon", "coordinates": [ [ [ -120.108387012228434, 38.977936255260964 ], [ -120.107844168671207, 38.97822909640167 ], [ -120.107312315298046, 38.978251938425487 ], [ -120.106844511098473, 38.97840249293084 ], [ -120.106405631045476, 38.9784096198185 ], [ -120.105511735510845, 38.978819862709763 ], [ -120.104655563763458, 38.978870676666681 ], [ -120.103995928067206, 38.979196635070508 ], [ -120.103951274620684, 38.979159490082274 ], [ -120.103927168822253, 38.978618353342362 ], [ -120.104486487599345, 38.978488101312252 ], [ -120.10470796971623, 38.978151260581605 ], [ -120.105061942279008, 38.977961852562913 ], [ -120.10527095094649, 38.977931005954147 ], [ -120.105407111724759, 38.977988440172453 ], [ -120.105733621431952, 38.977906455923836 ], [ -120.108387012228434, 38.977936255260964 ] ] ] } }
]
}
