{
"type": "FeatureCollection",
"name": "X03778",
"crs": { "type": "name", "properties": { "name": "urn:ogc:def:crs:OGC:1.3:CRS84" } },
"features": [
{ "type": "Feature", "properties": { "part": "direct", "crossing_id": "X03778", "area_ac": 1.8 }, "geometry": { "type": "Polygon", "coordinates": [ [ [ -120.108380163411468, 38.984909028852364 ], [ -120.109531091937811, 38.984991621920997 ], [ -120.109642009417229, 38.985102479336497 ], [ -120.109802715099676, 38.98512448119542 ], [ -120.11004688189557, 38.98536476690748 ], [ -120.10986238039024, 38.985360193443562 ], [ -120.109742671741984, 38.985465333545108 ], [ -120.108312784534021, 38.985429877776923 ], [ -120.108084356676585, 38.985370158213115 ], [ -120.10825019274931, 38.985266163947479 ], [ -120.108380163411468, 38.984909028852364 ] ] ] } }
]
}
