{
"type": "FeatureCollection",
"name": "X03719",
"crs": { "type": "name", "properties": { "name": "urn:ogc:def:crs:OGC:1.3:CRS84" } },
"features": [
{ "type": "Feature", "properties": { "part": "direct", "crossing_id": "X03719", "area_ac": 0.3 }, "geometry": { "type": "Polygon", "coordinates": [ [ [ -120.07949602288646, 38.941756947258028 ], [ -120.081638744879768, 38.941828603306931 ], [ -120.081613481337996, 38.941882024950637 ], [ -120.080554750879742, 38.94181949087794 ], [ -120.079469279680495, 38.941846367233332 ], [ -120.07919344333358, 38.94182144143997 ], [ -120.07949602288646, 38.941756947258028 ] ] ] } }
]
}
