{
"type": "FeatureCollection",
"name": "X03741",
"crs": { "type": "name", "properties": { "name": "urn:ogc:def:crs:OGC:1.3:CRS84" } },
"features": [
{ "type": "Feature", "properties": { "part": "direct", "crossing_id": "X03741", "area_ac": 23.9 }, "geometry": { "type": "MultiPolygon", "coordinates": [ [ [ [ -120.114407729763542, 38.941652995963153 ], [ -120.114430048163641, 38.941671566216847 ], [ -120.114406999545565, 38.941670995949799 ], [ -120.114407729763542, 38.941652995963153 ] ] ], [ [ [ -120.114404808887713, 38.941724995909404 ], [ -120.113508508614288, 38.942207321558627 ], [ -120.113046072129904, 38.94223191151049 ], [ -120.112573405651133, 38.942508498990776 ], [ -120.112155603189322, 38.942570226498177 ], [ -120.111751347050003, 38.942866522521086 ], [ -120.111448055754138, 38.94294910130801 ], [ -120.110354164781313, 38.943750832714159 ], [ -120.109919531041157, 38.94422654979244 ], [ -120.108970485833524, 38.94486969467836 ], [ -120.108777308790948, 38.945081122121572 ], [ -120.10822265466139, 38.945103406423243 ], [ -120.107699459402397, 38.945486828725564 ], [ -120.10738297491045, 38.945893393857155 ], [ -120.106667314386385, 38.946470235617916 ], [ -120.106661455961515, 38.946614234405921 ], [ -120.106771580320569, 38.946743092594481 ], [ -120.10679644443691, 38.947266231894588 ], [ -120.106086281040433, 38.947140503627146 ], [ -120.106128374975583, 38.946673079798238 ], [ -120.106446334884112, 38.94623051883444 ], [ -120.106460249418063, 38.945888521748422 ], [ -120.106703196324091, 38.945588242947416 ], [ -120.107775570376702, 38.944749977313464 ], [ -120.107880943332333, 38.944428266014832 ], [ -120.108025094832698, 38.944287696468592 ], [ -120.108060586277929, 38.943982270100868 ], [ -120.108179491733452, 38.943895128394914 ], [ -120.108252667762287, 38.943230275776095 ], [ -120.108372303461465, 38.94312513392132 ], [ -120.108484988319887, 38.942623422918118 ], [ -120.109033400987059, 38.942186567603876 ], [ -120.109457786509068, 38.94196285214197 ], [ -120.109807172698126, 38.941881420819641 ], [ -120.112964105388116, 38.941977629822354 ], [ -120.113428001166582, 38.941917040192507 ], [ -120.113687379904036, 38.941779315242904 ], [ -120.114218229023976, 38.941774433550854 ], [ -120.114383950928186, 38.941670425678197 ], [ -120.114404808887713, 38.941724995909404 ] ] ], [ [ [ -120.11443150858733, 38.941635566242773 ], [ -120.114453826988722, 38.941654136491984 ], [ -120.114430778375819, 38.941653566229846 ], [ -120.11443150858733, 38.941635566242773 ] ] ] ] } }
]
}
