{
"type": "FeatureCollection",
"name": "X03701",
"crs": { "type": "name", "properties": { "name": "urn:ogc:def:crs:OGC:1.3:CRS84" } },
"features": [
{ "type": "Feature", "properties": { "part": "direct", "crossing_id": "X03701", "area_ac": 0.2 }, "geometry": { "type": "Polygon", "coordinates": [ [ [ -120.029477327189625, 38.924619975703166 ], [ -120.028953136175673, 38.925021033697469 ], [ -120.028766550184713, 38.925070334063442 ], [ -120.02874726585847, 38.92497975380055 ], [ -120.028914567104593, 38.924839873212065 ], [ -120.02924541115344, 38.924650104566361 ], [ -120.029477327189625, 38.924619975703166 ] ] ] } }
]
}
