{
"type": "FeatureCollection",
"name": "X03748",
"crs": { "type": "name", "properties": { "name": "urn:ogc:def:crs:OGC:1.3:CRS84" } },
"features": [
{ "type": "Feature", "properties": { "part": "direct", "crossing_id": "X03748", "area_ac": 0.4, "n_upstream": null }, "geometry": { "type": "Polygon", "coordinates": [ [ [ -120.111964980943611, 38.950673621585622 ], [ -120.111794847196393, 38.950885624447878 ], [ -120.1118270591396, 38.951228764652853 ], [ -120.111546052112942, 38.951329913047203 ], [ -120.111574953280225, 38.951186484701445 ], [ -120.111464082336894, 38.95107563045628 ], [ -120.111605316654462, 38.951007056514619 ], [ -120.111662387125406, 38.950738199661195 ], [ -120.111945584832924, 38.950583051122564 ], [ -120.111964980943611, 38.950673621585622 ] ] ] } },
{ "type": "Feature", "properties": { "part": "upstream", "crossing_id": "X03748", "area_ac": 0.0, "n_upstream": 1.0 }, "geometry": { "type": "Polygon", "coordinates": [ [ [ -120.111688018033817, 38.95124333911113 ], [ -120.11173265907135, 38.951280480777626 ], [ -120.111685824565271, 38.95129733885242 ], [ -120.111688018033817, 38.95124333911113 ] ] ] } }
]
}
