{
"type": "FeatureCollection",
"name": "X03704",
"crs": { "type": "name", "properties": { "name": "urn:ogc:def:crs:OGC:1.3:CRS84" } },
"features": [
{ "type": "Feature", "properties": { "part": "direct", "crossing_id": "X03704", "area_ac": 94.8 }, "geometry": { "type": "MultiPolygon", "coordinates": [ [ [ [ -120.043755684541878, 38.927937673675224 ], [ -120.044113153727452, 38.928217001347477 ], [ -120.044775415977071, 38.928377926153765 ], [ -120.044882408516528, 38.928578833372548 ], [ -120.045228052847818, 38.928587590363158 ], [ -120.045254832574358, 38.928498179544953 ], [ -120.045711955164236, 38.928599848433443 ], [ -120.046018866420241, 38.92898599685649 ], [ -120.046290154009455, 38.929118992420847 ], [ -120.046328769338615, 38.929300148853692 ], [ -120.046466281566964, 38.929321649047267 ], [ -120.046438755893121, 38.929429059112856 ], [ -120.046655742054853, 38.929758875100518 ], [ -120.046798370686702, 38.930212932902528 ], [ -120.046955193525335, 38.93032501075264 ], [ -120.04692841507763, 38.930414421993568 ], [ -120.047106788307673, 38.930563080991632 ], [ -120.04710305360706, 38.930653075691453 ], [ -120.047329009003377, 38.930766903334579 ], [ -120.047432277733634, 38.931057803278001 ], [ -120.047590597068506, 38.931133882479926 ], [ -120.04776374590854, 38.931408533211503 ], [ -120.048126475171159, 38.931561857062093 ], [ -120.048258019002162, 38.931727346962354 ], [ -120.048373239207223, 38.931730262937918 ], [ -120.048641555349846, 38.93193524938917 ], [ -120.049125481903488, 38.931947494188144 ], [ -120.049407982636779, 38.931810498529849 ], [ -120.049573676580849, 38.932265136622917 ], [ -120.049847968642737, 38.932326128675413 ], [ -120.049862803714333, 38.932524700344374 ], [ -120.050111067764689, 38.932657104844324 ], [ -120.050195036916335, 38.932857425036246 ], [ -120.050378646327133, 38.932880086582657 ], [ -120.050324349342347, 38.933076909803873 ], [ -120.050475960966025, 38.933314976228552 ], [ -120.050260351223102, 38.933507719757145 ], [ -120.042763845318504, 38.934597146648088 ], [ -120.042003365510936, 38.934577861384128 ], [ -120.040998376611043, 38.934336154059558 ], [ -120.03972734403122, 38.933835436254071 ], [ -120.03980696182758, 38.933585207621967 ], [ -120.039972766024107, 38.933481308907737 ], [ -120.039908125732239, 38.933371561410226 ], [ -120.040025594136452, 38.933320489281428 ], [ -120.039983249428914, 38.93322932548984 ], [ -120.040078421988156, 38.933159669617957 ], [ -120.040072599645029, 38.932745111957715 ], [ -120.040362606649168, 38.932428150818176 ], [ -120.04032175936068, 38.932300989492134 ], [ -120.040436979667788, 38.93230391333698 ], [ -120.040628818401487, 38.932128602956453 ], [ -120.040564926800769, 38.932000856979919 ], [ -120.040921814461427, 38.931739644866191 ], [ -120.041054997824304, 38.931310595957129 ], [ -120.041368038004038, 38.930994216466765 ], [ -120.04131612046163, 38.930578489335716 ], [ -120.041691551674703, 38.930425852083765 ], [ -120.041699034675062, 38.930245863555299 ], [ -120.041869317679939, 38.930033968548393 ], [ -120.042296068450256, 38.929756506026436 ], [ -120.042589793102707, 38.929349544001575 ], [ -120.042970450810984, 38.929070910119052 ], [ -120.043130398327222, 38.92855244779836 ], [ -120.043755684541878, 38.927937673675224 ] ] ], [ [ [ -120.043641966440177, 38.927898755595436 ], [ -120.043686556386348, 38.927935921511342 ], [ -120.043663513669173, 38.927935337447643 ], [ -120.043641966440177, 38.927898755595436 ] ] ] ] } }
]
}
