{
"type": "FeatureCollection",
"name": "X03790",
"crs": { "type": "name", "properties": { "name": "urn:ogc:def:crs:OGC:1.3:CRS84" } },
"features": [
{ "type": "Feature", "properties": { "part": "direct", "crossing_id": "X03790", "area_ac": 9.3 }, "geometry": { "type": "Polygon", "coordinates": [ [ [ -120.116933596200738, 38.996562251322935 ], [ -120.116600430433522, 38.9968062626346 ], [ -120.116404199742945, 38.997089695977884 ], [ -120.115786184806879, 38.997524856022899 ], [ -120.114492984287949, 38.997528890499254 ], [ -120.114326395336022, 38.997650892534054 ], [ -120.114003460682142, 38.997642898522173 ], [ -120.113743139790799, 38.997798615113375 ], [ -120.112795937296411, 38.997811196332073 ], [ -120.112134690093953, 38.998173194198912 ], [ -120.111534218743486, 38.998176335801411 ], [ -120.111485155262088, 38.998247191799649 ], [ -120.111325151913661, 38.998207191396496 ], [ -120.111184553091519, 38.998257761181932 ], [ -120.110609346137608, 38.998207470317816 ], [ -120.110606060821382, 38.997720905297022 ], [ -120.111233989671092, 38.997610341339254 ], [ -120.11189962952939, 38.997140349878485 ], [ -120.1122478244896, 38.997094921660803 ], [ -120.112576613151063, 38.996958922146518 ], [ -120.114280609568482, 38.997073185611448 ], [ -120.115573801644231, 38.997069153178749 ], [ -120.11594725498432, 38.996970285000266 ], [ -120.11611383962159, 38.996848280469479 ], [ -120.116368302774731, 38.996836557010674 ], [ -120.116933596200738, 38.996562251322935 ] ] ] } }
]
}
