{
"type": "FeatureCollection",
"name": "X03777",
"crs": { "type": "name", "properties": { "name": "urn:ogc:def:crs:OGC:1.3:CRS84" } },
"features": [
{ "type": "Feature", "properties": { "part": "direct", "crossing_id": "X03777", "area_ac": 30.8 }, "geometry": { "type": "Polygon", "coordinates": [ [ [ -120.118191751327558, 38.978647470893009 ], [ -120.118210430690212, 38.978756040459253 ], [ -120.118389805176406, 38.978886599624666 ], [ -120.118384693906691, 38.979012599166744 ], [ -120.118266469060316, 38.979081749142438 ], [ -120.118199170563059, 38.979602607192334 ], [ -120.118100354169215, 38.979762326573308 ], [ -120.117220798158655, 38.980389230146102 ], [ -120.117026080484351, 38.980636667226513 ], [ -120.116240942472317, 38.981211843758651 ], [ -120.116189703951207, 38.981336702217881 ], [ -120.114405248023971, 38.982643898993423 ], [ -120.114326555338678, 38.982876184822558 ], [ -120.113777843841973, 38.98331305170268 ], [ -120.111401357708615, 38.984983920311308 ], [ -120.110868721474077, 38.985024776471455 ], [ -120.1106454185188, 38.984839063330391 ], [ -120.108616651011587, 38.984770750421703 ], [ -120.108458145131522, 38.984694747692728 ], [ -120.108489268766917, 38.984497322302225 ], [ -120.108977975088592, 38.984401333892485 ], [ -120.110528290947514, 38.983178509846958 ], [ -120.111357423076086, 38.98265851674519 ], [ -120.111823783570145, 38.98254394455514 ], [ -120.112391903051858, 38.982197657368602 ], [ -120.112857527395875, 38.982101080689141 ], [ -120.11333046597899, 38.981824503648163 ], [ -120.11442679370046, 38.98154533665825 ], [ -120.115997823459196, 38.980377003778798 ], [ -120.11734956678157, 38.979491515115768 ], [ -120.117898956645277, 38.979036629289347 ], [ -120.118191751327558, 38.978647470893009 ] ] ] } }
]
}
