{
"type": "FeatureCollection",
"name": "X03752",
"crs": { "type": "name", "properties": { "name": "urn:ogc:def:crs:OGC:1.3:CRS84" } },
"features": [
{ "type": "Feature", "properties": { "part": "direct", "crossing_id": "X03752", "area_ac": 17.0 }, "geometry": { "type": "Polygon", "coordinates": [ [ [ -120.102475939408862, 38.960996779453559 ], [ -120.103009864202434, 38.960919955355237 ], [ -120.103505330329, 38.961220550938471 ], [ -120.103518849764654, 38.961455120383881 ], [ -120.103609602056267, 38.961493410502555 ], [ -120.103733995664214, 38.961838841636457 ], [ -120.104115662728844, 38.962100572233652 ], [ -120.104291303217295, 38.96232114965192 ], [ -120.104324947159682, 38.962628290638754 ], [ -120.104529510940282, 38.962705442166808 ], [ -120.104569755352003, 38.962850585233127 ], [ -120.104954363542674, 38.963040314296364 ], [ -120.105737112974367, 38.963654338237788 ], [ -120.105796751037616, 38.96389005212913 ], [ -120.105979730319817, 38.963930629485546 ], [ -120.105976065659959, 38.964020628404093 ], [ -120.106197828000987, 38.964242347697493 ], [ -120.106755903616815, 38.964706645314102 ], [ -120.106962674259961, 38.964729793487457 ], [ -120.10736742478224, 38.964992086385593 ], [ -120.107734856305981, 38.965037236539672 ], [ -120.107936501072516, 38.965186381703035 ], [ -120.107160653204076, 38.964968938897385 ], [ -120.106653420975988, 38.964956354115323 ], [ -120.106379680405951, 38.964877489612221 ], [ -120.105835466338306, 38.965206325006797 ], [ -120.105605638754085, 38.965182602503063 ], [ -120.105380943141796, 38.965032881156873 ], [ -120.105035836382982, 38.965006295811243 ], [ -120.104948011754374, 38.964896007566288 ], [ -120.104425791920605, 38.964684843342305 ], [ -120.104448525246411, 38.964126850849105 ], [ -120.103915725586702, 38.963609116245706 ], [ -120.103791328519605, 38.963263685245913 ], [ -120.103702040894746, 38.963189395689497 ], [ -120.10342464294159, 38.963200523343815 ], [ -120.103220079089851, 38.963123369873252 ], [ -120.103112138736478, 38.96294050870025 ], [ -120.10261813032858, 38.962603911660786 ], [ -120.102626201497813, 38.962405914578021 ], [ -120.102380667293403, 38.962201615907283 ], [ -120.102084621397296, 38.962104169239808 ], [ -120.101894740458619, 38.961667019077382 ], [ -120.101667861898548, 38.961571290385159 ], [ -120.102475939408862, 38.960996779453559 ] ] ] } }
]
}
