{
"type": "FeatureCollection",
"name": "X03744",
"crs": { "type": "name", "properties": { "name": "urn:ogc:def:crs:OGC:1.3:CRS84" } },
"features": [
{ "type": "Feature", "properties": { "part": "direct", "crossing_id": "X03744", "area_ac": 1.3 }, "geometry": { "type": "MultiPolygon", "coordinates": [ [ [ [ -120.110300825144094, 38.947335099264805 ], [ -120.11032314411402, 38.947353670316183 ], [ -120.110300093739596, 38.947353099168652 ], [ -120.110300825144094, 38.947335099264805 ] ] ], [ [ [ -120.110277043365826, 38.94735252801658 ], [ -120.110292424778521, 38.948109666233023 ], [ -120.110097047679048, 38.94837509527224 ], [ -120.110137297291786, 38.948520236851202 ], [ -120.10985483596302, 38.948657381313083 ], [ -120.109532125002914, 38.948649383315988 ], [ -120.109225879538116, 38.948803954749856 ], [ -120.109145383972532, 38.948513671093181 ], [ -120.109379549606416, 38.948429385357819 ], [ -120.109501387837312, 38.948270243032852 ], [ -120.110188874897119, 38.947818811971999 ], [ -120.110277043365826, 38.94735252801658 ] ] ] ] } }
]
}
