{
"type": "FeatureCollection",
"name": "X03732",
"crs": { "type": "name", "properties": { "name": "urn:ogc:def:crs:OGC:1.3:CRS84" } },
"features": [
{ "type": "Feature", "properties": { "part": "direct", "crossing_id": "X03732", "area_ac": 2.0 }, "geometry": { "type": "Polygon", "coordinates": [ [ [ -120.087881160855233, 38.950525153331974 ], [ -120.089911641196679, 38.949963229384991 ], [ -120.08990795804128, 38.950053227236687 ], [ -120.08962103420518, 38.950298318301705 ], [ -120.088985396253165, 38.950606776336762 ], [ -120.088273966052398, 38.951075499943727 ], [ -120.087865680397428, 38.950903143578422 ], [ -120.08780611060584, 38.950667422741837 ], [ -120.087881160855233, 38.950525153331974 ] ] ] } }
]
}
