{
"type": "FeatureCollection",
"name": "X03717",
"crs": { "type": "name", "properties": { "name": "urn:ogc:def:crs:OGC:1.3:CRS84" } },
"features": [
{ "type": "Feature", "properties": { "part": "direct", "crossing_id": "X03717", "area_ac": 806.8, "n_upstream": null }, "geometry": { "type": "Polygon", "coordinates": [ [ [ -120.100990339774384, 38.913085978193401 ], [ -120.100936199917911, 38.913282831512944 ], [ -120.101087947049706, 38.913520837673943 ], [ -120.101061243523176, 38.91361026442361 ], [ -120.101647808558539, 38.91393114723877 ], [ -120.101682896634586, 38.914202290169392 ], [ -120.101537332260335, 38.914378854084937 ], [ -120.101715054045357, 38.914545432563131 ], [ -120.101704063194035, 38.914815430583005 ], [ -120.101837905053372, 38.914926864406148 ], [ -120.101825449102236, 38.915232862174101 ], [ -120.102002440929169, 38.91541744016935 ], [ -120.101949767039628, 38.915578294191434 ], [ -120.102106650622673, 38.915690300170724 ], [ -120.102093462825636, 38.916014297841464 ], [ -120.101994708381184, 38.916174007075739 ], [ -120.102078809468836, 38.916374295227861 ], [ -120.102049907824849, 38.916517721776486 ], [ -120.101931775832227, 38.91658685917966 ], [ -120.101952211235442, 38.917217999302132 ], [ -120.10183586827192, 38.917809704979568 ], [ -120.101642749281595, 38.918021123448483 ], [ -120.101609448845053, 38.918272548927519 ], [ -120.1015158199734, 38.918306258562296 ], [ -120.101579079543015, 38.918451974962117 ], [ -120.101038145417547, 38.918708803543325 ], [ -120.101314956451503, 38.919274242618648 ], [ -120.101470701835083, 38.919980817225408 ], [ -120.101419075807527, 38.920682238664845 ], [ -120.101521823810245, 38.920991098872705 ], [ -120.101488841039099, 38.921801091852316 ], [ -120.101240829077128, 38.922227361975231 ], [ -120.101341379042069, 38.922590221837808 ], [ -120.101233816222134, 38.922965927887297 ], [ -120.101265239715246, 38.923327069857351 ], [ -120.101100277315879, 38.923413060429716 ], [ -120.101113056294125, 38.923665630736942 ], [ -120.10089760882714, 38.923858474591029 ], [ -120.100720180039204, 38.924250461567098 ], [ -120.100741335861599, 38.924863601030253 ], [ -120.100312630213779, 38.925195287053292 ], [ -120.10016043778198, 38.925533846268728 ], [ -120.099922672166684, 38.925708115256583 ], [ -120.099524336517604, 38.925860372923594 ], [ -120.098923746161788, 38.92588147260669 ], [ -120.098637688580538, 38.926108591881459 ], [ -120.097387766094315, 38.926780197087496 ], [ -120.09719167156814, 38.927063605498077 ], [ -120.097157615038142, 38.927333028358369 ], [ -120.096526168720629, 38.928110104638144 ], [ -120.096312164014094, 38.928266939416005 ], [ -120.096086406272377, 38.928711769528348 ], [ -120.095396823117852, 38.929217121495952 ], [ -120.094988171311158, 38.929621358504264 ], [ -120.094759932735755, 38.929561619589094 ], [ -120.094755523512134, 38.929669617854422 ], [ -120.094638832052979, 38.92970274720502 ], [ -120.094433898505784, 38.93020214659132 ], [ -120.094096574479849, 38.93055410309892 ], [ -120.093807797047077, 38.931411772455924 ], [ -120.093644277326774, 38.931461751933156 ], [ -120.093380489815132, 38.931707430540548 ], [ -120.093030403256179, 38.931806813611423 ], [ -120.09188746155634, 38.932679221532091 ], [ -120.090894540060077, 38.93326707182905 ], [ -120.08927590792419, 38.934487947080967 ], [ -120.088120353377846, 38.935666307389823 ], [ -120.087672161382002, 38.93590736833913 ], [ -120.087139351200094, 38.936524691647968 ], [ -120.087037584560534, 38.936756383605577 ], [ -120.085860382923215, 38.937898143543229 ], [ -120.08490697620087, 38.939207646493472 ], [ -120.084459310989104, 38.938872133003784 ], [ -120.0841165557772, 38.938791492221853 ], [ -120.084005009595572, 38.938698613538349 ], [ -120.08428065960733, 38.938164966385322 ], [ -120.082771950592971, 38.937262376784624 ], [ -120.081626269713553, 38.937071552738274 ], [ -120.080846232835967, 38.936403385200549 ], [ -120.080595678896373, 38.936325041931767 ], [ -120.08022546240646, 38.936351810192193 ], [ -120.08004478667965, 38.936257197150859 ], [ -120.079551810085405, 38.935902512831262 ], [ -120.079359174269968, 38.93553733002048 ], [ -120.07901348561154, 38.935528672800565 ], [ -120.078979217989229, 38.935239527385676 ], [ -120.078681839740867, 38.935178025285637 ], [ -120.078571045464997, 38.935067142406318 ], [ -120.07843055357138, 38.935117677039266 ], [ -120.078469860166621, 38.934722266796115 ], [ -120.078382851635595, 38.93459396161235 ], [ -120.078373110566446, 38.934269394515781 ], [ -120.078587171666442, 38.934112595030342 ], [ -120.078935070281858, 38.934067254919647 ], [ -120.079184136514314, 38.934181600303411 ], [ -120.079509728579538, 38.934117681892197 ], [ -120.079803409445219, 38.934269179031944 ], [ -120.079844329132385, 38.934396329245629 ], [ -120.079960295657884, 38.934381214749983 ], [ -120.079978170085525, 38.934507787943026 ], [ -120.080069613759306, 38.934528095283021 ], [ -120.080461240374802, 38.933979342594135 ], [ -120.08067234203061, 38.933894536944749 ], [ -120.080746647929232, 38.933770271113964 ], [ -120.080610591372704, 38.933712811708922 ], [ -120.080569670614665, 38.933585661713728 ], [ -120.080646191945277, 38.933407397518238 ], [ -120.080534658511311, 38.933314515936914 ], [ -120.080546475427894, 38.933026524383003 ], [ -120.080720345932804, 38.932724571122243 ], [ -120.080837786517364, 38.932673456682565 ], [ -120.080773082370229, 38.932563729437184 ], [ -120.080844432712297, 38.932511461373977 ], [ -120.080830987786257, 38.932276891360047 ], [ -120.080585617756299, 38.932072552237294 ], [ -120.080445133192939, 38.932123089603614 ], [ -120.080332863362813, 38.932048207371807 ], [ -120.080390031431875, 38.931779369017391 ], [ -120.079613160093984, 38.931597757862107 ], [ -120.079710365405717, 38.930915509237025 ], [ -120.080047759845399, 38.930563597184289 ], [ -120.080029885842521, 38.930437023960657 ], [ -120.08020079721291, 38.930207069098522 ], [ -120.080134618917199, 38.930133340533118 ], [ -120.080298143826965, 38.930083380246927 ], [ -120.080318084092838, 38.929597394322769 ], [ -120.080529172564596, 38.929512588383965 ], [ -120.080677036037585, 38.929282055836389 ], [ -120.08081751471363, 38.929231517947194 ], [ -120.080823421761281, 38.929087522035111 ], [ -120.08057806218244, 38.928883183222652 ], [ -120.080539359041722, 38.928702034775874 ], [ -120.080357963180049, 38.928625422326895 ], [ -120.080204781029423, 38.928423390105486 ], [ -120.080200938773217, 38.927954826714824 ], [ -120.080375535409502, 38.927634873834094 ], [ -120.080082618266985, 38.927465379509393 ], [ -120.080183653493478, 38.927251693146978 ], [ -120.080003738720634, 38.927139081320561 ], [ -120.079987342342804, 38.926976509096882 ], [ -120.079849083404937, 38.926973047710881 ], [ -120.079762080921469, 38.926844743676959 ], [ -120.079624560889187, 38.926823282557002 ], [ -120.079566511100481, 38.926551559529088 ], [ -120.079188815700434, 38.926199760566718 ], [ -120.079245981964888, 38.92593092252406 ], [ -120.078924719379131, 38.925328284265511 ], [ -120.079276267857153, 38.925192944046238 ], [ -120.079902848446267, 38.925100524534543 ], [ -120.08004848843467, 38.924923990824396 ], [ -120.07987374907853, 38.924685382573031 ], [ -120.079945091777901, 38.924633114720507 ], [ -120.079930911197181, 38.92441654398732 ], [ -120.080269748499177, 38.924028630735712 ], [ -120.080208005862545, 38.923846905387329 ], [ -120.080372992699694, 38.923760945396928 ], [ -120.080331338618365, 38.923651794863794 ], [ -120.08052674998109, 38.923386416394493 ], [ -120.080957746444412, 38.923000807647213 ], [ -120.081009735589461, 38.922857964834911 ], [ -120.081339702339591, 38.922686042058267 ], [ -120.081255654240792, 38.922485741087122 ], [ -120.081336588601317, 38.922199478509178 ], [ -120.081618254305823, 38.92208040022205 ], [ -120.081715586516069, 38.921956709514362 ], [ -120.081676883112664, 38.921775561291291 ], [ -120.08175043535266, 38.921669293568421 ], [ -120.081664911168772, 38.921504991917253 ], [ -120.081832104528146, 38.921365030970478 ], [ -120.081770359731308, 38.921183306312848 ], [ -120.081892207436042, 38.921024192779178 ], [ -120.081883924069828, 38.920663625709494 ], [ -120.08198272945863, 38.920503935592848 ], [ -120.082265862856076, 38.920348856335934 ], [ -120.082231585378494, 38.920059710994437 ], [ -120.082328175810787, 38.919954019131708 ], [ -120.08231177472166, 38.919791446920044 ], [ -120.082700345626066, 38.919314679907224 ], [ -120.082734450904923, 38.919045262901797 ], [ -120.082973708262415, 38.918835030451973 ], [ -120.082916387744874, 38.918545308971254 ], [ -120.083068643794903, 38.918206774492333 ], [ -120.083648896036692, 38.917554617150984 ], [ -120.084310976897484, 38.917156754257967 ], [ -120.08478946787406, 38.916736281369992 ], [ -120.085164002724355, 38.916601496966216 ], [ -120.085348322017765, 38.916606102693891 ], [ -120.085444902969911, 38.916500407836118 ], [ -120.08572506564434, 38.916417317603994 ], [ -120.086001544023802, 38.916424224730555 ], [ -120.086474127383951, 38.916147741245659 ], [ -120.088486688656118, 38.915999793777289 ], [ -120.088995996564634, 38.916517009691731 ], [ -120.089288892909835, 38.916686480979656 ], [ -120.08949551726505, 38.916709654752452 ], [ -120.089650910920128, 38.91685767615656 ], [ -120.089925184700789, 38.916918573069808 ], [ -120.090249953323948, 38.916872620768487 ], [ -120.092206158736602, 38.916975455864247 ], [ -120.092255179771286, 38.9169046057131 ], [ -120.0927917187514, 38.916755816825813 ], [ -120.093115015378814, 38.916745855886212 ], [ -120.094169453690483, 38.916339694993539 ], [ -120.094335876169083, 38.916217714340945 ], [ -120.09446282951339, 38.915932587914511 ], [ -120.094645679519019, 38.915973178397877 ], [ -120.094835874681635, 38.91583377105853 ], [ -120.095137596144326, 38.915787231003236 ], [ -120.095639790200252, 38.915349284669077 ], [ -120.095942243389345, 38.915284742656787 ], [ -120.096607908042515, 38.914796807432772 ], [ -120.09665985917087, 38.914653956032893 ], [ -120.09700471805553, 38.914680556936922 ], [ -120.097335343643238, 38.914490585941699 ], [ -120.097869653887827, 38.914395771937834 ], [ -120.098059838652318, 38.914256358902428 ], [ -120.098313272255766, 38.914262663390986 ], [ -120.098507123409547, 38.914033250488529 ], [ -120.098668398888876, 38.914037261862276 ], [ -120.099470802380111, 38.913588746809289 ], [ -120.099983530592397, 38.913457350179172 ], [ -120.100747489083886, 38.913386249863066 ], [ -120.100990339774384, 38.913085978193401 ] ], [ [ -120.080206115806931, 38.930639633387116 ], [ -120.080217342960665, 38.930928201861342 ], [ -120.080286476288393, 38.930929932503417 ], [ -120.080319860461486, 38.930678516713797 ], [ -120.080206115806931, 38.930639633387116 ] ], [ [ -120.081297007281279, 38.929351625632357 ], [ -120.081245013136552, 38.929494468273987 ], [ -120.081489638492812, 38.929716805316417 ], [ -120.081482256194718, 38.929896800293342 ], [ -120.081587880163653, 38.930133676845664 ], [ -120.081657012804627, 38.930135406646613 ], [ -120.081608549858984, 38.929629690866307 ], [ -120.081384015388551, 38.929479928696665 ], [ -120.081389183101152, 38.929353932215562 ], [ -120.081297007281279, 38.929351625632357 ] ], [ [ -120.083919239636614, 38.928408208299103 ], [ -120.083963851908294, 38.928445359624668 ], [ -120.083965327042506, 38.92840936054121 ], [ -120.083919239636614, 38.928408208299103 ] ], [ [ -120.086466379702358, 38.927606999036307 ], [ -120.08651025598634, 38.927662149008079 ], [ -120.08648942319806, 38.927607574646942 ], [ -120.086466379702358, 38.927606999036307 ] ], [ [ -120.08691231102587, 38.927419939352681 ], [ -120.086818663615958, 38.927453636407179 ], [ -120.08679414650986, 38.927489060043534 ], [ -120.086863276904637, 38.927490786663348 ], [ -120.08691231102587, 38.927419939352681 ] ], [ [ -120.09279305937595, 38.926323422786773 ], [ -120.092331459914462, 38.926329934596041 ], [ -120.092187317230596, 38.926470485315846 ], [ -120.091813476664512, 38.926587290934449 ], [ -120.090954989913953, 38.926710026940938 ], [ -120.090835358717285, 38.926815151247126 ], [ -120.090133019636014, 38.927067901660905 ], [ -120.089353447429104, 38.927516918492657 ], [ -120.089123012207679, 38.927511167846596 ], [ -120.088535142203682, 38.927784783124778 ], [ -120.08805196336408, 38.927754703172717 ], [ -120.087863195390113, 38.927858098250589 ], [ -120.08744767393037, 38.927865740989205 ], [ -120.087544475651796, 38.928318608051967 ], [ -120.087319400675455, 38.928745419476428 ], [ -120.088220322043142, 38.928713860079561 ], [ -120.08883882557879, 38.928819389087145 ], [ -120.089648308315788, 38.928767518362676 ], [ -120.09306369623053, 38.926474312188773 ], [ -120.09279305937595, 38.926323422786773 ] ], [ [ -120.082036952783312, 38.925370148753501 ], [ -120.081974631583662, 38.925764985238004 ], [ -120.081989556415593, 38.925963556410721 ], [ -120.082058685033829, 38.925965285819188 ], [ -120.082101653078283, 38.925479875238757 ], [ -120.082036952783312, 38.925370148753501 ] ], [ [ -120.080563699255762, 38.92529724704454 ], [ -120.080583050182867, 38.925387821276829 ], [ -120.080280542028902, 38.925452321152278 ], [ -120.080020426305126, 38.925607971383862 ], [ -120.080024268218779, 38.92607653489425 ], [ -120.080178922140362, 38.926242568234464 ], [ -120.080433871156586, 38.926212914184688 ], [ -120.080635350655626, 38.926362101038414 ], [ -120.080911866377392, 38.926369021693837 ], [ -120.081085874848711, 38.926625628122757 ], [ -120.081336395891199, 38.926703969159512 ], [ -120.08149015551777, 38.926329439100414 ], [ -120.081424717346238, 38.926237711803957 ], [ -120.081566665625488, 38.926151173718743 ], [ -120.081406103328845, 38.926129138165123 ], [ -120.081413484827905, 38.92594914308404 ], [ -120.08126399576895, 38.925657114741476 ], [ -120.080857347290689, 38.925448740415078 ], [ -120.080749516886243, 38.925265861895689 ], [ -120.080563699255762, 38.92529724704454 ] ], [ [ -120.081468267127505, 38.925175740730332 ], [ -120.081352315963002, 38.925190857336148 ], [ -120.081327797057483, 38.925226279760047 ], [ -120.081468267127505, 38.925175740730332 ] ], [ [ -120.083522572249109, 38.924578477628081 ], [ -120.083498054626077, 38.924613900561425 ], [ -120.083521097092557, 38.924614476721025 ], [ -120.083522572249109, 38.924578477628081 ] ] ] } },
{ "type": "Feature", "properties": { "part": "upstream", "crossing_id": "X03717", "area_ac": 1263.6, "n_upstream": 24.0 }, "geometry": { "type": "MultiPolygon", "coordinates": [ [ [ [ -120.090960284594345, 38.8960975013945 ], [ -120.092145057432333, 38.897009923713519 ], [ -120.092418523690782, 38.897088811863895 ], [ -120.092891215226345, 38.897370862884372 ], [ -120.093074017161214, 38.897411454084647 ], [ -120.093263428960199, 38.897290046927289 ], [ -120.093634173305915, 38.897245229334374 ], [ -120.094230116395551, 38.897332146439339 ], [ -120.094521481769249, 38.897537602128274 ], [ -120.095225993313591, 38.897789380806252 ], [ -120.09567273177133, 38.898142846880184 ], [ -120.095944739232763, 38.898257726712174 ], [ -120.096521620417391, 38.898812628137385 ], [ -120.096604221194156, 38.899048919054607 ], [ -120.09646234618225, 38.899135478572155 ], [ -120.096409674282867, 38.899296330465006 ], [ -120.096534676218369, 38.899623767180081 ], [ -120.096128412350339, 38.899974017242897 ], [ -120.096171546918072, 38.900047163265043 ], [ -120.096491832979112, 38.900109189323679 ], [ -120.096758714019302, 38.90035006638329 ], [ -120.096643831843636, 38.900905768115749 ], [ -120.09697908813871, 38.901166364424064 ], [ -120.096894577284942, 38.90154264124709 ], [ -120.097049222249069, 38.901708652278991 ], [ -120.096992881488617, 38.901959503513901 ], [ -120.097349712357541, 38.902256671844228 ], [ -120.097430852228484, 38.902528961985738 ], [ -120.097542362999178, 38.902621826824628 ], [ -120.097535028359971, 38.902801825208691 ], [ -120.097755851035885, 38.903041554148736 ], [ -120.097943372008842, 38.903532707474028 ], [ -120.097913735535201, 38.903694132995277 ], [ -120.09809362343637, 38.903806716388708 ], [ -120.098303754723474, 38.904875010300515 ], [ -120.098897876465273, 38.905574473957515 ], [ -120.098862375321829, 38.905879898522564 ], [ -120.098973893022347, 38.905972762217758 ], [ -120.099690231788117, 38.905936519670391 ], [ -120.100536729969932, 38.906101706816337 ], [ -120.101579171934645, 38.907118606667865 ], [ -120.101525771839974, 38.907297460784498 ], [ -120.101386083210045, 38.907330026128776 ], [ -120.101288073128501, 38.907471735487576 ], [ -120.101201377264474, 38.907902015306583 ], [ -120.101312901160583, 38.907994876973781 ], [ -120.101188921699858, 38.908208013270816 ], [ -120.101418157615683, 38.908808306275432 ], [ -120.101419541289133, 38.909907443817438 ], [ -120.101931103579233, 38.910370605968026 ], [ -120.101805656159797, 38.910619742523657 ], [ -120.102068930467553, 38.910950608659299 ], [ -120.102062337623963, 38.911112607623764 ], [ -120.101941284648674, 38.911253744968143 ], [ -120.102054279631972, 38.911310606350661 ], [ -120.102024648074419, 38.911472032961591 ], [ -120.101879090530758, 38.911648597621728 ], [ -120.10196465190495, 38.911812886014644 ], [ -120.101798252599366, 38.911934878532321 ], [ -120.101863705756784, 38.912026595088101 ], [ -120.101698038424487, 38.912130587556398 ], [ -120.10169364245435, 38.912238586809281 ], [ -120.101410581834244, 38.912393716296791 ], [ -120.101400323421188, 38.912645714474188 ], [ -120.101259158520676, 38.912714278972786 ], [ -120.101298641490828, 38.912877422789506 ], [ -120.101089091700416, 38.912926269658627 ], [ -120.100747489083886, 38.913386249863066 ], [ -120.099635009865025, 38.913520757460184 ], [ -120.098668398888876, 38.914037261862276 ], [ -120.098507123409547, 38.914033250488529 ], [ -120.098313272255766, 38.914262663390986 ], [ -120.098059838652318, 38.914256358902428 ], [ -120.097869653887827, 38.914395771937834 ], [ -120.097335343643238, 38.914490585941699 ], [ -120.09700471805553, 38.914680556936922 ], [ -120.09665985917087, 38.914653956032893 ], [ -120.096607908042515, 38.914796807432772 ], [ -120.095942243389345, 38.915284742656787 ], [ -120.095639790200252, 38.915349284669077 ], [ -120.095137596144326, 38.915787231003236 ], [ -120.094835874681635, 38.91583377105853 ], [ -120.094645679519019, 38.915973178397877 ], [ -120.09446282951339, 38.915932587914511 ], [ -120.094335876169083, 38.916217714340945 ], [ -120.093745916276845, 38.916545359917841 ], [ -120.093115015378814, 38.916745855886212 ], [ -120.092954469552851, 38.916723836885822 ], [ -120.092418666239084, 38.916854626832325 ], [ -120.092206158736602, 38.916975455864247 ], [ -120.090272993425287, 38.91687319549996 ], [ -120.089925184700789, 38.916918573069808 ], [ -120.089650910920128, 38.91685767615656 ], [ -120.08949551726505, 38.916709654752452 ], [ -120.089288892909835, 38.916686480979656 ], [ -120.088995996564634, 38.916517009691731 ], [ -120.088486688656118, 38.915999793777289 ], [ -120.086474127383951, 38.916147741245659 ], [ -120.086001544023802, 38.916424224730555 ], [ -120.08572506564434, 38.916417317603994 ], [ -120.085444902969911, 38.916500407836118 ], [ -120.085348322017765, 38.916606102693891 ], [ -120.085164002724355, 38.916601496966216 ], [ -120.08478946787406, 38.916736281369992 ], [ -120.084310976897484, 38.917156754257967 ], [ -120.083342736717555, 38.917709124270154 ], [ -120.083646683950633, 38.917608615861411 ], [ -120.083068643794903, 38.918206774492333 ], [ -120.082916387744874, 38.918545308971254 ], [ -120.082973708262415, 38.918835030451973 ], [ -120.082734450904923, 38.919045262901797 ], [ -120.082700345626066, 38.919314679907224 ], [ -120.08231177472166, 38.919791446920044 ], [ -120.082328175810787, 38.919954019131708 ], [ -120.082231585378494, 38.920059710994437 ], [ -120.082265862856076, 38.920348856335934 ], [ -120.08198272945863, 38.920503935592848 ], [ -120.081883924069828, 38.920663625709494 ], [ -120.081892207436042, 38.921024192779178 ], [ -120.081770359731308, 38.921183306312848 ], [ -120.081832104528146, 38.921365030970478 ], [ -120.081664911168772, 38.921504991917253 ], [ -120.08175043535266, 38.921669293568421 ], [ -120.081676883112664, 38.921775561291291 ], [ -120.081715586516069, 38.921956709514362 ], [ -120.081618254305823, 38.92208040022205 ], [ -120.081336588601317, 38.922199478509178 ], [ -120.081280172150613, 38.922450318628925 ], [ -120.081218301369248, 38.922508514268536 ], [ -120.081255654240792, 38.922485741087122 ], [ -120.081339702339591, 38.922686042058267 ], [ -120.081009735589461, 38.922857964834911 ], [ -120.08035438070857, 38.923652371636564 ], [ -120.080201534126516, 38.923678188090442 ], [ -120.080212724028854, 38.92368618006649 ], [ -120.080353642354453, 38.923670371135032 ], [ -120.080372992699694, 38.923760945396928 ], [ -120.080208005862545, 38.923846905387329 ], [ -120.080269748499177, 38.924028630735712 ], [ -120.079930911197181, 38.92441654398732 ], [ -120.079945091777901, 38.924633114720507 ], [ -120.07987374907853, 38.924685382573031 ], [ -120.080050703825336, 38.924869992355035 ], [ -120.079950410534394, 38.925065679305312 ], [ -120.079276267857153, 38.925192944046238 ], [ -120.078854114017929, 38.925362551963289 ], [ -120.079013196109472, 38.925420589881256 ], [ -120.079184979337427, 38.92573119724878 ], [ -120.079157504328123, 38.925838617056044 ], [ -120.079245981964888, 38.92593092252406 ], [ -120.079188815700434, 38.926199760566718 ], [ -120.079566511100481, 38.926551559529088 ], [ -120.079624560889187, 38.926823282557002 ], [ -120.079762080921469, 38.926844743676959 ], [ -120.079849083404937, 38.926973047710881 ], [ -120.079987342342804, 38.926976509096882 ], [ -120.080003738720634, 38.927139081320561 ], [ -120.080183653493478, 38.927251693146978 ], [ -120.080087049392048, 38.92735738261382 ], [ -120.080104184550379, 38.927501955343743 ], [ -120.080375535409502, 38.927634873834094 ], [ -120.08019591858357, 38.928086500998994 ], [ -120.080204781029423, 38.928423390105486 ], [ -120.080757982159284, 38.928995794337666 ], [ -120.080714055442186, 38.929116471520629 ], [ -120.080823421761281, 38.929087522035111 ], [ -120.08081751471363, 38.929231517947194 ], [ -120.080677036037585, 38.929282055836389 ], [ -120.080529172564596, 38.929512588383965 ], [ -120.080318084092838, 38.929597394322769 ], [ -120.080298143826965, 38.930083380246927 ], [ -120.080087791961247, 38.93015018621027 ], [ -120.08020079721291, 38.930207069098522 ], [ -120.079901368767963, 38.930758129770105 ], [ -120.079797636095591, 38.930787564566451 ], [ -120.079807713894567, 38.930791820878184 ], [ -120.079632367377911, 38.931129771825162 ], [ -120.079673285302235, 38.931256922077388 ], [ -120.078955949350103, 38.931311030736929 ], [ -120.078821376835123, 38.93121757055583 ], [ -120.078512056092592, 38.930885499749799 ], [ -120.078452530215813, 38.930649775261557 ], [ -120.07821012895262, 38.930373433787636 ], [ -120.078166533157443, 38.929792995012008 ], [ -120.078133863343965, 38.929758912668746 ], [ -120.078120036931892, 38.92975856629733 ], [ -120.078120591241102, 38.929745066714503 ], [ -120.078116167207909, 38.9297404513961 ], [ -120.07809773199692, 38.92973998956456 ], [ -120.078098471080935, 38.929721990121081 ], [ -120.078060513075229, 38.92952284165542 ], [ -120.077882074611395, 38.929374227616044 ], [ -120.077748855370473, 38.928686207486237 ], [ -120.077365856609632, 38.92790183875853 ], [ -120.076410364060294, 38.926454473710621 ], [ -120.076326326283962, 38.926254169660503 ], [ -120.076377587967343, 38.926129328859865 ], [ -120.07624228894926, 38.926053865562039 ], [ -120.076269768422179, 38.925946446618113 ], [ -120.076137427770888, 38.925798985514959 ], [ -120.07618721048155, 38.925710143639535 ], [ -120.075523296715446, 38.925026834672806 ], [ -120.075573079575378, 38.924937993058194 ], [ -120.075486087265588, 38.924809686186094 ], [ -120.075518004885865, 38.924594270919911 ], [ -120.075428794198643, 38.924519962270445 ], [ -120.075422023563718, 38.92412339733982 ], [ -120.075353636772121, 38.924103664653067 ], [ -120.075223407404863, 38.923343644745628 ], [ -120.075012220567984, 38.922869881955705 ], [ -120.074835062965946, 38.92156814578258 ], [ -120.074903111959401, 38.919912199203395 ], [ -120.075029409789252, 38.919645096775312 ], [ -120.075223626947434, 38.917163486288601 ], [ -120.075381091605152, 38.916698967004962 ], [ -120.075768586434123, 38.914564541863385 ], [ -120.075594383139304, 38.913190807671938 ], [ -120.075412292262556, 38.913132188528927 ], [ -120.075376565740342, 38.91287904097026 ], [ -120.075265070001677, 38.912786155565286 ], [ -120.074964091063478, 38.912814644747499 ], [ -120.074951404625423, 38.912562074808811 ], [ -120.074751453869595, 38.912376880900005 ], [ -120.074805664555299, 38.912180042476024 ], [ -120.074714990446097, 38.912141732658874 ], [ -120.074555088302134, 38.911543129013943 ], [ -120.074401731364873, 38.910223969690499 ], [ -120.074501276646018, 38.910046286309068 ], [ -120.074418000287167, 38.909827981899589 ], [ -120.074568056473893, 38.909543457266594 ], [ -120.074550934640484, 38.909398883934777 ], [ -120.074738930541116, 38.909313508442381 ], [ -120.074819872509863, 38.909027250258532 ], [ -120.075124531807774, 38.908908763518376 ], [ -120.07485166466212, 38.908253273643041 ], [ -120.074885052248902, 38.908001858888071 ], [ -120.074719980313176, 38.907529251615621 ], [ -120.074680444292255, 38.906807540227369 ], [ -120.074803759354651, 38.90661243450193 ], [ -120.074840103136466, 38.906289021822417 ], [ -120.075108287548233, 38.905935386264197 ], [ -120.07534000578589, 38.905346601737968 ], [ -120.075584408912263, 38.905010386748373 ], [ -120.075565807376279, 38.904901812389454 ], [ -120.075683204151801, 38.904850701305328 ], [ -120.075738144259731, 38.904635862423518 ], [ -120.075977370250357, 38.904425642811532 ], [ -120.075935732458859, 38.904316491087769 ], [ -120.076064950790553, 38.903977387742231 ], [ -120.076060997486252, 38.902950261968741 ], [ -120.076291219045416, 38.902397473605873 ], [ -120.076539300538997, 38.901971258390404 ], [ -120.07675400250109, 38.901796458423334 ], [ -120.077105435621249, 38.90166111995832 ], [ -120.077288696085716, 38.900566612084553 ], [ -120.077608821677131, 38.900070127131656 ], [ -120.07791565254773, 38.899897632690511 ], [ -120.078322888722894, 38.900088012585854 ], [ -120.078508640591636, 38.900056628395831 ], [ -120.078535365973849, 38.899967207524888 ], [ -120.078746366247884, 38.899882401139024 ], [ -120.079462645999229, 38.899846280891552 ], [ -120.079852593759853, 38.899333519368888 ], [ -120.080109659081728, 38.89924986350109 ], [ -120.080160154036363, 38.899143019100507 ], [ -120.080504928892495, 38.8991696657517 ], [ -120.080972988131848, 38.899001197761322 ], [ -120.081093321435873, 38.898878082315719 ], [ -120.081626055366826, 38.898819338054558 ], [ -120.081818438722934, 38.898625952020645 ], [ -120.081956642918243, 38.8986294089718 ], [ -120.082266406374856, 38.898384903977174 ], [ -120.082686177492732, 38.898269275397489 ], [ -120.083678655910376, 38.897681475798365 ], [ -120.083839892272152, 38.897685506241686 ], [ -120.084145961726009, 38.897530994003098 ], [ -120.08424546345816, 38.897353300345884 ], [ -120.08502840571964, 38.89681430592038 ], [ -120.085767687260017, 38.896778721121464 ], [ -120.086328589318768, 38.896594532247391 ], [ -120.087321015396128, 38.896006699439816 ], [ -120.087563857074898, 38.895706454857311 ], [ -120.088157342913618, 38.895288835455382 ], [ -120.089123262175491, 38.895348975887224 ], [ -120.089823320049675, 38.895708784127329 ], [ -120.090211944911943, 38.895790549912221 ], [ -120.090799050801337, 38.896093480920648 ], [ -120.090960284594345, 38.8960975013945 ] ], [ [ -120.08009370067775, 38.930006190414687 ], [ -120.080018355158117, 38.92993441628316 ], [ -120.080087791961247, 38.93015018621027 ], [ -120.08009370067775, 38.930006190414687 ] ], [ [ -120.08185819153303, 38.919745721106821 ], [ -120.081876949549056, 38.919708497568323 ], [ -120.081913271759873, 38.919385082336838 ], [ -120.08185819153303, 38.919745721106821 ] ], [ [ -120.08146680595155, 38.920148685953016 ], [ -120.081751414740552, 38.919957608865367 ], [ -120.081816207015379, 38.919829035314919 ], [ -120.08146680595155, 38.920148685953016 ] ], [ [ -120.081132744314516, 38.921545730107944 ], [ -120.081094864150941, 38.921638005686141 ], [ -120.08129772460353, 38.921459768530958 ], [ -120.081132744314516, 38.921545730107944 ] ], [ [ -120.081032473064298, 38.921789988953677 ], [ -120.081065255902701, 38.922066562876083 ], [ -120.081059386901316, 38.921724427549947 ], [ -120.081032473064298, 38.921789988953677 ] ], [ [ -120.080847771533641, 38.922196522662077 ], [ -120.080852714290572, 38.922187369776125 ], [ -120.080868618789538, 38.922178329818479 ], [ -120.080816227594241, 38.921952222819158 ], [ -120.080847771533641, 38.922196522662077 ] ], [ [ -120.080721757356059, 38.922568475963907 ], [ -120.080768825146208, 38.922545629979219 ], [ -120.080855824722619, 38.92267393321179 ], [ -120.080727909270038, 38.922418480063435 ], [ -120.080721757356059, 38.922568475963907 ] ], [ [ -120.080971771824608, 38.922658816940647 ], [ -120.081012980647131, 38.922633693072875 ], [ -120.080855824722619, 38.92267393321179 ], [ -120.080971771824608, 38.922658816940647 ] ], [ [ -120.079170371104055, 38.92383894418839 ], [ -120.079106392837474, 38.923899117983716 ], [ -120.079397909316612, 38.923810047320167 ], [ -120.079170371104055, 38.92383894418839 ] ], [ [ -120.079002427921282, 38.923996900316162 ], [ -120.07903702256769, 38.924036482969456 ], [ -120.079067021542187, 38.92393614799181 ], [ -120.079002427921282, 38.923996900316162 ] ], [ [ -120.079342135678829, 38.924385586356912 ], [ -120.079312461735157, 38.924310969619121 ], [ -120.079204115241694, 38.924227667058041 ], [ -120.079342135678829, 38.924385586356912 ] ], [ [ -120.079844207691266, 38.928216165545429 ], [ -120.080075381832842, 38.928203935114652 ], [ -120.080115511007662, 38.928162897789797 ], [ -120.079844207691266, 38.928216165545429 ] ], [ [ -120.080636855637351, 38.929136906387654 ], [ -120.080676834112893, 38.929126324052405 ], [ -120.080252495154525, 38.928947105626101 ], [ -120.080636855637351, 38.929136906387654 ] ], [ [ -120.079938300708534, 38.929858156220561 ], [ -120.079810923270372, 38.929862237549671 ], [ -120.079971704386153, 38.929889976670452 ], [ -120.079938300708534, 38.929858156220561 ] ], [ [ -120.079141738737135, 38.929883676742541 ], [ -120.079383026460121, 38.9298983069991 ], [ -120.079482861868897, 38.92987274839431 ], [ -120.079141738737135, 38.929883676742541 ] ], [ [ -120.078833138145185, 38.929858328186626 ], [ -120.078876795505238, 38.929867611576071 ], [ -120.078884132181557, 38.929868056452854 ], [ -120.078833138145185, 38.929858328186626 ] ], [ [ -120.078328503839629, 38.929716348826723 ], [ -120.078396565219222, 38.929765493415026 ], [ -120.078522527116831, 38.929792278692908 ], [ -120.078328503839629, 38.929716348826723 ] ], [ [ -120.078870823515118, 38.923831442720285 ], [ -120.078883593415014, 38.923826848535086 ], [ -120.078780871315445, 38.92377513600357 ], [ -120.078870823515118, 38.923831442720285 ] ], [ [ -120.078890882411201, 38.923792305527343 ], [ -120.078850736348855, 38.923758867756881 ], [ -120.078780871315445, 38.92377513600357 ], [ -120.078890882411201, 38.923792305527343 ] ], [ [ -120.078917646473727, 38.923814597367361 ], [ -120.078910212010229, 38.923808405190144 ], [ -120.078902038823188, 38.923820212487193 ], [ -120.078917646473727, 38.923814597367361 ] ], [ [ -120.087613982562615, 38.898428434159811 ], [ -120.088281971324889, 38.898445108017469 ], [ -120.088646103495421, 38.898562304009218 ], [ -120.088968581661518, 38.898570351106713 ], [ -120.088510841141954, 38.898486856153156 ], [ -120.088172686533724, 38.898298235870847 ], [ -120.088015862673572, 38.898186213158461 ], [ -120.087977887976777, 38.897987066564284 ], [ -120.087334409449696, 38.897934966829609 ], [ -120.087342504475245, 38.897736970236203 ], [ -120.087165593151184, 38.897552372638991 ], [ -120.086820086322632, 38.897543745568044 ], [ -120.086632135661446, 38.89762914244514 ], [ -120.086507397104484, 38.897860262142906 ], [ -120.086701452686057, 38.898189433331304 ], [ -120.087253532687868, 38.898221236595553 ], [ -120.087613982562615, 38.898428434159811 ] ], [ [ -120.079580963718968, 38.930696053663354 ], [ -120.079588317768824, 38.930699159633654 ], [ -120.079050065353471, 38.930142220413444 ], [ -120.079580963718968, 38.930696053663354 ] ], [ [ -120.078396796524103, 38.930005777045324 ], [ -120.078409263131036, 38.930018062918563 ], [ -120.079050065353471, 38.930142220413444 ], [ -120.078396796524103, 38.930005777045324 ] ] ], [ [ [ -120.083498054626077, 38.924613900561425 ], [ -120.083476487340022, 38.924577325305805 ], [ -120.083521097092557, 38.924614476721025 ], [ -120.083498054626077, 38.924613900561425 ] ] ], [ [ [ -120.082083776108021, 38.925353302142646 ], [ -120.082089107656742, 38.925785867085011 ], [ -120.082058685033829, 38.925965285819188 ], [ -120.081989556415593, 38.925963556410721 ], [ -120.081988653463796, 38.925422994383403 ], [ -120.082083776108021, 38.925353302142646 ] ] ], [ [ [ -120.092331459914462, 38.926329934596041 ], [ -120.092678578644794, 38.926302551301013 ], [ -120.093065166662029, 38.926438312801629 ], [ -120.093039182520982, 38.926509737275985 ], [ -120.089648308315788, 38.928767518362676 ], [ -120.08883882557879, 38.928819389087145 ], [ -120.088220322043142, 38.928713860079561 ], [ -120.087320874129418, 38.928709420287262 ], [ -120.087545948969577, 38.928282608852918 ], [ -120.087682001524897, 38.928340060025057 ], [ -120.08771521314948, 38.928329509498788 ], [ -120.087523641897519, 38.92826403384327 ], [ -120.08744767393037, 38.927865740989205 ], [ -120.087863195390113, 38.927858098250589 ], [ -120.08805196336408, 38.927754703172717 ], [ -120.088535142203682, 38.927784783124778 ], [ -120.089123012207679, 38.927511167846596 ], [ -120.089353447429104, 38.927516918492657 ], [ -120.090133019636014, 38.927067901660905 ], [ -120.090835358717285, 38.926815151247126 ], [ -120.090954989913953, 38.926710026940938 ], [ -120.092023808093771, 38.926520462947771 ], [ -120.092024543573871, 38.926502463270992 ], [ -120.092064930705334, 38.926514109891734 ], [ -120.092094091208921, 38.926493959667262 ], [ -120.092094408794708, 38.926486187079057 ], [ -120.092099366080873, 38.926490314671433 ], [ -120.092117828128465, 38.926477557183958 ], [ -120.09211818749867, 38.926468761886561 ], [ -120.092125865035754, 38.926472003586049 ], [ -120.092331459914462, 38.926329934596041 ] ], [ [ -120.090242577953276, 38.927773337055058 ], [ -120.092054624981245, 38.926521231254299 ], [ -120.092023808093771, 38.926520462947771 ], [ -120.090242577953276, 38.927773337055058 ] ], [ [ -120.089410718085148, 38.928197929256164 ], [ -120.089464470722319, 38.928186355041376 ], [ -120.090242577953276, 38.927773337055058 ], [ -120.089410718085148, 38.928197929256164 ] ] ], [ [ [ -120.08691231102587, 38.927419939352681 ], [ -120.086913047821241, 38.927401939760543 ], [ -120.086935354470171, 38.927420514872971 ], [ -120.08691231102587, 38.927419939352681 ] ] ], [ [ [ -120.086888530780357, 38.927437363419514 ], [ -120.086889267582208, 38.927419363827831 ], [ -120.086911574229845, 38.92743793894472 ], [ -120.086888530780357, 38.927437363419514 ] ] ], [ [ [ -120.086864750523219, 38.927454787481054 ], [ -120.086865487331536, 38.927436787889761 ], [ -120.086887793977866, 38.927455363011177 ], [ -120.086864750523219, 38.927454787481054 ] ] ], [ [ [ -120.08679414650986, 38.927489060043534 ], [ -120.086818663615958, 38.927453636407179 ], [ -120.086863276904637, 38.927490786663348 ], [ -120.08679414650986, 38.927489060043534 ] ] ], [ [ [ -120.08651025598634, 38.927662149008079 ], [ -120.086466379702358, 38.927606999036307 ], [ -120.086511729792377, 38.927626149838147 ], [ -120.08651025598634, 38.927662149008079 ] ] ], [ [ [ -120.083917764479168, 38.928444207381091 ], [ -120.083919239636614, 38.928408208299103 ], [ -120.083963851908294, 38.928445359624668 ], [ -120.083917764479168, 38.928444207381091 ] ] ], [ [ [ -120.087319400675455, 38.928745419476428 ], [ -120.087320137402784, 38.928727419881888 ], [ -120.087342444556981, 38.928745994932733 ], [ -120.087319400675455, 38.928745419476428 ] ] ], [ [ [ -120.080180108745878, 38.936332656820682 ], [ -120.080595678896373, 38.936325041931767 ], [ -120.080846232835967, 38.936403385200549 ], [ -120.081626269713553, 38.937071552738274 ], [ -120.082771950592971, 38.937262376784624 ], [ -120.08428065960733, 38.938164966385322 ], [ -120.084100148947584, 38.938628920395935 ], [ -120.083689902107153, 38.939069111698196 ], [ -120.083488551625464, 38.939478489649431 ], [ -120.082893013307469, 38.939373505630194 ], [ -120.082737588025779, 38.939225474366097 ], [ -120.082486283771857, 38.939165134219628 ], [ -120.082081771630342, 38.93890276303749 ], [ -120.081353128028965, 38.938668315322289 ], [ -120.081085427185698, 38.938445400317647 ], [ -120.080811080407258, 38.938384479901075 ], [ -120.080203590770324, 38.938008913936621 ], [ -120.079928507701339, 38.937965990981482 ], [ -120.079363424753808, 38.93768157219138 ], [ -120.078677939924901, 38.937520260530974 ], [ -120.07854409573028, 38.937408800250964 ], [ -120.078375247191175, 38.93702619380268 ], [ -120.07836524383616, 38.935584507641366 ], [ -120.07843055357138, 38.935117677039266 ], [ -120.078979217989229, 38.935239527385676 ], [ -120.07901348561154, 38.935528672800565 ], [ -120.079359174269968, 38.93553733002048 ], [ -120.079551810085405, 38.935902512831262 ], [ -120.080180108745878, 38.936332656820682 ] ], [ [ -120.07924650428734, 38.936435405911169 ], [ -120.079479117515092, 38.936549338711821 ], [ -120.079730409701028, 38.93660968491308 ], [ -120.079345273738525, 38.936437879357769 ], [ -120.07924650428734, 38.936435405911169 ] ] ], [ [ [ -120.08135157782057, 38.925208856845899 ], [ -120.081376096707999, 38.925173434416166 ], [ -120.081466790901345, 38.925211739753642 ], [ -120.08135157782057, 38.925208856845899 ] ] ], [ [ [ -120.081327797057483, 38.925226279760047 ], [ -120.081328535206382, 38.925208280250722 ], [ -120.081350839677455, 38.925226856355579 ], [ -120.081327797057483, 38.925226279760047 ] ] ], [ [ [ -120.081386013046611, 38.92605656353917 ], [ -120.081404496104923, 38.926123332195118 ], [ -120.081451767361742, 38.92614057677654 ], [ -120.081565927511917, 38.92616917322902 ], [ -120.081470452762332, 38.926157414945358 ], [ -120.081423979194554, 38.926255711311661 ], [ -120.08149015551777, 38.926329439100414 ], [ -120.081336395891199, 38.926703969159512 ], [ -120.081085874848711, 38.926625628122757 ], [ -120.080911866377392, 38.926369021693837 ], [ -120.080635350655626, 38.926362101038414 ], [ -120.080433871156586, 38.926212914184688 ], [ -120.080178922140362, 38.926242568234464 ], [ -120.080024268218779, 38.92607653489425 ], [ -120.080020426305126, 38.925607971383862 ], [ -120.080280542028902, 38.925452321152278 ], [ -120.080583050182867, 38.925387821276829 ], [ -120.080565175942795, 38.925261248050823 ], [ -120.080749516886243, 38.925265861895689 ], [ -120.080857347290689, 38.925448740415078 ], [ -120.08126399576895, 38.925657114741476 ], [ -120.081413484827905, 38.92594914308404 ], [ -120.081315408032367, 38.926090832741984 ], [ -120.081386013046611, 38.92605656353917 ] ], [ [ -120.080706068677728, 38.925567163129024 ], [ -120.080690880314705, 38.92557069993758 ], [ -120.080802402453543, 38.925663581018163 ], [ -120.080706068677728, 38.925567163129024 ] ] ], [ [ [ -120.081482256194718, 38.929896800293342 ], [ -120.081489638492812, 38.929716805316417 ], [ -120.081245013136552, 38.929494468273987 ], [ -120.081297745546522, 38.929333626136284 ], [ -120.081366877393023, 38.929335356079392 ], [ -120.081427888674796, 38.929535080459267 ], [ -120.081608549858984, 38.929629690866307 ], [ -120.081657012804627, 38.930135406646613 ], [ -120.081587880163653, 38.930133676845664 ], [ -120.081482256194718, 38.929896800293342 ] ] ], [ [ [ -120.080336257923051, 38.930841088862756 ], [ -120.080217342960665, 38.930928201861342 ], [ -120.080206115806931, 38.930639633387116 ], [ -120.080275248853823, 38.930641364025149 ], [ -120.080336257923051, 38.930841088862756 ] ] ] ] } }
]
}
