{
"type": "FeatureCollection",
"name": "X03705",
"crs": { "type": "name", "properties": { "name": "urn:ogc:def:crs:OGC:1.3:CRS84" } },
"features": [
{ "type": "Feature", "properties": { "part": "direct", "crossing_id": "X03705", "area_ac": 19.7, "n_upstream": null }, "geometry": { "type": "MultiPolygon", "coordinates": [ [ [ [ -120.046633445722605, 38.929740292665116 ], [ -120.046655742054853, 38.929758875100518 ], [ -120.046632698686082, 38.929758291600095 ], [ -120.046633445722605, 38.929740292665116 ] ] ], [ [ [ -120.04889767018102, 38.929653462310256 ], [ -120.048916981275426, 38.92974404022339 ], [ -120.049411248755604, 38.930062848913984 ], [ -120.049377009927852, 38.930332250626975 ], [ -120.049837136042427, 38.930361908066558 ], [ -120.050016261714006, 38.930492563857463 ], [ -120.050595338050059, 38.930435137548898 ], [ -120.050916457547004, 38.930479293313404 ], [ -120.051334973424588, 38.930399785521715 ], [ -120.051418943819215, 38.930600104929532 ], [ -120.051581741634081, 38.930568184771744 ], [ -120.051780931911708, 38.930771416583646 ], [ -120.051861175213105, 38.931061730804501 ], [ -120.051619549059822, 38.931325890881766 ], [ -120.051359352361914, 38.931481473750111 ], [ -120.050870951927621, 38.931577232323924 ], [ -120.051119214795875, 38.93170963463951 ], [ -120.051202439945655, 38.931927953202553 ], [ -120.051139194560363, 38.932340764958262 ], [ -120.050994960753002, 38.932481260985099 ], [ -120.050962964213696, 38.932696666265819 ], [ -120.050844757971944, 38.932765748762684 ], [ -120.050928729333265, 38.932966068507923 ], [ -120.051130161926807, 38.933115304559109 ], [ -120.051102641395161, 38.933222715881939 ], [ -120.051216372373375, 38.933261627140283 ], [ -120.051142762638293, 38.933367873178135 ], [ -120.050913062420861, 38.933344047382825 ], [ -120.050701184260404, 38.933446796814742 ], [ -120.050426887076512, 38.93338580658434 ], [ -120.050476707125839, 38.933296977242165 ], [ -120.050324349342347, 38.933076909803873 ], [ -120.050378646327133, 38.932880086582657 ], [ -120.050195036916335, 38.932857425036246 ], [ -120.050111067764689, 38.932657104844324 ], [ -120.049862803714333, 38.932524700344374 ], [ -120.049847968642737, 38.932326128675413 ], [ -120.049573676580849, 38.932265136622917 ], [ -120.049410221803967, 38.931756501608561 ], [ -120.04912259224669, 38.931460938980038 ], [ -120.048891406057635, 38.931473107394638 ], [ -120.04874940950738, 38.931559603662869 ], [ -120.048057343225025, 38.931560107350549 ], [ -120.04776374590854, 38.931408533211503 ], [ -120.047590597068506, 38.931133882479926 ], [ -120.047432277733634, 38.931057803278001 ], [ -120.047329009003377, 38.930766903334579 ], [ -120.04710305360706, 38.930653075691453 ], [ -120.046649765785219, 38.929902866580647 ], [ -120.046678785424291, 38.929759458596386 ], [ -120.047013978846962, 38.930020195660425 ], [ -120.047706029753257, 38.930019697586317 ], [ -120.048154309110217, 38.92977879392685 ], [ -120.048339402991218, 38.929765460439626 ], [ -120.048542314341731, 38.929878702543157 ], [ -120.048573569816767, 38.929681297038805 ], [ -120.04889767018102, 38.929653462310256 ] ] ] ] } },
{ "type": "Feature", "properties": { "part": "upstream", "crossing_id": "X03705", "area_ac": 12.1, "n_upstream": 2.0 }, "geometry": { "type": "MultiPolygon", "coordinates": [ [ [ [ -120.047318460753459, 38.927685583105458 ], [ -120.047394202172882, 38.928083893405244 ], [ -120.0475086696228, 38.928104808959915 ], [ -120.047527231868955, 38.928213385993303 ], [ -120.047709334815323, 38.928272049173607 ], [ -120.047952353541589, 38.928530450334911 ], [ -120.047921843745286, 38.928709856700131 ], [ -120.048166357922838, 38.928932259565016 ], [ -120.048181188179811, 38.929130831338504 ], [ -120.048249571163922, 38.929150579848717 ], [ -120.048299390569937, 38.929061751371627 ], [ -120.048527582760485, 38.92912157969765 ], [ -120.048638319694035, 38.929232489060205 ], [ -120.048653151282068, 38.929431060818402 ], [ -120.048948982079366, 38.929528635598679 ], [ -120.04889767018102, 38.929653462310256 ], [ -120.048549779882777, 38.929698712884182 ], [ -120.048542314341731, 38.929878702543157 ], [ -120.048247229371626, 38.929763127739776 ], [ -120.047706029753257, 38.930019697586317 ], [ -120.047013978846962, 38.930020195660425 ], [ -120.046566556795554, 38.929684545335832 ], [ -120.046466281566964, 38.929321649047267 ], [ -120.046328769338615, 38.929300148853692 ], [ -120.046290154009455, 38.929118992420847 ], [ -120.046018866420241, 38.92898599685649 ], [ -120.045711955164236, 38.928599848433443 ], [ -120.045596740300269, 38.928596930026927 ], [ -120.045578180958557, 38.928488352803001 ], [ -120.045696384601513, 38.92841927552621 ], [ -120.045778216001509, 38.928115044784022 ], [ -120.045872628837188, 38.928063382567828 ], [ -120.045906879236185, 38.927793982266856 ], [ -120.046049618341655, 38.927689490323687 ], [ -120.046187874475464, 38.927692991793386 ], [ -120.046569256542767, 38.927396346256437 ], [ -120.046823472141298, 38.927384765378768 ], [ -120.047318460753459, 38.927685583105458 ] ] ], [ [ [ -120.049410221803967, 38.931756501608561 ], [ -120.049125481903488, 38.931947494188144 ], [ -120.048527828016176, 38.931896335747574 ], [ -120.048125728463518, 38.931579856015645 ], [ -120.04822014447565, 38.931528192036872 ], [ -120.04874940950738, 38.931559603662869 ], [ -120.048891406057635, 38.931473107394638 ], [ -120.04912259224669, 38.931460938980038 ], [ -120.049410221803967, 38.931756501608561 ] ] ] ] } }
]
}
