{
"type": "FeatureCollection",
"name": "X03793",
"crs": { "type": "name", "properties": { "name": "urn:ogc:def:crs:OGC:1.3:CRS84" } },
"features": [
{ "type": "Feature", "properties": { "part": "direct", "crossing_id": "X03793", "area_ac": 59.7 }, "geometry": { "type": "MultiPolygon", "coordinates": [ [ [ [ -120.126332912544015, 38.992524060693768 ], [ -120.126355249372892, 38.992542629243182 ], [ -120.126332184021706, 38.992542060712118 ], [ -120.126332912544015, 38.992524060693768 ] ] ], [ [ [ -120.126332184021706, 38.992542060712118 ], [ -120.126137461202433, 38.992789512509454 ], [ -120.12506671914926, 38.993573921882003 ], [ -120.123902960740068, 38.994374044297814 ], [ -120.123787631266893, 38.994371199061746 ], [ -120.123311726781324, 38.99471981626958 ], [ -120.123077419827538, 38.994804124272981 ], [ -120.121292000274096, 38.996129415833195 ], [ -120.121126885722703, 38.996215428332142 ], [ -120.12082629207471, 38.996226022975641 ], [ -120.120037351793727, 38.99689121794794 ], [ -120.119781427962067, 38.996938949238604 ], [ -120.119470605972509, 38.997201538827539 ], [ -120.11916854723647, 38.997248128809815 ], [ -120.118789982344722, 38.997473006612509 ], [ -120.11878706009368, 38.997545006146865 ], [ -120.117954875235654, 38.998137045919684 ], [ -120.117557620136097, 38.998253349917228 ], [ -120.117199919019953, 38.998532792034581 ], [ -120.116427005703173, 38.998801963453928 ], [ -120.11580678123903, 38.999291122442344 ], [ -120.115725145666914, 38.999595407428089 ], [ -120.115526708809256, 38.999932838228048 ], [ -120.115312517488221, 39.00008969959498 ], [ -120.115282866236157, 39.000251127167225 ], [ -120.11466262096836, 39.000740279180746 ], [ -120.113466401310461, 39.001197149601389 ], [ -120.112914236203494, 39.001147440356526 ], [ -120.112600804960053, 39.000905444770055 ], [ -120.112204991073739, 39.000985730006839 ], [ -120.111791605208026, 39.000362880103843 ], [ -120.112272728909758, 38.99988831541561 ], [ -120.112234649130812, 38.999689175104606 ], [ -120.112472645196362, 38.999514891182699 ], [ -120.112727118050358, 38.999503176066476 ], [ -120.112871378971377, 38.999362605561529 ], [ -120.112858561240287, 38.999110037304611 ], [ -120.113010873756537, 38.998771468924382 ], [ -120.114058025602318, 38.998004607753572 ], [ -120.114521558202128, 38.997962027926704 ], [ -120.114781146528742, 38.997824309377073 ], [ -120.115245409155605, 38.997763726784292 ], [ -120.115714059176398, 38.997595143304665 ], [ -120.116404199742945, 38.997089695977884 ], [ -120.116600430433522, 38.9968062626346 ], [ -120.117003526589372, 38.996545962765012 ], [ -120.117460792108915, 38.996088803524295 ], [ -120.118303601125518, 38.995803334493111 ], [ -120.118995897327324, 38.995243870653837 ], [ -120.119373718924919, 38.995036991533652 ], [ -120.119629636034958, 38.994989260876395 ], [ -120.120272861815835, 38.994500648562571 ], [ -120.120780310975647, 38.994513182070541 ], [ -120.121158123705214, 38.99430629679749 ], [ -120.121899148999844, 38.994252521179099 ], [ -120.123016795530674, 38.993451281151465 ], [ -120.123621605424745, 38.993340078997484 ], [ -120.124047722321791, 38.993080321978766 ], [ -120.125341576546248, 38.993058178359632 ], [ -120.126332184021706, 38.992542060712118 ] ] ] ] } }
]
}
