{
"type": "FeatureCollection",
"name": "X03706",
"crs": { "type": "name", "properties": { "name": "urn:ogc:def:crs:OGC:1.3:CRS84" } },
"features": [
{ "type": "Feature", "properties": { "part": "direct", "crossing_id": "X03706", "area_ac": 8.4 }, "geometry": { "type": "Polygon", "coordinates": [ [ [ -120.052298334567467, 38.930532244128223 ], [ -120.052620201400345, 38.930558396228285 ], [ -120.052677404133121, 38.930848127683298 ], [ -120.052933122906538, 38.930800535860811 ], [ -120.053193313797564, 38.930644949232928 ], [ -120.053297352088876, 38.930917845869665 ], [ -120.053524809636684, 38.930995663830544 ], [ -120.053535928309813, 38.931284230670236 ], [ -120.053671956458572, 38.931341720675796 ], [ -120.053926931266787, 38.931312125766162 ], [ -120.054262159551357, 38.931572843238399 ], [ -120.05413650632093, 38.931821919796093 ], [ -120.053901592901695, 38.931924093375393 ], [ -120.053987807893591, 38.932070414097581 ], [ -120.053749166919943, 38.932262582547416 ], [ -120.053737987271759, 38.932532568179766 ], [ -120.053844265870737, 38.932751467313842 ], [ -120.053603386044131, 38.932997632460989 ], [ -120.053354368447714, 38.932883234143205 ], [ -120.053145476853317, 38.932913992087627 ], [ -120.052923977984406, 38.93269218096529 ], [ -120.052884598890046, 38.932529025113666 ], [ -120.052747823662145, 38.9324895331617 ], [ -120.052788015703712, 38.932076137870844 ], [ -120.052283279455139, 38.932009328748471 ], [ -120.052062531737491, 38.931769517154414 ], [ -120.051812775226949, 38.931673114799509 ], [ -120.051603140897399, 38.93172186910801 ], [ -120.051561527739665, 38.931612709952809 ], [ -120.051708741796972, 38.931400217046431 ], [ -120.051641847226676, 38.931344472428705 ], [ -120.051806883997145, 38.93125855498279 ], [ -120.051907263012126, 38.931062895769159 ], [ -120.051582487441394, 38.930550185758918 ], [ -120.051809941749056, 38.930628006952439 ], [ -120.052298334567467, 38.930532244128223 ] ] ] } }
]
}
