{
"type": "FeatureCollection",
"name": "X03866",
"crs": { "type": "name", "properties": { "name": "urn:ogc:def:crs:OGC:1.3:CRS84" } },
"features": [
{ "type": "Feature", "properties": { "part": "direct", "crossing_id": "X03866", "area_ac": 2.1 }, "geometry": { "type": "Polygon", "coordinates": [ [ [ -120.128475605879615, 39.181781384280491 ], [ -120.128743604390039, 39.182022221940201 ], [ -120.129060469030961, 39.182768755210859 ], [ -120.128993285081862, 39.182713045869093 ], [ -120.128253207793804, 39.182694793466951 ], [ -120.128052391494037, 39.182509664556441 ], [ -120.127842779296557, 39.182540528793531 ], [ -120.127845711621788, 39.182468530974553 ], [ -120.127664358691206, 39.182373969254904 ], [ -120.12745401359561, 39.182422832251092 ], [ -120.127262396162919, 39.182580262185063 ], [ -120.127180152288219, 39.182325987303145 ], [ -120.127342043139123, 39.182329981876741 ], [ -120.127438951287175, 39.182224267695375 ], [ -120.127672423013053, 39.182175975275527 ], [ -120.128475605879615, 39.181781384280491 ] ] ] } }
]
}
