{
"type": "FeatureCollection",
"name": "X03892",
"crs": { "type": "name", "properties": { "name": "urn:ogc:def:crs:OGC:1.3:CRS84" } },
"features": [
{ "type": "Feature", "properties": { "part": "direct", "crossing_id": "X03892", "area_ac": 1.1 }, "geometry": { "type": "MultiPolygon", "coordinates": [ [ [ [ -120.098011249168735, 39.199746127589307 ], [ -120.098033640408062, 39.199764703186979 ], [ -120.098010508024529, 39.199764126516875 ], [ -120.098011249168735, 39.199746127589307 ] ] ], [ [ [ -120.097724301213503, 39.198279564083379 ], [ -120.097746847323052, 39.198856683166667 ], [ -120.097984254238071, 39.199277002115096 ], [ -120.098011249168735, 39.199746127589307 ], [ -120.097676123213503, 39.199449494231104 ], [ -120.097748484846335, 39.199379228717731 ], [ -120.097699841963959, 39.198873528655589 ], [ -120.097587146462118, 39.198798649287916 ], [ -120.097125988125029, 39.198751115645159 ], [ -120.096969994967964, 39.198603086369673 ], [ -120.097046804498774, 39.198424827783967 ], [ -120.097164688102367, 39.198373715208682 ], [ -120.097724301213503, 39.198279564083379 ] ] ] ] } }
]
}
