{
"type": "FeatureCollection",
"name": "X03863",
"crs": { "type": "name", "properties": { "name": "urn:ogc:def:crs:OGC:1.3:CRS84" } },
"features": [
{ "type": "Feature", "properties": { "part": "direct", "crossing_id": "X03863", "area_ac": 2.7 }, "geometry": { "type": "Polygon", "coordinates": [ [ [ -120.132016132005575, 39.177832720495971 ], [ -120.132131761454033, 39.177835568714656 ], [ -120.132082582155235, 39.177906427584972 ], [ -120.132283397093559, 39.178091549573608 ], [ -120.132243438618417, 39.178504969324898 ], [ -120.132530174226389, 39.178854365246792 ], [ -120.132455672851663, 39.178978653300362 ], [ -120.132517001878199, 39.179178356956072 ], [ -120.132306669282414, 39.179227229228147 ], [ -120.132053743307168, 39.179184964129583 ], [ -120.131877516246874, 39.178964412322514 ], [ -120.131628251630985, 39.178832148705546 ], [ -120.131305216891292, 39.178806172315859 ], [ -120.130917929310186, 39.178652488797105 ], [ -120.131208621140274, 39.178335335701071 ], [ -120.132016132005575, 39.177832720495971 ] ] ] } }
]
}
