{
"type": "FeatureCollection",
"name": "X03853",
"crs": { "type": "name", "properties": { "name": "urn:ogc:def:crs:OGC:1.3:CRS84" } },
"features": [
{ "type": "Feature", "properties": { "part": "direct", "crossing_id": "X03853", "area_ac": 3.4 }, "geometry": { "type": "Polygon", "coordinates": [ [ [ -120.125059910047753, 39.019393460594003 ], [ -120.12598114981634, 39.0200287879168 ], [ -120.126322888526005, 39.020145321056297 ], [ -120.127134609297542, 39.020633796021762 ], [ -120.128072399368889, 39.021431676273203 ], [ -120.128344924075407, 39.021546498193096 ], [ -120.12735635279769, 39.021432049278921 ], [ -120.127083830264056, 39.021317225120789 ], [ -120.125743842651701, 39.020185097634958 ], [ -120.125272413238193, 39.019849149430854 ], [ -120.124773536518731, 39.019620629764816 ], [ -120.12484786607375, 39.019496337877406 ], [ -120.125059910047753, 39.019393460594003 ] ] ] } }
]
}
