{
"type": "FeatureCollection",
"name": "X03887",
"crs": { "type": "name", "properties": { "name": "urn:ogc:def:crs:OGC:1.3:CRS84" } },
"features": [
{ "type": "Feature", "properties": { "part": "direct", "crossing_id": "X03887", "area_ac": 5.4 }, "geometry": { "type": "Polygon", "coordinates": [ [ [ -120.103373549750629, 39.193789791313264 ], [ -120.103370591270135, 39.193861787438905 ], [ -120.102966275988194, 39.194121988031647 ], [ -120.103185007838675, 39.194433727458289 ], [ -120.103109697984237, 39.194575992899424 ], [ -120.10324256532202, 39.194723438611021 ], [ -120.103092684552507, 39.194989970454415 ], [ -120.103185208245321, 39.194992272837723 ], [ -120.10322555258071, 39.19513741620419 ], [ -120.103085287298995, 39.195169960684581 ], [ -120.102996462134115, 39.195077663106325 ], [ -120.10283454550968, 39.195073633617767 ], [ -120.102524964846182, 39.195282137851486 ], [ -120.101779592535152, 39.195389705432916 ], [ -120.101668377983344, 39.195278832025437 ], [ -120.100685591590803, 39.194966080708475 ], [ -120.100586965494387, 39.194549223606394 ], [ -120.100769050108056, 39.194625828186496 ], [ -120.101427073406242, 39.194389970146403 ], [ -120.10203291145416, 39.194296948682947 ], [ -120.103373549750629, 39.193789791313264 ] ] ] } }
]
}
