{
"type": "FeatureCollection",
"name": "X03891",
"crs": { "type": "name", "properties": { "name": "urn:ogc:def:crs:OGC:1.3:CRS84" } },
"features": [
{ "type": "Feature", "properties": { "part": "direct", "crossing_id": "X03891", "area_ac": 0.5, "n_upstream": null }, "geometry": { "type": "Polygon", "coordinates": [ [ [ -120.097820534546912, 39.198191876244977 ], [ -120.097863092568474, 39.198283024267127 ], [ -120.098371253393807, 39.198313709132975 ], [ -120.098253370693186, 39.198364822968038 ], [ -120.098030361250252, 39.198719611953756 ], [ -120.097866954671261, 39.198751573108602 ], [ -120.09789913693794, 39.199094706117066 ], [ -120.097746847323052, 39.198856683166667 ], [ -120.097755741530008, 39.198640696048408 ], [ -120.097852716499958, 39.198535009276995 ], [ -120.097760188597618, 39.198532702485586 ], [ -120.097717630580789, 39.198441554428541 ], [ -120.097727265921904, 39.198207568372638 ], [ -120.097820534546912, 39.198191876244977 ] ] ] } },
{ "type": "Feature", "properties": { "part": "upstream", "crossing_id": "X03891", "area_ac": 0.0, "n_upstream": 1.0 }, "geometry": { "type": "Polygon", "coordinates": [ [ [ -120.097807934874467, 39.198497858034195 ], [ -120.097851234193826, 39.198571007134483 ], [ -120.09778035588667, 39.198605274900601 ], [ -120.097807934874467, 39.198497858034195 ] ] ] } }
]
}
