{
"type": "FeatureCollection",
"name": "X03823",
"crs": { "type": "name", "properties": { "name": "urn:ogc:def:crs:OGC:1.3:CRS84" } },
"features": [
{ "type": "Feature", "properties": { "part": "direct", "crossing_id": "X03823", "area_ac": 0.2 }, "geometry": { "type": "Polygon", "coordinates": [ [ [ -120.125248578081923, 39.038100681609016 ], [ -120.125351569483499, 39.038409525707344 ], [ -120.125536941308198, 39.03839607997655 ], [ -120.12567250320545, 39.038471494847037 ], [ -120.125707715588632, 39.038742631274722 ], [ -120.125344269822506, 39.038589524314624 ], [ -120.125330679150906, 39.0383549568378 ], [ -120.12517714768623, 39.038152973261582 ], [ -120.125248578081923, 39.038100681609016 ] ] ] } }
]
}
