{
"type": "FeatureCollection",
"name": "X03845",
"crs": { "type": "name", "properties": { "name": "urn:ogc:def:crs:OGC:1.3:CRS84" } },
"features": [
{ "type": "Feature", "properties": { "part": "direct", "crossing_id": "X03845", "area_ac": 2.0 }, "geometry": { "type": "Polygon", "coordinates": [ [ [ -120.011643984292135, 38.918110461341975 ], [ -120.011799967701634, 38.91824058187413 ], [ -120.011985034519839, 38.918227305186527 ], [ -120.012576493160452, 38.91842263288715 ], [ -120.013062577733649, 38.918381028339724 ], [ -120.013598901785315, 38.918791152137139 ], [ -120.013357938381901, 38.919037231011025 ], [ -120.013056163077536, 38.919083556725944 ], [ -120.012888091095263, 38.919241412393092 ], [ -120.012129687053047, 38.918627401383951 ], [ -120.0121795423631, 38.91853858968814 ], [ -120.011912895777115, 38.918297528190081 ], [ -120.011475156133372, 38.9182863133585 ], [ -120.011643984292135, 38.918110461341975 ] ] ] } }
]
}
