{
"type": "FeatureCollection",
"name": "X03869",
"crs": { "type": "name", "properties": { "name": "urn:ogc:def:crs:OGC:1.3:CRS84" } },
"features": [
{ "type": "Feature", "properties": { "part": "direct", "crossing_id": "X03869", "area_ac": 23.0 }, "geometry": { "type": "Polygon", "coordinates": [ [ [ -120.124517602363852, 39.183467432292616 ], [ -120.124628836718102, 39.183578284698633 ], [ -120.124601305474499, 39.183685709905504 ], [ -120.124297709943292, 39.183750281527146 ], [ -120.124270178116447, 39.183857706631549 ], [ -120.124403072394202, 39.184005129310172 ], [ -120.124609020385918, 39.184064268489927 ], [ -120.124624808720711, 39.184244833676409 ], [ -120.124718054005882, 39.184229119039273 ], [ -120.124849482116332, 39.184412540062119 ], [ -120.125246325452153, 39.184332252034864 ], [ -120.125608300909278, 39.18453938223751 ], [ -120.12586417573813, 39.184509664216435 ], [ -120.125835178610487, 39.184653088589904 ], [ -120.125743400299157, 39.184632805279954 ], [ -120.125755523213243, 39.184903367482327 ], [ -120.125683937897136, 39.18495565275078 ], [ -120.12579517636, 39.185066504172582 ], [ -120.125849887565778, 39.185428205381413 ], [ -120.126241988354423, 39.186032462965073 ], [ -120.12636388736469, 39.18644987494379 ], [ -120.126652089835716, 39.186763286210891 ], [ -120.126670084091373, 39.186889852996558 ], [ -120.126894770644498, 39.18705755586064 ], [ -120.126865040778029, 39.187218979899754 ], [ -120.127042737570292, 39.187403540355724 ], [ -120.12661653719239, 39.188203810667915 ], [ -120.126280990686581, 39.188483808876171 ], [ -120.125935169235348, 39.189015797674095 ], [ -120.125555558575442, 39.18924065330107 ], [ -120.125331602619582, 39.189054948370504 ], [ -120.125229165977885, 39.188728103639932 ], [ -120.124984285115886, 39.188487828807872 ], [ -120.124857253657552, 39.188196411415497 ], [ -120.124874135292771, 39.187782425429866 ], [ -120.124654949520263, 39.186912171351139 ], [ -120.124859062059116, 39.186448756758253 ], [ -120.124390245734247, 39.186022775030246 ], [ -120.124260284269596, 39.185803354690151 ], [ -120.124123716574701, 39.185745928703462 ], [ -120.124127387140462, 39.185655931773191 ], [ -120.123807262087496, 39.185557935997323 ], [ -120.123857923655393, 39.18545108244993 ], [ -120.12351687453274, 39.185298516414115 ], [ -120.123441984455596, 39.184864245598654 ], [ -120.123290368577244, 39.184608254130652 ], [ -120.122765770635553, 39.184415115445923 ], [ -120.12392913552651, 39.183705142021559 ], [ -120.124517602363852, 39.183467432292616 ] ] ] } }
]
}
