{
"type": "FeatureCollection",
"name": "X03899",
"crs": { "type": "name", "properties": { "name": "urn:ogc:def:crs:OGC:1.3:CRS84" } },
"features": [
{ "type": "Feature", "properties": { "part": "direct", "crossing_id": "X03899", "area_ac": 0.2 }, "geometry": { "type": "Polygon", "coordinates": [ [ [ -120.090431510510058, 39.209466476128213 ], [ -120.090497200148462, 39.209558204882697 ], [ -120.09026287224161, 39.209624416903154 ], [ -120.090118112140175, 39.209764936995875 ], [ -120.089818094173836, 39.209739419134593 ], [ -120.089705390854334, 39.209664531914221 ], [ -120.090431510510058, 39.209466476128213 ] ] ] } }
]
}
