{
"type": "FeatureCollection",
"name": "X03837",
"crs": { "type": "name", "properties": { "name": "urn:ogc:def:crs:OGC:1.3:CRS84" } },
"features": [
{ "type": "Feature", "properties": { "part": "direct", "crossing_id": "X03837", "area_ac": 3.5 }, "geometry": { "type": "Polygon", "coordinates": [ [ [ -120.108495848099324, 38.957110176202875 ], [ -120.108830670142865, 38.957388747824098 ], [ -120.109153420537822, 38.957396749258073 ], [ -120.110047759242391, 38.958103600567007 ], [ -120.111086292367276, 38.958669873461105 ], [ -120.110218287610877, 38.95845016857961 ], [ -120.109613761604948, 38.958561312207763 ], [ -120.109108769955697, 38.958494740261479 ], [ -120.108776138048768, 38.958162169707798 ], [ -120.108742475691614, 38.957855029149869 ], [ -120.10823127689271, 38.957373885653872 ], [ -120.108379116326816, 38.957143317704485 ], [ -120.108495848099324, 38.957110176202875 ] ] ] } }
]
}
