{
"type": "FeatureCollection",
"name": "X03808",
"crs": { "type": "name", "properties": { "name": "urn:ogc:def:crs:OGC:1.3:CRS84" } },
"features": [
{ "type": "Feature", "properties": { "part": "direct", "crossing_id": "X03808", "area_ac": 1.2 }, "geometry": { "type": "Polygon", "coordinates": [ [ [ -120.125192944396858, 39.015540908159217 ], [ -120.125825127195199, 39.015898838280769 ], [ -120.126181898211613, 39.016213939416048 ], [ -120.126166585384027, 39.016591938200136 ], [ -120.126343879215511, 39.016776488361664 ], [ -120.126219033742672, 39.017007643414395 ], [ -120.12615564747388, 39.016861937313529 ], [ -120.125953093030503, 39.016730817792357 ], [ -120.125828510084233, 39.016385405511151 ], [ -120.125116431714204, 39.015719200302222 ], [ -120.12493184890667, 39.015714647712059 ], [ -120.125192944396858, 39.015540908159217 ] ] ] } }
]
}
