{
"type": "FeatureCollection",
"name": "X03864",
"crs": { "type": "name", "properties": { "name": "urn:ogc:def:crs:OGC:1.3:CRS84" } },
"features": [
{ "type": "Feature", "properties": { "part": "direct", "crossing_id": "X03864", "area_ac": 1.7 }, "geometry": { "type": "MultiPolygon", "coordinates": [ [ [ [ -120.131598671077967, 39.1801286841606 ], [ -120.131621065653732, 39.180147253445831 ], [ -120.131597939015705, 39.180146683681933 ], [ -120.131598671077967, 39.1801286841606 ] ] ], [ [ [ -120.131622529765849, 39.180111254402334 ], [ -120.131644924342893, 39.180129823683096 ], [ -120.13162179771011, 39.180129253924136 ], [ -120.131622529765849, 39.180111254402334 ] ] ], [ [ [ -120.130201131225803, 39.179769928921282 ], [ -120.130634676177976, 39.179924754888823 ], [ -120.131280755430467, 39.179976710857304 ], [ -120.1315531498891, 39.180109545099043 ], [ -120.131595010760051, 39.180218681766611 ], [ -120.131253665836624, 39.180642692933809 ], [ -120.130953017580211, 39.180635284619676 ], [ -120.130958143242665, 39.180509288050708 ], [ -120.130683551585619, 39.180430450926501 ], [ -120.130437946159304, 39.180208187158179 ], [ -120.130022399313518, 39.18017992697046 ], [ -120.130027526554102, 39.180053930494459 ], [ -120.130122230169519, 39.180002212269734 ], [ -120.130083301486309, 39.179821077165208 ], [ -120.130201131225803, 39.179769928921282 ] ] ] ] } }
]
}
