{
"type": "FeatureCollection",
"name": "X03873",
"crs": { "type": "name", "properties": { "name": "urn:ogc:def:crs:OGC:1.3:CRS84" } },
"features": [
{ "type": "Feature", "properties": { "part": "direct", "crossing_id": "X03873", "area_ac": 1.3 }, "geometry": { "type": "Polygon", "coordinates": [ [ [ -120.120025543977448, 39.186887831008228 ], [ -120.119998739378914, 39.186977255445775 ], [ -120.120174946651503, 39.187197824340807 ], [ -120.120080961423426, 39.187231534462903 ], [ -120.1201220726484, 39.187358673954321 ], [ -120.120187047983492, 39.187468386238649 ], [ -120.120392266807855, 39.187545532417424 ], [ -120.120387120996654, 39.18767152766447 ], [ -120.120032100622069, 39.187860938373639 ], [ -120.120002354688751, 39.188022360040996 ], [ -120.12013892302511, 39.188079790885133 ], [ -120.119924880028066, 39.188218635963999 ], [ -120.119936643950297, 39.18793064696721 ], [ -120.11966497904119, 39.187779786064915 ], [ -120.119652879737416, 39.187509224198216 ], [ -120.11943115131858, 39.187269510721279 ], [ -120.119791316893767, 39.186954106585006 ], [ -120.120025543977448, 39.186887831008228 ] ] ] } }
]
}
