{
"type": "FeatureCollection",
"name": "X03803",
"crs": { "type": "name", "properties": { "name": "urn:ogc:def:crs:OGC:1.3:CRS84" } },
"features": [
{ "type": "Feature", "properties": { "part": "direct", "crossing_id": "X03803", "area_ac": 0.6, "n_upstream": null }, "geometry": { "type": "Polygon", "coordinates": [ [ [ -120.122280080554361, 39.013901474293675 ], [ -120.122321844397902, 39.014010612805819 ], [ -120.122508612499317, 39.013961169684947 ], [ -120.122918803116775, 39.014097420131023 ], [ -120.122462908285343, 39.014518596730653 ], [ -120.122054906777478, 39.014328344979305 ], [ -120.122249707213811, 39.014080903572285 ], [ -120.122280080554361, 39.013901474293675 ] ] ] } },
{ "type": "Feature", "properties": { "part": "upstream", "crossing_id": "X03803", "area_ac": 1.4, "n_upstream": 1.0 }, "geometry": { "type": "Polygon", "coordinates": [ [ [ -120.122263140267037, 39.013180339542032 ], [ -120.122829720456579, 39.013446576425366 ], [ -120.12322531165745, 39.01394282373699 ], [ -120.12328650000228, 39.014142530881948 ], [ -120.122734954875753, 39.014074864326794 ], [ -120.122508612499317, 39.013961169684947 ], [ -120.122321844397902, 39.014010612805819 ], [ -120.122302422661093, 39.013920043774313 ], [ -120.122165449668998, 39.013880626378359 ], [ -120.122263140267037, 39.013180339542032 ] ] ] } }
]
}
