{
"type": "FeatureCollection",
"name": "X03894",
"crs": { "type": "name", "properties": { "name": "urn:ogc:def:crs:OGC:1.3:CRS84" } },
"features": [
{ "type": "Feature", "properties": { "part": "direct", "crossing_id": "X03894", "area_ac": 0.6 }, "geometry": { "type": "Polygon", "coordinates": [ [ [ -120.096452316954895, 39.202175637423743 ], [ -120.09713667288365, 39.202426931474136 ], [ -120.097652428735813, 39.202836174553454 ], [ -120.097558412525032, 39.202869865213827 ], [ -120.097539727207078, 39.20276129494821 ], [ -120.097377793727333, 39.202757257217897 ], [ -120.096969549860404, 39.202548885529907 ], [ -120.096280743509041, 39.202405583830306 ], [ -120.096288901680779, 39.202207596017296 ], [ -120.096452316954895, 39.202175637423743 ] ] ] } }
]
}
