{
"type": "FeatureCollection",
"name": "X03832",
"crs": { "type": "name", "properties": { "name": "urn:ogc:def:crs:OGC:1.3:CRS84" } },
"features": [
{ "type": "Feature", "properties": { "part": "direct", "crossing_id": "X03832", "area_ac": 3.2 }, "geometry": { "type": "Polygon", "coordinates": [ [ [ -120.110042249337653, 38.955400763380894 ], [ -120.11074372479861, 38.955742469411277 ], [ -120.111370927956457, 38.95620845760206 ], [ -120.11143496830492, 38.956336169981867 ], [ -120.112377618610125, 38.956990146252956 ], [ -120.11322913813612, 38.957047264703171 ], [ -120.113341482458793, 38.957122117783939 ], [ -120.113597995402884, 38.957056395158602 ], [ -120.113802554599175, 38.957133530245827 ], [ -120.112988368718675, 38.957293556405695 ], [ -120.112346522533073, 38.957187574363012 ], [ -120.111837149641957, 38.957229013906627 ], [ -120.110929258666815, 38.956287606327457 ], [ -120.110746295488596, 38.956247037336603 ], [ -120.11005432712912, 38.955671332798737 ], [ -120.109779885671912, 38.955610477260194 ], [ -120.109833309117732, 38.955431621247108 ], [ -120.110042249337653, 38.955400763380894 ] ] ] } }
]
}
