{
"type": "FeatureCollection",
"name": "X03839",
"crs": { "type": "name", "properties": { "name": "urn:ogc:def:crs:OGC:1.3:CRS84" } },
"features": [
{ "type": "Feature", "properties": { "part": "direct", "crossing_id": "X03839", "area_ac": 0.2 }, "geometry": { "type": "Polygon", "coordinates": [ [ [ -120.107522092921968, 38.957788729053782 ], [ -120.107743842028995, 38.958010445056289 ], [ -120.10770907080753, 38.958297870538409 ], [ -120.107626376086969, 38.958061585558831 ], [ -120.107401697562494, 38.95791186864335 ], [ -120.107406092031042, 38.957803869691482 ], [ -120.107522092921968, 38.957788729053782 ] ] ] } }
]
}
