{
"type": "FeatureCollection",
"name": "X03821",
"crs": { "type": "name", "properties": { "name": "urn:ogc:def:crs:OGC:1.3:CRS84" } },
"features": [
{ "type": "Feature", "properties": { "part": "direct", "crossing_id": "X03821", "area_ac": 16.8 }, "geometry": { "type": "Polygon", "coordinates": [ [ [ -120.125972636255369, 39.0367671989274 ], [ -120.125969717199894, 39.036839198430727 ], [ -120.126108925367532, 39.036824613331667 ], [ -120.126103817245166, 39.0369506124756 ], [ -120.126284077343499, 39.037063164557175 ], [ -120.12620900020471, 39.037205456313494 ], [ -120.126435420908862, 39.037319146382124 ], [ -120.126431042940126, 39.037427145670321 ], [ -120.126878050774067, 39.037798523700573 ], [ -120.127793960730415, 39.038001278082035 ], [ -120.128421246647235, 39.0384852002664 ], [ -120.128461573879108, 39.038630336892531 ], [ -120.128900101043413, 39.038641140840994 ], [ -120.129322591219676, 39.03904794144006 ], [ -120.129738040760429, 39.039058173825232 ], [ -120.129982452207514, 39.039298425337165 ], [ -120.129976621698972, 39.039442424786913 ], [ -120.13015397931882, 39.039626971034181 ], [ -120.13142805964344, 39.040685356801873 ], [ -120.130092759836799, 39.041138965184324 ], [ -120.129356348177765, 39.041066774945712 ], [ -120.128589565061361, 39.041174010474592 ], [ -120.128304095152856, 39.040806619285654 ], [ -120.128247979105993, 39.040480914878756 ], [ -120.12811386919509, 39.040369502984383 ], [ -120.128122620902829, 39.040153504195573 ], [ -120.127946726221808, 39.039932955223982 ], [ -120.127954019628817, 39.0397529562469 ], [ -120.127776667652185, 39.039568406856191 ], [ -120.127443849880109, 39.038659310582524 ], [ -120.127260665992665, 39.038618759664224 ], [ -120.127016995871742, 39.038360502962881 ], [ -120.126902324178715, 39.038339658246372 ], [ -120.126425205611895, 39.037571144717489 ], [ -120.126179352838406, 39.037366886109744 ], [ -120.125995443322651, 39.037344333221938 ], [ -120.12600201124225, 39.037182334348373 ], [ -120.125817372463473, 39.037177781072288 ], [ -120.125809618662927, 39.036799214568141 ], [ -120.125972636255369, 39.0367671989274 ] ] ] } }
]
}
