{
"type": "FeatureCollection",
"name": "X03846",
"crs": { "type": "name", "properties": { "name": "urn:ogc:def:crs:OGC:1.3:CRS84" } },
"features": [
{ "type": "Feature", "properties": { "part": "direct", "crossing_id": "X03846", "area_ac": 25.0, "n_upstream": null }, "geometry": { "type": "Polygon", "coordinates": [ [ [ -120.07843055357138, 38.935117677039266 ], [ -120.078979217989229, 38.935239527385676 ], [ -120.07901348561154, 38.935528672800565 ], [ -120.079359174269968, 38.93553733002048 ], [ -120.079551810085405, 38.935902512831262 ], [ -120.080180108745878, 38.936332656820682 ], [ -120.080595678896373, 38.936325041931767 ], [ -120.080846232835967, 38.936403385200549 ], [ -120.081626269713553, 38.937071552738274 ], [ -120.082771950592971, 38.937262376784624 ], [ -120.08428065960733, 38.938164966385322 ], [ -120.084100148947584, 38.938628920395935 ], [ -120.083689902107153, 38.939069111698196 ], [ -120.083488551625464, 38.939478489649431 ], [ -120.082893013307469, 38.939373505630194 ], [ -120.082737588025779, 38.939225474366097 ], [ -120.082486283771857, 38.939165134219628 ], [ -120.082081771630342, 38.93890276303749 ], [ -120.081353128028965, 38.938668315322289 ], [ -120.081085427185698, 38.938445400317647 ], [ -120.080811080407258, 38.938384479901075 ], [ -120.080203590770324, 38.938008913936621 ], [ -120.079928507701339, 38.937965990981482 ], [ -120.079363424753808, 38.93768157219138 ], [ -120.078677939924901, 38.937520260530974 ], [ -120.07854409573028, 38.937408800250964 ], [ -120.078375247191175, 38.93702619380268 ], [ -120.07836524383616, 38.935584507641366 ], [ -120.07843055357138, 38.935117677039266 ] ], [ [ -120.079345273738525, 38.936437879357769 ], [ -120.078861303543476, 38.936425758672129 ], [ -120.078859086338042, 38.936479756977086 ], [ -120.079730409701028, 38.93660968491308 ], [ -120.079345273738525, 38.936437879357769 ] ] ] } },
{ "type": "Feature", "properties": { "part": "upstream", "crossing_id": "X03846", "area_ac": 0.1, "n_upstream": 1.0 }, "geometry": { "type": "Polygon", "coordinates": [ [ [ -120.079207735490201, 38.936416417068507 ], [ -120.079479117515092, 38.936549338711821 ], [ -120.079730409701028, 38.93660968491308 ], [ -120.078859086338042, 38.936479756977086 ], [ -120.078861303543476, 38.936425758672129 ], [ -120.079207735490201, 38.936416417068507 ] ] ] } }
]
}
