{
"type": "FeatureCollection",
"name": "X03875",
"crs": { "type": "name", "properties": { "name": "urn:ogc:def:crs:OGC:1.3:CRS84" } },
"features": [
{ "type": "Feature", "properties": { "part": "direct", "crossing_id": "X03875", "area_ac": 29.4, "n_upstream": null }, "geometry": { "type": "Polygon", "coordinates": [ [ [ -120.118597372605095, 39.187843455219777 ], [ -120.118996776775859, 39.188267742243461 ], [ -120.118922976601581, 39.188374020898863 ], [ -120.118736472896771, 39.188405440282587 ], [ -120.118846969599801, 39.188534297378901 ], [ -120.119008138014152, 39.188556303354659 ], [ -120.119026118725728, 39.188682870793727 ], [ -120.119139558241983, 39.188739730455232 ], [ -120.119071970757474, 39.189260565343524 ], [ -120.119331872863683, 39.189699416535611 ], [ -120.119344706235097, 39.189951979017486 ], [ -120.119499259407547, 39.190135978120225 ], [ -120.119575599432608, 39.190534251834457 ], [ -120.120104245021935, 39.191195960235831 ], [ -120.120117816395478, 39.191430523384199 ], [ -120.120454475186094, 39.191691095933095 ], [ -120.120551011351125, 39.192161938535321 ], [ -120.120816813556573, 39.192456792473962 ], [ -120.120828181880199, 39.192745353528679 ], [ -120.120959614116671, 39.192928778925513 ], [ -120.120861945729999, 39.193052485940612 ], [ -120.120900120603991, 39.193251622470925 ], [ -120.120763882220913, 39.193752742818937 ], [ -120.120137142758423, 39.193791292835364 ], [ -120.119993209851216, 39.193913854581375 ], [ -120.120146302129726, 39.194133851694097 ], [ -120.120261221765347, 39.194154711980261 ], [ -120.120200988348927, 39.194495554247936 ], [ -120.120106257811656, 39.194547263286744 ], [ -120.12014369571861, 39.194764399265857 ], [ -120.120560057354695, 39.194774698431303 ], [ -120.120557851572116, 39.194828696335634 ], [ -120.120187016690593, 39.194837540873195 ], [ -120.120184075258564, 39.194909538054389 ], [ -120.120345993986078, 39.194913543418167 ], [ -120.120340111420049, 39.195057537797673 ], [ -120.120269982193079, 39.195073820528009 ], [ -120.119993877462633, 39.195030955264677 ], [ -120.119931102455865, 39.194867244874928 ], [ -120.119538607240543, 39.194839516497325 ], [ -120.119527979914409, 39.194532956305835 ], [ -120.119675592303366, 39.194320398780341 ], [ -120.119671583507895, 39.193851844948043 ], [ -120.119420821415375, 39.193755552940871 ], [ -120.118955997607614, 39.193798102893979 ], [ -120.118942430140052, 39.193563539820758 ], [ -120.118746024183167, 39.193270399235409 ], [ -120.118856202544507, 39.192840706391401 ], [ -120.118796374475494, 39.192604998384475 ], [ -120.118548560881607, 39.192436707575787 ], [ -120.11853205191467, 39.192274141576462 ], [ -120.118329764917434, 39.192124994636472 ], [ -120.118090048079338, 39.191758710941301 ], [ -120.117485404711189, 39.191257269291135 ], [ -120.117315084649476, 39.190892702297695 ], [ -120.117045622851492, 39.190687837349152 ], [ -120.116827574762922, 39.190358122696033 ], [ -120.116853648804366, 39.190286698489437 ], [ -120.117297528329019, 39.190189585579915 ], [ -120.117541335176455, 39.189889325056029 ], [ -120.116924934337362, 39.189675869321171 ], [ -120.116659894856596, 39.189363008109908 ], [ -120.117885431880183, 39.188834812179948 ], [ -120.118219540628033, 39.188590838074155 ], [ -120.118125230706397, 39.188065996197174 ], [ -120.118597372605095, 39.187843455219777 ] ] ] } },
{ "type": "Feature", "properties": { "part": "upstream", "crossing_id": "X03875", "area_ac": 4.9, "n_upstream": 2.0 }, "geometry": { "type": "Polygon", "coordinates": [ [ [ -120.119671583507895, 39.193851844948043 ], [ -120.119648783856832, 39.194409822915354 ], [ -120.119539436989044, 39.194407117393602 ], [ -120.119538607240543, 39.194839516497325 ], [ -120.119931102455865, 39.194867244874928 ], [ -120.119994612873327, 39.195012955972892 ], [ -120.119898743216709, 39.195659213626108 ], [ -120.119780143872518, 39.195728349331091 ], [ -120.119772789001473, 39.195908342189931 ], [ -120.119460309575047, 39.196188890326205 ], [ -120.119349800569253, 39.196060033471319 ], [ -120.119117748893331, 39.196072308611896 ], [ -120.119099766947457, 39.195945741251187 ], [ -120.11884605553098, 39.195921444876866 ], [ -120.11887433711334, 39.195796022463384 ], [ -120.118620626340984, 39.195771725619927 ], [ -120.118536194172705, 39.195571443523384 ], [ -120.118680133068565, 39.195448883831332 ], [ -120.118859709812654, 39.195020908778559 ], [ -120.11890638294571, 39.194445504442726 ], [ -120.119051054437222, 39.194304944883108 ], [ -120.118955997607614, 39.193798102893979 ], [ -120.119235774631733, 39.193750974007109 ], [ -120.119243423369397, 39.193802370870095 ], [ -120.119420821415375, 39.193755552940871 ], [ -120.119671583507895, 39.193851844948043 ] ] ] } }
]
}
