{
"type": "FeatureCollection",
"name": "X03820",
"crs": { "type": "name", "properties": { "name": "urn:ogc:def:crs:OGC:1.3:CRS84" } },
"features": [
{ "type": "Feature", "properties": { "part": "direct", "crossing_id": "X03820", "area_ac": 0.1 }, "geometry": { "type": "Polygon", "coordinates": [ [ [ -120.126072982209578, 39.036571476803488 ], [ -120.126161652274078, 39.036663752643406 ], [ -120.126085115896458, 39.036842044091181 ], [ -120.125992067178245, 39.036857767447941 ], [ -120.125972636255369, 39.0367671989274 ], [ -120.125787268752106, 39.036780645518242 ], [ -120.125790187986667, 39.03670864602573 ], [ -120.126045524118311, 39.036678906946911 ], [ -120.126072982209578, 39.036571476803488 ] ] ] } }
]
}
