{
"type": "FeatureCollection",
"name": "X03807",
"crs": { "type": "name", "properties": { "name": "urn:ogc:def:crs:OGC:1.3:CRS84" } },
"features": [
{ "type": "Feature", "properties": { "part": "direct", "crossing_id": "X03807", "area_ac": 2.9, "n_upstream": null }, "geometry": { "type": "Polygon", "coordinates": [ [ [ -120.125071015452392, 39.015700062255199 ], [ -120.1259164269389, 39.016495680793575 ], [ -120.125953093030503, 39.016730817792357 ], [ -120.126177262332746, 39.016898506056528 ], [ -120.126167782750755, 39.017132505278866 ], [ -120.124540521854627, 39.016822105676773 ], [ -120.124536418376607, 39.01635353868916 ], [ -120.124447044663057, 39.016279262280655 ], [ -120.12490850523325, 39.016290645264284 ], [ -120.125042106989255, 39.015843492598201 ], [ -120.124954921755332, 39.01571521680178 ], [ -120.125071015452392, 39.015700062255199 ] ] ] } },
{ "type": "Feature", "properties": { "part": "upstream", "crossing_id": "X03807", "area_ac": 1.7, "n_upstream": 2.0 }, "geometry": { "type": "MultiPolygon", "coordinates": [ [ [ [ -120.125042106989255, 39.015843492598201 ], [ -120.12490850523325, 39.016290645264284 ], [ -120.124401628248691, 39.016260123967612 ], [ -120.124336057426191, 39.016168416768672 ], [ -120.124688718220838, 39.016014955210721 ], [ -120.124790493765786, 39.015783232767127 ], [ -120.124976535667969, 39.015751785737436 ], [ -120.125042106989255, 39.015843492598201 ] ] ], [ [ [ -120.125825127195199, 39.015898838280769 ], [ -120.126181898211613, 39.016213939416048 ], [ -120.126166585384027, 39.016591938200136 ], [ -120.126343879215511, 39.016776488361664 ], [ -120.126219033742672, 39.017007643414395 ], [ -120.12615564747388, 39.016861937313529 ], [ -120.125953093030503, 39.016730817792357 ], [ -120.125828510084233, 39.016385405511151 ], [ -120.125116431714204, 39.015719200302222 ], [ -120.12493184890667, 39.015714647712059 ], [ -120.125192944396858, 39.015540908159217 ], [ -120.125825127195199, 39.015898838280769 ] ] ] ] } }
]
}
