{
"type": "FeatureCollection",
"name": "X03817",
"crs": { "type": "name", "properties": { "name": "urn:ogc:def:crs:OGC:1.3:CRS84" } },
"features": [
{ "type": "Feature", "properties": { "part": "direct", "crossing_id": "X03817", "area_ac": 9.9 }, "geometry": { "type": "Polygon", "coordinates": [ [ [ -120.124118295671323, 39.029514306753143 ], [ -120.124184607514806, 39.029588014474882 ], [ -120.123637765036079, 39.029970913810352 ], [ -120.123558309866254, 39.030221203244459 ], [ -120.123393115891844, 39.030307215628383 ], [ -120.123279188650585, 39.030268367995404 ], [ -120.123180305743887, 39.030428088240463 ], [ -120.122807412287912, 39.030508973005162 ], [ -120.122543331964891, 39.030754703886082 ], [ -120.122559104918707, 39.030935272034476 ], [ -120.122802734348014, 39.031193536779341 ], [ -120.123498720981104, 39.031120626500361 ], [ -120.123789970738528, 39.031344028735582 ], [ -120.123758130612572, 39.031559457514547 ], [ -120.123278313385569, 39.031998062488498 ], [ -120.123024890226034, 39.03255036123489 ], [ -120.122687915044509, 39.032884382248412 ], [ -120.121285363452003, 39.03385874888378 ], [ -120.121457568665491, 39.034169305833586 ], [ -120.121450991075179, 39.034331304143841 ], [ -120.12106126330589, 39.034826177992471 ], [ -120.121055415620461, 39.03497017642426 ], [ -120.120615452018754, 39.034995343425791 ], [ -120.120550601480701, 39.03488563408925 ], [ -120.120609918755122, 39.034562778112559 ], [ -120.120481680782589, 39.03430735982603 ], [ -120.121028574320547, 39.033924477459713 ], [ -120.120848643497439, 39.03323535393227 ], [ -120.121083082698178, 39.033151055785254 ], [ -120.121086737234592, 39.033061056735569 ], [ -120.12132263727878, 39.032940758446465 ], [ -120.12156584430312, 39.032640461460652 ], [ -120.121646040414959, 39.032372174022598 ], [ -120.121959939641542, 39.03203758621482 ], [ -120.122102791943561, 39.031933006426534 ], [ -120.122311225106543, 39.031920135049127 ], [ -120.122577502268612, 39.031620405416973 ], [ -120.12268588426727, 39.031226687897501 ], [ -120.122440794156503, 39.031004422597171 ], [ -120.122453943206182, 39.030680425504059 ], [ -120.124118295671323, 39.029514306753143 ] ] ] } }
]
}
