{
"type": "FeatureCollection",
"name": "X03847",
"crs": { "type": "name", "properties": { "name": "urn:ogc:def:crs:OGC:1.3:CRS84" } },
"features": [
{ "type": "Feature", "properties": { "part": "direct", "crossing_id": "X03847", "area_ac": 94.2 }, "geometry": { "type": "Polygon", "coordinates": [ [ [ -120.111432728830025, 38.971723479743808 ], [ -120.111215330821892, 38.972528902699878 ], [ -120.111221557250687, 38.972943470298695 ], [ -120.111329532556013, 38.973126325054587 ], [ -120.11111834450611, 38.973211182700922 ], [ -120.110851523115898, 38.973528895058756 ], [ -120.110426214797045, 38.973770607368621 ], [ -120.110794793685102, 38.974356315866515 ], [ -120.111158616680143, 38.974491456239008 ], [ -120.111446676961265, 38.974786880317438 ], [ -120.111199620789279, 38.975753729742138 ], [ -120.111020636435626, 38.976181726242821 ], [ -120.110926201518396, 38.976233440240122 ], [ -120.110867637742103, 38.97653829446751 ], [ -120.110724886333259, 38.976642864939407 ], [ -120.11018572298758, 38.97684571871627 ], [ -120.109607760242554, 38.976867428568809 ], [ -120.108664851179711, 38.977348553033913 ], [ -120.108272830217771, 38.977338831098969 ], [ -120.107992445794693, 38.977421966636939 ], [ -120.10614910858861, 38.977340194697135 ], [ -120.105522821624177, 38.977414738618329 ], [ -120.105427647859642, 38.977484447669021 ], [ -120.10489726710793, 38.977471279397498 ], [ -120.104311962192781, 38.977672959912091 ], [ -120.103966061087533, 38.977664368840202 ], [ -120.103359159985544, 38.977829472219099 ], [ -120.102950684642124, 38.977657162150166 ], [ -120.103073325112831, 38.977480030003534 ], [ -120.102981085155093, 38.97747773818152 ], [ -120.102894717720432, 38.977331448742241 ], [ -120.102733298164154, 38.977327437771635 ], [ -120.1023358402323, 38.976885130383636 ], [ -120.102343916296419, 38.976687133835789 ], [ -120.102635315119912, 38.976334016645978 ], [ -120.102507969436573, 38.976060583091829 ], [ -120.102707861133709, 38.975687173682779 ], [ -120.102082756288198, 38.975167136781728 ], [ -120.101720417550965, 38.974995969245114 ], [ -120.101886971451563, 38.974873983624299 ], [ -120.102001532842962, 38.974894848998453 ], [ -120.102121967850252, 38.97477171675326 ], [ -120.102351090547771, 38.974813446922688 ], [ -120.102676854370216, 38.974749470476013 ], [ -120.102802426078824, 38.974500339573559 ], [ -120.103127454192048, 38.974454361497884 ], [ -120.103715670085592, 38.974180687091796 ], [ -120.104242041288856, 38.973725294277806 ], [ -120.104201792777076, 38.973580151125972 ], [ -120.104355550686634, 38.973205592796155 ], [ -120.104626066444027, 38.972797897682547 ], [ -120.104790409838529, 38.972729906696003 ], [ -120.105553540016203, 38.972694799082497 ], [ -120.105787790980742, 38.972610524062617 ], [ -120.107462315344819, 38.971733160607315 ], [ -120.107756943417726, 38.971866594851676 ], [ -120.108218108866737, 38.97187803298506 ], [ -120.108823104509199, 38.972325466874636 ], [ -120.109076014983174, 38.972349755624833 ], [ -120.109364790444673, 38.972627184477759 ], [ -120.109503141728169, 38.972630614258534 ], [ -120.109782773144232, 38.972565474058449 ], [ -120.110233330715104, 38.972270335857004 ], [ -120.110286768177076, 38.972091480515033 ], [ -120.110219789218419, 38.972035766650848 ], [ -120.110880431310932, 38.972250335499886 ], [ -120.111432728830025, 38.971723479743808 ] ] ] } }
]
}
