{
"type": "FeatureCollection",
"name": "X03968",
"crs": { "type": "name", "properties": { "name": "urn:ogc:def:crs:OGC:1.3:CRS84" } },
"features": [
{ "type": "Feature", "properties": { "part": "direct", "crossing_id": "X03968", "area_ac": 5.4 }, "geometry": { "type": "Polygon", "coordinates": [ [ [ -120.148288660004638, 39.146935759675394 ], [ -120.14989892986344, 39.146596808334259 ], [ -120.149986308419386, 39.146725070618452 ], [ -120.149978316782551, 39.146923069667785 ], [ -120.150215885725217, 39.147343290372291 ], [ -120.150186957652039, 39.147486724013525 ], [ -120.150413035948631, 39.147618380051014 ], [ -120.150450551702335, 39.147835510341565 ], [ -120.150691031730247, 39.148183730560461 ], [ -120.150507552103832, 39.148143205839681 ], [ -120.150442561050454, 39.148033509433176 ], [ -120.150186826550083, 39.148063286943959 ], [ -120.149643656554971, 39.147761710565995 ], [ -120.149294003777058, 39.147825222724869 ], [ -120.148974008018172, 39.147727300690242 ], [ -120.148692250370217, 39.14782850857415 ], [ -120.148219891775739, 39.147492623990779 ], [ -120.14791865309104, 39.147503264518868 ], [ -120.147694034318306, 39.147335604067258 ], [ -120.147769199691908, 39.147193303556747 ], [ -120.148288660004638, 39.146935759675394 ] ] ] } }
]
}
