{
"type": "FeatureCollection",
"name": "X03929",
"crs": { "type": "name", "properties": { "name": "urn:ogc:def:crs:OGC:1.3:CRS84" } },
"features": [
{ "type": "Feature", "properties": { "part": "direct", "crossing_id": "X03929", "area_ac": 0.0 }, "geometry": { "type": "Polygon", "coordinates": [ [ [ -120.057485371436485, 39.240835044350661 ], [ -120.057576446434325, 39.240873381526882 ], [ -120.057574188745889, 39.240927375977527 ], [ -120.0574831136813, 39.24088903879727 ], [ -120.057485371436485, 39.240835044350661 ] ] ] } }
]
}
