{
"type": "FeatureCollection",
"name": "X03900",
"crs": { "type": "name", "properties": { "name": "urn:ogc:def:crs:OGC:1.3:CRS84" } },
"features": [
{ "type": "Feature", "properties": { "part": "direct", "crossing_id": "X03900", "area_ac": 0.4 }, "geometry": { "type": "Polygon", "coordinates": [ [ [ -120.08965408600092, 39.210906446476756 ], [ -120.09010713851265, 39.211151998888496 ], [ -120.090269833645849, 39.211138048677086 ], [ -120.09058927704578, 39.211254137752988 ], [ -120.090746025940263, 39.211384177078415 ], [ -120.089642932352405, 39.211176427860806 ], [ -120.089489904109001, 39.210956393356426 ], [ -120.089492134950433, 39.210902397086144 ], [ -120.08965408600092, 39.210906446476756 ] ] ] } }
]
}
