{
"type": "FeatureCollection",
"name": "X03901",
"crs": { "type": "name", "properties": { "name": "urn:ogc:def:crs:OGC:1.3:CRS84" } },
"features": [
{ "type": "Feature", "properties": { "part": "direct", "crossing_id": "X03901", "area_ac": 8.6, "n_upstream": null }, "geometry": { "type": "Polygon", "coordinates": [ [ [ -120.089184756781421, 39.211615404794173 ], [ -120.089132534806751, 39.211758237634349 ], [ -120.089498994886043, 39.211857488135685 ], [ -120.089668468791956, 39.212240089956566 ], [ -120.090073769850761, 39.212520483311444 ], [ -120.090115581677964, 39.212629632681988 ], [ -120.090434287991798, 39.212763721166759 ], [ -120.090423880025213, 39.213015703886725 ], [ -120.090744818737136, 39.213095795296681 ], [ -120.090764238611015, 39.213186367424576 ], [ -120.090647068673746, 39.213219473524624 ], [ -120.090796388370535, 39.213529500601837 ], [ -120.090686000230733, 39.213959157886265 ], [ -120.090407614142507, 39.213970216707843 ], [ -120.090322501402241, 39.213787915637198 ], [ -120.089830679374543, 39.213919758861643 ], [ -120.088767128434682, 39.213875145640806 ], [ -120.088539479910693, 39.213779364939619 ], [ -120.088459654191595, 39.214029610979878 ], [ -120.088366362745944, 39.214045294696824 ], [ -120.088456529651395, 39.212984527034266 ], [ -120.088509497958071, 39.212823695874512 ], [ -120.088625180327753, 39.212826589413005 ], [ -120.08851321752222, 39.212733702197745 ], [ -120.088569904935184, 39.212482877309036 ], [ -120.088995205529898, 39.211718768565028 ], [ -120.089184756781421, 39.211615404794173 ] ] ] } },
{ "type": "Feature", "properties": { "part": "upstream", "crossing_id": "X03901", "area_ac": 467.0, "n_upstream": 6.0 }, "geometry": { "type": "Polygon", "coordinates": [ [ [ -120.092098197663518, 39.214534967370483 ], [ -120.092157309526257, 39.215347224870911 ], [ -120.091997577184571, 39.215289182229085 ], [ -120.091646801065679, 39.21537050475132 ], [ -120.09137063914369, 39.21532756934662 ], [ -120.090851117665679, 39.215008290944333 ], [ -120.090440595323145, 39.214853891068053 ], [ -120.089557664525415, 39.214921903782255 ], [ -120.088999318871998, 39.214421473026093 ], [ -120.088328345957649, 39.214404690493176 ], [ -120.088366362745944, 39.214045294696824 ], [ -120.088459654191595, 39.214029610979878 ], [ -120.088539479910693, 39.213779364939619 ], [ -120.088767128434682, 39.213875145640806 ], [ -120.089830679374543, 39.213919758861643 ], [ -120.090322501402241, 39.213787915637198 ], [ -120.090453144470231, 39.213989372173934 ], [ -120.090735458639486, 39.213934187025494 ], [ -120.090710623885414, 39.213923738650891 ], [ -120.090796388370535, 39.213529500601837 ], [ -120.090647068673746, 39.213219473524624 ], [ -120.090838641083181, 39.213175060487266 ], [ -120.090423880025213, 39.213015703886725 ], [ -120.090434287991798, 39.212763721166759 ], [ -120.090115581677964, 39.212629632681988 ], [ -120.090073769850761, 39.212520483311444 ], [ -120.089668468791956, 39.212240089956566 ], [ -120.0895661725568, 39.211913219912482 ], [ -120.08934001637833, 39.211781443441446 ], [ -120.089132534806751, 39.211758237634349 ], [ -120.089259370884335, 39.211491149226646 ], [ -120.089396699892646, 39.211530617974304 ], [ -120.089561626817257, 39.211462672527134 ], [ -120.089969897193853, 39.211671071054646 ], [ -120.090616965582711, 39.21170526364827 ], [ -120.090758755727279, 39.21163673818814 ], [ -120.090915505757067, 39.211766777321486 ], [ -120.091213303299369, 39.211846289029076 ], [ -120.091323782144627, 39.21197517130436 ], [ -120.091736519437433, 39.212075571204849 ], [ -120.09198433162075, 39.212243918823503 ], [ -120.0921462861116, 39.212247964864751 ], [ -120.092299325431924, 39.212467996249337 ], [ -120.092549368992195, 39.212582346360051 ], [ -120.092733717992942, 39.212604968327803 ], [ -120.092760568594414, 39.212515552183056 ], [ -120.092876250895728, 39.212518441481315 ], [ -120.093309902333559, 39.212673410270583 ], [ -120.094098771906715, 39.21263905511811 ], [ -120.094556306001806, 39.212776598164027 ], [ -120.094798189158254, 39.213088930785233 ], [ -120.095071375985668, 39.213203853171656 ], [ -120.095279606600272, 39.213209049771486 ], [ -120.095516911090868, 39.213070832565542 ], [ -120.095787130861169, 39.213257748707207 ], [ -120.095905040803942, 39.213206638488977 ], [ -120.09624986628107, 39.213269293372299 ], [ -120.096499177661315, 39.213401634185736 ], [ -120.096593208703013, 39.213367944981535 ], [ -120.096817158811319, 39.213553704617283 ], [ -120.097139591771068, 39.213597781004069 ], [ -120.097385197701271, 39.213820114381299 ], [ -120.097617309167276, 39.213807884960524 ], [ -120.097683753721824, 39.213881611222 ], [ -120.098074858450872, 39.213945414684908 ], [ -120.098251057260455, 39.214166015849891 ], [ -120.098413758489102, 39.214152054454438 ], [ -120.098523512902275, 39.214298929367089 ], [ -120.098706386168956, 39.214357539888269 ], [ -120.099692229394776, 39.214039778498694 ], [ -120.100250483809035, 39.213981617815946 ], [ -120.100299721735411, 39.213910774929381 ], [ -120.100503510110713, 39.214023955801842 ], [ -120.100597540286174, 39.21399026332297 ], [ -120.100593835981641, 39.214080257945945 ], [ -120.100826688949866, 39.2140500232058 ], [ -120.101327558481373, 39.214260688725581 ], [ -120.101378276894351, 39.214153847479444 ], [ -120.101517099945141, 39.214157304474824 ], [ -120.101661107158264, 39.214034768715628 ], [ -120.101596139369093, 39.213925046684714 ], [ -120.101343112614998, 39.213882711063704 ], [ -120.101348297261197, 39.213756718503184 ], [ -120.101597620572917, 39.213889048802777 ], [ -120.102440181272044, 39.213675800201905 ], [ -120.102757437159966, 39.213845853872677 ], [ -120.102813335104884, 39.213613019176819 ], [ -120.103023048817064, 39.213582204054099 ], [ -120.102988067950918, 39.213869611626393 ], [ -120.103246277128804, 39.213785950932724 ], [ -120.103242576232347, 39.213875945769999 ], [ -120.103450810340433, 39.213881127838192 ], [ -120.103466546213454, 39.214061693306761 ], [ -120.104195638339419, 39.213791556064528 ], [ -120.10472779208979, 39.213804794011715 ], [ -120.104972683917069, 39.214045111277727 ], [ -120.105251809842429, 39.214016018523232 ], [ -120.105499662673736, 39.214184338764198 ], [ -120.105775091302874, 39.21424523979146 ], [ -120.105905780437638, 39.214446680645423 ], [ -120.106313380093084, 39.214673023184275 ], [ -120.106703759470662, 39.214754797099808 ], [ -120.107029162722, 39.214726850410706 ], [ -120.107232964927761, 39.214840019972144 ], [ -120.107557629352456, 39.214830070842837 ], [ -120.107783831267128, 39.214961813475021 ], [ -120.107928568792502, 39.214821270586732 ], [ -120.108091270460648, 39.214807295640753 ], [ -120.108944404336597, 39.214900558331706 ], [ -120.110020055314109, 39.215215548653518 ], [ -120.110152235435848, 39.2153809870846 ], [ -120.111243655723243, 39.215876531817372 ], [ -120.111428759267596, 39.215881125600866 ], [ -120.11166456725384, 39.21577887284608 ], [ -120.111940008271731, 39.21583975969277 ], [ -120.112129539610592, 39.21573635774994 ], [ -120.11239833987824, 39.215959235465995 ], [ -120.112463326560103, 39.216068952128559 ], [ -120.11240967150961, 39.216247795177843 ], [ -120.112500748099407, 39.216286089412385 ], [ -120.112626295393881, 39.216613517265976 ], [ -120.112762911200846, 39.216670958367821 ], [ -120.112632462852574, 39.217028070716047 ], [ -120.112803550962681, 39.217374645479637 ], [ -120.11339924979994, 39.217533559563371 ], [ -120.113543244505095, 39.217411008641044 ], [ -120.11384404494423, 39.217418467695268 ], [ -120.114382867468862, 39.217269670380922 ], [ -120.114472471707074, 39.217343961424312 ], [ -120.114774009434555, 39.217333418928604 ], [ -120.115161466031068, 39.217487161915813 ], [ -120.115646638597312, 39.217517203194753 ], [ -120.115987821012965, 39.21766979674716 ], [ -120.116312498783145, 39.217659823625652 ], [ -120.116516325119193, 39.217772977744453 ], [ -120.116887280731191, 39.217764149458581 ], [ -120.117456171285411, 39.218012465958459 ], [ -120.118008555832304, 39.218098214193091 ], [ -120.11880663337341, 39.218406250963646 ], [ -120.118916437613564, 39.21855310837293 ], [ -120.119463675411623, 39.218764844360848 ], [ -120.119801928330133, 39.218989424080156 ], [ -120.120212545029403, 39.219143723530479 ], [ -120.121018002593559, 39.219271753603941 ], [ -120.122417336771377, 39.220171194123729 ], [ -120.123104906920076, 39.220350347648264 ], [ -120.123351355719677, 39.220554630636542 ], [ -120.124187326201962, 39.220503218702 ], [ -120.124600901713947, 39.220585506179219 ], [ -120.125545589430956, 39.221275485324547 ], [ -120.125844205726736, 39.221336911905134 ], [ -120.126227303199173, 39.221598615491018 ], [ -120.126405079506199, 39.221783179128437 ], [ -120.12640067265059, 39.221891174989736 ], [ -120.126534372890532, 39.222020597913094 ], [ -120.126650074243116, 39.222023454249303 ], [ -120.126713619841624, 39.222169162510866 ], [ -120.126333826235197, 39.222394013006692 ], [ -120.126056141633754, 39.222387156799272 ], [ -120.125422534723398, 39.222587719429548 ], [ -120.124757699745658, 39.222985698922294 ], [ -120.124594980946682, 39.222999696584488 ], [ -120.124330144401611, 39.22324539770225 ], [ -120.124074127337977, 39.223275106916823 ], [ -120.123786882433762, 39.223502235628224 ], [ -120.123710108252951, 39.223680512702757 ], [ -120.122998236337324, 39.224095336845245 ], [ -120.122943864963389, 39.224292184554464 ], [ -120.122278264537428, 39.224708147894027 ], [ -120.122249238569509, 39.224851569618522 ], [ -120.122088722119088, 39.22481156589059 ], [ -120.122060431378515, 39.224936988317744 ], [ -120.121784945007548, 39.224876123870231 ], [ -120.12149768620867, 39.225103246355992 ], [ -120.121264802707984, 39.225133521397566 ], [ -120.120689217400241, 39.2250472140421 ], [ -120.12035240575932, 39.224786637508849 ], [ -120.120030639644895, 39.224724623893444 ], [ -120.119797020717186, 39.224772895219061 ], [ -120.119375013415635, 39.224330033460141 ], [ -120.119281713535017, 39.224345741697448 ], [ -120.118875488180805, 39.224083442924737 ], [ -120.118713502664534, 39.224079433036003 ], [ -120.11831200677787, 39.224267684723301 ], [ -120.118284446256368, 39.224375106825924 ], [ -120.117985088332603, 39.224331659799937 ], [ -120.117421602836032, 39.22451589711725 ], [ -120.116703498146165, 39.224516127363067 ], [ -120.116654268225957, 39.224586977419968 ], [ -120.116286962266443, 39.224505807904983 ], [ -120.115981707683176, 39.22460634885902 ], [ -120.115799529502908, 39.224529764925649 ], [ -120.11540392267014, 39.224574013137115 ], [ -120.115291905197424, 39.224481149846362 ], [ -120.115057546979429, 39.224547410686839 ], [ -120.114641011519169, 39.224537085336344 ], [ -120.114439382274682, 39.224369930090283 ], [ -120.11400044501805, 39.224341029667428 ], [ -120.114004871259993, 39.224233035030252 ], [ -120.113799555652491, 39.224155874280314 ], [ -120.113783792522327, 39.223975309410122 ], [ -120.113555337294713, 39.223897574426488 ], [ -120.113286504426043, 39.223674698382851 ], [ -120.112829597628036, 39.223519226137931 ], [ -120.112482490475941, 39.223510615331357 ], [ -120.11241502355864, 39.222896350081022 ], [ -120.112279872506235, 39.222802910017379 ], [ -120.110486753161098, 39.222470129821957 ], [ -120.109538748848237, 39.222428573572557 ], [ -120.109509698337931, 39.2225719912336 ], [ -120.109271647499639, 39.222728235656518 ], [ -120.108692404950432, 39.222731865336627 ], [ -120.108417679700679, 39.222652970937467 ], [ -120.108316022331806, 39.222308115049096 ], [ -120.107938165777782, 39.221920361720308 ], [ -120.107711202745975, 39.221806617693439 ], [ -120.107479065322607, 39.221818866321854 ], [ -120.107252842768219, 39.221687122430417 ], [ -120.107044584898787, 39.22168194630116 ], [ -120.106530333499762, 39.22179528494329 ], [ -120.106209335071213, 39.221715235037763 ], [ -120.105892775667797, 39.221527190359012 ], [ -120.105129906293215, 39.221490201576216 ], [ -120.104770771679839, 39.221211008076601 ], [ -120.10398624760191, 39.221137438424584 ], [ -120.103574918370882, 39.22100108158336 ], [ -120.103249485181863, 39.221029017445865 ], [ -120.103007538325997, 39.220716700345641 ], [ -120.10267840379899, 39.220834629347223 ], [ -120.102471630412666, 39.220793447266644 ], [ -120.102399249974809, 39.22086371484442 ], [ -120.102032723079773, 39.220764502682343 ], [ -120.101706549889855, 39.220810433170286 ], [ -120.101436285791422, 39.220623529317251 ], [ -120.101228773009296, 39.220600343992004 ], [ -120.100783770992635, 39.220156843522865 ], [ -120.100575518837161, 39.220151655996816 ], [ -120.100432978775288, 39.220238191954444 ], [ -120.099934294289852, 39.21997352459141 ], [ -120.099792495087158, 39.220042060856365 ], [ -120.099612571405586, 39.219911455943041 ], [ -120.099359524812968, 39.219869115283387 ], [ -120.099319177514587, 39.219723970882384 ], [ -120.09917811965164, 39.219774507512227 ], [ -120.098950437112748, 39.219678746025295 ], [ -120.098774964783317, 39.21944014662391 ], [ -120.098612992815333, 39.219436109181807 ], [ -120.098548766941875, 39.219308386653026 ], [ -120.098315895740726, 39.219338616120346 ], [ -120.098109871362965, 39.219279427666748 ], [ -120.09816059866192, 39.219172588222804 ], [ -120.098094890572185, 39.219080863217201 ], [ -120.098237430899403, 39.21899433012976 ], [ -120.09836424778544, 39.218727231276453 ], [ -120.098347041634113, 39.218582663444948 ], [ -120.098188779670664, 39.218488631120124 ], [ -120.098261161560657, 39.218418366203437 ], [ -120.098226008234249, 39.218147229389118 ], [ -120.097660898844282, 39.217808827011559 ], [ -120.096726929930412, 39.216866649060208 ], [ -120.096407450465222, 39.216750575602227 ], [ -120.096296955059216, 39.21662169761715 ], [ -120.096065576303729, 39.216615925196962 ], [ -120.095797569860579, 39.216375012762839 ], [ -120.095757231540844, 39.216229867400756 ], [ -120.095436272198612, 39.216149789108215 ], [ -120.0952026682872, 39.216198011532079 ], [ -120.095187900819028, 39.215962957723399 ], [ -120.094817993385135, 39.215820856782088 ], [ -120.094936893491308, 39.215903100780011 ], [ -120.094820463039483, 39.215918212147223 ], [ -120.094797325422192, 39.215917634641208 ], [ -120.09479777085663, 39.215906835345486 ], [ -120.094775078681309, 39.215895458539592 ], [ -120.094683122185103, 39.215878749393482 ], [ -120.094683864603866, 39.215860750568972 ], [ -120.09388382593022, 39.215683769940263 ], [ -120.093902385039954, 39.215715120206042 ], [ -120.093718027465158, 39.215692499781063 ], [ -120.093698603268635, 39.215601928011637 ], [ -120.093538126256902, 39.215561886226403 ], [ -120.092985055594596, 39.215494022412734 ], [ -120.092590233312137, 39.215520195662222 ], [ -120.092361087939324, 39.215460419649219 ], [ -120.092196153863782, 39.215528368774578 ], [ -120.092058405326711, 39.213254741258289 ], [ -120.09209363658448, 39.214084419645758 ], [ -120.092098197663518, 39.214534967370483 ] ], [ [ -120.094752386513491, 39.215884081729527 ], [ -120.094620238155315, 39.215817828458441 ], [ -120.094683864603866, 39.215860750568972 ], [ -120.094752386513491, 39.215884081729527 ] ], [ [ -120.09118659636809, 39.213563821812798 ], [ -120.091149817304483, 39.21353669563009 ], [ -120.091165833215641, 39.21355675116839 ], [ -120.09118659636809, 39.213563821812798 ] ], [ [ -120.090814406380176, 39.214085778154093 ], [ -120.090818874731355, 39.21410661775635 ], [ -120.091343592279458, 39.214299904660038 ], [ -120.090814406380176, 39.214085778154093 ] ], [ [ -120.09080168468752, 39.213962049333134 ], [ -120.090786507880068, 39.213955664224137 ], [ -120.090794158215971, 39.213991344150578 ], [ -120.09080168468752, 39.213962049333134 ] ], [ [ -120.091009233578291, 39.213360652489811 ], [ -120.090925451783576, 39.213208414015618 ], [ -120.090870932976216, 39.213187467362509 ], [ -120.091009233578291, 39.213360652489811 ] ], [ [ -120.093037052938328, 39.214234106349437 ], [ -120.093056732722843, 39.214250431274479 ], [ -120.09305098477823, 39.214071523159745 ], [ -120.093037052938328, 39.214234106349437 ] ], [ [ -120.093816402598463, 39.214992279249593 ], [ -120.093619306962481, 39.214717097678992 ], [ -120.093597554455599, 39.214709690770377 ], [ -120.093816402598463, 39.214992279249593 ] ], [ [ -120.0941262164921, 39.215342344024954 ], [ -120.094171206235046, 39.215030921235879 ], [ -120.094108276932829, 39.215215774668259 ], [ -120.094130671762827, 39.215234351120237 ], [ -120.094110839723896, 39.215233856005121 ], [ -120.0941262164921, 39.215342344024954 ] ], [ [ -120.094572087234141, 39.21565076088531 ], [ -120.094421063149753, 39.215493843460472 ], [ -120.0941262164921, 39.215342344024954 ], [ -120.094572087234141, 39.21565076088531 ] ], [ [ -120.094122076791592, 39.214233480275958 ], [ -120.09407821988394, 39.214260104381609 ], [ -120.094049885053067, 39.214385518483084 ], [ -120.094122076791592, 39.214233480275958 ] ], [ [ -120.094314364451535, 39.214186374535316 ], [ -120.094220754713973, 39.214173575972836 ], [ -120.094140578914704, 39.214222248226008 ], [ -120.094314364451535, 39.214186374535316 ] ], [ [ -120.09439899624806, 39.214232077599995 ], [ -120.094381971508199, 39.214195617895484 ], [ -120.094371895455183, 39.214194240281749 ], [ -120.09439899624806, 39.214232077599995 ] ], [ [ -120.094688073130641, 39.214635675323152 ], [ -120.094697751739602, 39.214640775518561 ], [ -120.094680343760373, 39.214624883948211 ], [ -120.094688073130641, 39.214635675323152 ] ], [ [ -120.093038299662695, 39.213676691444071 ], [ -120.093037685227543, 39.213657566782366 ], [ -120.092790608457975, 39.213471222360305 ], [ -120.093038299662695, 39.213676691444071 ] ], [ [ -120.094182248256118, 39.215598238007225 ], [ -120.094139700814708, 39.21557690628056 ], [ -120.09409760779441, 39.215586665820226 ], [ -120.094182248256118, 39.215598238007225 ] ], [ [ -120.09392923560516, 39.215625703822056 ], [ -120.093859080475312, 39.215641969582066 ], [ -120.093873515320595, 39.215666353124888 ], [ -120.09392923560516, 39.215625703822056 ] ] ] } }
]
}
