{
"type": "FeatureCollection",
"name": "X03932",
"crs": { "type": "name", "properties": { "name": "urn:ogc:def:crs:OGC:1.3:CRS84" } },
"features": [
{ "type": "Feature", "properties": { "part": "direct", "crossing_id": "X03932", "area_ac": 24.9 }, "geometry": { "type": "Polygon", "coordinates": [ [ [ -120.051263388204021, 39.240028935623037 ], [ -120.052737108389579, 39.240246440043684 ], [ -120.052728816750729, 39.240444418852078 ], [ -120.052587686479086, 39.24049489597148 ], [ -120.052646567537565, 39.240748627540434 ], [ -120.052477014628707, 39.240924504787309 ], [ -120.052566579072916, 39.240998841923748 ], [ -120.052647851595623, 39.24127115776335 ], [ -120.052596284531987, 39.241395971842522 ], [ -120.052726109405867, 39.241615465837413 ], [ -120.052623728628518, 39.241847095944472 ], [ -120.05290501863935, 39.242322666090573 ], [ -120.053005670325504, 39.242685558243672 ], [ -120.053340794428934, 39.242982319056807 ], [ -120.053418303349062, 39.243344624853222 ], [ -120.053687762763161, 39.243549636204996 ], [ -120.05377054923089, 39.243785955275165 ], [ -120.054146699029374, 39.244209872620694 ], [ -120.054440816887748, 39.244379472167672 ], [ -120.054408629154182, 39.244594863343153 ], [ -120.054593798777788, 39.24459955028518 ], [ -120.054810946814356, 39.244947372327125 ], [ -120.054972971102359, 39.244951472888438 ], [ -120.054992350771215, 39.245042049143251 ], [ -120.055401453039522, 39.245232573380783 ], [ -120.055574573424281, 39.245525228472403 ], [ -120.055686540233609, 39.245618147270811 ], [ -120.055871712760847, 39.245622832282763 ], [ -120.055867947129215, 39.245712822821979 ], [ -120.055270655482843, 39.245589606820886 ], [ -120.054774992872282, 39.245252754077811 ], [ -120.054450189522811, 39.24526255021307 ], [ -120.054360617848118, 39.245188214292774 ], [ -120.054432317475445, 39.245135977722867 ], [ -120.054366645820124, 39.24504422961153 ], [ -120.054203114335621, 39.245076124364175 ], [ -120.05402246501383, 39.244963448274341 ], [ -120.053788740995259, 39.245011582599084 ], [ -120.0537253312704, 39.244865839932451 ], [ -120.052947404501765, 39.244629935658878 ], [ -120.052568998296152, 39.244260008826473 ], [ -120.051855241580455, 39.244151842709222 ], [ -120.051812720188195, 39.244060679689433 ], [ -120.051626044109256, 39.244091984467588 ], [ -120.05106776118707, 39.243591375252095 ], [ -120.051118578494709, 39.243484560093691 ], [ -120.05096032975257, 39.243390464122406 ], [ -120.050902207547651, 39.243118733911885 ], [ -120.050635021403224, 39.242859722369118 ], [ -120.050664201997279, 39.242716324722664 ], [ -120.050415637003908, 39.242565887538937 ], [ -120.050418654746835, 39.242493895422236 ], [ -120.050513499687767, 39.242442247904471 ], [ -120.050544189094467, 39.242262854218417 ], [ -120.050483051548639, 39.242063115978034 ], [ -120.050601041116295, 39.242012054993502 ], [ -120.050572855658459, 39.241578928951121 ], [ -120.050736380235492, 39.241547039040256 ], [ -120.050786442052342, 39.241458221995593 ], [ -120.050727051821099, 39.240663961997861 ], [ -120.050871954970063, 39.240523496988608 ], [ -120.050830191047126, 39.240414335649454 ], [ -120.050971322280802, 39.240363860704214 ], [ -120.05092804979175, 39.240290695484767 ], [ -120.051028925045486, 39.240095063036399 ], [ -120.051263388204021, 39.240028935623037 ] ] ] } }
]
}
