{
"type": "FeatureCollection",
"name": "X03920",
"crs": { "type": "name", "properties": { "name": "urn:ogc:def:crs:OGC:1.3:CRS84" } },
"features": [
{ "type": "Feature", "properties": { "part": "direct", "crossing_id": "X03920", "area_ac": 4.2 }, "geometry": { "type": "MultiPolygon", "coordinates": [ [ [ [ -120.071605915653294, 39.231678128630705 ], [ -120.071628309240836, 39.231696709343069 ], [ -120.071605166921188, 39.23169612703596 ], [ -120.071605915653294, 39.231678128630705 ] ] ], [ [ [ -120.070004095787311, 39.23008832967129 ], [ -120.070465433120219, 39.230135977689599 ], [ -120.070760285094892, 39.23028753718728 ], [ -120.070991703520164, 39.230293361556456 ], [ -120.071055887205517, 39.230421097581768 ], [ -120.071264164235146, 39.230426339020966 ], [ -120.071337263778247, 39.230896626941565 ], [ -120.071707469362593, 39.231464476943664 ], [ -120.071605915653294, 39.231678128630705 ], [ -120.071468559317736, 39.231638637887528 ], [ -120.071295401880334, 39.231346004641189 ], [ -120.071133406511336, 39.231341927962333 ], [ -120.071036344528991, 39.231447588712882 ], [ -120.070644424726808, 39.231401690139379 ], [ -120.070155442236754, 39.231461450228572 ], [ -120.070041978559146, 39.231404542055941 ], [ -120.069883810779316, 39.23075193932641 ], [ -120.069904786633302, 39.230247984647747 ], [ -120.070004095787311, 39.23008832967129 ] ] ] ] } }
]
}
