{
"type": "FeatureCollection",
"name": "X03938",
"crs": { "type": "name", "properties": { "name": "urn:ogc:def:crs:OGC:1.3:CRS84" } },
"features": [
{ "type": "Feature", "properties": { "part": "direct", "crossing_id": "X03938", "area_ac": 0.8 }, "geometry": { "type": "Polygon", "coordinates": [ [ [ -120.033084429631288, 39.237621035957098 ], [ -120.033451690561577, 39.23770246702766 ], [ -120.033424753821862, 39.237791865898338 ], [ -120.033562856374147, 39.23781340341187 ], [ -120.033576896545114, 39.23802996658754 ], [ -120.033115542005035, 39.23798217126896 ], [ -120.033063943602272, 39.238106975515016 ], [ -120.03223380950385, 39.238013739868997 ], [ -120.032333214209871, 39.237854120933001 ], [ -120.032769905997057, 39.237937324716292 ], [ -120.033084429631288, 39.237621035957098 ] ] ] } }
]
}
