{
"type": "FeatureCollection",
"name": "X03923",
"crs": { "type": "name", "properties": { "name": "urn:ogc:def:crs:OGC:1.3:CRS84" } },
"features": [
{ "type": "Feature", "properties": { "part": "direct", "crossing_id": "X03923", "area_ac": 0.8, "n_upstream": null }, "geometry": { "type": "Polygon", "coordinates": [ [ [ -120.068035877983704, 39.236741171314542 ], [ -120.068092464576466, 39.237607423535266 ], [ -120.067969995262828, 39.237766493029532 ], [ -120.067878918007125, 39.237728163913225 ], [ -120.067909560590863, 39.237548763763016 ], [ -120.067608686497067, 39.237541182867169 ], [ -120.067580292917981, 39.237666587944069 ], [ -120.067556398794878, 39.237684003080368 ], [ -120.067510860329094, 39.237664838374791 ], [ -120.067717010580623, 39.237165550709662 ], [ -120.067686469913852, 39.236786419563678 ], [ -120.068035877983704, 39.236741171314542 ] ] ] } },
{ "type": "Feature", "properties": { "part": "upstream", "crossing_id": "X03923", "area_ac": 15.5, "n_upstream": 2.0 }, "geometry": { "type": "MultiPolygon", "coordinates": [ [ [ [ -120.067869169962492, 39.237962142152128 ], [ -120.067652622267929, 39.238154875345117 ], [ -120.067362245464082, 39.237895317247542 ], [ -120.067323456830891, 39.237714167607763 ], [ -120.067556398794878, 39.237684003080368 ], [ -120.067608686497067, 39.237541182867169 ], [ -120.067931954929577, 39.237567345204624 ], [ -120.067869169962492, 39.237962142152128 ] ] ], [ [ [ -120.067675016718653, 39.23817345683922 ], [ -120.067675766627517, 39.238155458517355 ], [ -120.067676945282869, 39.238156436490613 ], [ -120.067676516535698, 39.238137460195375 ], [ -120.067869169962492, 39.237962142152128 ], [ -120.067925206455939, 39.237729330152639 ], [ -120.06816404768486, 39.238113709084246 ], [ -120.069019547493866, 39.238711809494639 ], [ -120.069016549168509, 39.238783802861491 ], [ -120.068467729713674, 39.239166357997917 ], [ -120.068505772156826, 39.239365505690039 ], [ -120.068687931644703, 39.239442163040437 ], [ -120.068682683838787, 39.239568151378542 ], [ -120.068566209903466, 39.239583234716392 ], [ -120.068625898274433, 39.239818962050514 ], [ -120.068484779489623, 39.239869458946878 ], [ -120.068457136017514, 39.239976865888686 ], [ -120.068749774215277, 39.240182426650804 ], [ -120.068468838993084, 39.241364486187649 ], [ -120.068442595880768, 39.241994427512914 ], [ -120.068428150897432, 39.243453457585339 ], [ -120.06851613739039, 39.244122310732635 ], [ -120.068606473257574, 39.244178637957809 ], [ -120.068568980851566, 39.245078553786698 ], [ -120.068308469400677, 39.244657595362128 ], [ -120.068136898728014, 39.243770429850009 ], [ -120.067583746173014, 39.24314390739174 ], [ -120.067530915946989, 39.242187664174821 ], [ -120.067441333526091, 39.242113337920848 ], [ -120.067384648024102, 39.241805616913062 ], [ -120.067164444537909, 39.241529809413628 ], [ -120.066960636523618, 39.241416569607814 ], [ -120.066965137581093, 39.241308579804908 ], [ -120.067109260836332, 39.241186091701017 ], [ -120.067119762648332, 39.240934115446905 ], [ -120.067764183826824, 39.240481907075583 ], [ -120.067776932845547, 39.240175935691475 ], [ -120.067532087563137, 39.239935542413313 ], [ -120.067587377170895, 39.239720729062384 ], [ -120.067344784133027, 39.239426340515578 ], [ -120.067336639886321, 39.239065791003014 ], [ -120.067480757682489, 39.238943302199232 ], [ -120.067423323708326, 39.238653579471226 ], [ -120.067684662716601, 39.238498009796103 ], [ -120.067677331155238, 39.238173515156234 ], [ -120.067675016718653, 39.23817345683922 ] ] ], [ [ [ -120.068568230986301, 39.245096552101572 ], [ -120.068568980851566, 39.245078553786698 ], [ -120.068591377646129, 39.245097135177652 ], [ -120.068568230986301, 39.245096552101572 ] ] ] ] } }
]
}
