{
"type": "FeatureCollection",
"name": "X03904",
"crs": { "type": "name", "properties": { "name": "urn:ogc:def:crs:OGC:1.3:CRS84" } },
"features": [
{ "type": "Feature", "properties": { "part": "direct", "crossing_id": "X03904", "area_ac": 1209.7, "n_upstream": null }, "geometry": { "type": "MultiPolygon", "coordinates": [ [ [ [ -120.124372972388642, 39.240344981642963 ], [ -120.124395383160234, 39.240363552792068 ], [ -120.124372236909977, 39.240362980863758 ], [ -120.124372972388642, 39.240344981642963 ] ] ], [ [ [ -120.140655914321414, 39.240475921541602 ], [ -120.140701476248267, 39.24049505840236 ], [ -120.140655183000447, 39.240493921018803 ], [ -120.140655914321414, 39.240475921541602 ] ] ], [ [ [ -120.141119438535014, 39.218794272785338 ], [ -120.14125535316083, 39.218869680972723 ], [ -120.141487479067948, 39.21885736435047 ], [ -120.14161901113998, 39.219040769479932 ], [ -120.141780988330169, 39.219044747091395 ], [ -120.141776605462056, 39.219152744457922 ], [ -120.142073038356756, 39.219268128274578 ], [ -120.142041133671754, 39.219483554886594 ], [ -120.142156102039067, 39.219504395233862 ], [ -120.14224062698726, 39.219704663013111 ], [ -120.142421363638931, 39.219817205327629 ], [ -120.142926059651202, 39.219937699794876 ], [ -120.143089499417314, 39.219905676506308 ], [ -120.143770557130694, 39.220246705988963 ], [ -120.143909397356566, 39.220250112906868 ], [ -120.143929617559465, 39.220322679075394 ], [ -120.143878957587233, 39.220429541001842 ], [ -120.143619306246109, 39.220549291869496 ], [ -120.143512144207236, 39.220907012032548 ], [ -120.142956551384998, 39.221469935633174 ], [ -120.142843542102298, 39.22197165151357 ], [ -120.142701047025596, 39.222058241033842 ], [ -120.142900549288484, 39.222279348288581 ], [ -120.142449688459706, 39.223115102348707 ], [ -120.142358849549424, 39.224211939021089 ], [ -120.1422828512748, 39.224372230492456 ], [ -120.14194937484595, 39.224598269654805 ], [ -120.141918196963161, 39.224795696411093 ], [ -120.141488497571103, 39.225109458749223 ], [ -120.141291672730091, 39.225392904391263 ], [ -120.141191067308995, 39.225588625656457 ], [ -120.141228581318359, 39.225805756852679 ], [ -120.14110775650613, 39.22592891147584 ], [ -120.141166219839903, 39.226200609697401 ], [ -120.141106780904138, 39.226523464349732 ], [ -120.141283147675338, 39.226744006069062 ], [ -120.14158180309262, 39.226805393559872 ], [ -120.141691668212019, 39.226952231524159 ], [ -120.141831252065344, 39.226937641867103 ], [ -120.141944040480425, 39.22701248146349 ], [ -120.142706273213761, 39.22706723123278 ], [ -120.143339147442788, 39.226884573816122 ], [ -120.143626346656632, 39.22665739511271 ], [ -120.143744471075266, 39.226029681905743 ], [ -120.143620953358919, 39.225648283423233 ], [ -120.143743963847783, 39.225471127287705 ], [ -120.144023634499547, 39.226000497324442 ], [ -120.14429038743512, 39.226277304905857 ], [ -120.144196139596232, 39.226887587064667 ], [ -120.144282138120005, 39.227051854528355 ], [ -120.144180078052798, 39.227283577697719 ], [ -120.144543785936236, 39.227454658709924 ], [ -120.14469921332406, 39.22762062919189 ], [ -120.14468607405523, 39.227944621631842 ], [ -120.144918229812873, 39.227932299261731 ], [ -120.144865375365711, 39.228093160095085 ], [ -120.144979628756445, 39.228131997756698 ], [ -120.144975249373815, 39.228239995256054 ], [ -120.145228359275876, 39.228282238745997 ], [ -120.14545175876448, 39.228485910413404 ], [ -120.145351889563301, 39.228663635861722 ], [ -120.145484178531362, 39.22882903780819 ], [ -120.145666402706254, 39.228905576799711 ], [ -120.145656186285123, 39.229157571078503 ], [ -120.145742920466105, 39.229303838042604 ], [ -120.145631374443326, 39.229769557129345 ], [ -120.145315915806322, 39.230122169886407 ], [ -120.145333950115429, 39.230248734608097 ], [ -120.145608021431386, 39.230345543929737 ], [ -120.145628245670849, 39.230418109864111 ], [ -120.144778805909525, 39.231370218403889 ], [ -120.14457394392258, 39.231851664414378 ], [ -120.144092811257067, 39.232290296161253 ], [ -120.143916928025604, 39.232628312163158 ], [ -120.143626782699741, 39.232927488705286 ], [ -120.143497184102941, 39.233266639927024 ], [ -120.144434927314975, 39.234136472967293 ], [ -120.144446388893215, 39.234425033731291 ], [ -120.144052704096822, 39.234991932783679 ], [ -120.143866587972525, 39.235581941938037 ], [ -120.143698729134528, 39.235721962152866 ], [ -120.1436356388094, 39.236134815456595 ], [ -120.143464856168777, 39.236346833398173 ], [ -120.143432944787932, 39.236562259708954 ], [ -120.143066768287156, 39.237021725432029 ], [ -120.143005133924589, 39.237398579085024 ], [ -120.142619457977688, 39.237767477285324 ], [ -120.142659172856895, 39.237930609474844 ], [ -120.142414560141773, 39.238248917796021 ], [ -120.141963823804431, 39.23850811145919 ], [ -120.141769884011978, 39.23871955802052 ], [ -120.142030825490622, 39.239140367718356 ], [ -120.14179278449231, 39.239296678913597 ], [ -120.141739427955102, 39.238898984559832 ], [ -120.141607130557091, 39.23873357823134 ], [ -120.141671697992564, 39.238284727714912 ], [ -120.141451935771954, 39.237991050857097 ], [ -120.141292839439956, 39.237915073209258 ], [ -120.141356676737132, 39.237484222355747 ], [ -120.141555000137373, 39.237164779355673 ], [ -120.141840056061284, 39.236991605690974 ], [ -120.141992815881451, 39.236653025440582 ], [ -120.142178950921931, 39.236063020064087 ], [ -120.142149469409063, 39.23564789453161 ], [ -120.141970155805183, 39.235499351552008 ], [ -120.141757709303576, 39.235025680298698 ], [ -120.141622494878362, 39.234932272200581 ], [ -120.141710201917135, 39.234483989702717 ], [ -120.141535277711654, 39.234227449102114 ], [ -120.141436612526419, 39.233234065288215 ], [ -120.141281912475094, 39.233050090903127 ], [ -120.141206148343144, 39.232633828221509 ], [ -120.141256822222076, 39.23252696812996 ], [ -120.140482355637829, 39.232201645636643 ], [ -120.140214389582042, 39.231384275686644 ], [ -120.140372261301394, 39.230919700609746 ], [ -120.140223418253242, 39.230591729029136 ], [ -120.140507718537151, 39.230436557100631 ], [ -120.14102125744013, 39.23034106820176 ], [ -120.141200071563588, 39.229931058691243 ], [ -120.141365728049152, 39.229845040198356 ], [ -120.139335246255513, 39.2290744524106 ], [ -120.13837129501195, 39.228852563635435 ], [ -120.137748636215605, 39.228783200295062 ], [ -120.136957392444813, 39.228871843862223 ], [ -120.135591681082914, 39.229414799117478 ], [ -120.135174814207687, 39.229981097368984 ], [ -120.13501061534474, 39.230031107909547 ], [ -120.135030095982188, 39.230121674703476 ], [ -120.135210113710684, 39.230252228031837 ], [ -120.135625225802656, 39.230298479932671 ], [ -120.136354825275006, 39.230586695522454 ], [ -120.137091470661815, 39.231271463940011 ], [ -120.13738648114834, 39.231422859997117 ], [ -120.137183033160369, 39.231868292210542 ], [ -120.137302864600429, 39.232339693535636 ], [ -120.138262197207297, 39.233246141366159 ], [ -120.138452934200146, 39.233683250086607 ], [ -120.138374720439344, 39.233897536455942 ], [ -120.139184510636923, 39.234494003157721 ], [ -120.139517782325342, 39.234844526456087 ], [ -120.139456131682536, 39.235221377720691 ], [ -120.139568930173965, 39.235296219923924 ], [ -120.139617884113946, 39.235801911789245 ], [ -120.139728489365126, 39.235930752300227 ], [ -120.139678541892224, 39.236019612019234 ], [ -120.14020989159792, 39.236627245720179 ], [ -120.140656203290575, 39.23818771275193 ], [ -120.140920792192617, 39.238518527227122 ], [ -120.140914942555483, 39.238662523124752 ], [ -120.141177340912748, 39.23904733556833 ], [ -120.141211203783243, 39.239354464039955 ], [ -120.141451190859584, 39.239720707910976 ], [ -120.141295496324176, 39.240131284905551 ], [ -120.140771647416415, 39.240478764964223 ], [ -120.140657376961329, 39.240439922586944 ], [ -120.14046467306899, 39.239480263200711 ], [ -120.140183519511623, 39.238986883641388 ], [ -120.140158438018247, 39.238463761322649 ], [ -120.140232264113877, 39.238357470752163 ], [ -120.140170140260906, 39.238175769703581 ], [ -120.139153719666282, 39.23696163715298 ], [ -120.138679373442571, 39.236661696826545 ], [ -120.138054724823903, 39.236069779464053 ], [ -120.137779911229018, 39.235990951433244 ], [ -120.137631071183051, 39.235662976835769 ], [ -120.136865375045716, 39.235121636491499 ], [ -120.136851016086737, 39.234905073894069 ], [ -120.136946523423319, 39.234835353652109 ], [ -120.136612532840488, 39.234502822892459 ], [ -120.136619854791221, 39.234322828568089 ], [ -120.136466629959898, 39.234102849321353 ], [ -120.136239579301005, 39.233989158010196 ], [ -120.136201345682153, 39.233790025308302 ], [ -120.135938260746329, 39.233423202488453 ], [ -120.136015016578142, 39.233244916850396 ], [ -120.135832792875561, 39.233168362760544 ], [ -120.135276165126541, 39.232614139692927 ], [ -120.134768464167465, 39.232565607020518 ], [ -120.134057904298984, 39.231809396664545 ], [ -120.133998732508402, 39.231555695342479 ], [ -120.133169542373778, 39.230868628135923 ], [ -120.13259169297811, 39.230836375630602 ], [ -120.132192391331557, 39.230970676861524 ], [ -120.131914671503424, 39.230963833374965 ], [ -120.131920215419086, 39.231396388536119 ], [ -120.132316267617583, 39.231910636046067 ], [ -120.132462875998272, 39.232292614540924 ], [ -120.133526136316448, 39.233489940333953 ], [ -120.133264953147773, 39.233645664183854 ], [ -120.133375543244327, 39.233774510222659 ], [ -120.133389891459245, 39.233991072881793 ], [ -120.133814975969287, 39.234361891005427 ], [ -120.134007153225895, 39.234763007255395 ], [ -120.134233469615467, 39.234894702263851 ], [ -120.134204462362902, 39.235038127498818 ], [ -120.134521160743731, 39.235226099794524 ], [ -120.134988152477689, 39.235706050163159 ], [ -120.135528248402125, 39.23609771082053 ], [ -120.135321843188237, 39.236615136156416 ], [ -120.135588598364819, 39.236891963474662 ], [ -120.135626831386048, 39.237091096283194 ], [ -120.136028800391472, 39.237461337609354 ], [ -120.136175438945926, 39.237843312277953 ], [ -120.136466080052585, 39.238102707967457 ], [ -120.136570824249944, 39.238375546709356 ], [ -120.13641803451641, 39.238714118648048 ], [ -120.137424461865621, 39.239603714933153 ], [ -120.137629117918934, 39.239698835856984 ], [ -120.137759211225983, 39.239918244708683 ], [ -120.138522768971328, 39.240513579290166 ], [ -120.138717183699782, 39.240860690665208 ], [ -120.139122116886597, 39.241158924692435 ], [ -120.138726425702856, 39.2412032492091 ], [ -120.138364127867007, 39.240996149378383 ], [ -120.137026743754802, 39.240837134573638 ], [ -120.136626659338418, 39.240989448456055 ], [ -120.135532903799088, 39.24110667190498 ], [ -120.135341868483849, 39.241246109116176 ], [ -120.134662551028143, 39.24142757728913 ], [ -120.134531732184641, 39.241226164655806 ], [ -120.134416731427677, 39.241205315611168 ], [ -120.134400181130474, 39.241042751273945 ], [ -120.134011818941346, 39.240907065930358 ], [ -120.133068258617996, 39.240181146036875 ], [ -120.133218135005606, 39.239914576735885 ], [ -120.132811035044014, 39.239670321355717 ], [ -120.132297008559007, 39.239207220783463 ], [ -120.132141587515321, 39.239041234152957 ], [ -120.132060005792823, 39.238768962434136 ], [ -120.131300191640037, 39.238083591304736 ], [ -120.131237357692342, 39.237919885676888 ], [ -120.131357487409957, 39.237814742270714 ], [ -120.131066133354977, 39.237573333879844 ], [ -120.131005501462084, 39.237355630145736 ], [ -120.129475661228426, 39.236236861627262 ], [ -120.129527089596323, 39.236112008145071 ], [ -120.129055728985662, 39.23574003301394 ], [ -120.129081810428858, 39.235668606717212 ], [ -120.128859172925303, 39.235446905430912 ], [ -120.128496934638932, 39.235239776856147 ], [ -120.127736458180109, 39.234572384075477 ], [ -120.127365039960594, 39.234022694548429 ], [ -120.127234617137646, 39.233244726298722 ], [ -120.127142041265671, 39.233242441159675 ], [ -120.127038075189915, 39.232951596067693 ], [ -120.126829045737921, 39.232964453364559 ], [ -120.126838231102028, 39.233307011077294 ], [ -120.126764391055318, 39.233413292673127 ], [ -120.12686174451926, 39.233866131497663 ], [ -120.126803335007452, 39.234729525493989 ], [ -120.126706348802927, 39.234835235590111 ], [ -120.126558295996759, 39.235624346478261 ], [ -120.125939254854956, 39.236600018320367 ], [ -120.125878999799312, 39.236940861024415 ], [ -120.125940350376069, 39.237140567587737 ], [ -120.125845564433689, 39.237192278993099 ], [ -120.125679495532069, 39.237854821580086 ], [ -120.125689409555861, 39.238179379699254 ], [ -120.125593151771653, 39.238267089326499 ], [ -120.125500522407989, 39.240534993856755 ], [ -120.125561139222228, 39.240752699826523 ], [ -120.125673930612763, 39.24082755522457 ], [ -120.125624697069398, 39.240898408816406 ], [ -120.125768343748561, 39.241352391536495 ], [ -120.126143459702718, 39.241812090308365 ], [ -120.126268374620835, 39.242157505473337 ], [ -120.126425992772653, 39.242269501874731 ], [ -120.126438849653354, 39.242522062879054 ], [ -120.126845207107792, 39.242784339503991 ], [ -120.126751148859896, 39.242818052094897 ], [ -120.126388145525013, 39.242628915252553 ], [ -120.126066292404772, 39.242566915276228 ], [ -120.125482851623133, 39.242102070784263 ], [ -120.125423704646366, 39.241848366318308 ], [ -120.125223472122499, 39.241645228946759 ], [ -120.124902745246175, 39.240988679639543 ], [ -120.124547110820856, 39.240619545286371 ], [ -120.124690052293644, 39.239956433369642 ], [ -120.124687496918327, 39.239451883131643 ], [ -120.124549008207467, 39.238871904753999 ], [ -120.124901373844892, 39.237619392304374 ], [ -120.124816880625559, 39.23741911349704 ], [ -120.124959075985032, 39.23677399983498 ], [ -120.124896257989505, 39.236610291339645 ], [ -120.124957987838698, 39.23623345080852 ], [ -120.124428596622195, 39.236148302080096 ], [ -120.124350724590059, 39.235786029891962 ], [ -120.124401077163697, 39.235120630030075 ], [ -120.124160459865251, 39.234772353830401 ], [ -120.124163789170069, 39.234123809443126 ], [ -120.123991137606865, 39.233813247139878 ], [ -120.123792791953022, 39.232997562161827 ], [ -120.123865165071933, 39.232927281068065 ], [ -120.123861141972057, 39.232458728981818 ], [ -120.123584889255127, 39.232415866949566 ], [ -120.123557332751673, 39.232523290350535 ], [ -120.123568708705335, 39.232811850056997 ], [ -120.123770383575149, 39.232978990969045 ], [ -120.123671533323446, 39.233697244332319 ], [ -120.123882727008635, 39.234765490640825 ], [ -120.123837518405011, 39.235304895547308 ], [ -120.123904010271389, 39.235378608368912 ], [ -120.123829036844185, 39.236079434275801 ], [ -120.123625489184946, 39.236524838777449 ], [ -120.123762152433201, 39.23658226855828 ], [ -120.123911663910718, 39.236892259309101 ], [ -120.123932946931944, 39.237505376868953 ], [ -120.12428194432988, 39.238036505610808 ], [ -120.124388458749621, 39.2388319030483 ], [ -120.124372972388642, 39.240344981642963 ], [ -120.124080162337279, 39.240139554780718 ], [ -120.123905291259049, 39.23988298974492 ], [ -120.123988361300761, 39.238984172907834 ], [ -120.123413791250783, 39.238303328814439 ], [ -120.123265750787908, 39.237957339038232 ], [ -120.122556003841112, 39.237183062386194 ], [ -120.122039856893139, 39.23677391708074 ], [ -120.121976309795883, 39.236628206455372 ], [ -120.121749276392293, 39.236514487465833 ], [ -120.121779045681691, 39.236353067142275 ], [ -120.120456944487529, 39.235257336527219 ], [ -120.120198357232326, 39.234782485988319 ], [ -120.119636689559258, 39.234354186482825 ], [ -120.119381057235032, 39.233807337737318 ], [ -120.11913531306098, 39.23358504628716 ], [ -120.119124692024613, 39.233278487692395 ], [ -120.118866120398224, 39.232803634654843 ], [ -120.118900314209725, 39.232534220217879 ], [ -120.118787543187892, 39.232459358919272 ], [ -120.118814370185092, 39.232369936074768 ], [ -120.118382748383809, 39.232161058763936 ], [ -120.118296805993666, 39.231996774291026 ], [ -120.118066845993184, 39.231955045404831 ], [ -120.118049597620072, 39.231810479146404 ], [ -120.117934617971855, 39.231789614527926 ], [ -120.117850887797189, 39.231571332336749 ], [ -120.117929160206899, 39.231357061920946 ], [ -120.117818602832287, 39.231228202340652 ], [ -120.117632720969539, 39.231241616360293 ], [ -120.117685639729046, 39.231080770379634 ], [ -120.117339967905934, 39.231036174387874 ], [ -120.117008594202531, 39.231208140259739 ], [ -120.116981028339183, 39.231315561766174 ], [ -120.116728665566811, 39.231255257921234 ], [ -120.1165383600719, 39.231376664936597 ], [ -120.116354689573228, 39.231336079521334 ], [ -120.116303979503485, 39.231442927408494 ], [ -120.116167332609734, 39.23138548941737 ], [ -120.116001643777082, 39.231471470720408 ], [ -120.115915707799203, 39.231307184709323 ], [ -120.115778324071144, 39.2312677453953 ], [ -120.115761817940268, 39.231105179850836 ], [ -120.115509457119487, 39.231044873425517 ], [ -120.115466858652638, 39.230953730716159 ], [ -120.115235428914261, 39.230947994627805 ], [ -120.115194306008959, 39.230820853622546 ], [ -120.115030830297613, 39.230852836245639 ], [ -120.115103209496453, 39.230782560825183 ], [ -120.115093343315905, 39.230458003298516 ], [ -120.114937982342823, 39.230291995688269 ], [ -120.114990906340012, 39.230131151113554 ], [ -120.11492590399294, 39.230021435464202 ], [ -120.11419197948122, 39.229841083463789 ], [ -120.114045007701748, 39.230035630411166 ], [ -120.113559750240114, 39.23000557931617 ], [ -120.113449941090792, 39.229858716853336 ], [ -120.112852663204492, 39.229735797571195 ], [ -120.11251512238546, 39.229493197839787 ], [ -120.11252028993448, 39.229367204372977 ], [ -120.11207984620053, 39.229374293716383 ], [ -120.111898398993844, 39.229279704367045 ], [ -120.111710306483232, 39.229347106241327 ], [ -120.111458694378626, 39.229268792323239 ], [ -120.111272078593871, 39.229300195377419 ], [ -120.110909187375398, 39.229111013985275 ], [ -120.110378392654596, 39.229061801917439 ], [ -120.110335801993415, 39.228970657594239 ], [ -120.110061050732824, 39.228891766173007 ], [ -120.109979564779749, 39.228619482171666 ], [ -120.109654836535711, 39.228629435678243 ], [ -120.109425632587005, 39.228569691265413 ], [ -120.109427849549647, 39.228515694204454 ], [ -120.109287519198134, 39.228548243622079 ], [ -120.109244191212625, 39.22847509797441 ], [ -120.108695435078729, 39.228299310562122 ], [ -120.108371447605649, 39.228291261527978 ], [ -120.107927314341268, 39.228388330382565 ], [ -120.107304699682572, 39.22831880532862 ], [ -120.107103078368894, 39.228151637705601 ], [ -120.106987368947557, 39.228148761581082 ], [ -120.106830553260153, 39.228018741951125 ], [ -120.106531188864778, 39.227975265154051 ], [ -120.105989102724493, 39.227637474613758 ], [ -120.105569592537861, 39.227699112004522 ], [ -120.105122499585477, 39.227868165979864 ], [ -120.104797774966215, 39.227878106030495 ], [ -120.104755192282681, 39.227786959944396 ], [ -120.104593940474075, 39.227764931158191 ], [ -120.104577460606947, 39.227602364936878 ], [ -120.104420650729281, 39.227472342258977 ], [ -120.104336967395355, 39.227254051955214 ], [ -120.103880059789404, 39.227098544507115 ], [ -120.103591067685045, 39.226803075271313 ], [ -120.103551448914715, 39.226639933081223 ], [ -120.103370020820378, 39.226545331080217 ], [ -120.101827880098782, 39.226867287447043 ], [ -120.101443368908889, 39.226641503821831 ], [ -120.101497802032057, 39.226444668549263 ], [ -120.101434306184402, 39.22629894841225 ], [ -120.101140140534937, 39.226129465843705 ], [ -120.101011668947734, 39.225874023003435 ], [ -120.100583848591526, 39.225575088445268 ], [ -120.100374839240587, 39.22558789885089 ], [ -120.100079196589363, 39.225454411553635 ], [ -120.099792451432648, 39.225104937018912 ], [ -120.099499777664462, 39.224899452855603 ], [ -120.099263767513719, 39.224443137294735 ], [ -120.098832996992499, 39.224216192307345 ], [ -120.098703053789663, 39.223996745017125 ], [ -120.098290236164345, 39.223896367022554 ], [ -120.098227490762312, 39.223732646556961 ], [ -120.097537734850278, 39.223607343736262 ], [ -120.097106975241488, 39.223380392728153 ], [ -120.096667313190196, 39.223369426222085 ], [ -120.096555323380329, 39.223276545867357 ], [ -120.096414256461031, 39.223327078776869 ], [ -120.096370945033968, 39.223253928897982 ], [ -120.096230620262318, 39.223286462754501 ], [ -120.095876710044209, 39.222881251080054 ], [ -120.095690105970348, 39.222912629537319 ], [ -120.095553493539001, 39.222855168504623 ], [ -120.095246735083194, 39.222991651850634 ], [ -120.095062358026823, 39.222969032849626 ], [ -120.094885406633466, 39.222766425500041 ], [ -120.094419638750907, 39.222826868283462 ], [ -120.094097166036846, 39.222782782894669 ], [ -120.094043344468716, 39.222403075018896 ], [ -120.09358649295271, 39.222247529054535 ], [ -120.092895912873928, 39.221581658257797 ], [ -120.09244278507893, 39.221336114204654 ], [ -120.091997836152473, 39.220892582073574 ], [ -120.091858257736476, 39.220907112002742 ], [ -120.091632812462166, 39.220757340158158 ], [ -120.091444725857201, 39.220824709471955 ], [ -120.091123008073268, 39.220762617484048 ], [ -120.090622126749182, 39.220551907636448 ], [ -120.090277272039515, 39.220489234984939 ], [ -120.090211573378269, 39.220397505883746 ], [ -120.089980927218207, 39.220373722178238 ], [ -120.08948302775309, 39.22009101272004 ], [ -120.089181478465164, 39.22010148906039 ], [ -120.088776883406069, 39.219803092688956 ], [ -120.087842268803641, 39.218878845864872 ], [ -120.087362316516064, 39.218722697819892 ], [ -120.087160770802313, 39.218555498199208 ], [ -120.087209280648523, 39.218502660214845 ], [ -120.087116727416301, 39.218500343989518 ], [ -120.087537618117537, 39.217844235435699 ], [ -120.087930965914268, 39.217854077328084 ], [ -120.088366125638032, 39.217973067823728 ], [ -120.089177449385218, 39.217957325933838 ], [ -120.089358835602155, 39.218051948647101 ], [ -120.089407343484524, 39.217999109666941 ], [ -120.089661119850035, 39.218023472775101 ], [ -120.089945471488022, 39.217868426415727 ], [ -120.090083556798902, 39.217889896053258 ], [ -120.090342538159888, 39.2177882664379 ], [ -120.090455254666352, 39.217863153464236 ], [ -120.090803070697959, 39.217853830110329 ], [ -120.09084488632692, 39.217962979293105 ], [ -120.091120314706359, 39.218023915066574 ], [ -120.091331532152452, 39.217957124203451 ], [ -120.091700257208032, 39.218002372703531 ], [ -120.091903299070594, 39.218133567271799 ], [ -120.092113029930616, 39.218102772525533 ], [ -120.093094604584721, 39.21845160346902 ], [ -120.093886624807453, 39.218903797649773 ], [ -120.094048594872888, 39.218907841617792 ], [ -120.09414486239011, 39.218820158322686 ], [ -120.094353109423778, 39.218825357198 ], [ -120.09444269344246, 39.218899662935648 ], [ -120.09453747540897, 39.218847976921431 ], [ -120.094788287399965, 39.218944324282084 ], [ -120.095205524859594, 39.218936720564578 ], [ -120.095338417899569, 39.219084175869817 ], [ -120.095847468745234, 39.21909687843101 ], [ -120.09609754142511, 39.219211221900572 ], [ -120.097019381388961, 39.219324304101825 ], [ -120.097108968952469, 39.21939860790971 ], [ -120.097250769230556, 39.219330074959132 ], [ -120.09743365412632, 39.219388687887538 ], [ -120.097553057078599, 39.219301578668201 ], [ -120.097737425644667, 39.219324193403182 ], [ -120.09809340730591, 39.219116860955239 ], [ -120.09816059866192, 39.219172588222804 ], [ -120.098109871362965, 39.219279427666748 ], [ -120.098315895740726, 39.219338616120346 ], [ -120.098548766941875, 39.219308386653026 ], [ -120.098612992815333, 39.219436109181807 ], [ -120.098774964783317, 39.21944014662391 ], [ -120.098950437112748, 39.219678746025295 ], [ -120.09917811965164, 39.219774507512227 ], [ -120.099319177514587, 39.219723970882384 ], [ -120.099359524812968, 39.219869115283387 ], [ -120.099612571405586, 39.219911455943041 ], [ -120.099792495087158, 39.220042060856365 ], [ -120.099934294289852, 39.21997352459141 ], [ -120.100432978775288, 39.220238191954444 ], [ -120.100575518837161, 39.220151655996816 ], [ -120.100783770992635, 39.220156843522865 ], [ -120.101228773009296, 39.220600343992004 ], [ -120.101436285791422, 39.220623529317251 ], [ -120.101706549889855, 39.220810433170286 ], [ -120.102032723079773, 39.220764502682343 ], [ -120.102399249974809, 39.22086371484442 ], [ -120.102471630412666, 39.220793447266644 ], [ -120.10267840379899, 39.220834629347223 ], [ -120.103007538325997, 39.220716700345641 ], [ -120.103249485181863, 39.221029017445865 ], [ -120.103574918370882, 39.22100108158336 ], [ -120.10398624760191, 39.221137438424584 ], [ -120.104770771679839, 39.221211008076601 ], [ -120.105129906293215, 39.221490201576216 ], [ -120.105892775667797, 39.221527190359012 ], [ -120.106209335071213, 39.221715235037763 ], [ -120.106530333499762, 39.22179528494329 ], [ -120.107044584898787, 39.22168194630116 ], [ -120.107252842768219, 39.221687122430417 ], [ -120.107479065322607, 39.221818866321854 ], [ -120.107779882962291, 39.221826341733397 ], [ -120.108316022331806, 39.222308115049096 ], [ -120.108417679700679, 39.222652970937467 ], [ -120.108531902121612, 39.222691843354689 ], [ -120.109271647499639, 39.222728235656518 ], [ -120.109509698337931, 39.2225719912336 ], [ -120.109538748848237, 39.222428573572557 ], [ -120.110325511149313, 39.222448109352278 ], [ -120.112279872506235, 39.222802910017379 ], [ -120.11241502355864, 39.222896350081022 ], [ -120.112482490475941, 39.223510615331357 ], [ -120.112829597628036, 39.223519226137931 ], [ -120.113286504426043, 39.223674698382851 ], [ -120.113555337294713, 39.223897574426488 ], [ -120.113783792522327, 39.223975309410122 ], [ -120.113799555652491, 39.224155874280314 ], [ -120.114004871259993, 39.224233035030252 ], [ -120.11400044501805, 39.224341029667428 ], [ -120.114439382274682, 39.224369930090283 ], [ -120.114641011519169, 39.224537085336344 ], [ -120.115057546979429, 39.224547410686839 ], [ -120.115291905197424, 39.224481149846362 ], [ -120.11540392267014, 39.224574013137115 ], [ -120.115799529502908, 39.224529764925649 ], [ -120.115981707683176, 39.22460634885902 ], [ -120.116286962266443, 39.224505807904983 ], [ -120.116654268225957, 39.224586977419968 ], [ -120.116703498146165, 39.224516127363067 ], [ -120.117421602836032, 39.22451589711725 ], [ -120.117985088332603, 39.224331659799937 ], [ -120.118284446256368, 39.224375106825924 ], [ -120.11831200677787, 39.224267684723301 ], [ -120.118713502664534, 39.224079433036003 ], [ -120.118875488180805, 39.224083442924737 ], [ -120.119281713535017, 39.224345741697448 ], [ -120.119375013415635, 39.224330033460141 ], [ -120.119797020717186, 39.224772895219061 ], [ -120.11998435759736, 39.224723478677284 ], [ -120.12035240575932, 39.224786637508849 ], [ -120.120689217400241, 39.2250472140421 ], [ -120.121426791010876, 39.225137527828075 ], [ -120.121784945007548, 39.224876123870231 ], [ -120.122060431378515, 39.224936988317744 ], [ -120.122088722119088, 39.22481156589059 ], [ -120.122249238569509, 39.224851569618522 ], [ -120.122278264537428, 39.224708147894027 ], [ -120.122943864963389, 39.224292184554464 ], [ -120.122998236337324, 39.224095336845245 ], [ -120.123710108252951, 39.223680512702757 ], [ -120.123786882433762, 39.223502235628224 ], [ -120.124074127337977, 39.223275106916823 ], [ -120.124330144401611, 39.22324539770225 ], [ -120.124594980946682, 39.222999696584488 ], [ -120.124757699745658, 39.222985698922294 ], [ -120.125422534723398, 39.222587719429548 ], [ -120.126056141633754, 39.222387156799272 ], [ -120.126333826235197, 39.222394013006692 ], [ -120.126620324132574, 39.222184876807106 ], [ -120.126713619841624, 39.222169162510866 ], [ -120.127737315416738, 39.222626847796541 ], [ -120.127854486138034, 39.222593704313169 ], [ -120.12826661082903, 39.222711978014175 ], [ -120.128714354017021, 39.222524832315777 ], [ -120.128920416797527, 39.222583967839185 ], [ -120.129061461271661, 39.22253339457604 ], [ -120.129041989880434, 39.222442827041476 ], [ -120.129322610411819, 39.222377678721259 ], [ -120.129776951459007, 39.222028534501881 ], [ -120.130193477637448, 39.222038805182663 ], [ -120.130576191333233, 39.221741944038655 ], [ -120.130878481422442, 39.221713361030268 ], [ -120.130859007836392, 39.221622793710452 ], [ -120.131029055596997, 39.221428793275834 ], [ -120.13188262774085, 39.220945340774996 ], [ -120.131949115669585, 39.221019048966127 ], [ -120.132343962488648, 39.220992742736435 ], [ -120.132511073101938, 39.220870737543656 ], [ -120.132693994690456, 39.220929296254667 ], [ -120.132743206093082, 39.220858438676458 ], [ -120.132948535121926, 39.220935566438243 ], [ -120.133113446390666, 39.220867558589774 ], [ -120.13333898521735, 39.221017253319133 ], [ -120.134591479817018, 39.22097602426242 ], [ -120.134874286961946, 39.220856863791767 ], [ -120.136308801999121, 39.219757065344098 ], [ -120.136779646085941, 39.219570456334054 ], [ -120.137387130675151, 39.219441258419906 ], [ -120.137779773178366, 39.219468931812813 ], [ -120.138061106318418, 39.219385762143226 ], [ -120.138111042701965, 39.219296902535355 ], [ -120.13820067555497, 39.219371176299695 ], [ -120.138295428225518, 39.219319453463527 ], [ -120.138455942920274, 39.219359434735928 ], [ -120.138506610112884, 39.219252575429955 ], [ -120.13894626268609, 39.21926338307572 ], [ -120.139565184146193, 39.219422734663404 ], [ -120.139829954419795, 39.219176996216838 ], [ -120.13986478949019, 39.218889572320251 ], [ -120.140365088867981, 39.219118074723802 ], [ -120.140693427811073, 39.219018035957504 ], [ -120.140862711903509, 39.218842019382564 ], [ -120.141119438535014, 39.218794272785338 ] ], [ [ -120.125706756011866, 39.23264846332367 ], [ -120.125549519072038, 39.233095015377245 ], [ -120.125611225529781, 39.23385327077515 ], [ -120.125475639568734, 39.23547148901168 ], [ -120.125599071717602, 39.235852903192651 ], [ -120.125355126914627, 39.236153173889811 ], [ -120.125143147099223, 39.236238024774813 ], [ -120.125043215453516, 39.236415730267609 ], [ -120.125021159027952, 39.23695570754473 ], [ -120.12512879757368, 39.237156557962294 ], [ -120.125323516242815, 39.236927141548641 ], [ -120.125338954164874, 39.236549157358745 ], [ -120.125681360494511, 39.23610717925596 ], [ -120.126114880932178, 39.234568387922167 ], [ -120.126159343470121, 39.232911883659561 ], [ -120.125980071762967, 39.23276331747563 ], [ -120.125795656414979, 39.232740745909787 ], [ -120.125706756011866, 39.23264846332367 ] ], [ [ -120.120471133154496, 39.232645165092634 ], [ -120.12074991425186, 39.23319258426141 ], [ -120.121237731652826, 39.233727156132446 ], [ -120.121231842781583, 39.233871149663798 ], [ -120.121452242482007, 39.23414686210738 ], [ -120.121608690590946, 39.234853410064026 ], [ -120.121894848212733, 39.235220835006928 ], [ -120.121884544463413, 39.235472823764809 ], [ -120.122156392272274, 39.23562368542683 ], [ -120.122104951431268, 39.235748535186509 ], [ -120.122218467150006, 39.235805394357691 ], [ -120.122350379914721, 39.23541227334335 ], [ -120.122124821506475, 39.235262556784697 ], [ -120.122086627659016, 39.235063420938054 ], [ -120.121775117276982, 39.234749421661085 ], [ -120.121620875698326, 39.233988876273258 ], [ -120.121401211838304, 39.233695164942148 ], [ -120.12132188531281, 39.233368889661655 ], [ -120.121119479337665, 39.23321974387968 ], [ -120.12099165863377, 39.232946321009663 ], [ -120.12106771502188, 39.232786045801731 ], [ -120.120934005981596, 39.23265661641743 ], [ -120.120942839804115, 39.232440626130334 ], [ -120.1204821771871, 39.232375177341694 ], [ -120.120471133154496, 39.232645165092634 ] ], [ [ -120.121896142447326, 39.232356100188177 ], [ -120.121892057403528, 39.233022643113891 ], [ -120.121982424865422, 39.233078930031553 ], [ -120.12213961250437, 39.233767478292265 ], [ -120.122401153106679, 39.234170328101214 ], [ -120.122390115723178, 39.234440316224614 ], [ -120.122502158035914, 39.234533173477359 ], [ -120.122468712332335, 39.234784590160757 ], [ -120.12262115782471, 39.235022585466915 ], [ -120.122589919606838, 39.23522000454804 ], [ -120.123014216088762, 39.235608859453443 ], [ -120.12279601310432, 39.235279151998704 ], [ -120.122824307835913, 39.235153729693572 ], [ -120.122689855437031, 39.235042301298293 ], [ -120.122688783940731, 39.234501752758128 ], [ -120.122554332948965, 39.234390324249546 ], [ -120.122497408789229, 39.234082621001384 ], [ -120.122342758085011, 39.233898623216881 ], [ -120.122356738706259, 39.233556638240351 ], [ -120.122227440893823, 39.233319214959998 ], [ -120.122266037214231, 39.232941803825618 ], [ -120.122460752415165, 39.232712391972925 ], [ -120.12232851243985, 39.232546965673592 ], [ -120.122334398792319, 39.232402971970565 ], [ -120.121986509089169, 39.23241238707665 ], [ -120.121896142447326, 39.232356100188177 ] ], [ [ -120.128967054287486, 39.231665907684317 ], [ -120.128469293920674, 39.231941906508823 ], [ -120.128330432533986, 39.231938480339295 ], [ -120.128304351953233, 39.232009906530564 ], [ -120.128506036395848, 39.23217703958295 ], [ -120.129056345563924, 39.232316737740753 ], [ -120.129705495862282, 39.232873271855894 ], [ -120.13011254648066, 39.2331175365007 ], [ -120.130132021373583, 39.233208103871071 ], [ -120.130382936805276, 39.233304377975841 ], [ -120.130591632358701, 39.233868063799171 ], [ -120.13059049960151, 39.233327512987415 ], [ -120.129853899710454, 39.232642705153097 ], [ -120.129858302958326, 39.232534709164213 ], [ -120.129347281942017, 39.231999600394722 ], [ -120.128967054287486, 39.231665907684317 ] ], [ [ -120.130767445031495, 39.231259870587003 ], [ -120.130897502469182, 39.231479286023109 ], [ -120.131056572572831, 39.231555277010671 ], [ -120.131063174415061, 39.231393282825316 ], [ -120.130953325724434, 39.231246435484046 ], [ -120.130767445031495, 39.231259870587003 ] ] ] ] } },
{ "type": "Feature", "properties": { "part": "upstream", "crossing_id": "X03904", "area_ac": 298.6, "n_upstream": 18.0 }, "geometry": { "type": "MultiPolygon", "coordinates": [ [ [ [ -120.143643463651699, 39.221666969691178 ], [ -120.143544330803692, 39.221826694377633 ], [ -120.143505127809931, 39.222222117222479 ], [ -120.143385043525285, 39.222327275074647 ], [ -120.143411162008434, 39.223967508078992 ], [ -120.143509344283146, 39.224402337514071 ], [ -120.143388300512029, 39.22510204893139 ], [ -120.143495246262574, 39.225320883543738 ], [ -120.143697680347998, 39.225469991475258 ], [ -120.14361949300222, 39.225684282562646 ], [ -120.143744471075266, 39.226029681905743 ], [ -120.143626346656632, 39.22665739511271 ], [ -120.143339147442788, 39.226884573816122 ], [ -120.143153279481965, 39.226898029235223 ], [ -120.142892872065445, 39.22703577699405 ], [ -120.142450977948656, 39.22707898110491 ], [ -120.141944040480425, 39.22701248146349 ], [ -120.141831252065344, 39.226937641867103 ], [ -120.141691668212019, 39.226952231524159 ], [ -120.14158180309262, 39.226805393559872 ], [ -120.141283147675338, 39.226744006069062 ], [ -120.141149410828803, 39.226614598857495 ], [ -120.141085831404212, 39.2264688973274 ], [ -120.141159642442034, 39.226362605459947 ], [ -120.14110775650613, 39.22592891147584 ], [ -120.141228581318359, 39.225805756852679 ], [ -120.141191067308995, 39.225588625656457 ], [ -120.141488497571103, 39.225109458749223 ], [ -120.141869722171037, 39.224848558523959 ], [ -120.14194937484595, 39.224598269654805 ], [ -120.1422828512748, 39.224372230492456 ], [ -120.142358849549424, 39.224211939021089 ], [ -120.142449688459706, 39.223115102348707 ], [ -120.142900549288484, 39.222279348288581 ], [ -120.142701047025596, 39.222058241033842 ], [ -120.142843542102298, 39.22197165151357 ], [ -120.142956551384998, 39.221469935633174 ], [ -120.143512144207236, 39.220907012032548 ], [ -120.143619306246109, 39.220549291869496 ], [ -120.143878957587233, 39.220429541001842 ], [ -120.143929617559465, 39.220322679075394 ], [ -120.144137878160493, 39.220327789114172 ], [ -120.1441305790527, 39.22050778505443 ], [ -120.143621274949311, 39.22107184769694 ], [ -120.143643463651699, 39.221666969691178 ] ] ], [ [ [ -120.141365728049152, 39.229845040198356 ], [ -120.141200071563588, 39.229931058691243 ], [ -120.14102125744013, 39.23034106820176 ], [ -120.140507718537151, 39.230436557100631 ], [ -120.140223418253242, 39.230591729029136 ], [ -120.140372261301394, 39.230919700609746 ], [ -120.140214389582042, 39.231384275686644 ], [ -120.140482355637829, 39.232201645636643 ], [ -120.141256822222076, 39.23252696812996 ], [ -120.141206148343144, 39.232633828221509 ], [ -120.141281912475094, 39.233050090903127 ], [ -120.141436612526419, 39.233234065288215 ], [ -120.141535277711654, 39.234227449102114 ], [ -120.141710201917135, 39.234483989702717 ], [ -120.141622494878362, 39.234932272200581 ], [ -120.141757709303576, 39.235025680298698 ], [ -120.142168960424641, 39.235738460449731 ], [ -120.142178950921931, 39.236063020064087 ], [ -120.141864663399716, 39.236956175093241 ], [ -120.141555000137373, 39.237164779355673 ], [ -120.141379822385915, 39.237484790874156 ], [ -120.141335237607279, 39.237360147490143 ], [ -120.141356676737132, 39.237484222355747 ], [ -120.141333623163774, 39.237496803966508 ], [ -120.141336744950181, 39.237942667920372 ], [ -120.141451935771954, 39.237991050857097 ], [ -120.141671697992564, 39.238284727714912 ], [ -120.141607130557091, 39.23873357823134 ], [ -120.141739427955102, 39.238898984559832 ], [ -120.141794977487635, 39.239242680416957 ], [ -120.141774509301996, 39.239746666362059 ], [ -120.141370784901355, 39.239988994661303 ], [ -120.141354218583871, 39.239826430701434 ], [ -120.141451190859584, 39.239720707910976 ], [ -120.141211203783243, 39.239354464039955 ], [ -120.141177340912748, 39.23904733556833 ], [ -120.140914942555483, 39.238662523124752 ], [ -120.140920792192617, 39.238518527227122 ], [ -120.140656203290575, 39.23818771275193 ], [ -120.14020989159792, 39.236627245720179 ], [ -120.139678541892224, 39.236019612019234 ], [ -120.139728489365126, 39.235930752300227 ], [ -120.139617884113946, 39.235801911789245 ], [ -120.139568930173965, 39.235296219923924 ], [ -120.139456131682536, 39.235221377720691 ], [ -120.139517782325342, 39.234844526456087 ], [ -120.139184510636923, 39.234494003157721 ], [ -120.138374720439344, 39.233897536455942 ], [ -120.138452934200146, 39.233683250086607 ], [ -120.138465790531797, 39.233673864479492 ], [ -120.138342334641948, 39.233554408535724 ], [ -120.138262197207297, 39.233246141366159 ], [ -120.137391780392093, 39.232431967810264 ], [ -120.137216876977433, 39.2321754214056 ], [ -120.137183033160369, 39.231868292210542 ], [ -120.137407428978904, 39.231477427593532 ], [ -120.137342389789865, 39.231367723155387 ], [ -120.137091470661815, 39.231271463940011 ], [ -120.136354825275006, 39.230586695522454 ], [ -120.135625225802656, 39.230298479932671 ], [ -120.135210113710684, 39.230252228031837 ], [ -120.135009150361171, 39.23006710675083 ], [ -120.135174814207687, 39.229981097368984 ], [ -120.135591681082914, 39.229414799117478 ], [ -120.136134950306371, 39.229157906376628 ], [ -120.136932053803491, 39.228925272932493 ], [ -120.137105484929009, 39.229217818466665 ], [ -120.136932785774647, 39.228907273478058 ], [ -120.137818064369696, 39.228784907672363 ], [ -120.139335246255513, 39.2290744524106 ], [ -120.139905042964955, 39.2293046655046 ], [ -120.139805890006343, 39.229464386110308 ], [ -120.139928185897247, 39.229305234212816 ], [ -120.14027021205122, 39.229439760824292 ], [ -120.140169597368967, 39.229635480768088 ], [ -120.14031649801997, 39.229440898094289 ], [ -120.141365728049152, 39.229845040198356 ] ], [ [ -120.140273733842406, 39.236196395579135 ], [ -120.140750457717772, 39.236530746737309 ], [ -120.140500798409448, 39.236310079480567 ], [ -120.140273733842406, 39.236196395579135 ] ], [ [ -120.139498433948049, 39.230830018338871 ], [ -120.138469377395552, 39.230999053233127 ], [ -120.139050890022673, 39.230941279277644 ], [ -120.139498433948049, 39.230830018338871 ] ], [ [ -120.139519610095462, 39.230808660446272 ], [ -120.139518949512421, 39.230824918049478 ], [ -120.13977638161586, 39.230760918545855 ], [ -120.139519610095462, 39.230808660446272 ] ], [ [ -120.141328243995474, 39.237499739674973 ], [ -120.141261900883649, 39.237535946724201 ], [ -120.141236316368179, 39.237779425711324 ], [ -120.141328243995474, 39.237499739674973 ] ], [ [ -120.14123234359684, 39.237817233005565 ], [ -120.141224133185361, 39.237895368078732 ], [ -120.141269693651566, 39.237914504668389 ], [ -120.14123234359684, 39.237817233005565 ] ] ], [ [ [ -120.131063174415061, 39.231393282825316 ], [ -120.131056572572831, 39.231555277010671 ], [ -120.130743568029459, 39.231277299384665 ], [ -120.130953325724434, 39.231246435484046 ], [ -120.131063174415061, 39.231393282825316 ] ] ], [ [ [ -120.134204462362902, 39.235038127498818 ], [ -120.134233469615467, 39.234894702263851 ], [ -120.134007153225895, 39.234763007255395 ], [ -120.133814975969287, 39.234361891005427 ], [ -120.133389891459245, 39.233991072881793 ], [ -120.133375543244327, 39.233774510222659 ], [ -120.133264953147773, 39.233645664183854 ], [ -120.133526136316448, 39.233489940333953 ], [ -120.132462875998272, 39.232292614540924 ], [ -120.132316267617583, 39.231910636046067 ], [ -120.131920215419086, 39.231396388536119 ], [ -120.131914671503424, 39.230963833374965 ], [ -120.132005778202156, 39.231002113351408 ], [ -120.132549298682648, 39.230893219892607 ], [ -120.13259169297811, 39.230836375630602 ], [ -120.133078435154474, 39.230830349053299 ], [ -120.133998732508402, 39.231555695342479 ], [ -120.134057904298984, 39.231809396664545 ], [ -120.134768464167465, 39.232565607020518 ], [ -120.135276165126541, 39.232614139692927 ], [ -120.135832792875561, 39.233168362760544 ], [ -120.136015016578142, 39.233244916850396 ], [ -120.135938260746329, 39.233423202488453 ], [ -120.136201345682153, 39.233790025308302 ], [ -120.136239579301005, 39.233989158010196 ], [ -120.136466629959898, 39.234102849321353 ], [ -120.136619854791221, 39.234322828568089 ], [ -120.136612532840488, 39.234502822892459 ], [ -120.136946523423319, 39.234835353652109 ], [ -120.136851016086737, 39.234905073894069 ], [ -120.136865375045716, 39.235121636491499 ], [ -120.137631071183051, 39.235662976835769 ], [ -120.137779911229018, 39.235990951433244 ], [ -120.138054724823903, 39.236069779464053 ], [ -120.138679373442571, 39.236661696826545 ], [ -120.139153719666282, 39.23696163715298 ], [ -120.140170140260906, 39.238175769703581 ], [ -120.140232264113877, 39.238357470752163 ], [ -120.140158438018247, 39.238463761322649 ], [ -120.140183519511623, 39.238986883641388 ], [ -120.14046467306899, 39.239480263200711 ], [ -120.140474655171005, 39.239804822507871 ], [ -120.140607683008085, 39.239952230595883 ], [ -120.140702938865914, 39.240459059446387 ], [ -120.140442475159531, 39.240596799407768 ], [ -120.140056036240722, 39.240983687255394 ], [ -120.140072599655539, 39.241146251271118 ], [ -120.139975623281146, 39.241251972740457 ], [ -120.140205628987715, 39.24129365985177 ], [ -120.140037748857651, 39.241433673890405 ], [ -120.139902525038181, 39.241340263512569 ], [ -120.139786059049982, 39.24135541863528 ], [ -120.139765838443068, 39.24128285191108 ], [ -120.139625494057285, 39.241315437449686 ], [ -120.139622567628876, 39.241387435282924 ], [ -120.139461271022171, 39.241365453328221 ], [ -120.139464929259304, 39.241275456048925 ], [ -120.13891818630502, 39.241045806737326 ], [ -120.138522768971328, 39.240513579290166 ], [ -120.138027452041243, 39.2401590682421 ], [ -120.137629117918934, 39.239698835856984 ], [ -120.137424461865621, 39.239603714933153 ], [ -120.13641803451641, 39.238714118648048 ], [ -120.136570824249944, 39.238375546709356 ], [ -120.136466080052585, 39.238102707967457 ], [ -120.136175438945926, 39.237843312277953 ], [ -120.136028800391472, 39.237461337609354 ], [ -120.135626831386048, 39.237091096283194 ], [ -120.135588598364819, 39.236891963474662 ], [ -120.135321843188237, 39.236615136156416 ], [ -120.135479760664481, 39.236150569714844 ], [ -120.135527544049097, 39.236099421184193 ], [ -120.134988152477689, 39.235706050163159 ], [ -120.134521160743731, 39.235226099794524 ], [ -120.134204462362902, 39.235038127498818 ] ], [ [ -120.133897205315648, 39.232586195279424 ], [ -120.13393088722529, 39.232653088683946 ], [ -120.134290569867261, 39.232966856183452 ], [ -120.133897205315648, 39.232586195279424 ] ], [ [ -120.134316424556516, 39.232989410256728 ], [ -120.134355967054191, 39.233023904711473 ], [ -120.134376734930498, 39.233019611409674 ], [ -120.134316424556516, 39.232989410256728 ] ] ], [ [ [ -120.127736458180109, 39.234572384075477 ], [ -120.128496934638932, 39.235239776856147 ], [ -120.128859172925303, 39.235446905430912 ], [ -120.129081810428858, 39.235668606717212 ], [ -120.129055728985662, 39.23574003301394 ], [ -120.129527089596323, 39.236112008145071 ], [ -120.129475661228426, 39.236236861627262 ], [ -120.131005501462084, 39.237355630145736 ], [ -120.131066133354977, 39.237573333879844 ], [ -120.131357487409957, 39.237814742270714 ], [ -120.131237357692342, 39.237919885676888 ], [ -120.131300191640037, 39.238083591304736 ], [ -120.132060005792823, 39.238768962434136 ], [ -120.132141587515321, 39.239041234152957 ], [ -120.132297008559007, 39.239207220783463 ], [ -120.132811035044014, 39.239670321355717 ], [ -120.133218135005606, 39.239914576735885 ], [ -120.133068258617996, 39.240181146036875 ], [ -120.134011818941346, 39.240907065930358 ], [ -120.134400181130474, 39.241042751273945 ], [ -120.134416731427677, 39.241205315611168 ], [ -120.134531732184641, 39.241226164655806 ], [ -120.134685697837213, 39.241428147185367 ], [ -120.134611860066968, 39.241534433756925 ], [ -120.134379658719126, 39.241546733803361 ], [ -120.134090168203912, 39.241827883921701 ], [ -120.133903526631883, 39.24185932237112 ], [ -120.133428856768973, 39.242135910101901 ], [ -120.13316397370231, 39.242381629102645 ], [ -120.132646670236952, 39.242567076212637 ], [ -120.132406397026998, 39.24277736494075 ], [ -120.132195138020819, 39.242844228832823 ], [ -120.131967333820228, 39.24274852787719 ], [ -120.131798700717439, 39.242906528588229 ], [ -120.131683698218566, 39.242885676774648 ], [ -120.130902226970704, 39.243298831079912 ], [ -120.130439280152146, 39.243287416792093 ], [ -120.130107876627534, 39.243459418718771 ], [ -120.129901018489832, 39.243418282481144 ], [ -120.129662936987543, 39.24357456721517 ], [ -120.129267962438448, 39.243600859520285 ], [ -120.129100790066943, 39.243722857426668 ], [ -120.128729696493281, 39.24373171961237 ], [ -120.128501160113998, 39.243654011225338 ], [ -120.128451192667967, 39.243742865290919 ], [ -120.128216779923108, 39.243809150535789 ], [ -120.127988243925998, 39.243731441153379 ], [ -120.127657931191578, 39.243308888800144 ], [ -120.127316600409344, 39.243156324516249 ], [ -120.127251567620547, 39.24304661481105 ], [ -120.126438849653354, 39.242522062879054 ], [ -120.126425992772653, 39.242269501874731 ], [ -120.126268374620835, 39.242157505473337 ], [ -120.126143459702718, 39.241812090308365 ], [ -120.125768343748561, 39.241352391536495 ], [ -120.125624697069398, 39.240898408816406 ], [ -120.125673930612763, 39.24082755522457 ], [ -120.125561139222228, 39.240752699826523 ], [ -120.125500522407989, 39.240534993856755 ], [ -120.125593151771653, 39.238267089326499 ], [ -120.125689409555861, 39.238179379699254 ], [ -120.125679495532069, 39.237854821580086 ], [ -120.125845564433689, 39.237192278993099 ], [ -120.125940350376069, 39.237140567587737 ], [ -120.12588487981408, 39.236796866980882 ], [ -120.12601603958575, 39.236421740434466 ], [ -120.126307742191074, 39.236086612763032 ], [ -120.126315090884162, 39.235906620113724 ], [ -120.126433754358942, 39.235837480440047 ], [ -120.126635812738783, 39.235428068787968 ], [ -120.126706348802927, 39.234835235590111 ], [ -120.126833091770962, 39.234568103375302 ], [ -120.12686174451926, 39.233866131497663 ], [ -120.126764391055318, 39.233413292673127 ], [ -120.126838231102028, 39.233307011077294 ], [ -120.126829045737921, 39.232964453364559 ], [ -120.127038075189915, 39.232951596067693 ], [ -120.127142041265671, 39.233242441159675 ], [ -120.127234617137646, 39.233244726298722 ], [ -120.127365039960594, 39.234022694548429 ], [ -120.127736458180109, 39.234572384075477 ] ] ], [ [ [ -120.08720853625141, 39.218520658911601 ], [ -120.087185397936452, 39.218520079861783 ], [ -120.087186142339462, 39.21850208116539 ], [ -120.08720853625141, 39.218520658911601 ] ] ], [ [ [ -120.089181478465164, 39.22010148906039 ], [ -120.088840347587379, 39.219948818673124 ], [ -120.088124532959895, 39.219894878084965 ], [ -120.087740105260337, 39.219669052004946 ], [ -120.086836207296798, 39.219682466603857 ], [ -120.086732426619065, 39.219391591894322 ], [ -120.086802586920228, 39.219375330644546 ], [ -120.086997313633546, 39.218587442071041 ], [ -120.087047312499109, 39.218498606772357 ], [ -120.087163004031069, 39.218501502111359 ], [ -120.087362316516064, 39.218722697819892 ], [ -120.087842268803641, 39.218878845864872 ], [ -120.088776883406069, 39.219803092688956 ], [ -120.089181478465164, 39.22010148906039 ] ] ], [ [ [ -120.13042775741711, 39.233341517944631 ], [ -120.130132021373583, 39.233208103871071 ], [ -120.13011254648066, 39.2331175365007 ], [ -120.129705495862282, 39.232873271855894 ], [ -120.129056345563924, 39.232316737740753 ], [ -120.128460483328638, 39.232157898242995 ], [ -120.128304351953233, 39.232009906530564 ], [ -120.128330432533986, 39.231938480339295 ], [ -120.128469293920674, 39.231941906508823 ], [ -120.12847533881677, 39.231948607444117 ], [ -120.128495374306738, 39.231870480272661 ], [ -120.128967054287486, 39.231665907684317 ], [ -120.13059049960151, 39.233327512987415 ], [ -120.130620939513122, 39.233561430210102 ], [ -120.130648192696626, 39.233617214257542 ], [ -120.130591632358701, 39.233868063799171 ], [ -120.13042775741711, 39.233341517944631 ] ] ], [ [ [ -120.118866120398224, 39.232803634654843 ], [ -120.119124692024613, 39.233278487692395 ], [ -120.11913531306098, 39.23358504628716 ], [ -120.119381057235032, 39.233807337737318 ], [ -120.119637426090662, 39.234336187318419 ], [ -120.119478363177933, 39.234260180969407 ], [ -120.119416296586863, 39.234078470847592 ], [ -120.118684222904719, 39.233285601156176 ], [ -120.118626579633485, 39.232995895777947 ], [ -120.118494348450739, 39.232830465441559 ], [ -120.118525596622007, 39.232633047777405 ], [ -120.118344131994192, 39.232538467895182 ], [ -120.118146156093516, 39.232281322354133 ], [ -120.118173720663805, 39.232173900535031 ], [ -120.118339408739217, 39.232087916109492 ], [ -120.118814370185092, 39.232369936074768 ], [ -120.118787543187892, 39.232459358919272 ], [ -120.118900314209725, 39.232534220217879 ], [ -120.118866120398224, 39.232803634654843 ] ] ], [ [ [ -120.125875117378882, 39.232789116736207 ], [ -120.125887496625552, 39.232761031362841 ], [ -120.126159343470121, 39.232911883659561 ], [ -120.126191669529746, 39.233255012791965 ], [ -120.12605242434357, 39.234963228709901 ], [ -120.125906207824755, 39.235139792054667 ], [ -120.125681360494511, 39.23610717925596 ], [ -120.125338954164874, 39.236549157358745 ], [ -120.125323516242815, 39.236927141548641 ], [ -120.12512879757368, 39.237156557962294 ], [ -120.125021159027952, 39.23695570754473 ], [ -120.125043215453516, 39.236415730267609 ], [ -120.125143147099223, 39.236238024774813 ], [ -120.125355126914627, 39.236153173889811 ], [ -120.125599071717602, 39.235852903192651 ], [ -120.125475639568734, 39.23547148901168 ], [ -120.125569706236135, 39.234302680649655 ], [ -120.125549519072038, 39.233095015377245 ], [ -120.125706021075274, 39.232666462589371 ], [ -120.125875117378882, 39.232789116736207 ] ] ], [ [ [ -120.122266037214231, 39.232941803825618 ], [ -120.122227440893823, 39.233319214959998 ], [ -120.122356738706259, 39.233556638240351 ], [ -120.122342758085011, 39.233898623216881 ], [ -120.122497408789229, 39.234082621001384 ], [ -120.122554332948965, 39.234390324249546 ], [ -120.122688783940731, 39.234501752758128 ], [ -120.122689855437031, 39.235042301298293 ], [ -120.122824307835913, 39.235153729693572 ], [ -120.12279601310432, 39.235279151998704 ], [ -120.123014216088762, 39.235608859453443 ], [ -120.122589919606838, 39.23522000454804 ], [ -120.12262115782471, 39.235022585466915 ], [ -120.122468712332335, 39.234784590160757 ], [ -120.122502158035914, 39.234533173477359 ], [ -120.122390115723178, 39.234440316224614 ], [ -120.122401153106679, 39.234170328101214 ], [ -120.12213961250437, 39.233767478292265 ], [ -120.121982424865422, 39.233078930031553 ], [ -120.121892057403528, 39.233022643113891 ], [ -120.121896142447326, 39.232356100188177 ], [ -120.121986509089169, 39.23241238707665 ], [ -120.122334398792319, 39.232402971970565 ], [ -120.12232851243985, 39.232546965673592 ], [ -120.122460752415165, 39.232712391972925 ], [ -120.122266037214231, 39.232941803825618 ] ] ], [ [ [ -120.12106771502188, 39.232786045801731 ], [ -120.12099165863377, 39.232946321009663 ], [ -120.121119479337665, 39.23321974387968 ], [ -120.12132188531281, 39.233368889661655 ], [ -120.121401211838304, 39.233695164942148 ], [ -120.121620875698326, 39.233988876273258 ], [ -120.121775117276982, 39.234749421661085 ], [ -120.122086627659016, 39.235063420938054 ], [ -120.122124821506475, 39.235262556784697 ], [ -120.122350379914721, 39.23541227334335 ], [ -120.122218467150006, 39.235805394357691 ], [ -120.122104951431268, 39.235748535186509 ], [ -120.122156392272274, 39.23562368542683 ], [ -120.121884544463413, 39.235472823764809 ], [ -120.121894848212733, 39.235220835006928 ], [ -120.121608690590946, 39.234853410064026 ], [ -120.121452242482007, 39.23414686210738 ], [ -120.121231842781583, 39.233871149663798 ], [ -120.121237731652826, 39.233727156132446 ], [ -120.12074991425186, 39.23319258426141 ], [ -120.120533937730187, 39.232808875561609 ], [ -120.1204821771871, 39.232375177341694 ], [ -120.120710667858077, 39.232452899928582 ], [ -120.120942839804115, 39.232440626130334 ], [ -120.120934005981596, 39.23265661641743 ], [ -120.12106771502188, 39.232786045801731 ] ] ], [ [ [ -120.124163789170069, 39.234123809443126 ], [ -120.124160459865251, 39.234772353830401 ], [ -120.124401077163697, 39.235120630030075 ], [ -120.124350724590059, 39.235786029891962 ], [ -120.124428596622195, 39.236148302080096 ], [ -120.124957987838698, 39.23623345080852 ], [ -120.124896257989505, 39.236610291339645 ], [ -120.124959075985032, 39.23677399983498 ], [ -120.124825704038713, 39.237203122649412 ], [ -120.124901373844892, 39.237619392304374 ], [ -120.124549008207467, 39.238871904753999 ], [ -120.124687496918327, 39.239451883131643 ], [ -120.124690052293644, 39.239956433369642 ], [ -120.124549317140975, 39.240565547617905 ], [ -120.124353503557884, 39.240254413607317 ], [ -120.124388458749621, 39.2388319030483 ], [ -120.124262476073966, 39.237945937556511 ], [ -120.123932946931944, 39.237505376868953 ], [ -120.123911663910718, 39.236892259309101 ], [ -120.123762152433201, 39.23658226855828 ], [ -120.123625489184946, 39.236524838777449 ], [ -120.123829036844185, 39.236079434275801 ], [ -120.123904010271389, 39.235378608368912 ], [ -120.123837518405011, 39.235304895547308 ], [ -120.123882727008635, 39.234765490640825 ], [ -120.123671533323446, 39.233697244332319 ], [ -120.123770383575149, 39.232978990969045 ], [ -120.123548506918553, 39.232739281131259 ], [ -120.123584889255127, 39.232415866949566 ], [ -120.123861141972057, 39.232458728981818 ], [ -120.123865165071933, 39.232927281068065 ], [ -120.123792791953022, 39.232997562161827 ], [ -120.123991137606865, 39.233813247139878 ], [ -120.124163789170069, 39.234123809443126 ] ] ] ] } }
]
}
