{
"type": "FeatureCollection",
"name": "X03946",
"crs": { "type": "name", "properties": { "name": "urn:ogc:def:crs:OGC:1.3:CRS84" } },
"features": [
{ "type": "Feature", "properties": { "part": "direct", "crossing_id": "X03946", "area_ac": 13.2 }, "geometry": { "type": "Polygon", "coordinates": [ [ [ -120.014675300357496, 39.231384785033129 ], [ -120.015211090468924, 39.232407483312741 ], [ -120.015205748347682, 39.232533465712329 ], [ -120.014970518115874, 39.232617517640556 ], [ -120.014206851046524, 39.232597927240676 ], [ -120.014144297711326, 39.232434168835539 ], [ -120.013612810179538, 39.232402514266461 ], [ -120.013334350531778, 39.232413385313734 ], [ -120.013094536504909, 39.232605418091694 ], [ -120.012168881290933, 39.23258165660782 ], [ -120.011953733056458, 39.232738286146862 ], [ -120.010006798749458, 39.232760348967261 ], [ -120.009016308546975, 39.232626794314889 ], [ -120.008796367433433, 39.232350885825632 ], [ -120.008850297670804, 39.232172101591111 ], [ -120.00874071029348, 39.232025148574927 ], [ -120.008727511604533, 39.231790587819376 ], [ -120.008847805377755, 39.231685577475091 ], [ -120.009213473470965, 39.231803077662306 ], [ -120.011647107596147, 39.231775509369299 ], [ -120.013148988940245, 39.231868116490631 ], [ -120.013410414082529, 39.231712672266617 ], [ -120.013874763329369, 39.231688553842417 ], [ -120.014183231804566, 39.231516297863941 ], [ -120.014675300357496, 39.231384785033129 ] ] ] } }
]
}
