{
"type": "FeatureCollection",
"name": "X03925",
"crs": { "type": "name", "properties": { "name": "urn:ogc:def:crs:OGC:1.3:CRS84" } },
"features": [
{ "type": "Feature", "properties": { "part": "direct", "crossing_id": "X03925", "area_ac": 1.8 }, "geometry": { "type": "Polygon", "coordinates": [ [ [ -120.064955493172718, 39.236717575792824 ], [ -120.064996526945748, 39.236844731149809 ], [ -120.065297397360197, 39.23685231868113 ], [ -120.065478796261175, 39.236946978997352 ], [ -120.065404111308638, 39.237071216223988 ], [ -120.065491314253833, 39.237758069195074 ], [ -120.065347946200859, 39.237862557230706 ], [ -120.065408373067868, 39.23808028752817 ], [ -120.065284395925687, 39.238275350489616 ], [ -120.065079849676522, 39.238180106085366 ], [ -120.06511425241419, 39.237910715556744 ], [ -120.065050824310248, 39.237764978264494 ], [ -120.064913460466528, 39.237725479504441 ], [ -120.064861292080593, 39.237309767941682 ], [ -120.064642613069822, 39.236997959833374 ], [ -120.064745697482692, 39.236748318930836 ], [ -120.064955493172718, 39.236717575792824 ] ] ] } }
]
}
