{
"type": "FeatureCollection",
"name": "X03998",
"crs": { "type": "name", "properties": { "name": "urn:ogc:def:crs:OGC:1.3:CRS84" } },
"features": [
{ "type": "Feature", "properties": { "part": "direct", "crossing_id": "X03998", "area_ac": 0.1 }, "geometry": { "type": "Polygon", "coordinates": [ [ [ -120.188398576667424, 39.172829627442447 ], [ -120.188441240525961, 39.172920746404358 ], [ -120.188648651925348, 39.172943772239798 ], [ -120.1885077472988, 39.172994423309717 ], [ -120.18854969402858, 39.173103542670951 ], [ -120.188321308993793, 39.173025956933138 ], [ -120.188328483119008, 39.172845952634496 ], [ -120.188398576667424, 39.172829627442447 ] ] ] } }
]
}
