{
"type": "FeatureCollection",
"name": "X03940",
"crs": { "type": "name", "properties": { "name": "urn:ogc:def:crs:OGC:1.3:CRS84" } },
"features": [
{ "type": "Feature", "properties": { "part": "direct", "crossing_id": "X03940", "area_ac": 0.2 }, "geometry": { "type": "Polygon", "coordinates": [ [ [ -120.026320154242143, 39.237052009804557 ], [ -120.026331130254491, 39.237340563630127 ], [ -120.026211611711389, 39.237427594952138 ], [ -120.026298861499853, 39.237555944077705 ], [ -120.026229431606936, 39.237554169904953 ], [ -120.026072752195688, 39.237424046470949 ], [ -120.026128164733464, 39.237209257522011 ], [ -120.026061016739575, 39.237153490313808 ], [ -120.026320154242143, 39.237052009804557 ] ] ] } }
]
}
