{
"type": "FeatureCollection",
"name": "X03981",
"crs": { "type": "name", "properties": { "name": "urn:ogc:def:crs:OGC:1.3:CRS84" } },
"features": [
{ "type": "Feature", "properties": { "part": "direct", "crossing_id": "X03981", "area_ac": 4.7 }, "geometry": { "type": "Polygon", "coordinates": [ [ [ -120.166378584759002, 39.16319689196655 ], [ -120.167409673381272, 39.163456208803645 ], [ -120.167818643571295, 39.163646333729631 ], [ -120.167883675147678, 39.163756021696329 ], [ -120.166831619971276, 39.164595278978275 ], [ -120.166676263888789, 39.165005906110046 ], [ -120.166558483694928, 39.165057093286762 ], [ -120.166549810538129, 39.165273094677318 ], [ -120.166238375754006, 39.165535781477665 ], [ -120.166122753175799, 39.166109534009735 ], [ -120.166062059904348, 39.165891844484229 ], [ -120.166120594360819, 39.165586968162891 ], [ -120.166395904111042, 39.165071154759097 ], [ -120.166358333016191, 39.164854028030426 ], [ -120.166179860043698, 39.164687525408397 ], [ -120.166231164412679, 39.164562650047351 ], [ -120.166095322491202, 39.16448727328585 ], [ -120.166260084679337, 39.163266079076166 ], [ -120.166378584759002, 39.16319689196655 ] ] ] } }
]
}
