{
"type": "FeatureCollection",
"name": "X03996",
"crs": { "type": "name", "properties": { "name": "urn:ogc:def:crs:OGC:1.3:CRS84" } },
"features": [
{ "type": "Feature", "properties": { "part": "direct", "crossing_id": "X03996", "area_ac": 11.5 }, "geometry": { "type": "Polygon", "coordinates": [ [ [ -120.185622083030594, 39.169897728561772 ], [ -120.186948383920409, 39.170884719070031 ], [ -120.186266281268686, 39.171156522162136 ], [ -120.185480184454434, 39.17171409146782 ], [ -120.185131155578702, 39.171759707528615 ], [ -120.184701258440995, 39.172091651201782 ], [ -120.184115228884238, 39.17227567553779 ], [ -120.18354369812819, 39.172676260455752 ], [ -120.183529325502406, 39.173036267575426 ], [ -120.183800362637882, 39.173204982974362 ], [ -120.183789583971446, 39.173474988351749 ], [ -120.183692051716022, 39.173598753496698 ], [ -120.183675393699673, 39.173436190941068 ], [ -120.183230852125334, 39.17297499426607 ], [ -120.183079630517454, 39.172124502223461 ], [ -120.182881568031846, 39.171867462082808 ], [ -120.184028208844708, 39.170976293534594 ], [ -120.184617819108468, 39.170702267318759 ], [ -120.185142360268969, 39.170318558553276 ], [ -120.18526731834983, 39.170087348525016 ], [ -120.185622083030594, 39.169897728561772 ] ] ] } }
]
}
