{
"type": "FeatureCollection",
"name": "X03935",
"crs": { "type": "name", "properties": { "name": "urn:ogc:def:crs:OGC:1.3:CRS84" } },
"features": [
{ "type": "Feature", "properties": { "part": "direct", "crossing_id": "X03935", "area_ac": 5.0 }, "geometry": { "type": "Polygon", "coordinates": [ [ [ -120.043955884318734, 39.238041829564473 ], [ -120.044880882273887, 39.238083339112997 ], [ -120.04492339139388, 39.238174504268656 ], [ -120.04537644646021, 39.238420230659145 ], [ -120.045506998968662, 39.238621733782473 ], [ -120.045670518433312, 39.238589850806633 ], [ -120.045376166284186, 39.238978755001163 ], [ -120.045369365600081, 39.239140736623149 ], [ -120.04508558935332, 39.239277668541483 ], [ -120.045010110731852, 39.239419889113002 ], [ -120.044724065246697, 39.239610813916933 ], [ -120.044855373618759, 39.239794319802584 ], [ -120.044805305788586, 39.239883134075768 ], [ -120.044446332973067, 39.239603760602861 ], [ -120.044451624136897, 39.239477775012375 ], [ -120.044336658498722, 39.239456838009595 ], [ -120.044365094091646, 39.239331440247206 ], [ -120.044228496330604, 39.239273919449822 ], [ -120.04415179424953, 39.238893611344508 ], [ -120.043600872214355, 39.23877151396124 ], [ -120.043535976588018, 39.238661762481556 ], [ -120.043459278739689, 39.238281454053002 ], [ -120.043557902919105, 39.238139822501175 ], [ -120.043955884318734, 39.238041829564473 ] ] ] } }
]
}
