{
"type": "FeatureCollection",
"name": "X03910",
"crs": { "type": "name", "properties": { "name": "urn:ogc:def:crs:OGC:1.3:CRS84" } },
"features": [
{ "type": "Feature", "properties": { "part": "direct", "crossing_id": "X03910", "area_ac": 0.2 }, "geometry": { "type": "MultiPolygon", "coordinates": [ [ [ [ -120.083733748733096, 39.225802726947229 ], [ -120.08375614389567, 39.225821305390951 ], [ -120.083733003254949, 39.225820725565626 ], [ -120.083733748733096, 39.225802726947229 ] ] ], [ [ [ -120.083687467465438, 39.225801567283554 ], [ -120.083749434615498, 39.225983292957054 ], [ -120.084157768079976, 39.22619171395656 ], [ -120.084131645761161, 39.22626312870068 ], [ -120.084015941800089, 39.226260229873972 ], [ -120.083655380838735, 39.2260169708481 ], [ -120.083569527747812, 39.225852663891324 ], [ -120.083687467465438, 39.225801567283554 ] ] ] ] } }
]
}
