{
"type": "FeatureCollection",
"name": "X03955",
"crs": { "type": "name", "properties": { "name": "urn:ogc:def:crs:OGC:1.3:CRS84" } },
"features": [
{ "type": "Feature", "properties": { "part": "direct", "crossing_id": "X03955", "area_ac": 11.9 }, "geometry": { "type": "Polygon", "coordinates": [ [ [ -120.100604173448858, 39.1946937915801 ], [ -120.100730372672743, 39.19500323083593 ], [ -120.101668377983344, 39.195278832025437 ], [ -120.101779592535152, 39.195389705432916 ], [ -120.102524964846182, 39.195282137851486 ], [ -120.10283454550968, 39.195073633617767 ], [ -120.102996462134115, 39.195077663106325 ], [ -120.103085287298995, 39.195169960684581 ], [ -120.103250162924937, 39.195101993731413 ], [ -120.103383031490722, 39.195249439319085 ], [ -120.103543469368731, 39.195289466119796 ], [ -120.103630076739137, 39.195435760406234 ], [ -120.104110653217617, 39.195573838240172 ], [ -120.104285350218902, 39.195830427936869 ], [ -120.104377875111695, 39.19583272941415 ], [ -120.104713014220948, 39.196129344039399 ], [ -120.104682489414543, 39.196308759189229 ], [ -120.104790013778441, 39.196509625166051 ], [ -120.105038545687592, 39.19665994543675 ], [ -120.105124418489538, 39.196824237809501 ], [ -120.105286339460136, 39.196828264265456 ], [ -120.105534134424829, 39.196996582606474 ], [ -120.105718448379335, 39.197019182677074 ], [ -120.105758059792493, 39.19718232441884 ], [ -120.10591924261702, 39.197204349086334 ], [ -120.105888720228393, 39.197383764621321 ], [ -120.105590963939278, 39.197304291981702 ], [ -120.105311165553033, 39.197351387158697 ], [ -120.105269337438685, 39.197242242457563 ], [ -120.105086501636421, 39.197183643563179 ], [ -120.105091676517532, 39.197057650223222 ], [ -120.104407340295367, 39.196806403660858 ], [ -120.104410298027716, 39.196734407505637 ], [ -120.103750578164522, 39.196447734568181 ], [ -120.103572923242339, 39.196263140216558 ], [ -120.103246865269611, 39.196309079479676 ], [ -120.10298650209802, 39.19644673984601 ], [ -120.102661182858782, 39.19647467840619 ], [ -120.102093998270504, 39.19619029920473 ], [ -120.101884336518268, 39.196221114658272 ], [ -120.101658944495057, 39.196071363854514 ], [ -120.10145076329816, 39.196066180543085 ], [ -120.101432073096476, 39.195957610634522 ], [ -120.101206682897555, 39.195807859016256 ], [ -120.100838805513661, 39.195744645643579 ], [ -120.100820856634485, 39.195618076684909 ], [ -120.100411901487291, 39.195427717006226 ], [ -120.100108976921959, 39.195474223688613 ], [ -120.10010527443346, 39.195564218559198 ], [ -120.099844908401025, 39.195701871782667 ], [ -120.099683731406287, 39.195679838894087 ], [ -120.099555313917719, 39.195424395558447 ], [ -120.099628409979545, 39.195336129641184 ], [ -120.099517939660743, 39.195207255340783 ], [ -120.099568645258046, 39.195100414166617 ], [ -120.100090853702312, 39.19478911022928 ], [ -120.100298290449828, 39.194812294809374 ], [ -120.100604173448858, 39.1946937915801 ] ] ] } }
]
}
