{
"type": "FeatureCollection",
"name": "X03969",
"crs": { "type": "name", "properties": { "name": "urn:ogc:def:crs:OGC:1.3:CRS84" } },
"features": [
{ "type": "Feature", "properties": { "part": "direct", "crossing_id": "X03969", "area_ac": 3.6 }, "geometry": { "type": "Polygon", "coordinates": [ [ [ -120.147381980337968, 39.157922351503046 ], [ -120.147748985809926, 39.15800341214846 ], [ -120.14805172401428, 39.157956774038809 ], [ -120.147953271988669, 39.158675069174734 ], [ -120.147676560197894, 39.158650273864062 ], [ -120.147627410677131, 39.15872114058218 ], [ -120.147069621922725, 39.158779546742224 ], [ -120.146787816711438, 39.158880748111756 ], [ -120.14659412461576, 39.159092213876718 ], [ -120.146133907252576, 39.159026882788005 ], [ -120.145989364399384, 39.159167481448542 ], [ -120.145643291531229, 39.159140981267718 ], [ -120.145909257910986, 39.158859217981323 ], [ -120.145967871176921, 39.158554354477602 ], [ -120.146152830057375, 39.158558887563814 ], [ -120.146203436452055, 39.158452021880876 ], [ -120.146481602148711, 39.158440821002046 ], [ -120.146491789953203, 39.158188823477438 ], [ -120.147262016990339, 39.158027518634746 ], [ -120.147381980337968, 39.157922351503046 ] ] ] } }
]
}
