{
"type": "FeatureCollection",
"name": "X03980",
"crs": { "type": "name", "properties": { "name": "urn:ogc:def:crs:OGC:1.3:CRS84" } },
"features": [
{ "type": "Feature", "properties": { "part": "direct", "crossing_id": "X03980", "area_ac": 17.4 }, "geometry": { "type": "Polygon", "coordinates": [ [ [ -120.164715264114122, 39.163120368352807 ], [ -120.166194333285588, 39.163174390419833 ], [ -120.166236240076742, 39.163283516505892 ], [ -120.166095322491202, 39.16448727328585 ], [ -120.166231164412679, 39.164562650047351 ], [ -120.166179860043698, 39.164687525408397 ], [ -120.166398795309803, 39.164999154303771 ], [ -120.1660649515279, 39.165819844059875 ], [ -120.16622607801439, 39.166418349509534 ], [ -120.166161036961427, 39.166885226779641 ], [ -120.166270868876254, 39.167032041308715 ], [ -120.166284594456243, 39.167266605407058 ], [ -120.166140050839417, 39.168560361754885 ], [ -120.165925431912399, 39.16871729748037 ], [ -120.165872677478035, 39.168878172684984 ], [ -120.165663841683099, 39.16889110713079 ], [ -120.165497637463801, 39.16899516745233 ], [ -120.165538822951476, 39.169122293868682 ], [ -120.165677565226389, 39.169125671173973 ], [ -120.165835092948271, 39.169237611708645 ], [ -120.165897956886411, 39.169401301045284 ], [ -120.165719459216646, 39.169811363175718 ], [ -120.16578232331338, 39.169975052569526 ], [ -120.165685488685781, 39.170080801617445 ], [ -120.165649348450941, 39.17040424028577 ], [ -120.165446999011962, 39.170831738973526 ], [ -120.165385563073997, 39.171208614763984 ], [ -120.16531546667035, 39.171224925961191 ], [ -120.165329189035745, 39.171459489936964 ], [ -120.165232351577586, 39.171565238484213 ], [ -120.165269198245298, 39.171800365435779 ], [ -120.165202697181982, 39.172303241521995 ], [ -120.165043738996033, 39.171650734795705 ], [ -120.164720743090385, 39.171048286640051 ], [ -120.164691855700411, 39.170615158804097 ], [ -120.164538667422306, 39.170395216290203 ], [ -120.164443302981766, 39.169888398787144 ], [ -120.164330577095498, 39.169813582840533 ], [ -120.164338535000397, 39.169615582101464 ], [ -120.164454154248688, 39.169618397754391 ], [ -120.164414417343437, 39.169455270886502 ], [ -120.164558947185427, 39.169314648981128 ], [ -120.164624002008324, 39.168847773249936 ], [ -120.164741789986323, 39.168796588344861 ], [ -120.164918843798162, 39.16842252792658 ], [ -120.165037354083182, 39.168353342603432 ], [ -120.165243313776656, 39.167835843862996 ], [ -120.165555485863578, 39.16755516023354 ], [ -120.165494824258857, 39.166184338678143 ], [ -120.165593099520052, 39.166042589344379 ], [ -120.165874909753654, 39.165941342602608 ], [ -120.165979690222969, 39.165637591955687 ], [ -120.166098917575852, 39.165550405205309 ], [ -120.16615672863459, 39.165263528942866 ], [ -120.165979700994029, 39.165061025786976 ], [ -120.166085925223072, 39.164721274720904 ], [ -120.165927683828343, 39.164627334913284 ], [ -120.165934189982252, 39.164465333940555 ], [ -120.165309167928257, 39.164468137746653 ], [ -120.164817113320083, 39.164041751000745 ], [ -120.164732580360209, 39.163841498039289 ], [ -120.164715264114122, 39.163120368352807 ] ] ] } }
]
}
