{
"type": "FeatureCollection",
"name": "X04069",
"crs": { "type": "name", "properties": { "name": "urn:ogc:def:crs:OGC:1.3:CRS84" } },
"features": [
{ "type": "Feature", "properties": { "part": "direct", "crossing_id": "X04069", "area_ac": 3.8 }, "geometry": { "type": "Polygon", "coordinates": [ [ [ -120.14404361797574, 39.161498105096449 ], [ -120.144523328268889, 39.16165401084249 ], [ -120.14474434146932, 39.161911677386037 ], [ -120.144637292397192, 39.162269405251848 ], [ -120.144542623320248, 39.162321136704946 ], [ -120.14450129442028, 39.162770564196926 ], [ -120.144426104063854, 39.162912861403676 ], [ -120.144334347424731, 39.162892593541912 ], [ -120.14437330632596, 39.163073725349747 ], [ -120.144299572124496, 39.163180022898324 ], [ -120.143889216042851, 39.163025817281337 ], [ -120.14389358693694, 39.162917818673215 ], [ -120.143734652326557, 39.162841849670365 ], [ -120.143572803831873, 39.162837879516445 ], [ -120.143392205793546, 39.162725343358467 ], [ -120.143274414047255, 39.162776506501523 ], [ -120.143144430938662, 39.162557105897122 ], [ -120.143228367029678, 39.162198812477584 ], [ -120.14353622553709, 39.162026188579887 ], [ -120.143567360409889, 39.161828758328944 ], [ -120.143893966611842, 39.161764699170483 ], [ -120.143922915013874, 39.161621268093057 ], [ -120.144084760770255, 39.161625237658079 ], [ -120.14404361797574, 39.161498105096449 ] ] ] } }
]
}
