{
"type": "FeatureCollection",
"name": "X04026",
"crs": { "type": "name", "properties": { "name": "urn:ogc:def:crs:OGC:1.3:CRS84" } },
"features": [
{ "type": "Feature", "properties": { "part": "direct", "crossing_id": "X04026", "area_ac": 46.9 }, "geometry": { "type": "Polygon", "coordinates": [ [ [ -120.165777907170423, 39.073759881287195 ], [ -120.165416383981466, 39.074129463127491 ], [ -120.16525185225332, 39.074197532028542 ], [ -120.165245365412105, 39.074359535418786 ], [ -120.165101763345589, 39.074482167024421 ], [ -120.163816533808344, 39.075405839069646 ], [ -120.163371274413933, 39.075557161112314 ], [ -120.163203852230978, 39.075697228275523 ], [ -120.162857455188302, 39.075688794131345 ], [ -120.162222395805131, 39.075961615279589 ], [ -120.162038371784149, 39.07593911529554 ], [ -120.16173238670757, 39.076075805257403 ], [ -120.160047274115897, 39.077169871738199 ], [ -120.160020569741619, 39.077259310281313 ], [ -120.159235365950252, 39.07781674112038 ], [ -120.159229586898988, 39.077960743293282 ], [ -120.159013795889663, 39.078153678547366 ], [ -120.1590534816916, 39.078316807150969 ], [ -120.158913473285381, 39.078349429026915 ], [ -120.158815317609637, 39.078491178604324 ], [ -120.158676753838321, 39.078487799654155 ], [ -120.158322395588655, 39.078677354367983 ], [ -120.158494141071699, 39.079005864808046 ], [ -120.157279512179798, 39.079318575990904 ], [ -120.157018969153071, 39.079474379759887 ], [ -120.156904220933143, 39.079453561911315 ], [ -120.156626411337115, 39.078888228545232 ], [ -120.157309874015183, 39.078562565991987 ], [ -120.157774644358256, 39.078501832964683 ], [ -120.157846094447649, 39.07844952225247 ], [ -120.157830950771483, 39.078250956183673 ], [ -120.157273122208906, 39.077750864844703 ], [ -120.156788196962751, 39.077162460526893 ], [ -120.15618564380766, 39.076625236967629 ], [ -120.156025437030408, 39.076585290903658 ], [ -120.156028329676047, 39.076513290001131 ], [ -120.156119979596923, 39.076533544883119 ], [ -120.156450515984659, 39.076361433279594 ], [ -120.156432484130519, 39.076234868060851 ], [ -120.156578273344394, 39.076058247161008 ], [ -120.156541486304107, 39.07582311697346 ], [ -120.156682213534438, 39.075772497554247 ], [ -120.156623056263896, 39.075518803602868 ], [ -120.156226183340252, 39.075040653040872 ], [ -120.156767438674763, 39.074801611609949 ], [ -120.157162183493284, 39.074757189803968 ], [ -120.157281983842807, 39.074652005377267 ], [ -120.157860023733463, 39.074648088745363 ], [ -120.158096731370549, 39.0745097192816 ], [ -120.158513121681978, 39.07450185657585 ], [ -120.158785176753923, 39.074634616050808 ], [ -120.159108474703245, 39.074642499063827 ], [ -120.159386309590943, 39.074631254935682 ], [ -120.159644662671468, 39.07452944576761 ], [ -120.159847441920348, 39.07466051401849 ], [ -120.160680946622179, 39.074626774340608 ], [ -120.160824556328279, 39.074504148484245 ], [ -120.161055483405562, 39.074509775244913 ], [ -120.161256100011201, 39.074694842073498 ], [ -120.162550739354018, 39.074690340727656 ], [ -120.162692181843042, 39.074621713458725 ], [ -120.163085480518731, 39.074613272074885 ], [ -120.163555990723111, 39.074408512017207 ], [ -120.163856917359098, 39.074397819315763 ], [ -120.164259588050626, 39.074155369250441 ], [ -120.165166689259834, 39.074015280959046 ], [ -120.165777907170423, 39.073759881287195 ] ] ] } }
]
}
