{
"type": "FeatureCollection",
"name": "X04072",
"crs": { "type": "name", "properties": { "name": "urn:ogc:def:crs:OGC:1.3:CRS84" } },
"features": [
{ "type": "Feature", "properties": { "part": "direct", "crossing_id": "X04072", "area_ac": 0.3 }, "geometry": { "type": "Polygon", "coordinates": [ [ [ -120.154495432526573, 39.077268650460084 ], [ -120.154581294509399, 39.077432908170714 ], [ -120.154789136340625, 39.077437983719953 ], [ -120.154808612407948, 39.077528548665612 ], [ -120.155082841581233, 39.077607316286873 ], [ -120.155282003458126, 39.077828393486151 ], [ -120.154510566771336, 39.077467216637061 ], [ -120.154324371207295, 39.07749870500411 ], [ -120.154305619391451, 39.077390139804308 ], [ -120.154403058617277, 39.077266394481569 ], [ -120.154495432526573, 39.077268650460084 ] ] ] } }
]
}
