{
"type": "FeatureCollection",
"name": "X04029",
"crs": { "type": "name", "properties": { "name": "urn:ogc:def:crs:OGC:1.3:CRS84" } },
"features": [
{ "type": "Feature", "properties": { "part": "direct", "crossing_id": "X04029", "area_ac": 0.8 }, "geometry": { "type": "Polygon", "coordinates": [ [ [ -120.159112501848767, 39.082029929173594 ], [ -120.159197657365496, 39.082212184230542 ], [ -120.159103831581106, 39.082245932251979 ], [ -120.158989774032136, 39.082783687295681 ], [ -120.158685921084711, 39.082866367047593 ], [ -120.158690979607343, 39.082740365312183 ], [ -120.158534370974209, 39.082610420937122 ], [ -120.158387158177703, 39.082246473191766 ], [ -120.15850480211779, 39.082195288766947 ], [ -120.158592124192154, 39.082323543469784 ], [ -120.15880214891115, 39.08227461164504 ], [ -120.158854842607283, 39.082113735750191 ], [ -120.159112501848767, 39.082029929173594 ] ] ] } }
]
}
