{
"type": "FeatureCollection",
"name": "X04027",
"crs": { "type": "name", "properties": { "name": "urn:ogc:def:crs:OGC:1.3:CRS84" } },
"features": [
{ "type": "Feature", "properties": { "part": "direct", "crossing_id": "X04027", "area_ac": 3.6, "n_upstream": null }, "geometry": { "type": "MultiPolygon", "coordinates": [ [ [ [ -120.159731853960196, 39.078693703509778 ], [ -120.159754225739036, 39.078712266750308 ], [ -120.159731131684637, 39.078711703786659 ], [ -120.159731853960196, 39.078693703509778 ] ] ], [ [ [ -120.159731131684637, 39.078711703786659 ], [ -120.159658238050071, 39.078800016246426 ], [ -120.159954850052088, 39.078897336018841 ], [ -120.159924533604467, 39.079076775883607 ], [ -120.159757818425987, 39.079198837179675 ], [ -120.159318306094505, 39.079206140260865 ], [ -120.159290877480174, 39.079313578814912 ], [ -120.159105401118737, 39.079327074451172 ], [ -120.158915589703739, 39.079448571361603 ], [ -120.158758237862543, 39.079913199190763 ], [ -120.158266750935042, 39.080063373800826 ], [ -120.158193854032248, 39.080151685206481 ], [ -120.157941982952565, 39.080091488032075 ], [ -120.157866194473257, 39.080251800190297 ], [ -120.157470696186962, 39.080314223462963 ], [ -120.157254209778429, 39.079948584233094 ], [ -120.15737112763901, 39.079915401060326 ], [ -120.157525559761311, 39.080099347467225 ], [ -120.15762878027148, 39.07983159750777 ], [ -120.157843857520447, 39.079656665443487 ], [ -120.157781802491087, 39.079474972932772 ], [ -120.158062547298272, 39.079391731695281 ], [ -120.158255250593996, 39.079198235214463 ], [ -120.158464543488208, 39.079167303894913 ], [ -120.158657245076029, 39.078973806678867 ], [ -120.159731131684637, 39.078711703786659 ] ] ] ] } },
{ "type": "Feature", "properties": { "part": "upstream", "crossing_id": "X04027", "area_ac": 518.4, "n_upstream": 3.0 }, "geometry": { "type": "Polygon", "coordinates": [ [ [ -120.18541383493141, 39.063010646200524 ], [ -120.186035104736305, 39.063079704442984 ], [ -120.186247916099305, 39.062958717228746 ], [ -120.186525704607675, 39.06294740648125 ], [ -120.18711673662807, 39.063195908970172 ], [ -120.187624706754818, 39.063208169736228 ], [ -120.187691116323421, 39.063281844525441 ], [ -120.1880584056847, 39.063344762156774 ], [ -120.188797273575517, 39.063362589358512 ], [ -120.189067204876636, 39.063549281154977 ], [ -120.189438783150294, 39.063504189826709 ], [ -120.18947924788317, 39.063649309909636 ], [ -120.189350940559379, 39.063970539477531 ], [ -120.189572552837362, 39.064210118712957 ], [ -120.189454706343213, 39.065432501230788 ], [ -120.189045964007292, 39.066413632385611 ], [ -120.188958828625644, 39.066861980539741 ], [ -120.188621265117547, 39.06721419682367 ], [ -120.188422244161131, 39.067569754976866 ], [ -120.18801754562098, 39.067866295508161 ], [ -120.187724010195979, 39.06827362549857 ], [ -120.187511184662227, 39.068394614819276 ], [ -120.187507609882246, 39.06848461852195 ], [ -120.187195982741301, 39.068765384437413 ], [ -120.186511313936364, 39.069127232874251 ], [ -120.186175157830291, 39.069443439665498 ], [ -120.185709946878845, 39.070098870315469 ], [ -120.185331176525764, 39.070323955355256 ], [ -120.185134276535166, 39.070625504699414 ], [ -120.184803832640426, 39.070797701427779 ], [ -120.184337883817321, 39.071471126353636 ], [ -120.184373330709775, 39.071742252591484 ], [ -120.184231913583133, 39.071810907211599 ], [ -120.184154761853932, 39.072007240554008 ], [ -120.183941918995799, 39.072128222646477 ], [ -120.184161571795457, 39.072998393847534 ], [ -120.184474131688589, 39.073276216419487 ], [ -120.18449006598911, 39.073456781204264 ], [ -120.184602666882554, 39.073531573866454 ], [ -120.184571885853728, 39.07430560303586 ], [ -120.18430730626315, 39.075146054443778 ], [ -120.184238026119118, 39.075144380254621 ], [ -120.184040390908464, 39.07546392753202 ], [ -120.184070825616615, 39.075861058380468 ], [ -120.183791554065408, 39.07590836269307 ], [ -120.183808202896032, 39.07607092679757 ], [ -120.183534119929107, 39.076568805028629 ], [ -120.183129348174361, 39.076865325525183 ], [ -120.182909325120121, 39.077166311479751 ], [ -120.182369565163938, 39.077369475663033 ], [ -120.182009539126625, 39.077703110072498 ], [ -120.181823352512495, 39.077734642840362 ], [ -120.181490716695137, 39.077960830325516 ], [ -120.180364268312246, 39.078384024981581 ], [ -120.178361918025772, 39.079903112576019 ], [ -120.177509689131014, 39.080404991100302 ], [ -120.177003035995597, 39.080356680681177 ], [ -120.17592691133747, 39.080096369269185 ], [ -120.175629551695152, 39.080017089727889 ], [ -120.175496729338974, 39.079869726499268 ], [ -120.174850076681437, 39.079854048701776 ], [ -120.17434630434623, 39.079733724912678 ], [ -120.173769656294297, 39.079701720902342 ], [ -120.173291138314852, 39.07952795138025 ], [ -120.17280758998524, 39.079480183323668 ], [ -120.17214503923239, 39.079283925545326 ], [ -120.171693938309772, 39.079002707417835 ], [ -120.171304930510331, 39.07890317427178 ], [ -120.170945493031653, 39.078642196549595 ], [ -120.170466270161825, 39.078486416358515 ], [ -120.169867980379152, 39.078417831741326 ], [ -120.169803016148308, 39.078308146246258 ], [ -120.169618263176375, 39.07830365836903 ], [ -120.169554019201826, 39.078175972319229 ], [ -120.169188113359496, 39.078076993377891 ], [ -120.168100533960725, 39.078104618548117 ], [ -120.16702452177968, 39.078420801316611 ], [ -120.166190972527261, 39.078454584844685 ], [ -120.165766629993414, 39.078660478261412 ], [ -120.16560569168314, 39.078638545390774 ], [ -120.165160414931066, 39.078789873590857 ], [ -120.164515941095573, 39.078720137781175 ], [ -120.164315304845317, 39.078535075944075 ], [ -120.163418242557654, 39.07842315061383 ], [ -120.163169979371247, 39.078272963129592 ], [ -120.161718668705902, 39.07814752890328 ], [ -120.161344835116992, 39.078246529092397 ], [ -120.160963780999879, 39.078525531011294 ], [ -120.160615204661184, 39.078571090577505 ], [ -120.160043615523563, 39.07898958908298 ], [ -120.15992742254376, 39.079004774768059 ], [ -120.159887734418916, 39.078841646390309 ], [ -120.159658238050071, 39.078800016246426 ], [ -120.15977052551149, 39.078697365883635 ], [ -120.159379664384588, 39.07882926068261 ], [ -120.158915615348008, 39.078871999821374 ], [ -120.159006546784241, 39.07891025283228 ], [ -120.158515790012117, 39.079042428534002 ], [ -120.158322395588655, 39.078677354367983 ], [ -120.158676753838321, 39.078487799654155 ], [ -120.158815317609637, 39.078491178604324 ], [ -120.158913473285381, 39.078349429026915 ], [ -120.1590534816916, 39.078316807150969 ], [ -120.159013795889663, 39.078153678547366 ], [ -120.159229586898988, 39.077960743293282 ], [ -120.159235365950252, 39.07781674112038 ], [ -120.160641941306579, 39.076751935319123 ], [ -120.161991463761964, 39.075955990655636 ], [ -120.162222395805131, 39.075961615279589 ], [ -120.162857455188302, 39.075688794131345 ], [ -120.163203852230978, 39.075697228275523 ], [ -120.163371274413933, 39.075557161112314 ], [ -120.163816533808344, 39.075405839069646 ], [ -120.165101763345589, 39.074482167024421 ], [ -120.165245365412105, 39.074359535418786 ], [ -120.16525185225332, 39.074197532028542 ], [ -120.165267016642645, 39.074396097991617 ], [ -120.165274944946859, 39.074198093844743 ], [ -120.165275665697905, 39.074180093467319 ], [ -120.165285919503745, 39.074188601137791 ], [ -120.165298889430758, 39.074177382482652 ], [ -120.165299479130809, 39.074162654900796 ], [ -120.165307868608593, 39.07416961572045 ], [ -120.165801720337996, 39.073742442607021 ], [ -120.1659871813644, 39.073728935704182 ], [ -120.166122854608844, 39.073804307193278 ], [ -120.166219547946966, 39.073698551361304 ], [ -120.16647140472972, 39.073758730107123 ], [ -120.16717138483088, 39.073595571119554 ], [ -120.168376517230556, 39.07351675680043 ], [ -120.168643492905403, 39.073198921849155 ], [ -120.168949452952631, 39.073062212713978 ], [ -120.169689129591191, 39.073062164251851 ], [ -120.170531966996094, 39.072794347226797 ], [ -120.170957699026246, 39.072552433509543 ], [ -120.171142437215508, 39.07255691871454 ], [ -120.17135817851505, 39.072363958969206 ], [ -120.171661972805282, 39.07228124380562 ], [ -120.171876273819038, 39.072124283979704 ], [ -120.172273872896355, 39.072007808061386 ], [ -120.173081285300213, 39.071468843385432 ], [ -120.173807914060831, 39.071216200705436 ], [ -120.174662207769401, 39.070660343865413 ], [ -120.174965273087537, 39.070595620188001 ], [ -120.176053337580868, 39.069973348494806 ], [ -120.176302319573807, 39.070105508071265 ], [ -120.176681833399996, 39.0698624528385 ], [ -120.177873132499883, 39.069548970412463 ], [ -120.178088129159093, 39.069373997687315 ], [ -120.178438803593011, 39.069274381875339 ], [ -120.179272098590914, 39.068663927885019 ], [ -120.179505878296922, 39.068597514953936 ], [ -120.179935139898888, 39.068265563097455 ], [ -120.180107529731401, 39.067999465465036 ], [ -120.180308743236139, 39.067589921231402 ], [ -120.180398084389708, 39.067087579743593 ], [ -120.180540211927635, 39.067000928883168 ], [ -120.180701846514935, 39.067004839707472 ], [ -120.180732103567507, 39.066825391976302 ], [ -120.180621667219839, 39.06669659412087 ], [ -120.180695955377971, 39.066572265672846 ], [ -120.180615776484814, 39.066264020080972 ], [ -120.180667690412804, 39.066121132303032 ], [ -120.180576045599764, 39.066100896948434 ], [ -120.1806496165119, 39.065994569140088 ], [ -120.180560838496504, 39.065902331214687 ], [ -120.180591811907476, 39.065704882844223 ], [ -120.180341402926004, 39.065608733903098 ], [ -120.180212179324059, 39.06537137317823 ], [ -120.179651414644837, 39.064943388521137 ], [ -120.179476014714083, 39.0647049093687 ], [ -120.179400144278659, 39.064288659358112 ], [ -120.179113600240015, 39.063939381440257 ], [ -120.178907944696377, 39.063880348831397 ], [ -120.178710177302023, 39.063623309065697 ], [ -120.178829210077453, 39.063536101039674 ], [ -120.179128656545146, 39.063561368313948 ], [ -120.179596181487369, 39.063428541208594 ], [ -120.18002182625581, 39.063186590795709 ], [ -120.180088944337527, 39.063242268987452 ], [ -120.180320555215033, 39.063229855611141 ], [ -120.180809015803078, 39.063151584117961 ], [ -120.181068014484936, 39.063031723907834 ], [ -120.181666905729429, 39.063082246085877 ], [ -120.18201826027817, 39.062964617397945 ], [ -120.18222463229381, 39.063005643844107 ], [ -120.18242527568178, 39.063190675359508 ], [ -120.182563812388963, 39.063194024996612 ], [ -120.183363887494423, 39.062834988616771 ], [ -120.184763753005186, 39.06308503258915 ], [ -120.18541383493141, 39.063010646200524 ] ], [ [ -120.160909660290287, 39.078145836609309 ], [ -120.161150705838338, 39.077899459423186 ], [ -120.160902060491381, 39.078147122273883 ], [ -120.160909660290287, 39.078145836609309 ] ], [ [ -120.161283303886037, 39.077344135432412 ], [ -120.161240199589699, 39.077397138927999 ], [ -120.161227808235736, 39.077466691005739 ], [ -120.161283303886037, 39.077344135432412 ] ], [ [ -120.161725117016914, 39.07671011549867 ], [ -120.16163495954406, 39.076776129864662 ], [ -120.161602388083253, 39.076872323353349 ], [ -120.161725117016914, 39.07671011549867 ] ], [ [ -120.162766532864637, 39.076227117167804 ], [ -120.161896926076068, 39.076584314324826 ], [ -120.161814273686815, 39.076644833736204 ], [ -120.162766532864637, 39.076227117167804 ] ], [ [ -120.163266639944339, 39.07586091805176 ], [ -120.163256376301916, 39.075860668170613 ], [ -120.163195917715328, 39.07589523201603 ], [ -120.161888987741577, 39.076205745141202 ], [ -120.163207408972355, 39.07590428974305 ], [ -120.163266639944339, 39.07586091805176 ] ] ] } }
]
}
