{
"type": "FeatureCollection",
"name": "X04031",
"crs": { "type": "name", "properties": { "name": "urn:ogc:def:crs:OGC:1.3:CRS84" } },
"features": [
{ "type": "Feature", "properties": { "part": "direct", "crossing_id": "X04031", "area_ac": 2.0 }, "geometry": { "type": "Polygon", "coordinates": [ [ [ -120.162052762517149, 39.089416841574554 ], [ -120.162445421663719, 39.089426405701097 ], [ -120.16273775087032, 39.089631721748518 ], [ -120.162831585113082, 39.089597971134459 ], [ -120.162896547601164, 39.089707660316009 ], [ -120.163477598411461, 39.089631719152514 ], [ -120.163776425377975, 39.089675029991689 ], [ -120.163967700398032, 39.089517525431226 ], [ -120.164474406433044, 39.08956589460086 ], [ -120.164309115669568, 39.08965196096613 ], [ -120.164281689548261, 39.089759400657101 ], [ -120.164144545949156, 39.089720026769044 ], [ -120.163608247261536, 39.089833096536367 ], [ -120.163533181217019, 39.089975411934972 ], [ -120.163368610044628, 39.090043476582409 ], [ -120.162370351013124, 39.090145291940509 ], [ -120.162046986807596, 39.089560843812485 ], [ -120.162052762517149, 39.089416841574554 ] ] ] } }
]
}
