{
"type": "FeatureCollection",
"name": "X04018",
"crs": { "type": "name", "properties": { "name": "urn:ogc:def:crs:OGC:1.3:CRS84" } },
"features": [
{ "type": "Feature", "properties": { "part": "direct", "crossing_id": "X04018", "area_ac": 1.3, "n_upstream": null }, "geometry": { "type": "Polygon", "coordinates": [ [ [ -120.14571348805849, 39.073774599758785 ], [ -120.146006429862112, 39.073961954014997 ], [ -120.146372277884566, 39.074061003869858 ], [ -120.146390291329254, 39.074187569998152 ], [ -120.146509380483522, 39.074100397289016 ], [ -120.146671026496875, 39.074104355879072 ], [ -120.14659594566659, 39.074246660049759 ], [ -120.146265397211536, 39.074418743209485 ], [ -120.146189589599501, 39.074579047146699 ], [ -120.145868472646896, 39.07451712811018 ], [ -120.145237128254621, 39.074123286488799 ], [ -120.145639131463028, 39.073898903189445 ], [ -120.145595850030176, 39.073825771501099 ], [ -120.14571348805849, 39.073774599758785 ] ] ] } },
{ "type": "Feature", "properties": { "part": "upstream", "crossing_id": "X04018", "area_ac": 0.4, "n_upstream": 1.0 }, "geometry": { "type": "MultiPolygon", "coordinates": [ [ [ [ -120.147247726709253, 39.073559923504597 ], [ -120.146845730254569, 39.073784312630572 ], [ -120.147155358218171, 39.073557661963612 ], [ -120.147162611566927, 39.073377661001508 ], [ -120.147305515723744, 39.073273052670508 ], [ -120.147309867467825, 39.073165052074636 ], [ -120.14747368720046, 39.07311500916974 ], [ -120.147247726709253, 39.073559923504597 ] ] ], [ [ [ -120.146845730254569, 39.073784312630572 ], [ -120.146677555748113, 39.073942355097131 ], [ -120.146739577911376, 39.074124052436808 ], [ -120.146509380483522, 39.074100397289016 ], [ -120.146390291329254, 39.074187569998152 ], [ -120.146423541177953, 39.073936134390884 ], [ -120.146637175103336, 39.073797223406856 ], [ -120.146845730254569, 39.073784312630572 ] ] ] ] } }
]
}
