{
"type": "FeatureCollection",
"name": "X04059",
"crs": { "type": "name", "properties": { "name": "urn:ogc:def:crs:OGC:1.3:CRS84" } },
"features": [
{ "type": "Feature", "properties": { "part": "direct", "crossing_id": "X04059", "area_ac": 0.0 }, "geometry": { "type": "MultiPolygon", "coordinates": [ [ [ [ -120.16016960057118, 39.129983104468081 ], [ -120.160262043770416, 39.129985358408128 ], [ -120.16026059684836, 39.130021358661125 ], [ -120.16016960057118, 39.129983104468081 ] ] ], [ [ [ -120.160147936751159, 39.129946540721988 ], [ -120.160170324054718, 39.129965104342951 ], [ -120.160147213262405, 39.129964540846863 ], [ -120.160147936751159, 39.129946540721988 ] ] ] ] } }
]
}
