{
"type": "FeatureCollection",
"name": "X04037",
"crs": { "type": "name", "properties": { "name": "urn:ogc:def:crs:OGC:1.3:CRS84" } },
"features": [
{ "type": "Feature", "properties": { "part": "direct", "crossing_id": "X04037", "area_ac": 0.1 }, "geometry": { "type": "Polygon", "coordinates": [ [ [ -120.164223346959744, 39.096406572649165 ], [ -120.164429803147911, 39.09644763364949 ], [ -120.164608830683818, 39.09659613386988 ], [ -120.164494773817523, 39.096557322149934 ], [ -120.164191587861097, 39.096622013856702 ], [ -120.164128060850004, 39.096476324622287 ], [ -120.164223346959744, 39.096406572649165 ] ] ] } }
]
}
