{
"type": "FeatureCollection",
"name": "X04088",
"crs": { "type": "name", "properties": { "name": "urn:ogc:def:crs:OGC:1.3:CRS84" } },
"features": [
{ "type": "Feature", "properties": { "part": "direct", "crossing_id": "X04088", "area_ac": 34.2 }, "geometry": { "type": "Polygon", "coordinates": [ [ [ -120.061658510542941, 39.258525247641096 ], [ -120.063624087669467, 39.258628918142144 ], [ -120.063656111461384, 39.258972052261178 ], [ -120.064072080341091, 39.259000565789712 ], [ -120.064149657512331, 39.25936286632929 ], [ -120.064239257137217, 39.259437195627449 ], [ -120.064320451882622, 39.260268033390247 ], [ -120.064195108809528, 39.262715203704012 ], [ -120.063868429974846, 39.263878075283991 ], [ -120.063723500704853, 39.26401855515887 ], [ -120.063536023503175, 39.264067875333758 ], [ -120.062792127056369, 39.264121167607883 ], [ -120.062509030091618, 39.264240140841132 ], [ -120.061883151869935, 39.264242355285354 ], [ -120.061717321524412, 39.264328253388804 ], [ -120.061583669634587, 39.26419875823899 ], [ -120.061632721803761, 39.26247035153704 ], [ -120.061564769360842, 39.262432601204736 ], [ -120.061540013345379, 39.260251901533977 ], [ -120.061441553913653, 39.259835020635428 ], [ -120.061462611920831, 39.259331072293278 ], [ -120.0615559687337, 39.259315412766178 ], [ -120.061560480949353, 39.259207423819454 ], [ -120.061424745111339, 39.25857339570603 ], [ -120.061658510542941, 39.258525247641096 ] ] ] } }
]
}
