{
"type": "FeatureCollection",
"name": "X04086",
"crs": { "type": "name", "properties": { "name": "urn:ogc:def:crs:OGC:1.3:CRS84" } },
"features": [
{ "type": "Feature", "properties": { "part": "direct", "crossing_id": "X04086", "area_ac": 11.1 }, "geometry": { "type": "Polygon", "coordinates": [ [ [ -120.066836948973744, 39.258277540026796 ], [ -120.066827190338671, 39.258511517220107 ], [ -120.067250547705356, 39.258918566138597 ], [ -120.06742888706323, 39.259643747662786 ], [ -120.067423517512736, 39.260328264663478 ], [ -120.067579574830276, 39.260476335022126 ], [ -120.067585464325546, 39.260890878254202 ], [ -120.067653418783863, 39.26092862514249 ], [ -120.067409023819607, 39.261787289664966 ], [ -120.067116184685815, 39.262140251939336 ], [ -120.06710492423656, 39.26241022551109 ], [ -120.067234830139782, 39.262629705800883 ], [ -120.067021203482895, 39.262750441221883 ], [ -120.066822591769139, 39.262511211579223 ], [ -120.066824965634851, 39.261898687996599 ], [ -120.06671821432289, 39.261679790977702 ], [ -120.066772026131204, 39.261500975923532 ], [ -120.066679540288035, 39.260940112413671 ], [ -120.066127026496332, 39.260295581785599 ], [ -120.065877743494624, 39.259604643879157 ], [ -120.065887505665202, 39.259370666929023 ], [ -120.065801659053264, 39.259206347705884 ], [ -120.065618702130237, 39.259147682466349 ], [ -120.065453770289636, 39.258657059627559 ], [ -120.065461280492784, 39.258477077398332 ], [ -120.066302975538207, 39.258300112821971 ], [ -120.066836948973744, 39.258277540026796 ] ] ] } }
]
}
