{
"type": "FeatureCollection",
"name": "X04015",
"crs": { "type": "name", "properties": { "name": "urn:ogc:def:crs:OGC:1.3:CRS84" } },
"features": [
{ "type": "Feature", "properties": { "part": "direct", "crossing_id": "X04015", "area_ac": 0.4 }, "geometry": { "type": "Polygon", "coordinates": [ [ [ -120.139004257433982, 39.069916396380016 ], [ -120.139885893514275, 39.070406504320708 ], [ -120.139807895176403, 39.070620803791513 ], [ -120.139596440141688, 39.070705702212393 ], [ -120.139582075340201, 39.070489135521989 ], [ -120.139362074227734, 39.070213466975439 ], [ -120.139108801942456, 39.070189230850218 ], [ -120.139134801955834, 39.070117797873714 ], [ -120.138953711925197, 39.070023262310585 ], [ -120.139004257433982, 39.069916396380016 ] ] ] } }
]
}
