{
"type": "FeatureCollection",
"name": "X04094",
"crs": { "type": "name", "properties": { "name": "urn:ogc:def:crs:OGC:1.3:CRS84" } },
"features": [
{ "type": "Feature", "properties": { "part": "direct", "crossing_id": "X04094", "area_ac": 11.1 }, "geometry": { "type": "Polygon", "coordinates": [ [ [ -120.048925106784765, 39.257662486974404 ], [ -120.0505088979736, 39.258026952285817 ], [ -120.050434667362055, 39.258691703905441 ], [ -120.050255249088025, 39.259101549283507 ], [ -120.05001894867975, 39.261419765800277 ], [ -120.049683996260512, 39.262222042934852 ], [ -120.049670403419341, 39.262546006137356 ], [ -120.04927429226241, 39.263148542963712 ], [ -120.049106939644417, 39.263270418498195 ], [ -120.048722640060475, 39.264143509285752 ], [ -120.048866352684001, 39.26348052182302 ], [ -120.049381250820176, 39.262808930446127 ], [ -120.049494509118148, 39.261766810505783 ], [ -120.049432605911875, 39.261585069717754 ], [ -120.049270544146879, 39.261580960001105 ], [ -120.049334972793105, 39.261150183353365 ], [ -120.049289449668649, 39.259473437955954 ], [ -120.049114059687966, 39.259234767674712 ], [ -120.048956796806507, 39.258564146245398 ], [ -120.048644017115834, 39.258285956522144 ], [ -120.048544126239307, 39.257905063494974 ], [ -120.048601001499293, 39.257654266586535 ], [ -120.048925106784765, 39.257662486974404 ] ] ] } }
]
}
