{
"type": "FeatureCollection",
"name": "X04046",
"crs": { "type": "name", "properties": { "name": "urn:ogc:def:crs:OGC:1.3:CRS84" } },
"features": [
{ "type": "Feature", "properties": { "part": "direct", "crossing_id": "X04046", "area_ac": 0.0 }, "geometry": { "type": "MultiPolygon", "coordinates": [ [ [ [ -120.162763653588001, 39.104551132847931 ], [ -120.162786033968246, 39.104569695765349 ], [ -120.162762931418243, 39.104569133092177 ], [ -120.162763653588001, 39.104551132847931 ] ] ], [ [ [ -120.162766542260528, 39.104479131870193 ], [ -120.162832961222378, 39.104552820852668 ], [ -120.162741273219467, 39.104532569926555 ], [ -120.162766542260528, 39.104479131870193 ] ] ] ] } }
]
}
