{
"type": "FeatureCollection",
"name": "X04033",
"crs": { "type": "name", "properties": { "name": "urn:ogc:def:crs:OGC:1.3:CRS84" } },
"features": [
{ "type": "Feature", "properties": { "part": "direct", "crossing_id": "X04033", "area_ac": 1.5, "n_upstream": null }, "geometry": { "type": "Polygon", "coordinates": [ [ [ -120.164810774108147, 39.08982633094719 ], [ -120.164782627377519, 39.089951771100182 ], [ -120.164496797316716, 39.09016102936436 ], [ -120.164075263790721, 39.090294912230206 ], [ -120.163738904965385, 39.09061104581923 ], [ -120.163529579626513, 39.090641985399557 ], [ -120.163408316339257, 39.090783175936934 ], [ -120.16320043378775, 39.090778114310616 ], [ -120.16317300545677, 39.090885553643773 ], [ -120.163104432912405, 39.090865866040694 ], [ -120.163076282653719, 39.090991305634304 ], [ -120.163191051576462, 39.091012118123253 ], [ -120.163424919565514, 39.090945740989987 ], [ -120.163430692757686, 39.09080173861426 ], [ -120.16359310087347, 39.090787674849629 ], [ -120.163608982921488, 39.090968240191501 ], [ -120.163463899370754, 39.091126868713758 ], [ -120.163139081492275, 39.09115499559271 ], [ -120.162971620061697, 39.091295060710188 ], [ -120.162693719592809, 39.091306310965308 ], [ -120.162792608863711, 39.091146558476368 ], [ -120.162665569412553, 39.09085517878848 ], [ -120.162851797605256, 39.090823678309029 ], [ -120.162925422454805, 39.090717364031271 ], [ -120.163087108702015, 39.090721301259983 ], [ -120.163161454800758, 39.090596986521149 ], [ -120.163416976112515, 39.09056717236875 ], [ -120.163518027492429, 39.090353418249414 ], [ -120.16382190826242, 39.090270726960497 ], [ -120.163872433192509, 39.090163849704545 ], [ -120.164149607696601, 39.090170596771607 ], [ -120.164293966261454, 39.090029967555814 ], [ -120.16455020652441, 39.089982150504817 ], [ -120.164647647038436, 39.089858396822152 ], [ -120.164810774108147, 39.08982633094719 ] ] ] } },
{ "type": "Feature", "properties": { "part": "upstream", "crossing_id": "X04033", "area_ac": 0.3, "n_upstream": 1.0 }, "geometry": { "type": "Polygon", "coordinates": [ [ [ -120.164215294179527, 39.090262284992136 ], [ -120.163852951977674, 39.090649857944882 ], [ -120.163666003012437, 39.090699360361214 ], [ -120.163615477343882, 39.090806237493268 ], [ -120.163430692757686, 39.09080173861426 ], [ -120.163424919565514, 39.090945740989987 ], [ -120.163076282653719, 39.090991305634304 ], [ -120.16320043378775, 39.090778114310616 ], [ -120.163408316339257, 39.090783175936934 ], [ -120.163529579626513, 39.090641985399557 ], [ -120.163738904965385, 39.09061104581923 ], [ -120.164027624991618, 39.090329788348399 ], [ -120.164215294179527, 39.090262284992136 ] ] ] } }
]
}
