{
"type": "FeatureCollection",
"name": "X04138",
"crs": { "type": "name", "properties": { "name": "urn:ogc:def:crs:OGC:1.3:CRS84" } },
"features": [
{ "type": "Feature", "properties": { "part": "direct", "crossing_id": "X04138", "area_ac": 127.7, "n_upstream": null }, "geometry": { "type": "MultiPolygon", "coordinates": [ [ [ [ -120.005957286980816, 38.898127074426014 ], [ -120.005979562814673, 38.898145663921923 ], [ -120.005956530517821, 38.898145072793177 ], [ -120.005957286980816, 38.898127074426014 ] ] ], [ [ [ -120.005956530517821, 38.898145072793177 ], [ -120.005717885811421, 38.89833714324898 ], [ -120.005637440485643, 38.898605345101423 ], [ -120.005399549958398, 38.89877941644 ], [ -120.005311112491682, 38.899786141719822 ], [ -120.005186111284132, 38.900017163805636 ], [ -120.005111715535534, 38.900141378296013 ], [ -120.004947457997574, 38.900209232300995 ], [ -120.004763951302749, 38.900186502964665 ], [ -120.004502263348101, 38.900377979079536 ], [ -120.004408942984426, 38.900952151410166 ], [ -120.004538816135295, 38.901153681843411 ], [ -120.004559904848875, 38.901748809757834 ], [ -120.004912546459039, 38.902136237517794 ], [ -120.006703309416778, 38.905065045222621 ], [ -120.007021254860888, 38.905181309957307 ], [ -120.00749102201172, 38.904977148803447 ], [ -120.008001562625267, 38.904900155935472 ], [ -120.007960030415205, 38.904790984023535 ], [ -120.008491335774622, 38.904768574908132 ], [ -120.008580850584877, 38.904284390490211 ], [ -120.008881052890985, 38.90427407069555 ], [ -120.009023794053277, 38.904169624011807 ], [ -120.009159732457576, 38.904227162747581 ], [ -120.009280194621766, 38.904104126749623 ], [ -120.009579640471458, 38.904111803528004 ], [ -120.00957172034245, 38.903751244860878 ], [ -120.009878721019874, 38.903578936687779 ], [ -120.009887032795135, 38.903380954119648 ], [ -120.010301646179769, 38.903391580981122 ], [ -120.010354882983975, 38.903771318861899 ], [ -120.010146064034956, 38.903802002503461 ], [ -120.010134730586572, 38.904071978775079 ], [ -120.009875308256369, 38.904209471604993 ], [ -120.009833382624848, 38.904658841459856 ], [ -120.009642305398742, 38.90481610339188 ], [ -120.009627191010182, 38.90517607152227 ], [ -120.009301682805472, 38.905239797734936 ], [ -120.009342461519154, 38.905366967653606 ], [ -120.009178951093375, 38.905416828853568 ], [ -120.009166101616231, 38.905722801605023 ], [ -120.008874565242081, 38.906075681978486 ], [ -120.008522993272422, 38.906210808707364 ], [ -120.008085329219981, 38.906199584075708 ], [ -120.007849686392518, 38.906319664330006 ], [ -120.00749247124169, 38.906040234457102 ], [ -120.007441107366446, 38.906165041161053 ], [ -120.007567972766054, 38.906438562246954 ], [ -120.00747583273133, 38.906436198537492 ], [ -120.007494329941437, 38.90654477967194 ], [ -120.00730702422311, 38.906612045506868 ], [ -120.007417661592015, 38.906722990499468 ], [ -120.007408585633868, 38.906938970870961 ], [ -120.006992439834377, 38.906964329640559 ], [ -120.007098538705264, 38.907183265077592 ], [ -120.006843638130761, 38.907212760286832 ], [ -120.006761671778321, 38.907516959037849 ], [ -120.006849274199951, 38.907627313482223 ], [ -120.006774115955324, 38.907769527045467 ], [ -120.006566797171757, 38.907764207035612 ], [ -120.006650616804976, 38.907964553364579 ], [ -120.006507864375195, 38.908068996645724 ], [ -120.006643807800941, 38.908126538495942 ], [ -120.006640024997239, 38.908216530233211 ], [ -120.006524847180287, 38.908213574556932 ], [ -120.006468940161596, 38.908446370729251 ], [ -120.006188729165544, 38.908529268170845 ], [ -120.00620344131228, 38.908727841113325 ], [ -120.006318619926404, 38.908730797139285 ], [ -120.006406223012149, 38.90884115192862 ], [ -120.005984768693182, 38.908992494999808 ], [ -120.005884300957035, 38.909188111565719 ], [ -120.005627879124603, 38.909253600462634 ], [ -120.005505887835966, 38.909412628649072 ], [ -120.005369186112091, 38.909373083744839 ], [ -120.005085185340249, 38.909545969925375 ], [ -120.004784960825035, 38.90955627903643 ], [ -120.00431666991642, 38.909724431037525 ], [ -120.004266811895249, 38.909813239342704 ], [ -120.004352141363157, 38.90997759049624 ], [ -120.004208624285042, 38.910100028940136 ], [ -120.004150436132889, 38.910386818477846 ], [ -120.003915530167887, 38.910488891597957 ], [ -120.003933265251973, 38.91061547135466 ], [ -120.003468752577902, 38.910693628116832 ], [ -120.003209293358495, 38.910831104514415 ], [ -120.003037123323523, 38.910538397214019 ], [ -120.003110019624401, 38.910450181376063 ], [ -120.003005444107743, 38.910195246144276 ], [ -120.002775840453296, 38.9101713289785 ], [ -120.00167375346706, 38.908413302499397 ], [ -120.002122036439928, 38.908172575884414 ], [ -120.001894712953032, 38.908094662432717 ], [ -120.001922294876479, 38.907987264868822 ], [ -120.002086573455784, 38.907919416028186 ], [ -120.001705581385821, 38.907657375316518 ], [ -120.001757714180158, 38.907514573338453 ], [ -120.001604803495439, 38.907312447745454 ], [ -120.001769080748986, 38.90724459929595 ], [ -120.001609350340175, 38.907204458141678 ], [ -120.001612381556413, 38.907132465071157 ], [ -120.002244179079824, 38.906914472554391 ], [ -120.002270244652223, 38.906843071409284 ], [ -120.001883195608528, 38.906725017647261 ], [ -120.001912292310067, 38.906581623495278 ], [ -120.001738621388398, 38.906324911256462 ], [ -120.001871980733966, 38.90589591293309 ], [ -120.001673761353075, 38.905674605158211 ], [ -120.001393556640025, 38.905757491316855 ], [ -120.001242924031985, 38.905501370583735 ], [ -120.001292782374051, 38.905412563544985 ], [ -120.001572228040374, 38.905347675848013 ], [ -120.001694978026535, 38.905170653479509 ], [ -120.001471453350163, 38.905002748198378 ], [ -120.001500549945888, 38.904859354117555 ], [ -120.001321579688479, 38.904728629319003 ], [ -120.001349918635668, 38.904603233548556 ], [ -120.001240052005969, 38.904474284995899 ], [ -120.001448875753923, 38.904443617541574 ], [ -120.001433419255505, 38.904263042705715 ], [ -120.0016207235889, 38.9041957862608 ], [ -120.001626785337308, 38.904051800042787 ], [ -120.001791054843807, 38.903983951231261 ], [ -120.0018737948146, 38.903661758211982 ], [ -120.00194289679564, 38.903663534210878 ], [ -120.001901374618257, 38.903554360515862 ], [ -120.001995783284428, 38.903502733622517 ], [ -120.001977295010619, 38.903394151929064 ], [ -120.002150653402865, 38.903110323079858 ], [ -120.001951682720133, 38.902907014246324 ], [ -120.001943043412837, 38.902564454815533 ], [ -120.001682550610909, 38.902179386789143 ], [ -120.001410694856133, 38.902064292479146 ], [ -120.001332957930444, 38.901719956827471 ], [ -120.00048725040628, 38.900995521784118 ], [ -120.000209337249359, 38.901024411031521 ], [ -120.000100993891365, 38.900859465111289 ], [ -120.000383159129314, 38.900182046191858 ], [ -120.000660311076629, 38.900171154667206 ], [ -120.000875184651647, 38.899996501523702 ], [ -120.00101338138812, 38.900000054383284 ], [ -120.00104171845139, 38.899874658546935 ], [ -120.001182188117454, 38.899824216350694 ], [ -120.001233557494558, 38.899699412540201 ], [ -120.001805281212583, 38.899263663851464 ], [ -120.001904229135846, 38.899104046997863 ], [ -120.002113036769018, 38.899073377695338 ], [ -120.002685507408032, 38.898619625929399 ], [ -120.003228124111914, 38.898327264264523 ], [ -120.003637406197186, 38.89846390191434 ], [ -120.003982134561284, 38.898490773625547 ], [ -120.004474139708918, 38.898305212887372 ], [ -120.005003126469191, 38.898336812824105 ], [ -120.005311626481443, 38.898128519346734 ], [ -120.005956530517821, 38.898145072793177 ] ] ], [ [ [ -120.005981075728371, 38.898109667186773 ], [ -120.006003351563564, 38.898128256678227 ], [ -120.005980319271856, 38.898127665554391 ], [ -120.005981075728371, 38.898109667186773 ] ] ] ] } },
{ "type": "Feature", "properties": { "part": "upstream", "crossing_id": "X04138", "area_ac": 170.2, "n_upstream": 5.0 }, "geometry": { "type": "MultiPolygon", "coordinates": [ [ [ [ -120.010522622773948, 38.895379325341189 ], [ -120.010572461888685, 38.895290513464026 ], [ -120.010710650730772, 38.895294054488367 ], [ -120.010772948611773, 38.895457811034284 ], [ -120.010844308674834, 38.89540558608681 ], [ -120.011118421636397, 38.895466662727614 ], [ -120.011404996398085, 38.895780307269071 ], [ -120.011662874311199, 38.895678806473533 ], [ -120.012280954289395, 38.895784726516098 ], [ -120.012968524057797, 38.896432956911909 ], [ -120.013055369242636, 38.896561305203619 ], [ -120.013024036287575, 38.896758698859266 ], [ -120.013269087899175, 38.896963168903604 ], [ -120.013191691022129, 38.897159383247711 ], [ -120.013320828860145, 38.897378903206707 ], [ -120.013059173492977, 38.897570399924504 ], [ -120.01286133069803, 38.897889654676085 ], [ -120.012757125392739, 38.898175271248192 ], [ -120.012773755080104, 38.898878391474469 ], [ -120.012654817739616, 38.89896543481489 ], [ -120.012734872126657, 38.899255769671207 ], [ -120.013071307781459, 38.899480598046281 ], [ -120.01261632233863, 38.899883356941167 ], [ -120.012797567210384, 38.899960069407435 ], [ -120.012947477168154, 38.900234175071027 ], [ -120.01288556068846, 38.900610963463784 ], [ -120.013069071887273, 38.900633680158428 ], [ -120.012986776779272, 38.90149642738568 ], [ -120.013106499859219, 38.902490471807369 ], [ -120.012940734011551, 38.902594334077889 ], [ -120.012271996759821, 38.902595226148215 ], [ -120.012012583818674, 38.902732724139526 ], [ -120.01202957728502, 38.902877301753463 ], [ -120.011815475717086, 38.903033977671747 ], [ -120.011631203744145, 38.903029257229086 ], [ -120.011525096031036, 38.902810325477589 ], [ -120.011409171222127, 38.902825373405143 ], [ -120.01136687949105, 38.902734200957553 ], [ -120.011115017277305, 38.902691712466478 ], [ -120.0109870075038, 38.902994734958334 ], [ -120.01104855631371, 38.903176489895628 ], [ -120.010954909527541, 38.903210125965813 ], [ -120.01077516953842, 38.903097413561539 ], [ -120.010493473445848, 38.903216319300903 ], [ -120.010465151175964, 38.903341717976971 ], [ -120.010371503921874, 38.903375353558211 ], [ -120.009887032795135, 38.903380954119648 ], [ -120.009878721019874, 38.903578936687779 ], [ -120.00957172034245, 38.903751244860878 ], [ -120.009579640471458, 38.904111803528004 ], [ -120.009280194621766, 38.904104126749623 ], [ -120.009159732457576, 38.904227162747581 ], [ -120.009023794053277, 38.904169624011807 ], [ -120.008881052890985, 38.90427407069555 ], [ -120.008580850584877, 38.904284390490211 ], [ -120.008491335774622, 38.904768574908132 ], [ -120.007960030415205, 38.904790984023535 ], [ -120.008001562625267, 38.904900155935472 ], [ -120.00749102201172, 38.904977148803447 ], [ -120.006975185677788, 38.905180127927814 ], [ -120.006932142121983, 38.905106952433954 ], [ -120.00679242185565, 38.905139402909882 ], [ -120.006703309416778, 38.905065045222621 ], [ -120.004912546459039, 38.902136237517794 ], [ -120.004559904848875, 38.901748809757834 ], [ -120.004538816135295, 38.901153681843411 ], [ -120.004408942984426, 38.900952151410166 ], [ -120.004476959668764, 38.900431382638416 ], [ -120.004693338838308, 38.90022072544771 ], [ -120.005041103270855, 38.900175600998331 ], [ -120.005186111284132, 38.900017163805636 ], [ -120.005311112491682, 38.899786141719822 ], [ -120.005399549958398, 38.89877941644 ], [ -120.005637440485643, 38.898605345101423 ], [ -120.005717885811421, 38.89833714324898 ], [ -120.006004864464344, 38.898092259942175 ], [ -120.006213667809419, 38.89806158310266 ], [ -120.006453066602205, 38.897851513158557 ], [ -120.006591259887117, 38.897855059252997 ], [ -120.006645643400546, 38.897658259072514 ], [ -120.006855957702612, 38.897591584254968 ], [ -120.006956404393648, 38.897395965764098 ], [ -120.007560530850597, 38.897285339490679 ], [ -120.007540522957171, 38.897212755100917 ], [ -120.007990982306254, 38.89691800674504 ], [ -120.008424452486977, 38.896478678563547 ], [ -120.008409734449984, 38.896280105396279 ], [ -120.008739736049549, 38.896108389491317 ], [ -120.008725772844272, 38.895891817901678 ], [ -120.008840930987702, 38.895894770626001 ], [ -120.009107124249084, 38.895595292973454 ], [ -120.009645915373923, 38.895392891518611 ], [ -120.009625905738375, 38.895320307403523 ], [ -120.009861508190269, 38.895200221809063 ], [ -120.010060482217384, 38.89540351741482 ], [ -120.010522622773948, 38.895379325341189 ] ], [ [ -120.005722926529117, 38.901508401413814 ], [ -120.005833553911685, 38.901619347583434 ], [ -120.005779164442913, 38.901816147061353 ], [ -120.005845238517765, 38.901889914094113 ], [ -120.00619074115302, 38.901898781590866 ], [ -120.006383330296188, 38.901705528514434 ], [ -120.006359956978372, 38.901164395418533 ], [ -120.006232347930009, 38.900908871721263 ], [ -120.006211923040652, 38.901394827501136 ], [ -120.005722926529117, 38.901508401413814 ] ] ], [ [ [ -119.998911039863245, 38.903927910665182 ], [ -119.999257593066631, 38.904459340500082 ], [ -119.998979383533467, 38.903947686661922 ], [ -119.999168205744652, 38.903844437741064 ], [ -119.999128962812605, 38.903681268512656 ], [ -119.998904690570583, 38.903531356932476 ], [ -119.998891515758757, 38.903296787294124 ], [ -119.99904412719242, 38.902958376238225 ], [ -119.998964884423572, 38.902650035944134 ], [ -119.999132186124228, 38.902510197878335 ], [ -119.999025359941157, 38.902309254522677 ], [ -119.999096735352055, 38.902257037432165 ], [ -119.999032943162575, 38.902129272119502 ], [ -119.99908706686162, 38.901391936724956 ], [ -119.999186023998945, 38.901232322587227 ], [ -119.999633509826083, 38.901009602081899 ], [ -119.999638816767543, 38.900883614302032 ], [ -119.999928100355902, 38.90058475250629 ], [ -120.000253593700151, 38.900521051915653 ], [ -120.000097203808949, 38.900949456421472 ], [ -120.000209337249359, 38.901024411031521 ], [ -120.00048725040628, 38.900995521784118 ], [ -120.000885932053393, 38.901384145238239 ], [ -120.001090200084164, 38.901461467713204 ], [ -120.001332957930444, 38.901719956827471 ], [ -120.001410694856133, 38.902064292479146 ], [ -120.001682550610909, 38.902179386789143 ], [ -120.001943043412837, 38.902564454815533 ], [ -120.001909403284571, 38.902815838845136 ], [ -120.002059275708007, 38.903089956976729 ], [ -120.002150653402865, 38.903110323079858 ], [ -120.001977295010619, 38.903394151929064 ], [ -120.001995783284428, 38.903502733622517 ], [ -120.001901374618257, 38.903554360515862 ], [ -120.00194289679564, 38.903663534210878 ], [ -120.0018737948146, 38.903661758211982 ], [ -120.001791054843807, 38.903983951231261 ], [ -120.001626785337308, 38.904051800042787 ], [ -120.0016207235889, 38.9041957862608 ], [ -120.001433419255505, 38.904263042705715 ], [ -120.001448875753923, 38.904443617541574 ], [ -120.001240052005969, 38.904474284995899 ], [ -120.001349918635668, 38.904603233548556 ], [ -120.001321579688479, 38.904728629319003 ], [ -120.001500549945888, 38.904859354117555 ], [ -120.001471453350163, 38.905002748198378 ], [ -120.001694978026535, 38.905170653479509 ], [ -120.001572228040374, 38.905347675848013 ], [ -120.001245197584709, 38.905447375783289 ], [ -120.001262169366967, 38.905591954070339 ], [ -120.001393556640025, 38.905757491316855 ], [ -120.001673761353075, 38.905674605158211 ], [ -120.001871980733966, 38.90589591293309 ], [ -120.001738621388398, 38.906324911256462 ], [ -120.001912292310067, 38.906581623495278 ], [ -120.001883195608528, 38.906725017647261 ], [ -120.002270244652223, 38.906843071409284 ], [ -120.002244179079824, 38.906914472554391 ], [ -120.001612381556413, 38.907132465071157 ], [ -120.001609350340175, 38.907204458141678 ], [ -120.001769080748986, 38.90724459929595 ], [ -120.001604803495439, 38.907312447745454 ], [ -120.001757714180158, 38.907514573338453 ], [ -120.001705581385821, 38.907657375316518 ], [ -120.002086573455784, 38.907919416028186 ], [ -120.001922294876479, 38.907987264868822 ], [ -120.001894712953032, 38.908094662432717 ], [ -120.002122036439928, 38.908172575884414 ], [ -120.001721340135362, 38.908378490171557 ], [ -120.001629198086079, 38.908376121749555 ], [ -120.001500837244578, 38.908138591569433 ], [ -120.001542462766011, 38.908123645793573 ], [ -120.001479317539804, 38.908102002905267 ], [ -120.001241844272727, 38.907717525641523 ], [ -120.001312086986829, 38.907692304777449 ], [ -120.001220324817538, 38.907680936937538 ], [ -120.001155008648794, 38.90758916906465 ], [ -119.999403666624787, 38.904823452900608 ], [ -119.999339871871413, 38.904695687691742 ], [ -119.999354147419638, 38.904685244259788 ], [ -119.999317595914619, 38.904677096932552 ], [ -119.998884972226236, 38.903999310998913 ], [ -119.998911039863245, 38.903927910665182 ] ], [ [ -120.001641323312413, 38.908088149513461 ], [ -120.001599041633114, 38.907996973963748 ], [ -120.001594494644294, 38.908104963551843 ], [ -120.001641323312413, 38.908088149513461 ] ], [ [ -120.001556760055635, 38.907905798401785 ], [ -120.001403849190027, 38.907703672546255 ], [ -120.001346893335793, 38.907696616698139 ], [ -120.001580920944619, 38.90795789872449 ], [ -120.001556760055635, 38.907905798401785 ] ] ], [ [ [ -120.002982407980099, 38.910194654275863 ], [ -120.003004686573732, 38.910213244425556 ], [ -120.002981650440304, 38.910212652556787 ], [ -120.002982407980099, 38.910194654275863 ] ] ], [ [ [ -120.002821912685462, 38.910172512791689 ], [ -120.002914814713705, 38.910156882083747 ], [ -120.00300241396765, 38.91026723926889 ], [ -120.002884960521044, 38.910318274710995 ], [ -120.002821912685462, 38.910172512791689 ] ] ] ] } }
]
}
