{
"type": "FeatureCollection",
"name": "X04173",
"crs": { "type": "name", "properties": { "name": "urn:ogc:def:crs:OGC:1.3:CRS84" } },
"features": [
{ "type": "Feature", "properties": { "part": "direct", "crossing_id": "X04173", "area_ac": 8.3 }, "geometry": { "type": "MultiPolygon", "coordinates": [ [ [ [ -120.231298164752289, 39.075821658938189 ], [ -120.231320555268411, 39.075840209084191 ], [ -120.231297460733686, 39.075839660328114 ], [ -120.231298164752289, 39.075821658938189 ] ] ], [ [ [ -120.231296052694603, 39.075875663107752 ], [ -120.23126873398131, 39.075983122681521 ], [ -120.230621941992069, 39.076562349830517 ], [ -120.23045957446017, 39.076576508789216 ], [ -120.229769398290415, 39.077082627361243 ], [ -120.229558726159425, 39.077149690934178 ], [ -120.229342417237604, 39.077360764956055 ], [ -120.229333962546463, 39.077576781215775 ], [ -120.228978376190341, 39.077802560724059 ], [ -120.228817415001345, 39.077780714581607 ], [ -120.228579416251762, 39.077955235053011 ], [ -120.228116808079946, 39.077962249045477 ], [ -120.227313945682127, 39.078393599410497 ], [ -120.226707299003877, 39.077946727658798 ], [ -120.226896996399361, 39.077825115834685 ], [ -120.227000659320566, 39.077539293313315 ], [ -120.227162324366958, 39.07754314060616 ], [ -120.227471724952736, 39.077316267739491 ], [ -120.227597774575557, 39.077048995410443 ], [ -120.228335564161711, 39.076507986287567 ], [ -120.229006015181014, 39.076505914244883 ], [ -120.22911867036342, 39.076580665705755 ], [ -120.229951489932091, 39.076564431159454 ], [ -120.230325935904645, 39.076447205498702 ], [ -120.230636730235148, 39.076184320891642 ], [ -120.230845286107566, 39.076171259363981 ], [ -120.231296052694603, 39.075875663107752 ] ] ] ] } }
]
}
