{
"type": "FeatureCollection",
"name": "X04161",
"crs": { "type": "name", "properties": { "name": "urn:ogc:def:crs:OGC:1.3:CRS84" } },
"features": [
{ "type": "Feature", "properties": { "part": "direct", "crossing_id": "X04161", "area_ac": 4.4, "n_upstream": null }, "geometry": { "type": "Polygon", "coordinates": [ [ [ -120.225564123552331, 39.069955510751768 ], [ -120.225597612769988, 39.070280634165911 ], [ -120.225377082350462, 39.070599709278099 ], [ -120.225415508556949, 39.07079882348539 ], [ -120.22529369591301, 39.070958085931068 ], [ -120.22525931616552, 39.071245557039298 ], [ -120.22530954835193, 39.071733242148234 ], [ -120.225400509843581, 39.071771444321314 ], [ -120.225365424504886, 39.072076916738077 ], [ -120.225494813460287, 39.072314233055778 ], [ -120.225501682392206, 39.072728813093107 ], [ -120.225565319429649, 39.072874473177016 ], [ -120.225656987880086, 39.072894673888811 ], [ -120.224517646542267, 39.073065740451327 ], [ -120.224141092975131, 39.073236951661166 ], [ -120.223933956910599, 39.073213998884441 ], [ -120.223871734692324, 39.073032335456567 ], [ -120.223953719730346, 39.072709962859136 ], [ -120.22506116851504, 39.07158318255351 ], [ -120.225165720750326, 39.070684766830695 ], [ -120.225379903911531, 39.070527704014374 ], [ -120.225564123552331, 39.069955510751768 ] ] ] } },
{ "type": "Feature", "properties": { "part": "upstream", "crossing_id": "X04161", "area_ac": 14.1, "n_upstream": 1.0 }, "geometry": { "type": "Polygon", "coordinates": [ [ [ -120.227047320806861, 39.068675492943221 ], [ -120.226805119954307, 39.068958019044956 ], [ -120.226799480033762, 39.069102029784254 ], [ -120.226949141534206, 39.069411899512403 ], [ -120.226972595855486, 39.07058363537795 ], [ -120.227062851917495, 39.070639837579087 ], [ -120.227124204940068, 39.071434094706106 ], [ -120.22724936920163, 39.071779417309124 ], [ -120.227207947121073, 39.072246902621657 ], [ -120.227433240692477, 39.072396408390198 ], [ -120.226843216282717, 39.072706693860901 ], [ -120.226356844082318, 39.07273115382273 ], [ -120.226097174345625, 39.072869117402391 ], [ -120.225565319429649, 39.072874473177016 ], [ -120.22525931616552, 39.071245557039298 ], [ -120.22529369591301, 39.070958085931068 ], [ -120.225415508556949, 39.07079882348539 ], [ -120.225377082350462, 39.070599709278099 ], [ -120.225597612769988, 39.070280634165911 ], [ -120.225608192611347, 39.070010614356057 ], [ -120.225499783443993, 39.069827852017852 ], [ -120.225650328333501, 39.069525128465642 ], [ -120.226028268641599, 39.069317908772959 ], [ -120.226103892123547, 39.069157545949217 ], [ -120.226649819774664, 39.068792159896589 ], [ -120.226953542460308, 39.068709297533744 ], [ -120.227027048384841, 39.068602938036733 ], [ -120.227047320806861, 39.068675492943221 ] ] ] } }
]
}
