{
"type": "FeatureCollection",
"name": "X04147",
"crs": { "type": "name", "properties": { "name": "urn:ogc:def:crs:OGC:1.3:CRS84" } },
"features": [
{ "type": "Feature", "properties": { "part": "direct", "crossing_id": "X04147", "area_ac": 137.0 }, "geometry": { "type": "Polygon", "coordinates": [ [ [ -120.200835487654416, 39.104355051730877 ], [ -120.200948154034805, 39.10442983066315 ], [ -120.201156795838457, 39.104416825601248 ], [ -120.201153946227421, 39.104488828960299 ], [ -120.201037004930811, 39.104522055244104 ], [ -120.201052271472065, 39.104720619547173 ], [ -120.201300709490681, 39.104870731986395 ], [ -120.201553422467981, 39.104912838864863 ], [ -120.201659679899819, 39.105149624767115 ], [ -120.201797588732134, 39.105170955379435 ], [ -120.201973870359524, 39.105391405011048 ], [ -120.201958913632836, 39.105769422835074 ], [ -120.201814593160748, 39.105910099982836 ], [ -120.20190202246738, 39.106038325683613 ], [ -120.201869659239847, 39.10627178173673 ], [ -120.202027825301116, 39.10636567048514 ], [ -120.201977344009819, 39.106472565722356 ], [ -120.20209143934116, 39.10651134199702 ], [ -120.2021486437622, 39.106819021112727 ], [ -120.202348034462659, 39.10704002521004 ], [ -120.203059279326709, 39.107183229713272 ], [ -120.203395163897994, 39.107461562998317 ], [ -120.2038934937097, 39.107725776577531 ], [ -120.20429371578264, 39.108131777260979 ], [ -120.204566700515741, 39.10824643606928 ], [ -120.205192658862416, 39.108207401477671 ], [ -120.205693846347017, 39.108399604179382 ], [ -120.206589950470885, 39.108547221403086 ], [ -120.207021119077837, 39.108755757379626 ], [ -120.207311528208876, 39.109014971294357 ], [ -120.207720307767559, 39.109204950019269 ], [ -120.207965932816862, 39.109427052931522 ], [ -120.208006456587796, 39.109572167909349 ], [ -120.210268339926273, 39.111446172371259 ], [ -120.210540637479696, 39.111578818890777 ], [ -120.211553033097346, 39.111711165104175 ], [ -120.21182107496756, 39.111951814621968 ], [ -120.212622686282515, 39.11215117818022 ], [ -120.212980319538474, 39.112466040698905 ], [ -120.213110441504796, 39.11268536950076 ], [ -120.213143881750938, 39.113010493045188 ], [ -120.21325657512223, 39.113085260940778 ], [ -120.21337960380383, 39.113484599485282 ], [ -120.213557360767823, 39.113669031361134 ], [ -120.213605396163231, 39.114210719546989 ], [ -120.214004291760205, 39.114652691809994 ], [ -120.214317556713269, 39.115507028333973 ], [ -120.214489455780836, 39.117601223425979 ], [ -120.21467401935837, 39.118200229645176 ], [ -120.215048416258512, 39.118677648578078 ], [ -120.213146449317847, 39.118812339602087 ], [ -120.213102362096436, 39.118757230937945 ], [ -120.212662596911457, 39.118764726608909 ], [ -120.212549185637357, 39.118707958867816 ], [ -120.211984649950281, 39.118946699586544 ], [ -120.211076327303971, 39.119105135034019 ], [ -120.211004161463791, 39.119175478977787 ], [ -120.210613451943857, 39.119112069601982 ], [ -120.209881433622897, 39.118319766104818 ], [ -120.209845165251622, 39.118066646063959 ], [ -120.209671671392115, 39.117774203017163 ], [ -120.209659222220367, 39.117503635534909 ], [ -120.209396142487435, 39.117136974255892 ], [ -120.209343164423018, 39.11672129216786 ], [ -120.209189229686459, 39.11651940675614 ], [ -120.209205208230699, 39.115528802128672 ], [ -120.209101043540613, 39.115238019214949 ], [ -120.20911525650753, 39.114878000630391 ], [ -120.20900185434337, 39.114821229729685 ], [ -120.209012514312803, 39.114551215797221 ], [ -120.20885716351566, 39.11438533194287 ], [ -120.208848270739097, 39.114024759728053 ], [ -120.208666261273663, 39.11394832664179 ], [ -120.208450122541862, 39.11356477013117 ], [ -120.207753020296167, 39.113061577692456 ], [ -120.207442331668233, 39.112729806814947 ], [ -120.207304406115256, 39.112708482315789 ], [ -120.206293084559761, 39.111963514387092 ], [ -120.205847330215562, 39.111538410284581 ], [ -120.205238419395556, 39.111145426170886 ], [ -120.205243400116629, 39.111019419996076 ], [ -120.20501732624686, 39.110887870277651 ], [ -120.205021595736611, 39.110779865000787 ], [ -120.20468426617019, 39.110537537492199 ], [ -120.204687112802631, 39.110465533990684 ], [ -120.204415542945469, 39.110314873440942 ], [ -120.20404339628675, 39.1097834213246 ], [ -120.203055255636926, 39.109038982256209 ], [ -120.202668171016541, 39.108885544156287 ], [ -120.201724841820891, 39.108178205974838 ], [ -120.201371862358329, 39.108331887981848 ], [ -120.201098882936634, 39.108217221860201 ], [ -120.201203413178817, 39.107913428214353 ], [ -120.201094303698198, 39.107748645214194 ], [ -120.201174303944768, 39.107480298092604 ], [ -120.201046365947306, 39.107206954984719 ], [ -120.201243310964259, 39.106905381641141 ], [ -120.201204939768544, 39.106706262311285 ], [ -120.201304480029123, 39.106528474253814 ], [ -120.200998124511415, 39.106088682993189 ], [ -120.200883318000081, 39.106067906521893 ], [ -120.200898993129954, 39.10567188823299 ], [ -120.200697473078435, 39.105504884402393 ], [ -120.200750805609587, 39.10532598642709 ], [ -120.200523333039271, 39.105230430494025 ], [ -120.200484964512611, 39.105031310983385 ], [ -120.200351332163109, 39.104901973885319 ], [ -120.20048466373683, 39.104454729267545 ], [ -120.200835487654416, 39.104355051730877 ] ] ] } }
]
}
