{
"type": "FeatureCollection",
"name": "X04177",
"crs": { "type": "name", "properties": { "name": "urn:ogc:def:crs:OGC:1.3:CRS84" } },
"features": [
{ "type": "Feature", "properties": { "part": "direct", "crossing_id": "X04177", "area_ac": 0.0 }, "geometry": { "type": "Polygon", "coordinates": [ [ [ -120.15875544816079, 39.113372257762627 ], [ -120.158912845319705, 39.113484203617489 ], [ -120.158816806772791, 39.113571950174027 ], [ -120.158775659858989, 39.113444821954104 ], [ -120.158638474559694, 39.113405440134457 ], [ -120.15875544816079, 39.113372257762627 ] ] ] } }
]
}
