{
"type": "FeatureCollection",
"name": "X04198",
"crs": { "type": "name", "properties": { "name": "urn:ogc:def:crs:OGC:1.3:CRS84" } },
"features": [
{ "type": "Feature", "properties": { "part": "direct", "crossing_id": "X04198", "area_ac": 3.9 }, "geometry": { "type": "Polygon", "coordinates": [ [ [ -120.125887496625552, 39.232761031362841 ], [ -120.126159343470121, 39.232911883659561 ], [ -120.126191669529746, 39.233255012791965 ], [ -120.12605242434357, 39.234963228709901 ], [ -120.125906207824755, 39.235139792054667 ], [ -120.125681360494511, 39.23610717925596 ], [ -120.125338954164874, 39.236549157358745 ], [ -120.125323516242815, 39.236927141548641 ], [ -120.12512879757368, 39.237156557962294 ], [ -120.125021159027952, 39.23695570754473 ], [ -120.125043215453516, 39.236415730267609 ], [ -120.125143147099223, 39.236238024774813 ], [ -120.125355126914627, 39.236153173889811 ], [ -120.125599071717602, 39.235852903192651 ], [ -120.125475639568734, 39.23547148901168 ], [ -120.125569706236135, 39.234302680649655 ], [ -120.125685067776516, 39.233746990000284 ], [ -120.125782053862864, 39.233641280739782 ], [ -120.125785367526746, 39.232992735639179 ], [ -120.125887496625552, 39.232761031362841 ] ] ] } }
]
}
