{
"type": "FeatureCollection",
"name": "X04114",
"crs": { "type": "name", "properties": { "name": "urn:ogc:def:crs:OGC:1.3:CRS84" } },
"features": [
{ "type": "Feature", "properties": { "part": "direct", "crossing_id": "X04114", "area_ac": 11.3, "n_upstream": null }, "geometry": { "type": "Polygon", "coordinates": [ [ [ -119.966487949877617, 38.944565735318037 ], [ -119.966426502656446, 38.944924487642766 ], [ -119.966263641046879, 38.944956285953992 ], [ -119.966423431767439, 38.944996477911303 ], [ -119.966450331972609, 38.945447616137251 ], [ -119.96662856455815, 38.945596392794791 ], [ -119.965885691922779, 38.945703189418026 ], [ -119.964554354909737, 38.946082945464283 ], [ -119.964366906468044, 38.94615013612357 ], [ -119.964363065083504, 38.946240123768277 ], [ -119.964203272962578, 38.946199928927847 ], [ -119.96144528643903, 38.947028973050564 ], [ -119.961154133613505, 38.946823193442555 ], [ -119.961257089062002, 38.946573631130825 ], [ -119.961350046154564, 38.946558035902697 ], [ -119.961331613466186, 38.946449450483918 ], [ -119.961425339408649, 38.946415857709809 ], [ -119.961459152589612, 38.94616449352354 ], [ -119.96164967935411, 38.946025317717478 ], [ -119.961657368907908, 38.945845342873021 ], [ -119.961776447433095, 38.945758357796848 ], [ -119.962156710006127, 38.946038527328433 ], [ -119.962324188311044, 38.94589874996143 ], [ -119.962741337106706, 38.945855563053577 ], [ -119.962862720329269, 38.945714584301804 ], [ -119.963285247577033, 38.945545412819897 ], [ -119.963417379908549, 38.945692993803945 ], [ -119.963739266340838, 38.945719392748067 ], [ -119.963782286266621, 38.945792582961978 ], [ -119.964156413547897, 38.945676200696774 ], [ -119.964479068547078, 38.945684600074976 ], [ -119.964311596251548, 38.945283854876813 ], [ -119.965028342907843, 38.944707932448701 ], [ -119.965309508769181, 38.944607144458487 ], [ -119.966323553646134, 38.944633528883806 ], [ -119.966487949877617, 38.944565735318037 ] ] ] } },
{ "type": "Feature", "properties": { "part": "upstream", "crossing_id": "X04114", "area_ac": 1256.5, "n_upstream": 16.0 }, "geometry": { "type": "Polygon", "coordinates": [ [ [ -119.964095623520137, 38.923314834002944 ], [ -119.964700804913207, 38.923726971873364 ], [ -119.965203073542071, 38.923848147598918 ], [ -119.965393548233706, 38.924249490439159 ], [ -119.965645452176304, 38.924292079546113 ], [ -119.965888148909542, 38.924550639579955 ], [ -119.966473379870706, 38.924890179120339 ], [ -119.966882763215679, 38.925453165335604 ], [ -119.967049412188771, 38.925445687586908 ], [ -119.967153108574749, 38.925718647900368 ], [ -119.967289049969963, 38.925776235577651 ], [ -119.967258339679233, 38.925955612862978 ], [ -119.967528689910765, 38.926106783148427 ], [ -119.967501847025034, 38.926736700639175 ], [ -119.967655462958547, 38.926920870550624 ], [ -119.967627820619029, 38.927028257349498 ], [ -119.96778757259986, 38.927068445966214 ], [ -119.967928920195789, 38.927540577895478 ], [ -119.968111714514748, 38.927581365125491 ], [ -119.968145527503154, 38.927870525451453 ], [ -119.96823539152922, 38.927926914249888 ], [ -119.968203915514053, 38.928124289434649 ], [ -119.968715462508172, 38.928570008142891 ], [ -119.968659412581175, 38.928802779910541 ], [ -119.96841826355714, 38.929048757967038 ], [ -119.968516602259555, 38.929447700887856 ], [ -119.968373751705116, 38.929552093181982 ], [ -119.968339207765268, 38.929821458927258 ], [ -119.968563491034928, 38.929971429474918 ], [ -119.968513573526778, 38.930060219875493 ], [ -119.968620348257062, 38.930261188596738 ], [ -119.968560462388737, 38.930583948431561 ], [ -119.968657269905123, 38.931018886553488 ], [ -119.968603517723309, 38.931197665186652 ], [ -119.968851614715149, 38.931330236619665 ], [ -119.968796329219131, 38.931545010640789 ], [ -119.968942290936283, 38.931909155761112 ], [ -119.968880104379608, 38.93228590862779 ], [ -119.969238818564918, 38.932529459659733 ], [ -119.96928038886054, 38.933719699899278 ], [ -119.969510819096385, 38.933725687894373 ], [ -119.969571515346217, 38.933925458399273 ], [ -119.96975356037288, 38.933984241363021 ], [ -119.969676765013233, 38.934162421696705 ], [ -119.96981042462393, 38.934274000053783 ], [ -119.970145581325554, 38.934348772288608 ], [ -119.970281252874642, 38.934052003998339 ], [ -119.971223723925533, 38.934130537008841 ], [ -119.97030506246702, 38.934034604959422 ], [ -119.970740476503167, 38.933018913490429 ], [ -119.971020055382311, 38.932954104740617 ], [ -119.971148294797302, 38.932651136411948 ], [ -119.971354146972956, 38.932692517560653 ], [ -119.971348783970228, 38.932818501369574 ], [ -119.971439422820197, 38.932856890319066 ], [ -119.97185112901532, 38.932939651292067 ], [ -119.972050854714865, 38.933125012829237 ], [ -119.972122281252851, 38.933072814515647 ], [ -119.972351178202359, 38.933114792223066 ], [ -119.97230049693944, 38.933221582006773 ], [ -119.972435690961618, 38.933297162057016 ], [ -119.972298199187989, 38.933275575110528 ], [ -119.972249049583027, 38.933346369460871 ], [ -119.972292071820632, 38.933419556717546 ], [ -119.97236349850121, 38.933367358263133 ], [ -119.972477181617734, 38.933406344659389 ], [ -119.972424202624296, 38.933567127599943 ], [ -119.972562460863742, 38.933570716716183 ], [ -119.972558631557959, 38.933660705238566 ], [ -119.972718401425979, 38.933700887761368 ], [ -119.9727990866987, 38.933973245916007 ], [ -119.972746107917558, 38.934134029001605 ], [ -119.972908176318953, 38.93412021818537 ], [ -119.972779175390812, 38.934441186283685 ], [ -119.972889031428153, 38.934570160881542 ], [ -119.972654002552915, 38.93467216566463 ], [ -119.972547276930754, 38.935011729265597 ], [ -119.972452805123751, 38.935063329548612 ], [ -119.972520403872409, 38.935101119566362 ], [ -119.97250968103927, 38.935353087348659 ], [ -119.972556534185372, 38.935336286051893 ], [ -119.972853803710706, 38.935398055330879 ], [ -119.972959832187641, 38.935617018429951 ], [ -119.973073519186343, 38.935656004387802 ], [ -119.973107354145995, 38.935945163886061 ], [ -119.973284047308738, 38.936129925594003 ], [ -119.973512189128741, 38.93618989913211 ], [ -119.973485316727206, 38.936279289670388 ], [ -119.973575961130194, 38.936317677160091 ], [ -119.973503766487454, 38.936387873963973 ], [ -119.973586754236052, 38.936606238571258 ], [ -119.973513027883357, 38.936712430789257 ], [ -119.973579863057608, 38.93676821797937 ], [ -119.973526883523661, 38.936929001340907 ], [ -119.973615997384485, 38.937003384251767 ], [ -119.97349847936573, 38.937054387281485 ], [ -119.973529253481914, 38.937415537527961 ], [ -119.973457823348966, 38.937467736537826 ], [ -119.973523127699679, 38.937559519196689 ], [ -119.973426355787083, 38.937665113264259 ], [ -119.973429561975891, 38.9386741808568 ], [ -119.973243672647541, 38.938705391578594 ], [ -119.973239077670598, 38.938813377778111 ], [ -119.973121556328877, 38.938864380284201 ], [ -119.973155392160336, 38.939153539700023 ], [ -119.97259695365716, 38.939265167160727 ], [ -119.972565482598313, 38.9394625434754 ], [ -119.972403401912572, 38.939476353316472 ], [ -119.972376526621005, 38.939565743450657 ], [ -119.972582399415714, 38.939607123213328 ], [ -119.972314348798108, 38.939942498182077 ], [ -119.972304389490446, 38.940176468027076 ], [ -119.972001737553754, 38.940240680337965 ], [ -119.971947985194191, 38.940419460327597 ], [ -119.972036335280166, 38.940511842190446 ], [ -119.971802817576517, 38.940577848992497 ], [ -119.971984881355183, 38.940636629164828 ], [ -119.971934959664949, 38.940725420762995 ], [ -119.971557038519734, 38.940931817960013 ], [ -119.971328883639615, 38.940871840095717 ], [ -119.971342732591239, 38.941088410541155 ], [ -119.971156069759019, 38.941137615292838 ], [ -119.971174516713305, 38.941246199785759 ], [ -119.97131125693349, 38.941285786293122 ], [ -119.971006300081413, 38.941403988754089 ], [ -119.971048558886707, 38.941495174180702 ], [ -119.97088494038158, 38.941544977015646 ], [ -119.970833483601766, 38.941669763352287 ], [ -119.970824285340171, 38.941885735157257 ], [ -119.970934914835794, 38.941996714121672 ], [ -119.970840432327975, 38.942048312627904 ], [ -119.970797456513395, 38.942515652865502 ], [ -119.970471747457722, 38.942579262090881 ], [ -119.970338117790419, 38.94300821187278 ], [ -119.970106123857008, 38.943038219588949 ], [ -119.97003315190787, 38.943126411398005 ], [ -119.969918688300609, 38.943105419738593 ], [ -119.969865694932636, 38.943266200766914 ], [ -119.970022417203054, 38.943378378253136 ], [ -119.969968657035238, 38.943557156953965 ], [ -119.970060075151494, 38.943577549799947 ], [ -119.970056241316172, 38.943667537959293 ], [ -119.970172239346908, 38.943652534252315 ], [ -119.97016687215681, 38.943778517686432 ], [ -119.970305149938227, 38.943782110262269 ], [ -119.970301316384749, 38.943872098438838 ], [ -119.970137691843135, 38.943921899968224 ], [ -119.969980968237977, 38.94380972259102 ], [ -119.969728225823943, 38.943785137743255 ], [ -119.969468581328883, 38.943922530946935 ], [ -119.969646816918669, 38.944071303120701 ], [ -119.969593822080626, 38.944232083949217 ], [ -119.969867311952399, 38.944311260871721 ], [ -119.9698466071806, 38.944797196764 ], [ -119.970008700333764, 38.944783390993265 ], [ -119.970120866291936, 38.944858375555377 ], [ -119.970064080189843, 38.945649672351223 ], [ -119.970362923182151, 38.94567545426542 ], [ -119.970379836151309, 38.945820034070771 ], [ -119.969758335373598, 38.94578586826367 ], [ -119.969710710142252, 38.94585444869481 ], [ -119.96972225090596, 38.946091228905594 ], [ -119.969653109806615, 38.946089432203969 ], [ -119.969612384366684, 38.945962251061331 ], [ -119.969700499832925, 38.94585062345282 ], [ -119.969574726855328, 38.945763079439658 ], [ -119.968015210953908, 38.945542366552914 ], [ -119.966629332245986, 38.9455783952262 ], [ -119.966450331972609, 38.945447616137251 ], [ -119.966423431767439, 38.944996477911303 ], [ -119.966263641046879, 38.944956285953992 ], [ -119.966426502656446, 38.944924487642766 ], [ -119.966515602475042, 38.944458349408492 ], [ -119.966532491391973, 38.944062402847393 ], [ -119.966488717572801, 38.944547737748579 ], [ -119.966323553646134, 38.944633528883806 ], [ -119.965192740432229, 38.944640140767135 ], [ -119.964814011447146, 38.94486451190739 ], [ -119.964310059719281, 38.945319849938421 ], [ -119.964333106388366, 38.945320449888619 ], [ -119.964479068547078, 38.945684600074976 ], [ -119.964156413547897, 38.945676200696774 ], [ -119.963782286266621, 38.945792582961978 ], [ -119.963739266340838, 38.945719392748067 ], [ -119.963417379908549, 38.945692993803945 ], [ -119.963285247577033, 38.945545412819897 ], [ -119.962862720329269, 38.945714584301804 ], [ -119.962741337106706, 38.945855563053577 ], [ -119.962324188311044, 38.94589874996143 ], [ -119.962156710006127, 38.946038527328433 ], [ -119.96180319589385, 38.945761855346923 ], [ -119.961657368907908, 38.945845342873021 ], [ -119.96164967935411, 38.946025317717478 ], [ -119.961459152589612, 38.94616449352354 ], [ -119.961354660437294, 38.946450051036734 ], [ -119.960686298554066, 38.94643263316047 ], [ -119.96065333994926, 38.945044425371101 ], [ -119.960685616537887, 38.944829056384521 ], [ -119.960922233766652, 38.944691082969051 ], [ -119.960903802033812, 38.944582497498118 ], [ -119.9611342656396, 38.944588503426409 ], [ -119.961420818739541, 38.944361742636104 ], [ -119.961287154994864, 38.944250154590698 ], [ -119.961291768993419, 38.944142169688291 ], [ -119.961490748747465, 38.94380502154371 ], [ -119.961393973180861, 38.943370079345669 ], [ -119.96160446257278, 38.943303493723661 ], [ -119.961632121857846, 38.94319610922809 ], [ -119.961607558867357, 38.942690978514477 ], [ -119.961302581355596, 38.942809154670613 ], [ -119.961181200484617, 38.942950131932292 ], [ -119.960939232121603, 38.942673563489002 ], [ -119.960701852787338, 38.942829534727949 ], [ -119.960540532307107, 38.94282533018665 ], [ -119.960499055714095, 38.942716143998965 ], [ -119.960199461097034, 38.942708334886419 ], [ -119.960186415428694, 38.942473767041498 ], [ -119.960283213307221, 38.942368185091233 ], [ -119.960082725971517, 38.942200801296408 ], [ -119.960200261482811, 38.942149812559435 ], [ -119.960211030481915, 38.941897847946926 ], [ -119.960400778412918, 38.941776671211045 ], [ -119.960393885265972, 38.941398123519654 ], [ -119.960489912155339, 38.941310538788741 ], [ -119.96050067980714, 38.941058574072173 ], [ -119.960373176578386, 38.940803005393846 ], [ -119.960024422914685, 38.940865984699855 ], [ -119.959891536941342, 38.940736397874439 ], [ -119.959903075738893, 38.940466435801049 ], [ -119.959697209337051, 38.940425033838395 ], [ -119.959770190695195, 38.940336848868363 ], [ -119.959641921966693, 38.940099276989216 ], [ -119.959504422044915, 38.940077674598953 ], [ -119.95962733945413, 38.939900704022769 ], [ -119.959491378589462, 38.939843106696166 ], [ -119.959509073112343, 38.939429164934509 ], [ -119.959632758565789, 38.939234196819882 ], [ -119.959595131564356, 38.939035023034883 ], [ -119.959734937278583, 38.939002632820795 ], [ -119.959785641751779, 38.938895849512193 ], [ -119.960473927806532, 38.938445335071535 ], [ -119.960520449815988, 38.938477143407638 ], [ -119.960532889771969, 38.938443144058589 ], [ -119.960520016530396, 38.938446536305328 ], [ -119.960384057578537, 38.938388940090178 ], [ -119.960241176906251, 38.938493321081879 ], [ -119.95999307304767, 38.93836073110019 ], [ -119.959873236246636, 38.938465712334789 ], [ -119.959689650675642, 38.938442908792432 ], [ -119.959695804625454, 38.938298928992253 ], [ -119.959468438878616, 38.938220931147065 ], [ -119.959541418068753, 38.938132746212482 ], [ -119.959456164774082, 38.937968365722057 ], [ -119.959552187857525, 38.93788078158056 ], [ -119.959688914359347, 38.937920381228444 ], [ -119.960049190689475, 38.937587440089985 ], [ -119.960078387752944, 38.937444060909442 ], [ -119.959877914052498, 38.937276677215024 ], [ -119.959953199140216, 38.937134499503351 ], [ -119.960485490183913, 38.937634847442119 ], [ -119.960603459536443, 38.937694394939356 ], [ -119.959285730209317, 38.936558554583392 ], [ -119.958933957104904, 38.93615299638914 ], [ -119.958817200372863, 38.936185986787081 ], [ -119.958813353338698, 38.936275974121877 ], [ -119.958585994998359, 38.936197974829206 ], [ -119.958440079814139, 38.935833818737017 ], [ -119.958232688589632, 38.935828409649204 ], [ -119.958216571035507, 38.935665831491313 ], [ -119.958032223750877, 38.935661023095754 ], [ -119.9580399196077, 38.935481048536161 ], [ -119.957794908867825, 38.93527646458292 ], [ -119.957919360532543, 38.935063500611719 ], [ -119.95883013043688, 38.934470196827228 ], [ -119.958299594560941, 38.934803155412183 ], [ -119.958333410520652, 38.934551791923276 ], [ -119.958501636874189, 38.934394021565389 ], [ -119.95848859654842, 38.93415945352772 ], [ -119.958851935365132, 38.933754525477624 ], [ -119.958945645215834, 38.933720934012648 ], [ -119.958955945849212, 38.933733920872328 ], [ -119.958907252750279, 38.933539757514275 ], [ -119.958721372137447, 38.933570945375834 ], [ -119.958702176200063, 38.933480357101942 ], [ -119.958267442586276, 38.93339694917853 ], [ -119.958185275193159, 38.93316057812325 ], [ -119.958281292891016, 38.933072994769645 ], [ -119.958242902374593, 38.932891818116822 ], [ -119.957927233057802, 38.932721426643226 ], [ -119.957706813200815, 38.932481448937416 ], [ -119.957497122968689, 38.932530031304857 ], [ -119.957340444365528, 38.932417838540147 ], [ -119.956058428552424, 38.933267243301671 ], [ -119.955791158565447, 38.933044056748713 ], [ -119.955865676554652, 38.932919879164096 ], [ -119.955751234281578, 38.9328988743816 ], [ -119.955780437397152, 38.932755496448614 ], [ -119.955398728613517, 38.932511304252479 ], [ -119.954639033778932, 38.933013977258888 ], [ -119.954523821394986, 38.933010968685544 ], [ -119.95446085731507, 38.93286518425365 ], [ -119.953734288362696, 38.932593962861723 ], [ -119.953285002568975, 38.932311963634653 ], [ -119.952800345233172, 38.932317318819564 ], [ -119.952655154245633, 38.932475682775468 ], [ -119.952447773917655, 38.932470263799786 ], [ -119.952367939791131, 38.932179897312984 ], [ -119.952235083546995, 38.932050302800135 ], [ -119.951715139176443, 38.931802486098363 ], [ -119.951553845026964, 38.93179827013325 ], [ -119.951465532666077, 38.931705874122152 ], [ -119.951075361460525, 38.931659639444689 ], [ -119.950743615811604, 38.93132665086177 ], [ -119.950344190335869, 38.931496381947873 ], [ -119.950183668543815, 38.931474166779154 ], [ -119.949844879754778, 38.931843674403261 ], [ -119.949545333852925, 38.931835839770557 ], [ -119.949524606766644, 38.931781245099927 ], [ -119.949003791796571, 38.932091936355249 ], [ -119.94879332598569, 38.932158500184329 ], [ -119.948563677143838, 38.932134474187791 ], [ -119.948474596523937, 38.932060073361015 ], [ -119.948548353957165, 38.931953898216584 ], [ -119.947587539491792, 38.931766597122405 ], [ -119.946649901052751, 38.931039369963408 ], [ -119.946442526068481, 38.931033940486344 ], [ -119.946059315262971, 38.930825713840406 ], [ -119.946164613315304, 38.930522173655802 ], [ -119.945961874915156, 38.93040875976137 ], [ -119.945920427047142, 38.9302995693741 ], [ -119.946030668399672, 38.930156118979752 ], [ -119.945947330936633, 38.930210186412808 ], [ -119.945250046994033, 38.929795539676135 ], [ -119.944963647365057, 38.929481740262958 ], [ -119.944698603134896, 38.929745059507759 ], [ -119.943833859924695, 38.929470157242449 ], [ -119.943703343724309, 38.929286562072569 ], [ -119.943497520587655, 38.929245133102114 ], [ -119.943539888396032, 38.928795806131937 ], [ -119.943405508636872, 38.928702196854509 ], [ -119.942003885788736, 38.928575366604782 ], [ -119.941442564819354, 38.92821831489541 ], [ -119.940752893332686, 38.92816419109181 ], [ -119.940127877982903, 38.927679339978468 ], [ -119.939766196877954, 38.92750769285454 ], [ -119.940478901303379, 38.927562426646261 ], [ -119.939559607543146, 38.927484254389974 ], [ -119.939380521138631, 38.927893956869397 ], [ -119.939000260517687, 38.928154239303545 ], [ -119.938592499014064, 38.927981379102206 ], [ -119.937896637368112, 38.928071215739664 ], [ -119.937345988926253, 38.928002704379082 ], [ -119.937019548755089, 38.928084218839835 ], [ -119.936680914237797, 38.927913167482657 ], [ -119.936127168919569, 38.927916638919712 ], [ -119.936016616404643, 38.927805629746821 ], [ -119.935671785613707, 38.927778552456466 ], [ -119.935573423721095, 38.927920107723246 ], [ -119.935198575906256, 38.928054397498656 ], [ -119.934852969149716, 38.928045314842365 ], [ -119.934751504198928, 38.928258857682017 ], [ -119.934464938645078, 38.928485552618149 ], [ -119.934213818545857, 38.928424899215877 ], [ -119.933927250660844, 38.928651592728109 ], [ -119.933719885096536, 38.928646140928798 ], [ -119.933699171116501, 38.928591543945075 ], [ -119.933028666954613, 38.928627965608747 ], [ -119.932759161900293, 38.92845872086081 ], [ -119.932229229807419, 38.92844478250894 ], [ -119.931436005954581, 38.928117617833216 ], [ -119.931396134058062, 38.927972429133206 ], [ -119.931472239895569, 38.927812274491821 ], [ -119.93158899349902, 38.927779311407612 ], [ -119.931695123112107, 38.927457789433582 ], [ -119.931629882727222, 38.927365985746214 ], [ -119.931469377726245, 38.927343745397714 ], [ -119.931414226805032, 38.927017980150076 ], [ -119.931482812508932, 38.926497278496171 ], [ -119.931294855930446, 38.926041896729771 ], [ -119.931540773486191, 38.925688017899965 ], [ -119.931680802553146, 38.925115143266233 ], [ -119.931994280956076, 38.92479907568768 ], [ -119.932110253472445, 38.924784108909968 ], [ -119.931951305810543, 38.924725875341835 ], [ -119.931889170923171, 38.924562083647231 ], [ -119.932204197438566, 38.924210021232895 ], [ -119.932485321630566, 38.924109310744498 ], [ -119.932615255373719, 38.923770396263919 ], [ -119.932580037023456, 38.923517225484453 ], [ -119.932156261676184, 38.923181764857986 ], [ -119.932515030712395, 38.922884904433495 ], [ -119.932248650810166, 38.922643671033249 ], [ -119.932213434064948, 38.922390500176313 ], [ -119.932566769104071, 38.922219618856559 ], [ -119.932798705444824, 38.922189683683463 ], [ -119.933028315011967, 38.922213739272152 ], [ -119.933319285706574, 38.922419582561972 ], [ -119.933551997896814, 38.922371648820331 ], [ -119.933719470913815, 38.922231912095334 ], [ -119.933642048969347, 38.921887544621576 ], [ -119.933809520614986, 38.921747807704079 ], [ -119.933912528346411, 38.921498271031155 ], [ -119.934603677879693, 38.921516438340795 ], [ -119.935023792989483, 38.921401356975345 ], [ -119.935224938029563, 38.921550782543129 ], [ -119.93635304346337, 38.921598438180403 ], [ -119.936668809169447, 38.921228364983556 ], [ -119.936830077143497, 38.92123260055579 ], [ -119.936952239230791, 38.921073651510959 ], [ -119.937466050034317, 38.920924986886313 ], [ -119.938126604087699, 38.920581979979339 ], [ -119.938379249110966, 38.920606629694198 ], [ -119.939473052936336, 38.919842567062219 ], [ -119.939501507675558, 38.9197171912312 ], [ -119.939893151259398, 38.919727467398921 ], [ -119.939971549405584, 38.919513314280763 ], [ -119.940158172780386, 38.919464157907939 ], [ -119.940154304471747, 38.919554143935358 ], [ -119.940466003707343, 38.919814565867178 ], [ -119.94074091156233, 38.919857811928587 ], [ -119.941189295573949, 38.92015785208892 ], [ -119.941735248970957, 38.920334326450408 ], [ -119.942520090934636, 38.920318868273419 ], [ -119.942755883270266, 38.920198926629972 ], [ -119.943795688520154, 38.920154107714147 ], [ -119.94396236415713, 38.920032352470386 ], [ -119.944240366095244, 38.920003601312239 ], [ -119.944247951776333, 38.920016518300137 ], [ -119.944381684817529, 38.919935233655657 ], [ -119.944392501235171, 38.919683271795577 ], [ -119.94458298520594, 38.91954412184122 ], [ -119.944909378257449, 38.919462584165835 ], [ -119.94519587395402, 38.919235860443543 ], [ -119.945495365658829, 38.919243704118259 ], [ -119.946612113118036, 38.918480173729094 ], [ -119.946615973122505, 38.918390187142172 ], [ -119.947023049887619, 38.918040492655329 ], [ -119.947147499497731, 38.917827539730233 ], [ -119.947358695153099, 38.917742979758977 ], [ -119.947765764523908, 38.917393282348932 ], [ -119.94782341405012, 38.917124527937737 ], [ -119.948125212363337, 38.917078372476482 ], [ -119.948250428422369, 38.916847420794333 ], [ -119.94945144416144, 38.916806768462507 ], [ -119.949499832093181, 38.916753981376537 ], [ -119.949751698008782, 38.916796603437035 ], [ -119.94996211662918, 38.916730035865349 ], [ -119.950085012952215, 38.916553074078273 ], [ -119.949978309751501, 38.9163520908943 ], [ -119.950009828667703, 38.916154722108509 ], [ -119.950391526265051, 38.91585840431798 ], [ -119.950979692683916, 38.916126026684516 ], [ -119.951898777641873, 38.916744627990887 ], [ -119.95201550461762, 38.916711643278632 ], [ -119.952377164600378, 38.916883251642439 ], [ -119.952458526678427, 38.917137623251712 ], [ -119.952641284186541, 38.917178433382013 ], [ -119.952747996157981, 38.917379414455148 ], [ -119.952954562243846, 38.917402828571788 ], [ -119.953065897498973, 38.917495824830439 ], [ -119.953563408957663, 38.918265557652198 ], [ -119.953786083979139, 38.918451549058837 ], [ -119.953991113340393, 38.918510956352385 ], [ -119.954702143615464, 38.919142120009894 ], [ -119.95471132201078, 38.919466675631121 ], [ -119.954826512509186, 38.919469683146026 ], [ -119.954749698451153, 38.919647853155219 ], [ -119.954815733073957, 38.919721647466524 ], [ -119.954782685219811, 38.919955012819308 ], [ -119.955039126476024, 38.920430164360241 ], [ -119.95541846230735, 38.920728347895846 ], [ -119.955987498269437, 38.920905358459073 ], [ -119.956136453766717, 38.92119752682067 ], [ -119.956376845598214, 38.920969572000949 ], [ -119.956842235046423, 38.920873610306813 ], [ -119.956989699992988, 38.920661247087814 ], [ -119.957081084712627, 38.920681648857965 ], [ -119.957077237611216, 38.920771636286908 ], [ -119.957307623352236, 38.92077764670254 ], [ -119.957396700299398, 38.920852040705086 ], [ -119.957514201265894, 38.9208010531814 ], [ -119.957872049645204, 38.921062633233873 ], [ -119.958219937372817, 38.921017653878948 ], [ -119.958839674887145, 38.921087867499146 ], [ -119.959854124270791, 38.92163682370866 ], [ -119.960269573010223, 38.922170161445088 ], [ -119.960740328935984, 38.92248872815896 ], [ -119.960710372758854, 38.922650105661326 ], [ -119.960916189082013, 38.922691503908574 ], [ -119.961118931845846, 38.922804891990005 ], [ -119.961181902257039, 38.922950673230666 ], [ -119.961409990760657, 38.923010668480217 ], [ -119.961469888420368, 38.923228439796844 ], [ -119.961585854075466, 38.923213443331697 ], [ -119.961783989593684, 38.92343481567957 ], [ -119.961919921985981, 38.923492409290851 ], [ -119.962502056059307, 38.92336343091754 ], [ -119.962594214164781, 38.92336583098939 ], [ -119.962703267227624, 38.923512811549152 ], [ -119.962865430592828, 38.923454665917482 ], [ -119.962845344901922, 38.923426423534437 ], [ -119.96327157588054, 38.923167258361566 ], [ -119.963776135443254, 38.922693919735615 ], [ -119.963842182388262, 38.922767709386918 ], [ -119.963790729195964, 38.92289249300898 ], [ -119.963926662358872, 38.922950084307764 ], [ -119.96396352827793, 38.92316725490506 ], [ -119.964054918529555, 38.923187651407929 ], [ -119.964095623520137, 38.923314834002944 ] ], [ [ -119.966256068510546, 38.925659282764421 ], [ -119.965899720767496, 38.925902259166882 ], [ -119.966328134268821, 38.925636475667623 ], [ -119.966256068510546, 38.925659282764421 ] ], [ [ -119.965435075271785, 38.925980258523722 ], [ -119.965443020540448, 38.92598978468547 ], [ -119.965456520468379, 38.925976658595104 ], [ -119.965435075271785, 38.925980258523722 ] ], [ [ -119.963525800738779, 38.9280206039966 ], [ -119.963848375552203, 38.928029001940132 ], [ -119.963849092268021, 38.928012204202126 ], [ -119.963525800738779, 38.9280206039966 ] ], [ [ -119.963502589143985, 38.92808406212594 ], [ -119.9635227287677, 38.928092594280294 ], [ -119.963525800738779, 38.9280206039966 ], [ -119.963502589143985, 38.92808406212594 ] ], [ [ -119.963403444790075, 38.927989460044856 ], [ -119.963386786404769, 38.928035002174283 ], [ -119.96348541123362, 38.928076784697538 ], [ -119.963403444790075, 38.927989460044856 ] ], [ [ -119.96325698872495, 38.927833429383 ], [ -119.963276189461766, 38.92792401715306 ], [ -119.963366594494801, 38.92795020073229 ], [ -119.96325698872495, 38.927833429383 ] ], [ [ -119.963063199, 38.927747664681633 ], [ -119.96302965133286, 38.927755439546807 ], [ -119.963032109279766, 38.927697847342962 ], [ -119.962972274942629, 38.927732748334186 ], [ -119.963072660850955, 38.927828629753407 ], [ -119.963063199, 38.927747664681633 ] ], [ [ -119.962669446295095, 38.927547866158939 ], [ -119.962351483657997, 38.927431479726067 ], [ -119.962698035487719, 38.927583910414093 ], [ -119.962669446295095, 38.927547866158939 ] ], [ [ -119.961721521540241, 38.926849018642756 ], [ -119.961682543488891, 38.926891545670443 ], [ -119.961710806207876, 38.926913903016448 ], [ -119.961721521540241, 38.926849018642756 ] ], [ [ -119.961764728288472, 38.926587388079398 ], [ -119.96165253354043, 38.926179499134172 ], [ -119.961638779812347, 38.926295826004512 ], [ -119.961749251288012, 38.926681106494605 ], [ -119.961764728288472, 38.926587388079398 ] ], [ [ -119.963260060470617, 38.9250588037917 ], [ -119.963061915999447, 38.924837433641848 ], [ -119.963256988555315, 38.925130794094237 ], [ -119.963260060470617, 38.9250588037917 ] ], [ [ -119.963135644055555, 38.924731247980972 ], [ -119.963130908061572, 38.924707101234731 ], [ -119.963061915999447, 38.924837433641848 ], [ -119.963135644055555, 38.924731247980972 ] ], [ [ -119.96305817843232, 38.927704703622808 ], [ -119.963055764699419, 38.927684049267505 ], [ -119.963042622800728, 38.927691714865624 ], [ -119.96305817843232, 38.927704703622808 ] ], [ [ -119.962092859307475, 38.939326787660569 ], [ -119.962092859307475, 38.939326787660576 ], [ -119.962092859307475, 38.939326787660569 ], [ -119.962092859307475, 38.939326787660569 ] ], [ [ -119.9620922351655, 38.939316309606667 ], [ -119.962052779769564, 38.938653932214066 ], [ -119.96205321387886, 38.939279258025245 ], [ -119.962083939081523, 38.93931609349363 ], [ -119.9620922351655, 38.939316309606667 ] ], [ [ -119.966533242718654, 38.943503878603551 ], [ -119.966418795252594, 38.944023410163375 ], [ -119.966421673634244, 38.944024397321243 ], [ -119.966533242718654, 38.943503878603551 ] ], [ [ -119.966411210876373, 38.942993923464975 ], [ -119.966366530666903, 38.943085138399738 ], [ -119.966381132136021, 38.943283711206824 ], [ -119.966411210876373, 38.942993923464975 ] ], [ [ -119.966489437153754, 38.942908160189347 ], [ -119.966649979275914, 38.942570002900652 ], [ -119.966619251505222, 38.942569203623101 ], [ -119.96645367622169, 38.942907229938946 ], [ -119.966489437153754, 38.942908160189347 ] ], [ [ -119.966733713072671, 38.942590198451946 ], [ -119.967034076512789, 38.942579993188687 ], [ -119.966711434820994, 38.942571601431531 ], [ -119.966733713072671, 38.942590198451946 ] ], [ [ -119.970633391418346, 38.937700701399024 ], [ -119.970555060632918, 38.937914877458297 ], [ -119.970558688454716, 38.937919976578364 ], [ -119.970633391418346, 38.937700701399024 ] ], [ [ -119.970547723977518, 38.937170422653629 ], [ -119.970492776336783, 38.93721057427851 ], [ -119.970513593648434, 38.93724598777262 ], [ -119.970547723977518, 38.937170422653629 ] ], [ [ -119.968856370350736, 38.944753444295216 ], [ -119.968925510101343, 38.944755241417369 ], [ -119.968963531812619, 38.94467515071716 ], [ -119.968856370350736, 38.944753444295216 ] ], [ [ -119.968995216502663, 38.944608408454151 ], [ -119.969026901129624, 38.944541666179504 ], [ -119.96886710970918, 38.944501477771745 ], [ -119.968995216502663, 38.944608408454151 ] ], [ [ -119.953598062901719, 38.924086740970395 ], [ -119.953177888882536, 38.924039119424613 ], [ -119.953359893900554, 38.924097926526386 ], [ -119.953598062901719, 38.924086740970395 ] ], [ [ -119.948809770938439, 38.926202052856773 ], [ -119.949359752598852, 38.926479783997571 ], [ -119.948818361708859, 38.92619535887733 ], [ -119.948809770938439, 38.926202052856773 ] ], [ [ -119.944230005344807, 38.92722835039779 ], [ -119.944319372213513, 38.927219109194304 ], [ -119.944140162420553, 38.927171943882762 ], [ -119.944230005344807, 38.92722835039779 ] ], [ [ -119.956584368202996, 38.927443287694807 ], [ -119.956124892843135, 38.927399961924948 ], [ -119.956600282239535, 38.92746106927688 ], [ -119.956584368202996, 38.927443287694807 ] ], [ [ -119.956653163312978, 38.927520155978712 ], [ -119.956605087656044, 38.927466438616996 ], [ -119.956553886678037, 38.927616661853463 ], [ -119.956653163312978, 38.927520155978712 ] ], [ [ -119.956595093253114, 38.927731848245614 ], [ -119.956716454943091, 38.927590874768519 ], [ -119.956534899781474, 38.927723520905388 ], [ -119.956595093253114, 38.927731848245614 ] ], [ [ -119.956419218582425, 38.927691223586464 ], [ -119.956434577364476, 38.927709641937163 ], [ -119.95652630071541, 38.927722331282865 ], [ -119.956527510324662, 38.927694049567876 ], [ -119.956419218582425, 38.927691223586464 ] ], [ [ -119.956055971597493, 38.927393462905137 ], [ -119.95614197563502, 38.927539847868111 ], [ -119.95607971974033, 38.927395702272307 ], [ -119.956055971597493, 38.927393462905137 ] ], [ [ -119.961021909342506, 38.939612738305883 ], [ -119.961023101656266, 38.93963078690809 ], [ -119.961254318141201, 38.939618794466455 ], [ -119.961021909342506, 38.939612738305883 ] ], [ [ -119.962871956685305, 38.938530932676017 ], [ -119.962892858311406, 38.938873828782121 ], [ -119.962906644279812, 38.938742943293107 ], [ -119.962892052649408, 38.938544370342328 ], [ -119.962871956685305, 38.938530932676017 ] ], [ [ -119.962839830870365, 38.938509450933466 ], [ -119.962811946662924, 38.938490805432338 ], [ -119.962775500287847, 38.938512960837905 ], [ -119.962839830870365, 38.938509450933466 ] ], [ [ -119.962882840113465, 38.938219814687081 ], [ -119.963000367030418, 38.938168822752644 ], [ -119.962987991519014, 38.938158490724227 ], [ -119.962882840113465, 38.938219814687081 ] ], [ [ -119.961951105514871, 38.937348721503078 ], [ -119.96156016725304, 38.937474529836301 ], [ -119.961622339219815, 38.93748429672052 ], [ -119.961951105514871, 38.937348721503078 ] ], [ [ -119.961433157074381, 38.937515402755899 ], [ -119.961225977053118, 38.937582074584093 ], [ -119.961364241653143, 38.937585677273489 ], [ -119.961433157074381, 38.937515402755899 ] ], [ [ -119.960937145371531, 38.937862828682007 ], [ -119.960946563832337, 38.937853673669977 ], [ -119.960803493976314, 38.937751240493476 ], [ -119.960711317407231, 38.937748838267382 ], [ -119.960937145371531, 38.937862828682007 ] ], [ [ -119.959471549342211, 38.934067641620025 ], [ -119.960860439832175, 38.935338374478995 ], [ -119.959484827510238, 38.934059308138998 ], [ -119.959471549342211, 38.934067641620025 ] ], [ [ -119.960872038653164, 38.933446834775253 ], [ -119.961051545547235, 38.933348812456337 ], [ -119.961037950542604, 38.9333430529365 ], [ -119.960872038653164, 38.933446834775253 ] ], [ [ -119.962021103032185, 38.933548843140763 ], [ -119.962038766204714, 38.933675426094439 ], [ -119.962057845533622, 38.933682409414246 ], [ -119.962021103032185, 38.933548843140763 ] ], [ [ -119.9623713455547, 38.933990387427308 ], [ -119.962508834915567, 38.934011986018461 ], [ -119.963499683262157, 38.934037788815651 ], [ -119.9623713455547, 38.933990387427308 ] ], [ [ -119.962269895503198, 38.930078925995581 ], [ -119.962263118675665, 38.930041724391749 ], [ -119.962216562236776, 38.929994126114536 ], [ -119.962269895503198, 38.930078925995581 ] ], [ [ -119.961910192365764, 38.929680898331874 ], [ -119.961865274725284, 38.929634974947483 ], [ -119.961839065333081, 38.929618526826467 ], [ -119.961910192365764, 38.929680898331874 ] ], [ [ -119.959170220806001, 38.92900619347742 ], [ -119.959148717775676, 38.928969597728099 ], [ -119.959007393549655, 38.929037983050243 ], [ -119.959170220806001, 38.92900619347742 ] ], [ [ -119.95780911849117, 38.930628311244362 ], [ -119.957627092975244, 38.930569510331168 ], [ -119.957616867917508, 38.930572621881936 ], [ -119.95780911849117, 38.930628311244362 ] ], [ [ -119.95805304612243, 38.927712092213625 ], [ -119.958049743214275, 38.927697728009207 ], [ -119.958032492964733, 38.927707504254542 ], [ -119.95805304612243, 38.927712092213625 ] ], [ [ -119.957863082247613, 38.927803514215455 ], [ -119.957836989810914, 38.927818301508879 ], [ -119.957876146811117, 38.927981480803318 ], [ -119.957863082247613, 38.927803514215455 ] ], [ [ -119.959318945357481, 38.933622562328971 ], [ -119.958983168969326, 38.933768243283403 ], [ -119.958989422932959, 38.933776128160844 ], [ -119.959318945357481, 38.933622562328971 ] ], [ [ -119.960603206591713, 38.933439828883543 ], [ -119.960365098272746, 38.933433623149035 ], [ -119.96052485965167, 38.933473822094925 ], [ -119.960603206591713, 38.933439828883543 ] ], [ [ -119.961292782303133, 38.938178394010812 ], [ -119.961213403644535, 38.938103781357043 ], [ -119.961265893803528, 38.938267781061292 ], [ -119.961292782303133, 38.938178394010812 ] ], [ [ -119.961115347882426, 38.938011612718164 ], [ -119.960994557944176, 38.938088014213939 ], [ -119.961137074501863, 38.938032034930202 ], [ -119.961115347882426, 38.938011612718164 ] ], [ [ -119.960759687884561, 38.938236572287352 ], [ -119.9608994915653, 38.938204180588286 ], [ -119.960920308804475, 38.938134977789694 ], [ -119.960759687884561, 38.938236572287352 ] ] ] } }
]
}
