{
"type": "FeatureCollection",
"name": "X04127",
"crs": { "type": "name", "properties": { "name": "urn:ogc:def:crs:OGC:1.3:CRS84" } },
"features": [
{ "type": "Feature", "properties": { "part": "direct", "crossing_id": "X04127", "area_ac": 0.0, "n_upstream": null }, "geometry": { "type": "Polygon", "coordinates": [ [ [ -119.964709539830196, 38.947312176789517 ], [ -119.964775608983217, 38.947385966595704 ], [ -119.964454482755428, 38.947341572677445 ], [ -119.964456019325382, 38.94730557762351 ], [ -119.964709539830196, 38.947312176789517 ] ] ] } },
{ "type": "Feature", "properties": { "part": "upstream", "crossing_id": "X04127", "area_ac": 0.1, "n_upstream": 2.0 }, "geometry": { "type": "Polygon", "coordinates": [ [ [ -119.964557427673412, 38.947092007036183 ], [ -119.964686492508122, 38.947311576888048 ], [ -119.964456019325382, 38.94730557762351 ], [ -119.96450365050039, 38.947270782457061 ], [ -119.964457555892594, 38.947269582569341 ], [ -119.964458324175197, 38.94725158504211 ], [ -119.964509604394024, 38.947266433059738 ], [ -119.964527466070521, 38.947253384865725 ], [ -119.964413766168107, 38.9472143900839 ], [ -119.964356148889408, 38.946942627304821 ], [ -119.964557427673412, 38.947092007036183 ] ] ] } }
]
}
