{
"type": "FeatureCollection",
"name": "X04166",
"crs": { "type": "name", "properties": { "name": "urn:ogc:def:crs:OGC:1.3:CRS84" } },
"features": [
{ "type": "Feature", "properties": { "part": "direct", "crossing_id": "X04166", "area_ac": 0.1 }, "geometry": { "type": "Polygon", "coordinates": [ [ [ -120.130953325724434, 39.231246435484046 ], [ -120.131063174415061, 39.231393282825316 ], [ -120.131056572572831, 39.231555277010671 ], [ -120.130743568029459, 39.231277299384665 ], [ -120.130953325724434, 39.231246435484046 ] ] ] } }
]
}
