{
"type": "FeatureCollection",
"name": "X04105",
"crs": { "type": "name", "properties": { "name": "urn:ogc:def:crs:OGC:1.3:CRS84" } },
"features": [
{ "type": "Feature", "properties": { "part": "direct", "crossing_id": "X04105", "area_ac": 1.8, "n_upstream": null }, "geometry": { "type": "Polygon", "coordinates": [ [ [ -120.032677639092299, 39.248366868441174 ], [ -120.032987274998135, 39.24871708833043 ], [ -120.033280597613327, 39.248904737782468 ], [ -120.033518520128865, 39.249307179178111 ], [ -120.033470707606284, 39.249341994440805 ], [ -120.033246065467821, 39.249174113587038 ], [ -120.033152717394472, 39.249189750682106 ], [ -120.032911376586242, 39.249417819179868 ], [ -120.03290150829018, 39.249651789572852 ], [ -120.032815750766645, 39.249487449154394 ], [ -120.032538741724863, 39.249462368246149 ], [ -120.032290954276945, 39.249293895327376 ], [ -120.032326249386372, 39.249006522238858 ], [ -120.032396450170722, 39.248990295491296 ], [ -120.03231449071626, 39.24873596618432 ], [ -120.032506500145232, 39.248578709198355 ], [ -120.032440854953848, 39.24848694972215 ], [ -120.032677639092299, 39.248366868441174 ] ] ] } },
{ "type": "Feature", "properties": { "part": "upstream", "crossing_id": "X04105", "area_ac": 20.9, "n_upstream": 2.0 }, "geometry": { "type": "MultiPolygon", "coordinates": [ [ [ [ -120.035161638190829, 39.251006627468733 ], [ -120.034954824298921, 39.250965323659436 ], [ -120.034717276044915, 39.251103407092366 ], [ -120.034508185987164, 39.251116095724029 ], [ -120.034387135002618, 39.251239130246255 ], [ -120.034248220017204, 39.251146761392889 ], [ -120.034428119631031, 39.251366294326601 ], [ -120.034166662126196, 39.251521784328183 ], [ -120.033942392946827, 39.251894426573926 ], [ -120.033918107844329, 39.252470353967432 ], [ -120.033728367162666, 39.252573619728068 ], [ -120.033693834032974, 39.252842995514989 ], [ -120.033778079306288, 39.253043330890591 ], [ -120.032623301069791, 39.253500348964607 ], [ -120.032112511625925, 39.253523356057038 ], [ -120.031876468140752, 39.253625437700386 ], [ -120.03184305065048, 39.254417336129052 ], [ -120.03152312454668, 39.254859601434738 ], [ -120.031413056711017, 39.255271185815083 ], [ -120.031830106154089, 39.255822336782956 ], [ -120.032256275345247, 39.256157514167718 ], [ -120.032041853523438, 39.256296181586507 ], [ -120.030994044966121, 39.256413586814965 ], [ -120.030915882626388, 39.25606926831567 ], [ -120.030431671027671, 39.255462348972436 ], [ -120.030331122982432, 39.255099441728412 ], [ -120.030528473894549, 39.254816205331998 ], [ -120.030740614447538, 39.254731533628487 ], [ -120.030699634995756, 39.254604368492387 ], [ -120.031711752272415, 39.254233816204533 ], [ -120.031905327640686, 39.252941525314945 ], [ -120.032135686082952, 39.252424905991333 ], [ -120.032830522297161, 39.251884096856621 ], [ -120.033194845038366, 39.251702732919505 ], [ -120.032692780112484, 39.251304038086552 ], [ -120.032610058188155, 39.251067706644932 ], [ -120.032496596572074, 39.251010761958767 ], [ -120.032575150798493, 39.25079656034697 ], [ -120.032466245099855, 39.250631629371753 ], [ -120.032606278183238, 39.250058654047571 ], [ -120.032748200052424, 39.249990204814338 ], [ -120.03275730983276, 39.249774232186915 ], [ -120.03290150829018, 39.249651789572852 ], [ -120.032911376586242, 39.249417819179868 ], [ -120.033152717394472, 39.249189750682106 ], [ -120.033584926386055, 39.249380940383766 ], [ -120.035161638190829, 39.251006627468733 ] ], [ [ -120.034024000726234, 39.251052359220203 ], [ -120.034080474110141, 39.25103522144115 ], [ -120.034049021812265, 39.25101430767532 ], [ -120.034024000726234, 39.251052359220203 ] ], [ [ -120.033587960986736, 39.251507033009133 ], [ -120.033850937446559, 39.251315548890553 ], [ -120.033353262523832, 39.251623870257255 ], [ -120.033587960986736, 39.251507033009133 ] ] ], [ [ [ -120.0309932851914, 39.256431584484957 ], [ -120.030946985988933, 39.256430403100751 ], [ -120.030947745775464, 39.256412405431526 ], [ -120.0309932851914, 39.256431584484957 ] ] ], [ [ [ -120.030946226201749, 39.256448400769926 ], [ -120.030923076595613, 39.256447810070561 ], [ -120.030923836388737, 39.256429812401755 ], [ -120.030946226201749, 39.256448400769926 ] ] ] ] } }
]
}
