{
"type": "FeatureCollection",
"name": "X04119",
"crs": { "type": "name", "properties": { "name": "urn:ogc:def:crs:OGC:1.3:CRS84" } },
"features": [
{ "type": "Feature", "properties": { "part": "direct", "crossing_id": "X04119", "area_ac": 0.2 }, "geometry": { "type": "Polygon", "coordinates": [ [ [ -119.964295460773755, 38.946202328830964 ], [ -119.964362296804538, 38.946258121297063 ], [ -119.964329260158934, 38.947032014967995 ], [ -119.964392255479254, 38.947177795072733 ], [ -119.964225546211395, 38.947299577904666 ], [ -119.964295460773755, 38.946202328830964 ] ] ] } }
]
}
