{
"type": "FeatureCollection",
"name": "X04137",
"crs": { "type": "name", "properties": { "name": "urn:ogc:def:crs:OGC:1.3:CRS84" } },
"features": [
{ "type": "Feature", "properties": { "part": "direct", "crossing_id": "X04137", "area_ac": 0.1 }, "geometry": { "type": "Polygon", "coordinates": [ [ [ -119.958529663020599, 38.948844802067448 ], [ -119.958689457272243, 38.94888500478217 ], [ -119.958639512872367, 38.948973789680927 ], [ -119.958774720198619, 38.949049386021393 ], [ -119.958583409792553, 38.949206553938318 ], [ -119.958491988423503, 38.949186151947487 ], [ -119.958564980939087, 38.949097968265889 ], [ -119.958529663020599, 38.948844802067448 ] ] ] } }
]
}
