{
"type": "FeatureCollection",
"name": "X04180",
"crs": { "type": "name", "properties": { "name": "urn:ogc:def:crs:OGC:1.3:CRS84" } },
"features": [
{ "type": "Feature", "properties": { "part": "direct", "crossing_id": "X04180", "area_ac": 17.7 }, "geometry": { "type": "MultiPolygon", "coordinates": [ [ [ [ -120.193726925518448, 39.094093979927457 ], [ -120.193749311243764, 39.094112537098262 ], [ -120.193726211489462, 39.094111980684751 ], [ -120.193726925518448, 39.094093979927457 ] ] ], [ [ [ -120.194073421812064, 39.094102325645125 ], [ -120.194547095698795, 39.094402020234845 ], [ -120.194982424655151, 39.094502592163423 ], [ -120.195342032409371, 39.094763501251826 ], [ -120.196139831227669, 39.095052973952569 ], [ -120.197303953869266, 39.096017919138944 ], [ -120.197500447987451, 39.09631093346669 ], [ -120.198427609876418, 39.096837736105904 ], [ -120.198559798467898, 39.097003076531571 ], [ -120.199559843639378, 39.097441533038968 ], [ -120.199734675070943, 39.09769798703779 ], [ -120.199746374643098, 39.097986555720958 ], [ -120.199858317491064, 39.098079336206879 ], [ -120.199960284941994, 39.098424128361223 ], [ -120.201057346811808, 39.099333371159517 ], [ -120.201187409241655, 39.099552711497715 ], [ -120.201545641247009, 39.099849604712375 ], [ -120.201976030247764, 39.100076158038235 ], [ -120.20151715326601, 39.100569639059586 ], [ -120.201216114832206, 39.100580425193932 ], [ -120.200854318880857, 39.100373535153267 ], [ -120.199066042570195, 39.098817045248424 ], [ -120.198488933305768, 39.098208575992949 ], [ -120.198192182940701, 39.098111349769674 ], [ -120.197951618380912, 39.097763222732326 ], [ -120.198197601333661, 39.097390761600536 ], [ -120.197927520860688, 39.097204086325149 ], [ -120.197908698276635, 39.097095525828962 ], [ -120.197439270872351, 39.096687839021165 ], [ -120.19707322648155, 39.096588943060148 ], [ -120.196802438764934, 39.096420266171513 ], [ -120.19620084073955, 39.095847232537096 ], [ -120.195994364435833, 39.095806227263346 ], [ -120.194865043628468, 39.095130394488947 ], [ -120.193811470419774, 39.094294213894422 ], [ -120.193749311243764, 39.094112537098262 ], [ -120.194073421812064, 39.094102325645125 ] ] ] ] } }
]
}
