{
"type": "FeatureCollection",
"name": "X04150",
"crs": { "type": "name", "properties": { "name": "urn:ogc:def:crs:OGC:1.3:CRS84" } },
"features": [
{ "type": "Feature", "properties": { "part": "direct", "crossing_id": "X04150", "area_ac": 4.5 }, "geometry": { "type": "Polygon", "coordinates": [ [ [ -120.156227330923357, 39.138841734121684 ], [ -120.156361664531246, 39.13895312056038 ], [ -120.156571861339302, 39.138904199463084 ], [ -120.156813793745968, 39.139216407405698 ], [ -120.157383668925249, 39.139428513313959 ], [ -120.157989698705563, 39.139317179490362 ], [ -120.158401402267344, 39.139435331850166 ], [ -120.158680216763386, 39.13940609887311 ], [ -120.158974904599447, 39.139557429835627 ], [ -120.159330972162948, 39.139908452340755 ], [ -120.158836888788684, 39.140112612842728 ], [ -120.158675814346765, 39.140090665500729 ], [ -120.158207739063016, 39.140223386857926 ], [ -120.157432001997449, 39.139952207294201 ], [ -120.157223251509535, 39.1399651297478 ], [ -120.157184992999106, 39.139766000816287 ], [ -120.156143495281114, 39.139200041641224 ], [ -120.155683395384401, 39.13913475258483 ], [ -120.155444284248873, 39.139327107670397 ], [ -120.155305601710992, 39.139323720328512 ], [ -120.155360528589441, 39.13910884920535 ], [ -120.156227330923357, 39.138841734121684 ] ] ] } }
]
}
