{
"type": "FeatureCollection",
"name": "X04159",
"crs": { "type": "name", "properties": { "name": "urn:ogc:def:crs:OGC:1.3:CRS84" } },
"features": [
{ "type": "Feature", "properties": { "part": "direct", "crossing_id": "X04159", "area_ac": 0.8 }, "geometry": { "type": "Polygon", "coordinates": [ [ [ -119.984555818059519, 38.869900586331255 ], [ -119.983704160829873, 38.870419106277716 ], [ -119.983625194667425, 38.870651295841796 ], [ -119.983784071385273, 38.870709456278782 ], [ -119.983678275308492, 38.871031041123338 ], [ -119.983405805576794, 38.870933908259076 ], [ -119.983458523113001, 38.870232578367315 ], [ -119.983625012191425, 38.870110758150879 ], [ -119.984043228410314, 38.870031480157472 ], [ -119.984133797030012, 38.870069856684367 ], [ -119.984555818059519, 38.869900586331255 ] ] ] } }
]
}
