{
"type": "FeatureCollection",
"name": "X04144",
"crs": { "type": "name", "properties": { "name": "urn:ogc:def:crs:OGC:1.3:CRS84" } },
"features": [
{ "type": "Feature", "properties": { "part": "direct", "crossing_id": "X04144", "area_ac": 13.2 }, "geometry": { "type": "Polygon", "coordinates": [ [ [ -120.19613911778778, 39.095070974744068 ], [ -120.196643040584988, 39.095191209313398 ], [ -120.197158654399132, 39.095600010409619 ], [ -120.197409192161572, 39.095696127467001 ], [ -120.197721188136526, 39.095991919904726 ], [ -120.198019355035626, 39.096053145376743 ], [ -120.198220129936644, 39.096238153688688 ], [ -120.198631662676448, 39.09635615781675 ], [ -120.199279486808834, 39.096930290430059 ], [ -120.199529319706741, 39.097044404018988 ], [ -120.200425265576371, 39.097192063232825 ], [ -120.201966538866813, 39.098562420577359 ], [ -120.20212824846638, 39.098566304316343 ], [ -120.202690833813506, 39.098958191487448 ], [ -120.202608003243185, 39.099298544071196 ], [ -120.201976030247764, 39.100076158038235 ], [ -120.201545641247009, 39.099849604712375 ], [ -120.201187409241655, 39.099552711497715 ], [ -120.201057346811808, 39.099333371159517 ], [ -120.199960284941994, 39.098424128361223 ], [ -120.199858317491064, 39.098079336206879 ], [ -120.199746374643098, 39.097986555720958 ], [ -120.199734675070943, 39.09769798703779 ], [ -120.199559843639378, 39.097441533038968 ], [ -120.198559798467898, 39.097003076531571 ], [ -120.198427609876418, 39.096837736105904 ], [ -120.197500447987451, 39.09631093346669 ], [ -120.197303953869266, 39.096017919138944 ], [ -120.19613911778778, 39.095070974744068 ] ] ] } }
]
}
