{
"type": "FeatureCollection",
"name": "X04134",
"crs": { "type": "name", "properties": { "name": "urn:ogc:def:crs:OGC:1.3:CRS84" } },
"features": [
{ "type": "Feature", "properties": { "part": "direct", "crossing_id": "X04134", "area_ac": 7.8 }, "geometry": { "type": "Polygon", "coordinates": [ [ [ -119.946085909660511, 38.944177365410816 ], [ -119.946555964787692, 38.944513988922225 ], [ -119.946808698457261, 38.944538623810587 ], [ -119.947236530013058, 38.944784051762028 ], [ -119.948287261809767, 38.945568287679734 ], [ -119.948540000052333, 38.945592918983593 ], [ -119.948891101620518, 38.945475983615914 ], [ -119.949320490437486, 38.945685409845083 ], [ -119.949414220391972, 38.945651826915594 ], [ -119.949526364626905, 38.945726830476836 ], [ -119.949668503437849, 38.945640461233182 ], [ -119.949872833887241, 38.945717875829047 ], [ -119.949609172994826, 38.946485730667796 ], [ -119.949114499288825, 38.946184510054422 ], [ -119.948134183617825, 38.946447137672109 ], [ -119.947709429060566, 38.946129723550179 ], [ -119.947806250132913, 38.946024152964654 ], [ -119.947529691667768, 38.946016913995024 ], [ -119.947486688756015, 38.945943718448689 ], [ -119.947075714890616, 38.945842872430305 ], [ -119.947059622195781, 38.945680293902178 ], [ -119.946502008631981, 38.945233274836831 ], [ -119.946053449637958, 38.944933248968802 ], [ -119.945734668336726, 38.944834812688349 ], [ -119.945771627335219, 38.944511466302465 ], [ -119.946009043299171, 38.944355527057468 ], [ -119.946085909660511, 38.944177365410816 ] ] ] } }
]
}
