{
"type": "FeatureCollection",
"name": "X04183",
"crs": { "type": "name", "properties": { "name": "urn:ogc:def:crs:OGC:1.3:CRS84" } },
"features": [
{ "type": "Feature", "properties": { "part": "direct", "crossing_id": "X04183", "area_ac": 0.1 }, "geometry": { "type": "Polygon", "coordinates": [ [ [ -119.94784214306938, 39.008040989601959 ], [ -119.947649093549686, 39.008234124978181 ], [ -119.947643674040236, 39.008360104378148 ], [ -119.947504499274316, 39.00837447700556 ], [ -119.947582216101665, 39.00817832162425 ], [ -119.94784214306938, 39.008040989601959 ] ] ] } }
]
}
