{
"type": "FeatureCollection",
"name": "X04115",
"crs": { "type": "name", "properties": { "name": "urn:ogc:def:crs:OGC:1.3:CRS84" } },
"features": [
{ "type": "Feature", "properties": { "part": "direct", "crossing_id": "X04115", "area_ac": 0.0 }, "geometry": { "type": "Polygon", "coordinates": [ [ [ -119.96424936686681, 38.946201128888482 ], [ -119.964293155886608, 38.946256321413983 ], [ -119.964287777792592, 38.946382304105143 ], [ -119.964178689362626, 38.946235323992262 ], [ -119.96424936686681, 38.946201128888482 ] ] ] } }
]
}
