{
"type": "FeatureCollection",
"name": "X04174",
"crs": { "type": "name", "properties": { "name": "urn:ogc:def:crs:OGC:1.3:CRS84" } },
"features": [
{ "type": "Feature", "properties": { "part": "direct", "crossing_id": "X04174", "area_ac": 56.3 }, "geometry": { "type": "Polygon", "coordinates": [ [ [ -120.192124122919338, 39.10942465850848 ], [ -120.192140794230554, 39.109587221587503 ], [ -120.192280137672938, 39.109572562298958 ], [ -120.192843464154606, 39.109946496917559 ], [ -120.193239820401629, 39.109865957986869 ], [ -120.193423230496762, 39.109906412839777 ], [ -120.193844119656319, 39.109790427062677 ], [ -120.194164730679034, 39.1098702215724 ], [ -120.194343855753786, 39.110018679294264 ], [ -120.194734497596855, 39.110082140997534 ], [ -120.194937443601489, 39.11021315354445 ], [ -120.195440756458993, 39.11035139763964 ], [ -120.195810437953298, 39.110360297350759 ], [ -120.196306615866945, 39.110678545230208 ], [ -120.196248270651537, 39.110983445676133 ], [ -120.196472186177047, 39.111169014078769 ], [ -120.196485298869675, 39.111421580604166 ], [ -120.196574865726845, 39.111495807854446 ], [ -120.196501266679391, 39.111602144138722 ], [ -120.19653891259361, 39.111819265230743 ], [ -120.196827866222208, 39.11211450573046 ], [ -120.196931262227096, 39.112423298505774 ], [ -120.197134932629822, 39.112536306817539 ], [ -120.197169282332965, 39.113420011532632 ], [ -120.197287937785063, 39.113927368274432 ], [ -120.19744254595696, 39.114111267305958 ], [ -120.197448526052739, 39.114543841273623 ], [ -120.197328981846766, 39.115225646008597 ], [ -120.197203456700521, 39.11547487662483 ], [ -120.197199443120496, 39.116159460869227 ], [ -120.197307841426294, 39.116342248196055 ], [ -120.197263323381719, 39.116881714494816 ], [ -120.197373150221978, 39.117028500303583 ], [ -120.197490384320119, 39.117571858320204 ], [ -120.197603067202394, 39.117646640979402 ], [ -120.197643844284983, 39.118368338495735 ], [ -120.197817288586563, 39.118660797682423 ], [ -120.197638848724225, 39.118494343692412 ], [ -120.197601910740744, 39.118259222180392 ], [ -120.197425613455593, 39.118038765685057 ], [ -120.196909842082889, 39.117629961131193 ], [ -120.196424323316961, 39.117041703367178 ], [ -120.19577492061434, 39.116503552172944 ], [ -120.195778490993646, 39.1164135485743 ], [ -120.195067634897711, 39.115675717088948 ], [ -120.195095741315569, 39.115550268509608 ], [ -120.194964957486661, 39.115348922223319 ], [ -120.194072840911971, 39.114516630275894 ], [ -120.194084986639609, 39.114210618375665 ], [ -120.193949921134788, 39.114117275302512 ], [ -120.193957780388402, 39.113919267611863 ], [ -120.193804610971739, 39.113699362897584 ], [ -120.193667403172455, 39.113660021628888 ], [ -120.19335797110125, 39.112715635229662 ], [ -120.192958504430351, 39.112291597888621 ], [ -120.192899193215553, 39.112037917878219 ], [ -120.19254665863977, 39.111596992198585 ], [ -120.192560239230389, 39.111254979173218 ], [ -120.192386833499057, 39.110962513283901 ], [ -120.192270592542329, 39.110977729504263 ], [ -120.191817067373648, 39.110750582394637 ], [ -120.191349020716146, 39.110306868495947 ], [ -120.191055091938395, 39.110137620088743 ], [ -120.191035562609969, 39.110047059620307 ], [ -120.191148941854166, 39.110103847257086 ], [ -120.191627484669695, 39.109700973122287 ], [ -120.192124122919338, 39.10942465850848 ] ] ] } }
]
}
