{
"type": "FeatureCollection",
"name": "X04104",
"crs": { "type": "name", "properties": { "name": "urn:ogc:def:crs:OGC:1.3:CRS84" } },
"features": [
{ "type": "Feature", "properties": { "part": "direct", "crossing_id": "X04104", "area_ac": 1.0 }, "geometry": { "type": "Polygon", "coordinates": [ [ [ -120.03361793957778, 39.249147559911925 ], [ -120.035018567762449, 39.250552554993305 ], [ -120.034985558240891, 39.250785935966441 ], [ -120.03358340854048, 39.249416935851805 ], [ -120.03354697994331, 39.249181785135399 ], [ -120.03361793957778, 39.249147559911925 ] ] ] } }
]
}
