{
"type": "FeatureCollection",
"name": "X04103",
"crs": { "type": "name", "properties": { "name": "urn:ogc:def:crs:OGC:1.3:CRS84" } },
"features": [
{ "type": "Feature", "properties": { "part": "direct", "crossing_id": "X04103", "area_ac": 0.1 }, "geometry": { "type": "Polygon", "coordinates": [ [ [ -120.035128238053559, 39.250699486049051 ], [ -120.035101297396011, 39.250788885025955 ], [ -120.035234874628316, 39.250918408041159 ], [ -120.035182510422516, 39.251061210522749 ], [ -120.035050450213916, 39.250895691936968 ], [ -120.035058794644939, 39.250697716646528 ], [ -120.035128238053559, 39.250699486049051 ] ] ] } }
]
}
