{
"type": "FeatureCollection",
"name": "X04133",
"crs": { "type": "name", "properties": { "name": "urn:ogc:def:crs:OGC:1.3:CRS84" } },
"features": [
{ "type": "Feature", "properties": { "part": "direct", "crossing_id": "X04133", "area_ac": 20.2 }, "geometry": { "type": "Polygon", "coordinates": [ [ [ -119.956022031970846, 38.942743507464741 ], [ -119.9579215395826, 38.945261473368269 ], [ -119.957983750329348, 38.945425253811763 ], [ -119.957905371940029, 38.945639419259528 ], [ -119.957790908696722, 38.945618415676016 ], [ -119.957787828997866, 38.945690405358789 ], [ -119.957919949753048, 38.945837992127927 ], [ -119.957935297509437, 38.946018567569965 ], [ -119.958048221701262, 38.94607556588543 ], [ -119.95792913830492, 38.946162546943825 ], [ -119.957960603849799, 38.946505700391107 ], [ -119.95758954327296, 38.946550072510682 ], [ -119.957211551426667, 38.94675642010106 ], [ -119.957137019637685, 38.946880597806476 ], [ -119.956812821007048, 38.946908172717997 ], [ -119.956654572847711, 38.946831972842226 ], [ -119.956346488421858, 38.947022124492179 ], [ -119.95603384504922, 38.946779736355822 ], [ -119.955686599688732, 38.946806706527553 ], [ -119.955521418294921, 38.946892481591327 ], [ -119.955414659486436, 38.946691501843468 ], [ -119.955233366524467, 38.946614698386689 ], [ -119.955263348714482, 38.946453323765162 ], [ -119.955330948106379, 38.946491123758761 ], [ -119.955404711975319, 38.946384944689946 ], [ -119.95524800774993, 38.946272748250671 ], [ -119.95546621620673, 38.946026200530788 ], [ -119.955475462424957, 38.945810231958092 ], [ -119.955257325142426, 38.945516256648489 ], [ -119.955119816519669, 38.945494648735561 ], [ -119.955215084922017, 38.94542506626388 ], [ -119.955154421813447, 38.945225289841865 ], [ -119.954411693379825, 38.944250966977251 ], [ -119.955823735642596, 38.943603171459877 ], [ -119.955786888256029, 38.943385999513765 ], [ -119.95560098056518, 38.94341718126703 ], [ -119.955619403954643, 38.943525767259104 ], [ -119.955390485915885, 38.94348375580465 ], [ -119.955378997117236, 38.943213193302078 ], [ -119.955571067674711, 38.943038032753734 ], [ -119.955846846294179, 38.943063249605558 ], [ -119.955804606554793, 38.942972059429735 ], [ -119.956022031970846, 38.942743507464741 ] ] ] } }
]
}
