{
"type": "FeatureCollection",
"name": "X04256",
"crs": { "type": "name", "properties": { "name": "urn:ogc:def:crs:OGC:1.3:CRS84" } },
"features": [
{ "type": "Feature", "properties": { "part": "direct", "crossing_id": "X04256", "area_ac": 3.1 }, "geometry": { "type": "MultiPolygon", "coordinates": [ [ [ [ -120.078165385905251, 38.929777720306852 ], [ -120.078409263131036, 38.930018062918563 ], [ -120.079050065353471, 38.930142220413444 ], [ -120.079580963718968, 38.930696053663354 ], [ -120.079807713894567, 38.930791820878184 ], [ -120.079632367377911, 38.931129771825162 ], [ -120.079673285302235, 38.931256922077388 ], [ -120.078955949350103, 38.931311030736929 ], [ -120.078821376835123, 38.93121757055583 ], [ -120.078512056092592, 38.930885499749799 ], [ -120.078452530215813, 38.930649775261557 ], [ -120.07821012895262, 38.930373433787636 ], [ -120.078165385905251, 38.929777720306852 ] ] ], [ [ [ -120.078120776010778, 38.929740566853532 ], [ -120.078143080952216, 38.929759143582118 ], [ -120.078120036931892, 38.92975856629733 ], [ -120.078120776010778, 38.929740566853532 ] ] ], [ [ [ -120.078098471080935, 38.929721990121081 ], [ -120.078120776010778, 38.929740566853532 ], [ -120.07809773199692, 38.92973998956456 ], [ -120.078098471080935, 38.929721990121081 ] ] ] ] } }
]
}
