{
"type": "FeatureCollection",
"name": "X04270",
"crs": { "type": "name", "properties": { "name": "urn:ogc:def:crs:OGC:1.3:CRS84" } },
"features": [
{ "type": "Feature", "properties": { "part": "direct", "crossing_id": "X04270", "area_ac": 2.4 }, "geometry": { "type": "MultiPolygon", "coordinates": [ [ [ [ -120.196512221669551, 39.097908773277922 ], [ -120.19750014150425, 39.098653260950513 ], [ -120.19744680688413, 39.09883215750105 ], [ -120.198602452061195, 39.100013101763111 ], [ -120.198613433875991, 39.100319671117752 ], [ -120.199104567555935, 39.10076391116349 ], [ -120.199140079262435, 39.101035034309234 ], [ -120.199587154715033, 39.101424159237091 ], [ -120.199583591083268, 39.10151416336118 ], [ -120.199874656320048, 39.101755393207654 ], [ -120.199959226763283, 39.101955623447274 ], [ -120.199449253949822, 39.10140282628501 ], [ -120.198888094655047, 39.100974921909661 ], [ -120.198803528299393, 39.100774691015623 ], [ -120.197823410265926, 39.099832204233763 ], [ -120.197808153051966, 39.099633639729582 ], [ -120.197545910561701, 39.099248954540244 ], [ -120.197466342257357, 39.098922717234352 ], [ -120.197110272452321, 39.098571809835931 ], [ -120.197114552134025, 39.098463805060966 ], [ -120.196575104191808, 39.098072448086796 ], [ -120.196512221669551, 39.097908773277922 ] ] ], [ [ [ -120.196467446431868, 39.097871659875508 ], [ -120.196489834044826, 39.097890216578662 ], [ -120.196466733003689, 39.097889660663348 ], [ -120.196467446431868, 39.097871659875508 ] ] ], [ [ [ -120.196445058830605, 39.097853103168411 ], [ -120.196467446431868, 39.097871659875508 ], [ -120.196444345397182, 39.097871103955981 ], [ -120.196445058830605, 39.097853103168411 ] ] ], [ [ [ -120.196377182648121, 39.097815433810254 ], [ -120.196445058830605, 39.097853103168411 ], [ -120.196398856774934, 39.097851991316332 ], [ -120.196377182648121, 39.097815433810254 ] ] ] ] } }
]
}
