{
"type": "FeatureCollection",
"name": "X04281",
"crs": { "type": "name", "properties": { "name": "urn:ogc:def:crs:OGC:1.3:CRS84" } },
"features": [
{ "type": "Feature", "properties": { "part": "direct", "crossing_id": "X04281", "area_ac": 13.9 }, "geometry": { "type": "MultiPolygon", "coordinates": [ [ [ [ -120.194652717613721, 39.098152298099642 ], [ -120.194943038299613, 39.098411540039507 ], [ -120.194981388631803, 39.098610660875153 ], [ -120.195250752303593, 39.098815343623585 ], [ -120.195465350194596, 39.099234922776489 ], [ -120.195622778361113, 39.09934682021111 ], [ -120.195768075005816, 39.099764730569852 ], [ -120.195925504805672, 39.099876627646765 ], [ -120.195910518715934, 39.100254643871821 ], [ -120.19624063417433, 39.100677002053885 ], [ -120.196554786254922, 39.100918795684848 ], [ -120.196640773222057, 39.101083026420731 ], [ -120.196825589933908, 39.101087473641989 ], [ -120.197027088466058, 39.101254483493328 ], [ -120.197426521983402, 39.101678506196677 ], [ -120.197744961788501, 39.101812292130234 ], [ -120.197941472443816, 39.102105306110879 ], [ -120.198350185989369, 39.102295315561506 ], [ -120.198416641359458, 39.102368985547315 ], [ -120.198363305664984, 39.102547882399421 ], [ -120.198677473282203, 39.102789670802146 ], [ -120.197721270662484, 39.103577481240286 ], [ -120.197225133950511, 39.103259240634152 ], [ -120.197141283422283, 39.103041007891306 ], [ -120.196829974085063, 39.102727212389929 ], [ -120.196625618020576, 39.102632205201353 ], [ -120.19660751001453, 39.102505643828472 ], [ -120.196447932829741, 39.102447749785824 ], [ -120.195711244068562, 39.101781372646116 ], [ -120.195528567017718, 39.101722921308493 ], [ -120.195148677915085, 39.101389452507568 ], [ -120.195008379353723, 39.100845536198747 ], [ -120.195175998238142, 39.099534261841534 ], [ -120.195152636735543, 39.098957125025095 ], [ -120.194652717613721, 39.098152298099642 ] ] ], [ [ [ -120.194607943248783, 39.098115184013473 ], [ -120.194630330425369, 39.098133741058533 ], [ -120.194607229341585, 39.098133184771903 ], [ -120.194607943248783, 39.098115184013473 ] ] ], [ [ [ -120.194585556083894, 39.098096626964505 ], [ -120.194607943248783, 39.098115184013473 ], [ -120.19458484217148, 39.09811462772263 ], [ -120.194585556083894, 39.098096626964505 ] ] ] ] } }
]
}
