{
"type": "FeatureCollection",
"name": "X04243",
"crs": { "type": "name", "properties": { "name": "urn:ogc:def:crs:OGC:1.3:CRS84" } },
"features": [
{ "type": "Feature", "properties": { "part": "direct", "crossing_id": "X04243", "area_ac": 0.7 }, "geometry": { "type": "Polygon", "coordinates": [ [ [ -120.17183580359486, 39.1113122173509 ], [ -120.17184169112339, 39.112321359619457 ], [ -120.171737028571201, 39.112625121821985 ], [ -120.171748549996067, 39.112337116066946 ], [ -120.171453162325179, 39.111627247886872 ], [ -120.171466124755909, 39.111303241435181 ], [ -120.17183580359486, 39.1113122173509 ] ] ] } }
]
}
