{
"type": "FeatureCollection",
"name": "X04266",
"crs": { "type": "name", "properties": { "name": "urn:ogc:def:crs:OGC:1.3:CRS84" } },
"features": [
{ "type": "Feature", "properties": { "part": "direct", "crossing_id": "X04266", "area_ac": 0.1 }, "geometry": { "type": "Polygon", "coordinates": [ [ [ -120.185767478442074, 39.111667644400505 ], [ -120.185918468778539, 39.111941560425372 ], [ -120.185915602897509, 39.112013562750242 ], [ -120.185734341965642, 39.111919094303609 ], [ -120.185696729429154, 39.111701970933559 ], [ -120.185767478442074, 39.111667644400505 ] ] ] } }
]
}
