{
"type": "FeatureCollection",
"name": "X04202",
"crs": { "type": "name", "properties": { "name": "urn:ogc:def:crs:OGC:1.3:CRS84" } },
"features": [
{ "type": "Feature", "properties": { "part": "direct", "crossing_id": "X04202", "area_ac": 0.1 }, "geometry": { "type": "Polygon", "coordinates": [ [ [ -120.058417551950825, 38.931497541927897 ], [ -120.058554328876824, 38.931537027279937 ], [ -120.058785514837268, 38.931524839641618 ], [ -120.058781794766986, 38.93161483527328 ], [ -120.058389298985659, 38.931622954567757 ], [ -120.058417551950825, 38.931497541927897 ] ] ] } }
]
}
