{
"type": "FeatureCollection",
"name": "X04236",
"crs": { "type": "name", "properties": { "name": "urn:ogc:def:crs:OGC:1.3:CRS84" } },
"features": [
{ "type": "Feature", "properties": { "part": "direct", "crossing_id": "X04236", "area_ac": 0.7 }, "geometry": { "type": "Polygon", "coordinates": [ [ [ -120.074408801912909, 38.884224143164666 ], [ -120.074545499722973, 38.884263606868615 ], [ -120.074563357507643, 38.884390180983594 ], [ -120.07404784645658, 38.884593470712495 ], [ -120.073810163311578, 38.884767690312252 ], [ -120.073727773045945, 38.885089948761653 ], [ -120.073447723768126, 38.885173014763225 ], [ -120.073474448666076, 38.885083594883383 ], [ -120.073685409168334, 38.88499879599938 ], [ -120.073646740524225, 38.88481764567252 ], [ -120.073768538482284, 38.884658538065864 ], [ -120.073737259668889, 38.884297392622997 ], [ -120.074408801912909, 38.884224143164666 ] ] ] } }
]
}
