{
"type": "FeatureCollection",
"name": "X04255",
"crs": { "type": "name", "properties": { "name": "urn:ogc:def:crs:OGC:1.3:CRS84" } },
"features": [
{ "type": "Feature", "properties": { "part": "direct", "crossing_id": "X04255", "area_ac": 0.3 }, "geometry": { "type": "Polygon", "coordinates": [ [ [ -120.196166986053711, 39.179467312670035 ], [ -120.196372273353106, 39.179544327104416 ], [ -120.196201076730617, 39.179774435571922 ], [ -120.195739952036021, 39.17972729481636 ], [ -120.195888022285715, 39.179496630080003 ], [ -120.196166986053711, 39.179467312670035 ] ] ] } }
]
}
