{
"type": "FeatureCollection",
"name": "X04282",
"crs": { "type": "name", "properties": { "name": "urn:ogc:def:crs:OGC:1.3:CRS84" } },
"features": [
{ "type": "Feature", "properties": { "part": "direct", "crossing_id": "X04282", "area_ac": 1.7 }, "geometry": { "type": "Polygon", "coordinates": [ [ [ -120.121896142447326, 39.232356100188177 ], [ -120.121986509089169, 39.23241238707665 ], [ -120.122334398792319, 39.232402971970565 ], [ -120.12232851243985, 39.232546965673592 ], [ -120.122460752415165, 39.232712391972925 ], [ -120.122266037214231, 39.232941803825618 ], [ -120.122227440893823, 39.233319214959998 ], [ -120.122356738706259, 39.233556638240351 ], [ -120.122342758085011, 39.233898623216881 ], [ -120.122497408789229, 39.234082621001384 ], [ -120.122554332948965, 39.234390324249546 ], [ -120.122688783940731, 39.234501752758128 ], [ -120.122689855437031, 39.235042301298293 ], [ -120.122824307835913, 39.235153729693572 ], [ -120.12279601310432, 39.235279151998704 ], [ -120.123014216088762, 39.235608859453443 ], [ -120.122589919606838, 39.23522000454804 ], [ -120.12262115782471, 39.235022585466915 ], [ -120.122468712332335, 39.234784590160757 ], [ -120.122502158035914, 39.234533173477359 ], [ -120.122390115723178, 39.234440316224614 ], [ -120.122401153106679, 39.234170328101214 ], [ -120.12213961250437, 39.233767478292265 ], [ -120.121982424865422, 39.233078930031553 ], [ -120.121892057403528, 39.233022643113891 ], [ -120.121896142447326, 39.232356100188177 ] ] ] } }
]
}
