{
"type": "FeatureCollection",
"name": "X04294",
"crs": { "type": "name", "properties": { "name": "urn:ogc:def:crs:OGC:1.3:CRS84" } },
"features": [
{ "type": "Feature", "properties": { "part": "direct", "crossing_id": "X04294", "area_ac": 0.4 }, "geometry": { "type": "Polygon", "coordinates": [ [ [ -120.050506484029086, 38.92812660376164 ], [ -120.05070193486506, 38.928419832126927 ], [ -120.050646150971914, 38.92865265380356 ], [ -120.050713042327104, 38.928708398886563 ], [ -120.050642420997846, 38.92874264882019 ], [ -120.050392676976855, 38.928646243865884 ], [ -120.050377840541302, 38.928447672123617 ], [ -120.050108785541056, 38.928260688875795 ], [ -120.050506484029086, 38.92812660376164 ] ] ] } }
]
}
