{
"type": "FeatureCollection",
"name": "X04208",
"crs": { "type": "name", "properties": { "name": "urn:ogc:def:crs:OGC:1.3:CRS84" } },
"features": [
{ "type": "Feature", "properties": { "part": "direct", "crossing_id": "X04208", "area_ac": 0.5, "n_upstream": null }, "geometry": { "type": "Polygon", "coordinates": [ [ [ -119.950183698956636, 38.978806031589016 ], [ -119.950225949640341, 38.978897223885099 ], [ -119.950132175104144, 38.9789308055608 ], [ -119.949999886936212, 38.979323727687103 ], [ -119.950310326415433, 38.979620127335075 ], [ -119.950166572010176, 38.979742488611684 ], [ -119.950004396553652, 38.97975626335905 ], [ -119.94976313010595, 38.979461672746176 ], [ -119.949996150010534, 38.978873194802155 ], [ -119.950183698956636, 38.978806031589016 ] ] ] } },
{ "type": "Feature", "properties": { "part": "upstream", "crossing_id": "X04208", "area_ac": 0.2, "n_upstream": 1.0 }, "geometry": { "type": "Polygon", "coordinates": [ [ [ -119.949963691399532, 38.979629076616042 ], [ -119.94998211187, 38.979737662950541 ], [ -119.949724614736127, 38.979821013092049 ], [ -119.949432464727721, 38.98017371692498 ], [ -119.949131942345247, 38.980183870288734 ], [ -119.949461706208297, 38.980030342865433 ], [ -119.949661625483174, 38.979675225805252 ], [ -119.949963691399532, 38.979629076616042 ] ] ] } }
]
}
