{
"type": "FeatureCollection",
"name": "X04283",
"crs": { "type": "name", "properties": { "name": "urn:ogc:def:crs:OGC:1.3:CRS84" } },
"features": [
{ "type": "Feature", "properties": { "part": "direct", "crossing_id": "X04283", "area_ac": 1.6 }, "geometry": { "type": "Polygon", "coordinates": [ [ [ -120.128967054287486, 39.231665907684317 ], [ -120.13059049960151, 39.233327512987415 ], [ -120.130625782240642, 39.233598644312956 ], [ -120.130541276595878, 39.233398369118362 ], [ -120.130158834453908, 39.233118677895945 ], [ -120.130005632740719, 39.232898690942562 ], [ -120.129192271633414, 39.232392160359318 ], [ -120.129037606317524, 39.232208170918859 ], [ -120.12860228189659, 39.232089327021022 ], [ -120.128467825495235, 39.231977905131878 ], [ -120.128495374306738, 39.231870480272661 ], [ -120.128967054287486, 39.231665907684317 ] ] ] } }
]
}
