{
"type": "FeatureCollection",
"name": "X04242",
"crs": { "type": "name", "properties": { "name": "urn:ogc:def:crs:OGC:1.3:CRS84" } },
"features": [
{ "type": "Feature", "properties": { "part": "direct", "crossing_id": "X04242", "area_ac": 15.0, "n_upstream": null }, "geometry": { "type": "Polygon", "coordinates": [ [ [ -120.162102149839257, 39.112390790009691 ], [ -120.162957751606953, 39.112970183806389 ], [ -120.163401801980896, 39.113431443333063 ], [ -120.163398190795704, 39.113521444466151 ], [ -120.163668957124457, 39.113690198093181 ], [ -120.163707224392013, 39.113889325829959 ], [ -120.163996765925461, 39.114166642758029 ], [ -120.165049530170648, 39.115021088825614 ], [ -120.165258927876735, 39.114990149266283 ], [ -120.166284284056815, 39.115952024303155 ], [ -120.166695888800731, 39.116646713882623 ], [ -120.166643182206741, 39.116807592196935 ], [ -120.166297304512966, 39.116781160625486 ], [ -120.166201270037078, 39.116868913403735 ], [ -120.164951336645416, 39.115739411568804 ], [ -120.164768652579909, 39.115680911694703 ], [ -120.16493833703116, 39.115486845775955 ], [ -120.164583078280714, 39.115117842401965 ], [ -120.164120235707614, 39.1151245928977 ], [ -120.163988098735715, 39.114959215539628 ], [ -120.163736821897132, 39.11488102622473 ], [ -120.163387343822436, 39.114944587508106 ], [ -120.163111517166854, 39.114901834631048 ], [ -120.162027002254263, 39.114262811458481 ], [ -120.161468874058883, 39.11376273133569 ], [ -120.161217628399783, 39.11310796757158 ], [ -120.160926656581751, 39.112866644629435 ], [ -120.161393820266468, 39.112751905110485 ], [ -120.161915863965689, 39.112422287075674 ], [ -120.162102149839257, 39.112390790009691 ] ], [ [ -120.163888456161274, 39.11456039763339 ], [ -120.163930335046189, 39.114669524156916 ], [ -120.163911561995945, 39.114560960203228 ], [ -120.163888456161274, 39.11456039763339 ] ] ] } },
{ "type": "Feature", "properties": { "part": "upstream", "crossing_id": "X04242", "area_ac": 0.0, "n_upstream": 1.0 }, "geometry": { "type": "Polygon", "coordinates": [ [ [ -120.163888456161274, 39.11456039763339 ], [ -120.163930335046189, 39.114669524156916 ], [ -120.163884123305778, 39.114668399017518 ], [ -120.163888456161274, 39.11456039763339 ] ] ] } }
]
}
