{
"type": "FeatureCollection",
"name": "X04298",
"crs": { "type": "name", "properties": { "name": "urn:ogc:def:crs:OGC:1.3:CRS84" } },
"features": [
{ "type": "Feature", "properties": { "part": "direct", "crossing_id": "X04298", "area_ac": 0.1 }, "geometry": { "type": "Polygon", "coordinates": [ [ [ -120.073768538482284, 38.884658538065864 ], [ -120.073622233059254, 38.884853067077593 ], [ -120.073391938951602, 38.884847290668539 ], [ -120.07341866377071, 38.884757870795113 ], [ -120.073749943089481, 38.884549963399287 ], [ -120.073768538482284, 38.884658538065864 ] ] ] } }
]
}
