{
"type": "FeatureCollection",
"name": "X04287",
"crs": { "type": "name", "properties": { "name": "urn:ogc:def:crs:OGC:1.3:CRS84" } },
"features": [
{ "type": "Feature", "properties": { "part": "direct", "crossing_id": "X04287", "area_ac": 31.3 }, "geometry": { "type": "Polygon", "coordinates": [ [ [ -120.229667183559798, 39.066107160094127 ], [ -120.230120561392624, 39.066334155347455 ], [ -120.230330496218784, 39.066285090870281 ], [ -120.230644624591477, 39.066526792474257 ], [ -120.231032252977258, 39.066662130952714 ], [ -120.231049009836994, 39.066824692382305 ], [ -120.230827107237886, 39.067179782081872 ], [ -120.230812890536924, 39.068134405458061 ], [ -120.230432153637409, 39.068413647050185 ], [ -120.229969461970867, 39.069015265536329 ], [ -120.229518031246485, 39.069328859726987 ], [ -120.229293295042353, 39.069755951325959 ], [ -120.22936382987875, 39.070316190359776 ], [ -120.229135567066407, 39.07083328831304 ], [ -120.228065381312391, 39.071600632562408 ], [ -120.227505340286839, 39.072326051448336 ], [ -120.227365370548171, 39.072358757238419 ], [ -120.227207947121073, 39.072246902621657 ], [ -120.22724936920163, 39.071779417309124 ], [ -120.227124204940068, 39.071434094706106 ], [ -120.227062851917495, 39.070639837579087 ], [ -120.226972595855486, 39.07058363537795 ], [ -120.226949141534206, 39.069411899512403 ], [ -120.226805119954307, 39.068958019044956 ], [ -120.22697170000653, 39.068835856487361 ], [ -120.227076052208005, 39.068532031674202 ], [ -120.227407799120854, 39.068323708108174 ], [ -120.227652109567188, 39.067987176484756 ], [ -120.228433870031949, 39.067501265422052 ], [ -120.228551599170956, 39.066855412810497 ], [ -120.228902903342018, 39.066737640581763 ], [ -120.229355023714646, 39.06640604676398 ], [ -120.229527931361773, 39.066121867601296 ], [ -120.229667183559798, 39.066107160094127 ] ] ] } }
]
}
