{
"type": "FeatureCollection",
"name": "X04261",
"crs": { "type": "name", "properties": { "name": "urn:ogc:def:crs:OGC:1.3:CRS84" } },
"features": [
{ "type": "Feature", "properties": { "part": "direct", "crossing_id": "X04261", "area_ac": 0.5 }, "geometry": { "type": "Polygon", "coordinates": [ [ [ -120.054366997717096, 38.923467443740783 ], [ -120.054153664537708, 38.923606199089498 ], [ -120.054123918169864, 38.923767608823468 ], [ -120.053957411891389, 38.923889528572836 ], [ -120.05379537548275, 38.923903453645849 ], [ -120.05349801184849, 38.924400442917261 ], [ -120.053149404265568, 38.924463707425694 ], [ -120.053153130503489, 38.92437371213969 ], [ -120.053269084538087, 38.924358623765499 ], [ -120.053301813976873, 38.924125218107129 ], [ -120.053484657163537, 38.924165873016072 ], [ -120.053675696762227, 38.924008537913458 ], [ -120.053680167375276, 38.923900543510442 ], [ -120.053941820592797, 38.923708955868307 ], [ -120.054042926872327, 38.923495294880418 ], [ -120.05411428630218, 38.92344304351812 ], [ -120.054366997717096, 38.923467443740783 ] ] ] } }
]
}
