{
"type": "FeatureCollection",
"name": "X04296",
"crs": { "type": "name", "properties": { "name": "urn:ogc:def:crs:OGC:1.3:CRS84" } },
"features": [
{ "type": "Feature", "properties": { "part": "direct", "crossing_id": "X04296", "area_ac": 7.4, "n_upstream": null }, "geometry": { "type": "Polygon", "coordinates": [ [ [ -120.031233672307948, 38.824899454514252 ], [ -120.031506790635447, 38.824978472913827 ], [ -120.031682636398259, 38.825181143292298 ], [ -120.031653642860647, 38.825324550260994 ], [ -120.031791699001261, 38.825328061053689 ], [ -120.031830985827654, 38.825491222426244 ], [ -120.031561424971528, 38.825880764150696 ], [ -120.031851572963546, 38.826104359164695 ], [ -120.031957645293005, 38.826323272878668 ], [ -120.03183885682887, 38.82641034239623 ], [ -120.03149894796789, 38.826275571990315 ], [ -120.031403916862502, 38.826345227226739 ], [ -120.031036510312376, 38.826317864323784 ], [ -120.030919217283596, 38.826368934863261 ], [ -120.030419550043234, 38.826752620262489 ], [ -120.030571638456053, 38.826972705890981 ], [ -120.030601942976418, 38.827351855444626 ], [ -120.03027381577698, 38.827487651579617 ], [ -120.030278306383536, 38.827379657673468 ], [ -120.029968891253063, 38.827065478377413 ], [ -120.029983861157973, 38.826705498754308 ], [ -120.029006622344397, 38.825833781281446 ], [ -120.029032626624968, 38.825762371076351 ], [ -120.028830034200809, 38.825649106090125 ], [ -120.02894582993207, 38.825634035594923 ], [ -120.029238962969345, 38.825785640872482 ], [ -120.029596634405905, 38.826046996018732 ], [ -120.030077781845776, 38.825554734705179 ], [ -120.030285614818212, 38.82554200466226 ], [ -120.030385884310235, 38.825346357383047 ], [ -120.030903313132626, 38.825089249972535 ], [ -120.030885541390973, 38.824962671667841 ], [ -120.031233672307948, 38.824899454514252 ] ] ] } },
{ "type": "Feature", "properties": { "part": "upstream", "crossing_id": "X04296", "area_ac": 11.4, "n_upstream": 1.0 }, "geometry": { "type": "Polygon", "coordinates": [ [ [ -120.030555744144152, 38.823476803177435 ], [ -120.030736072993548, 38.823571480761693 ], [ -120.030709323107786, 38.823660890471345 ], [ -120.030915654158235, 38.82368415709103 ], [ -120.030957182799924, 38.823793321664262 ], [ -120.031143497955995, 38.823744006598666 ], [ -120.03113751299442, 38.823887998675822 ], [ -120.031344592956131, 38.823893265555874 ], [ -120.03155448526843, 38.824385090635282 ], [ -120.031928436585886, 38.824809015054363 ], [ -120.031959496107348, 38.825170165605826 ], [ -120.031841457636972, 38.825239236199067 ], [ -120.031836969734726, 38.825347230298071 ], [ -120.031698913551452, 38.825343719557424 ], [ -120.03166112313987, 38.82514456012391 ], [ -120.031394736788499, 38.82490355096477 ], [ -120.030956065454731, 38.824928429518422 ], [ -120.030903313132626, 38.825089249972535 ], [ -120.030385884310235, 38.825346357383047 ], [ -120.030285614818212, 38.82554200466226 ], [ -120.030077781845776, 38.825554734705179 ], [ -120.029550615318541, 38.826045824889832 ], [ -120.029238962969345, 38.825785640872482 ], [ -120.028648954203177, 38.825572424444644 ], [ -120.028361814253032, 38.825276826087553 ], [ -120.028292037567653, 38.825293067645489 ], [ -120.028032402975839, 38.824890060625847 ], [ -120.02815868214303, 38.824623005467622 ], [ -120.028572845258765, 38.824633549588093 ], [ -120.028652355196328, 38.824383321264314 ], [ -120.029006474161875, 38.824176118950291 ], [ -120.029678224394019, 38.824085107064519 ], [ -120.030040379866875, 38.82423846671675 ], [ -120.030042625089223, 38.824184469745305 ], [ -120.030344734870042, 38.824120084212844 ], [ -120.030606064123688, 38.823928534208427 ], [ -120.030455478064269, 38.823672450778595 ], [ -120.030555744144152, 38.823476803177435 ] ] ] } }
]
}
