{
"type": "FeatureCollection",
"name": "X04290",
"crs": { "type": "name", "properties": { "name": "urn:ogc:def:crs:OGC:1.3:CRS84" } },
"features": [
{ "type": "Feature", "properties": { "part": "direct", "crossing_id": "X04290", "area_ac": 0.7 }, "geometry": { "type": "MultiPolygon", "coordinates": [ [ [ [ -120.204546924215236, 39.094119869890335 ], [ -120.204835133354564, 39.0944330908167 ], [ -120.204845431599537, 39.094757661721495 ], [ -120.204992909225169, 39.0951215597199 ], [ -120.205919042870974, 39.096260890211468 ], [ -120.205729260091928, 39.096382464408229 ], [ -120.205516741025008, 39.095908899290812 ], [ -120.20533691431136, 39.095778459820934 ], [ -120.205145366387342, 39.09535945106331 ], [ -120.204790696420829, 39.094972564376498 ], [ -120.204776131048959, 39.094755999039421 ], [ -120.204620831256562, 39.094590110978331 ], [ -120.204546924215236, 39.094119869890335 ] ] ], [ [ [ -120.20450214685458, 39.094082759490469 ], [ -120.204524535529032, 39.094101314692367 ], [ -120.204501435565348, 39.094100760413767 ], [ -120.20450214685458, 39.094082759490469 ] ] ], [ [ [ -120.204479758191795, 39.094064204284585 ], [ -120.20450214685458, 39.094082759490469 ], [ -120.204479046897362, 39.094082205207648 ], [ -120.204479758191795, 39.094064204284585 ] ] ], [ [ [ -120.204481180778799, 39.094028202438324 ], [ -120.204456658241099, 39.094063649997544 ], [ -120.2044580808398, 39.094027648151993 ], [ -120.204481180778799, 39.094028202438324 ] ] ], [ [ [ -120.20443569220572, 39.094009092938585 ], [ -120.2044580808398, 39.094027648151993 ], [ -120.204434980901496, 39.094027093861087 ], [ -120.20443569220572, 39.094009092938585 ] ] ], [ [ [ -120.204413303583351, 39.09399053772124 ], [ -120.20443569220572, 39.094009092938585 ], [ -120.204412592273883, 39.094008538643472 ], [ -120.204413303583351, 39.09399053772124 ] ] ], [ [ [ -120.204390914972691, 39.093971982499951 ], [ -120.204413303583351, 39.09399053772124 ], [ -120.204390203657994, 39.093989983421899 ], [ -120.204390914972691, 39.093971982499951 ] ] ] ] } }
]
}
