{
"type": "FeatureCollection",
"name": "X04258",
"crs": { "type": "name", "properties": { "name": "urn:ogc:def:crs:OGC:1.3:CRS84" } },
"features": [
{ "type": "Feature", "properties": { "part": "direct", "crossing_id": "X04258", "area_ac": 1.3 }, "geometry": { "type": "Polygon", "coordinates": [ [ [ -120.042021467302433, 38.855840036394085 ], [ -120.04193076757177, 38.856360259410877 ], [ -120.041809699341442, 38.856501334463701 ], [ -120.041926921214838, 38.85700880995288 ], [ -120.041595687956857, 38.857216629161407 ], [ -120.041400332876961, 38.857481946418098 ], [ -120.041284486839771, 38.857497027285198 ], [ -120.041361757457238, 38.857300788424041 ], [ -120.041280128421931, 38.857046466841574 ], [ -120.04137370037806, 38.857012803248281 ], [ -120.041405677152326, 38.856797397977175 ], [ -120.041294310883686, 38.856704484453786 ], [ -120.041638230343835, 38.856190681661822 ], [ -120.041895922580878, 38.856089106107042 ], [ -120.041927897193588, 38.855873700585235 ], [ -120.042021467302433, 38.855840036394085 ] ] ] } }
]
}
