{
"type": "FeatureCollection",
"name": "X04272",
"crs": { "type": "name", "properties": { "name": "urn:ogc:def:crs:OGC:1.3:CRS84" } },
"features": [
{ "type": "Feature", "properties": { "part": "direct", "crossing_id": "X04272", "area_ac": 0.9 }, "geometry": { "type": "Polygon", "coordinates": [ [ [ -120.043546362530805, 38.83182460088458 ], [ -120.043635994929375, 38.832998045277826 ], [ -120.043191964264579, 38.833707519746184 ], [ -120.043131871734033, 38.833489780692865 ], [ -120.043395440284385, 38.833244204763005 ], [ -120.043493541683972, 38.832543985413437 ], [ -120.043054918399775, 38.832010350272675 ], [ -120.043546362530805, 38.83182460088458 ] ] ] } }
]
}
