{
"type": "FeatureCollection",
"name": "X04221",
"crs": { "type": "name", "properties": { "name": "urn:ogc:def:crs:OGC:1.3:CRS84" } },
"features": [
{ "type": "Feature", "properties": { "part": "direct", "crossing_id": "X04221", "area_ac": 0.3 }, "geometry": { "type": "MultiPolygon", "coordinates": [ [ [ [ -120.076782896510593, 38.880860217291207 ], [ -120.076805186577488, 38.88087879380798 ], [ -120.076782158381121, 38.880878216864446 ], [ -120.076782896510593, 38.880860217291207 ] ] ], [ [ [ -120.076125274065987, 38.880032926519128 ], [ -120.076353338546838, 38.88009269564769 ], [ -120.07659704980496, 38.880333037041197 ], [ -120.076635724300246, 38.880514186706428 ], [ -120.076834857811619, 38.880717374578701 ], [ -120.076828952892384, 38.880861371173019 ], [ -120.07650050862145, 38.880438726524154 ], [ -120.076053237172061, 38.88010319356021 ], [ -120.076125274065987, 38.880032926519128 ] ] ] ] } }
]
}
