{
"type": "FeatureCollection",
"name": "X04384",
"crs": { "type": "name", "properties": { "name": "urn:ogc:def:crs:OGC:1.3:CRS84" } },
"features": [
{ "type": "Feature", "properties": { "part": "direct", "crossing_id": "X04384", "area_ac": 0.2 }, "geometry": { "type": "Polygon", "coordinates": [ [ [ -120.027658909039815, 38.887510953165396 ], [ -120.027748023603294, 38.887585295023456 ], [ -120.027119977991347, 38.888271990410253 ], [ -120.027200329165112, 38.888003769686783 ], [ -120.027658909039815, 38.887510953165396 ] ] ] } }
]
}
