{
"type": "FeatureCollection",
"name": "X04341",
"crs": { "type": "name", "properties": { "name": "urn:ogc:def:crs:OGC:1.3:CRS84" } },
"features": [
{ "type": "Feature", "properties": { "part": "direct", "crossing_id": "X04341", "area_ac": 1.2 }, "geometry": { "type": "Polygon", "coordinates": [ [ [ -120.196776116884294, 39.106419594437533 ], [ -120.197392073025767, 39.106632612148125 ], [ -120.197566917128796, 39.106889069587716 ], [ -120.198130252584633, 39.107262979015736 ], [ -120.198121693616642, 39.107478988424553 ], [ -120.197935433411601, 39.107510544214158 ], [ -120.1976031379494, 39.107142192071485 ], [ -120.197258003695424, 39.107097852984502 ], [ -120.197055061745246, 39.106966844590623 ], [ -120.196899042038012, 39.106818946986245 ], [ -120.196817329648496, 39.106546711709761 ], [ -120.196681560792541, 39.106471372865769 ], [ -120.196776116884294, 39.106419594437533 ] ] ] } }
]
}
