{
"type": "FeatureCollection",
"name": "X04375",
"crs": { "type": "name", "properties": { "name": "urn:ogc:def:crs:OGC:1.3:CRS84" } },
"features": [
{ "type": "Feature", "properties": { "part": "direct", "crossing_id": "X04375", "area_ac": 1293.1, "n_upstream": null }, "geometry": { "type": "MultiPolygon", "coordinates": [ [ [ [ -119.925435432348095, 39.123698605337758 ], [ -119.925457753141202, 39.123717211609005 ], [ -119.925434649292313, 39.123716601663823 ], [ -119.925435432348095, 39.123698605337758 ] ] ], [ [ [ -119.925459319240389, 39.123681218956044 ], [ -119.925481640034917, 39.123699825222772 ], [ -119.925458536191144, 39.123699215282556 ], [ -119.925459319240389, 39.123681218956044 ] ] ], [ [ [ -119.945751176954573, 39.101585685748887 ], [ -119.946142054445104, 39.102172482213476 ], [ -119.946233666333669, 39.10219290118183 ], [ -119.94642366796424, 39.102612276079284 ], [ -119.946585349867306, 39.102616514574557 ], [ -119.946657750407937, 39.102546344007791 ], [ -119.947165893284264, 39.102559663200239 ], [ -119.94730836228554, 39.102473311522672 ], [ -119.947810290733045, 39.102630602007274 ], [ -119.94809600391936, 39.102439900062215 ], [ -119.948766406453842, 39.102979960203449 ], [ -119.948771643430661, 39.103394491262776 ], [ -119.949433713651786, 39.103592004017727 ], [ -119.949658480955733, 39.103742027474631 ], [ -119.949959529336752, 39.103731893844909 ], [ -119.95027746607181, 39.103866338649397 ], [ -119.950635391167296, 39.104145966525387 ], [ -119.950956435218586, 39.104208422336114 ], [ -119.950994871133446, 39.10438959976905 ], [ -119.95216106497071, 39.105230892053079 ], [ -119.952125554478286, 39.105518236955341 ], [ -119.95226242045338, 39.106098366472715 ], [ -119.952141496659195, 39.10622132220891 ], [ -119.952300084718232, 39.106297540429708 ], [ -119.952380843876895, 39.106569910486982 ], [ -119.952185192352474, 39.106817030861279 ], [ -119.952167349167695, 39.107230957904214 ], [ -119.952047198979614, 39.10733591661289 ], [ -119.951790603494317, 39.107923766818693 ], [ -119.951233893255605, 39.107963247440061 ], [ -119.951074526725236, 39.107905024489341 ], [ -119.950988338697854, 39.107758631360511 ], [ -119.950917488867773, 39.107792810917189 ], [ -119.950768027273185, 39.108041137907854 ], [ -119.950932641901971, 39.108513892446219 ], [ -119.95089401924939, 39.108873223774289 ], [ -119.950418831403326, 39.109167074125452 ], [ -119.95030780097278, 39.109596577803572 ], [ -119.950422144076597, 39.110698615687546 ], [ -119.950601511143773, 39.110829431690057 ], [ -119.950747687206729, 39.111193600968235 ], [ -119.950665189316084, 39.111497732059263 ], [ -119.950571235060963, 39.111531306439197 ], [ -119.950585795939503, 39.111729875903585 ], [ -119.951451013925421, 39.112581312756276 ], [ -119.951276889717917, 39.112865028836111 ], [ -119.951291452615919, 39.113063598262698 ], [ -119.952162126622738, 39.113789053040442 ], [ -119.951542092516519, 39.114223253812781 ], [ -119.951456488892546, 39.11459937249662 ], [ -119.95129012151834, 39.114703120413758 ], [ -119.951278478017741, 39.114973072246258 ], [ -119.950437312885555, 39.115707768984819 ], [ -119.950182222375886, 39.116259619645405 ], [ -119.949832586661472, 39.116322531973879 ], [ -119.949737650580531, 39.116914609904342 ], [ -119.949434215609088, 39.116978730963901 ], [ -119.949050597489517, 39.117292990113889 ], [ -119.948832371376071, 39.118062008280894 ], [ -119.94856736561502, 39.118307304656959 ], [ -119.948625018243462, 39.118579071512556 ], [ -119.948414763021177, 39.118627613949833 ], [ -119.948410100599943, 39.118735594322409 ], [ -119.947907845195829, 39.119118809226535 ], [ -119.948104113273402, 39.119394208776484 ], [ -119.948265056652602, 39.119416443179567 ], [ -119.948294942933899, 39.119795585110026 ], [ -119.947848212417725, 39.119964049486335 ], [ -119.947480117467919, 39.119918368174396 ], [ -119.947222873946558, 39.119983693896948 ], [ -119.946922533696835, 39.119975820958203 ], [ -119.946743151692829, 39.119844998810578 ], [ -119.946349622401058, 39.119852698378466 ], [ -119.946006965461649, 39.119753628154754 ], [ -119.945943649377398, 39.120148343545196 ], [ -119.945653189048002, 39.120447016695181 ], [ -119.945543663433583, 39.120840519909095 ], [ -119.945299405311545, 39.121140403813328 ], [ -119.944687822960006, 39.121376600081071 ], [ -119.944412137323084, 39.121333333229245 ], [ -119.944430571858803, 39.121441919303663 ], [ -119.94352150287294, 39.122138747674256 ], [ -119.943478938527477, 39.122588057196182 ], [ -119.943109276687878, 39.122578354906011 ], [ -119.942846569724409, 39.122769646755501 ], [ -119.942693152055384, 39.123107943540809 ], [ -119.942844758288203, 39.123346145138044 ], [ -119.942605151815954, 39.123538042771095 ], [ -119.942230812644553, 39.123636317172434 ], [ -119.941612967357671, 39.124016468745722 ], [ -119.941683574391746, 39.124522800448936 ], [ -119.941443960717507, 39.124714695373655 ], [ -119.941390740449847, 39.124875451117035 ], [ -119.940987834092709, 39.125099090456416 ], [ -119.940734462328734, 39.125074417889913 ], [ -119.940588821448145, 39.12523274540775 ], [ -119.940214470755294, 39.125331012829641 ], [ -119.939715241837661, 39.125642202112317 ], [ -119.939446559411138, 39.125436953954953 ], [ -119.939158388298495, 39.125681619043156 ], [ -119.938971990685758, 39.12571275397076 ], [ -119.938639166599572, 39.125920209969522 ], [ -119.938581260275555, 39.126188943354258 ], [ -119.938486501104393, 39.12624050343824 ], [ -119.938544119082366, 39.126512273684646 ], [ -119.938424694715863, 39.126599219383358 ], [ -119.938181653627367, 39.127403596416109 ], [ -119.938246290220889, 39.127513397986007 ], [ -119.937974971806653, 39.127902639239856 ], [ -119.938098785639866, 39.128248218256303 ], [ -119.937720515444241, 39.128436459445091 ], [ -119.937710374590978, 39.128670414183766 ], [ -119.937821223006992, 39.128781431137014 ], [ -119.937610150693388, 39.128847948993347 ], [ -119.937531471861348, 39.129062084339914 ], [ -119.937365049860418, 39.129165809959282 ], [ -119.937381914398216, 39.12931038969576 ], [ -119.937565201649932, 39.129351243791469 ], [ -119.937629058733862, 39.129479042219124 ], [ -119.937316977930124, 39.129741090594024 ], [ -119.937235956367459, 39.130009215156882 ], [ -119.937019417822228, 39.130201707284016 ], [ -119.936986167717777, 39.130435054055582 ], [ -119.936610223903259, 39.130569301502348 ], [ -119.936579313451347, 39.130748658606649 ], [ -119.936087054587034, 39.130897861532823 ], [ -119.935924998319891, 39.131434108285376 ], [ -119.935757787641066, 39.131555827730502 ], [ -119.935724532458039, 39.13178917390362 ], [ -119.935413995639266, 39.132015223455944 ], [ -119.93540774963661, 39.132159195204714 ], [ -119.935195103407978, 39.132261701086541 ], [ -119.935258958402798, 39.132389500694053 ], [ -119.935218673666995, 39.132784814786255 ], [ -119.935375738171047, 39.132897050348056 ], [ -119.935431005496611, 39.133222811004167 ], [ -119.935631162791978, 39.133408248307731 ], [ -119.935326083923883, 39.133508322023793 ], [ -119.934466105667596, 39.13413429907915 ], [ -119.934043141303221, 39.134285317028187 ], [ -119.933939774723839, 39.134534833592987 ], [ -119.933650764933532, 39.134797478907473 ], [ -119.933370347832934, 39.13486216273084 ], [ -119.933094618766503, 39.134818867332044 ], [ -119.932882742661619, 39.134903372076415 ], [ -119.932565487826139, 39.134750879705301 ], [ -119.932394355455727, 39.134962575764632 ], [ -119.932312526495792, 39.135248692116633 ], [ -119.931857844163375, 39.135597053321447 ], [ -119.931625983687866, 39.135608961203431 ], [ -119.931333400296907, 39.135421081557624 ], [ -119.931379964035003, 39.134881798757576 ], [ -119.931290661041942, 39.134807377503655 ], [ -119.931390128078647, 39.134647845656289 ], [ -119.931311771404296, 39.13432147493014 ], [ -119.931392821225657, 39.1340533557564 ], [ -119.930998000887627, 39.13355649231201 ], [ -119.931457710516966, 39.132559654755994 ], [ -119.93176591676621, 39.132387605599021 ], [ -119.931564991048035, 39.132220158542061 ], [ -119.931718045821938, 39.131359375166561 ], [ -119.93167017528971, 39.130331144614182 ], [ -119.931772761007181, 39.130099626398717 ], [ -119.930502710078343, 39.130048140522597 ], [ -119.930208587915033, 39.129896251711855 ], [ -119.929679497206621, 39.129828252494157 ], [ -119.929070137742983, 39.130010372181012 ], [ -119.928877466328046, 39.130185461212086 ], [ -119.928483881344349, 39.130193097975933 ], [ -119.928315096602958, 39.130350799064807 ], [ -119.928105576801258, 39.130381306417334 ], [ -119.926208119810923, 39.128799794773435 ], [ -119.926103554545364, 39.128544796908471 ], [ -119.925968837184968, 39.12845115595951 ], [ -119.925765974686044, 39.127797189260278 ], [ -119.925546669916898, 39.127521144949242 ], [ -119.925516511326677, 39.126619499168541 ], [ -119.925079086732254, 39.126571916311491 ], [ -119.924972961888884, 39.126352910263314 ], [ -119.924233611855072, 39.126333385580168 ], [ -119.923359174121018, 39.125697709899917 ], [ -119.923495853602887, 39.125214861998302 ], [ -119.923320422865572, 39.124994023611599 ], [ -119.923304371338034, 39.124831446650077 ], [ -119.923096433868082, 39.124825953007488 ], [ -119.922395098524859, 39.124465098465407 ], [ -119.921712586757508, 39.12367232966735 ], [ -119.921618653228307, 39.122642878496912 ], [ -119.921451074730427, 39.122242075058722 ], [ -119.921465971147242, 39.121900146045768 ], [ -119.921587758866337, 39.121759229407047 ], [ -119.921557232317639, 39.121398082690938 ], [ -119.921682938635712, 39.121167184553045 ], [ -119.921598366499524, 39.120984779192682 ], [ -119.921630092782337, 39.120787430889017 ], [ -119.922653293954724, 39.120129826218182 ], [ -119.922551103561787, 39.119820836992425 ], [ -119.924574339626005, 39.118504989591841 ], [ -119.924882497845857, 39.118332956529393 ], [ -119.925302250063581, 39.118253953852175 ], [ -119.925609622646661, 39.118099915087576 ], [ -119.926540747480146, 39.117962337765945 ], [ -119.926346134810075, 39.117650912585233 ], [ -119.925676963199606, 39.117615233360169 ], [ -119.925279534105741, 39.117712843809024 ], [ -119.923914957601966, 39.117712844377607 ], [ -119.923178430323006, 39.118161830845231 ], [ -119.922659999901995, 39.118382354493505 ], [ -119.922420359042746, 39.118574209188829 ], [ -119.922362399387566, 39.118842932568185 ], [ -119.922383559083201, 39.118357032736697 ], [ -119.922513174903145, 39.118036151808219 ], [ -119.923683553804565, 39.117184239070831 ], [ -119.924130317841701, 39.11701586898598 ], [ -119.925613520653599, 39.116946929139907 ], [ -119.925800682129704, 39.116897818527008 ], [ -119.926302251997342, 39.116532699427388 ], [ -119.926417759611752, 39.116535747781576 ], [ -119.926302629394073, 39.115992198835741 ], [ -119.925521098168829, 39.115881485480735 ], [ -119.924934953472146, 39.116064198095508 ], [ -119.923624432100013, 39.116948456314631 ], [ -119.923401633378944, 39.117284894096279 ], [ -119.922420767189536, 39.118033709960997 ], [ -119.922369861267157, 39.118140466759726 ], [ -119.922302462158399, 39.119688147567373 ], [ -119.92220534970744, 39.119793683169611 ], [ -119.92217049051817, 39.120063016870141 ], [ -119.921809058125319, 39.120395787388709 ], [ -119.922110588346101, 39.119845229832599 ], [ -119.922143507072263, 39.119089385937777 ], [ -119.92227312552896, 39.118768505408681 ], [ -119.922340114726993, 39.117761323667004 ], [ -119.922162353549183, 39.117594473050026 ], [ -119.922171758114217, 39.117378517569875 ], [ -119.923130299208196, 39.116611096854406 ], [ -119.923477220519317, 39.116079751307311 ], [ -119.923716066464522, 39.115905890233073 ], [ -119.923947862319267, 39.115893995545612 ], [ -119.924545753653732, 39.115441342902471 ], [ -119.925017954415082, 39.115219589829138 ], [ -119.925245435619786, 39.114775170180764 ], [ -119.925234077531115, 39.114504615050407 ], [ -119.924748177161717, 39.114509803166072 ], [ -119.924384045479826, 39.114374068799478 ], [ -119.924276372503414, 39.114191055215059 ], [ -119.924160085834501, 39.114206001225348 ], [ -119.923803788938088, 39.113890301835504 ], [ -119.923704733526449, 39.113509328183284 ], [ -119.924028923410106, 39.113499873609705 ], [ -119.924528910662431, 39.113170754051829 ], [ -119.92501245315934, 39.113219555537327 ], [ -119.925272037355114, 39.113100289612824 ], [ -119.925400063521963, 39.112815397027127 ], [ -119.925387139146267, 39.112580834542158 ], [ -119.925628316322488, 39.112352979704497 ], [ -119.925731674161298, 39.112103469583211 ], [ -119.926377285797457, 39.111616032242758 ], [ -119.926655267265829, 39.111605350772528 ], [ -119.926706943865298, 39.111480595164039 ], [ -119.927273074882038, 39.111225276795373 ], [ -119.927968415667763, 39.11118956814677 ], [ -119.928395159742479, 39.11094858468509 ], [ -119.929413894192308, 39.110921395547265 ], [ -119.930355858252582, 39.110531833275587 ], [ -119.930453287855443, 39.109885787373003 ], [ -119.93054959247101, 39.109798240153737 ], [ -119.930597254583645, 39.108700456239426 ], [ -119.931186448828882, 39.108445726002792 ], [ -119.931393558623171, 39.108469199777716 ], [ -119.931798737877543, 39.108191601091406 ], [ -119.932427874806606, 39.108082053073908 ], [ -119.932806826145864, 39.107875828241532 ], [ -119.93309930439878, 39.108063700552677 ], [ -119.933754659504729, 39.107882767412384 ], [ -119.93387639754306, 39.107741835680507 ], [ -119.934317616216049, 39.107699398561529 ], [ -119.934954547543271, 39.107409871220284 ], [ -119.935406684626486, 39.107115478269591 ], [ -119.935390606526298, 39.106952901600096 ], [ -119.935642652176895, 39.10647307207298 ], [ -119.936039225140789, 39.106393419539309 ], [ -119.936609961776682, 39.106030073197786 ], [ -119.937032748090616, 39.105879038334834 ], [ -119.937325518100167, 39.10552639537574 ], [ -119.937578039054117, 39.105569069183645 ], [ -119.937789040392587, 39.105502548389325 ], [ -119.93815627324426, 39.105566253808313 ], [ -119.938322636280503, 39.105462524437272 ], [ -119.938314344234144, 39.105119981872946 ], [ -119.938458387157553, 39.104997648492073 ], [ -119.938514712882707, 39.104764906867061 ], [ -119.938659533872936, 39.104624576580875 ], [ -119.938941383273843, 39.104523881527136 ], [ -119.939419969868709, 39.103617586383528 ], [ -119.93988737353574, 39.103503747361039 ], [ -119.939892825245295, 39.103377770932596 ], [ -119.94003452549147, 39.103309425223202 ], [ -119.940981523655438, 39.103334299776868 ], [ -119.941499010320712, 39.103131684009618 ], [ -119.941558437739303, 39.102826953741335 ], [ -119.941856620276639, 39.102348321154821 ], [ -119.942356447170056, 39.102019118018205 ], [ -119.942805407218472, 39.101796680226265 ], [ -119.943386723542147, 39.101721850855625 ], [ -119.943963372432464, 39.101754998771199 ], [ -119.944034996818047, 39.101702826602732 ], [ -119.944398328949561, 39.101856495355833 ], [ -119.944491495044801, 39.10184092223156 ], [ -119.944495383043005, 39.101750938655798 ], [ -119.944677049572604, 39.101827772472376 ], [ -119.945026616288771, 39.101764872830373 ], [ -119.945417712456504, 39.101811163911258 ], [ -119.945635691649258, 39.101582657515316 ], [ -119.945751176954573, 39.101585685748887 ] ], [ [ -119.930728915519381, 39.128036197982844 ], [ -119.930061633239006, 39.128487051624283 ], [ -119.92969862646062, 39.12885583876762 ], [ -119.929611320385675, 39.129267927985836 ], [ -119.92971746368454, 39.129486930458754 ], [ -119.929854891288699, 39.128986077531351 ], [ -119.93038276462029, 39.128549567652243 ], [ -119.930728915519381, 39.128036197982844 ] ], [ [ -119.930096748868024, 39.126614208633256 ], [ -119.929259497905718, 39.126718254145615 ], [ -119.927018324720933, 39.126659137491288 ], [ -119.926571504306466, 39.12682751626231 ], [ -119.926981913178125, 39.126964465643844 ], [ -119.929085248127478, 39.12700193148553 ], [ -119.929481943833295, 39.126922306434196 ], [ -119.929696145194569, 39.126783817824517 ], [ -119.930250664029245, 39.126798435930731 ], [ -119.930096748868024, 39.126614208633256 ] ], [ [ -119.928156308360883, 39.12602253101501 ], [ -119.927921349345382, 39.126106418211187 ], [ -119.930138620235624, 39.126182904162071 ], [ -119.930027788193414, 39.126071880492283 ], [ -119.929866837180768, 39.126049620512966 ], [ -119.928156308360883, 39.12602253101501 ] ], [ [ -119.92990906380075, 39.125077815151322 ], [ -119.929372970453755, 39.125171783471117 ], [ -119.928354812411882, 39.125180967613787 ], [ -119.928025873947163, 39.125298410294356 ], [ -119.927491342128548, 39.125356377057194 ], [ -119.926784119885028, 39.125662022348926 ], [ -119.927223888421011, 39.125655609573293 ], [ -119.927458846637037, 39.125571723752991 ], [ -119.928407696368708, 39.125560719553889 ], [ -119.928573339535689, 39.125475003249434 ], [ -119.92945209278659, 39.125480158791802 ], [ -119.930081388317703, 39.125370630031469 ], [ -119.930019894191062, 39.125188838880774 ], [ -119.92990906380075, 39.125077815151322 ] ], [ [ -119.927390127551391, 39.120236876491106 ], [ -119.9266073877683, 39.120684665275377 ], [ -119.925615145252479, 39.121162952327971 ], [ -119.925503158903155, 39.12161042114154 ], [ -119.925302672950579, 39.121965468341095 ], [ -119.925263908601337, 39.122324784950834 ], [ -119.92507281661797, 39.122463875691224 ], [ -119.925018387859581, 39.123183118567063 ], [ -119.924706291840522, 39.123445132607422 ], [ -119.924674572416848, 39.123642481968517 ], [ -119.924147487577201, 39.124060970021731 ], [ -119.924013949015617, 39.124471833839998 ], [ -119.923798961012636, 39.124628308167871 ], [ -119.924035486213299, 39.124508436676507 ], [ -119.924136520002691, 39.124312918259754 ], [ -119.924732918556202, 39.123896260636748 ], [ -119.925148788726077, 39.123907241496049 ], [ -119.925846219044914, 39.124358061468286 ], [ -119.926192780129412, 39.124367209067344 ], [ -119.926396802703906, 39.124462678833972 ], [ -119.928362219520565, 39.124478499722514 ], [ -119.92899463599619, 39.124296991013985 ], [ -119.929327478643231, 39.124089563374625 ], [ -119.929654063450215, 39.124026105872247 ], [ -119.929354068823429, 39.123477686051729 ], [ -119.929213099437277, 39.123528020135879 ], [ -119.928335152922529, 39.123504867381932 ], [ -119.927914589354614, 39.123601876195217 ], [ -119.926620774017692, 39.123567739577659 ], [ -119.925482423078293, 39.123681828895876 ], [ -119.92569818751862, 39.123507354840662 ], [ -119.925860696979228, 39.123493627642375 ], [ -119.925938620458368, 39.123297497511963 ], [ -119.926910136290985, 39.122764610258962 ], [ -119.928668356228258, 39.122756940750506 ], [ -119.929045052989352, 39.122604721359458 ], [ -119.928288059735181, 39.121395634922173 ], [ -119.928337395050747, 39.121324868087243 ], [ -119.92820112313666, 39.121267222817366 ], [ -119.927657189508338, 39.120478143201957 ], [ -119.927390127551391, 39.120236876491106 ] ], [ [ -119.926934707577345, 39.119540213879276 ], [ -119.926932359899837, 39.119594202971903 ], [ -119.92704709005028, 39.119615247266417 ], [ -119.926934707577345, 39.119540213879276 ] ] ] ] } },
{ "type": "Feature", "properties": { "part": "upstream", "crossing_id": "X04375", "area_ac": 1037.4, "n_upstream": 22.0 }, "geometry": { "type": "MultiPolygon", "coordinates": [ [ [ [ -119.924798170735514, 39.103790991019935 ], [ -119.925325496840841, 39.103894997480943 ], [ -119.925616373252666, 39.104118880028643 ], [ -119.92634021744658, 39.103957813179186 ], [ -119.926212995722921, 39.104224711564505 ], [ -119.926599395600277, 39.104379044333605 ], [ -119.926774007778633, 39.104617873218821 ], [ -119.927184290881854, 39.104754817194454 ], [ -119.927612199550083, 39.105018344003717 ], [ -119.927959448382481, 39.105009486162153 ], [ -119.928300442739086, 39.105144598738534 ], [ -119.928525948965799, 39.105276664944427 ], [ -119.928921388027959, 39.105755535401514 ], [ -119.929282359701659, 39.105963240101765 ], [ -119.930015249202114, 39.106126695975739 ], [ -119.930762647255676, 39.106488717199134 ], [ -119.931082899506151, 39.106569224004261 ], [ -119.931375367708881, 39.106757100285051 ], [ -119.931546544976058, 39.107608411646581 ], [ -119.932125246472765, 39.108128133484477 ], [ -119.931798737877543, 39.108191601091406 ], [ -119.931393558623171, 39.108469199777716 ], [ -119.931186448828882, 39.108445726002792 ], [ -119.930573374195788, 39.108717843966815 ], [ -119.93054959247101, 39.109798240153737 ], [ -119.930453287855443, 39.109885787373003 ], [ -119.930355858252582, 39.110531833275587 ], [ -119.929413894192308, 39.110921395547265 ], [ -119.928395159742479, 39.11094858468509 ], [ -119.927968415667763, 39.11118956814677 ], [ -119.927273074882038, 39.111225276795373 ], [ -119.926706943865298, 39.111480595164039 ], [ -119.926655267265829, 39.111605350772528 ], [ -119.926377285797457, 39.111616032242758 ], [ -119.925834248593816, 39.11187195570124 ], [ -119.92611614382696, 39.1117712937004 ], [ -119.925731674161298, 39.112103469583211 ], [ -119.925531219466507, 39.112458518797929 ], [ -119.924694220371933, 39.112447295451325 ], [ -119.925483453659155, 39.112493291947764 ], [ -119.925387139146267, 39.112580834542158 ], [ -119.925400063521963, 39.112815397027127 ], [ -119.925272037355114, 39.113100289612824 ], [ -119.92501245315934, 39.113219555537327 ], [ -119.924528910662431, 39.113170754051829 ], [ -119.924028923410106, 39.113499873609705 ], [ -119.923704733526449, 39.113509328183284 ], [ -119.923803788938088, 39.113890301835504 ], [ -119.924297123974824, 39.114245654274619 ], [ -119.924059068412092, 39.114401520534138 ], [ -119.924295557810339, 39.114281646946672 ], [ -119.924748177161717, 39.114509803166072 ], [ -119.925234077531115, 39.114504615050407 ], [ -119.925245435619786, 39.114775170180764 ], [ -119.925092737948759, 39.115095445140952 ], [ -119.924874650265281, 39.115323908284999 ], [ -119.924545753653732, 39.115441342902471 ], [ -119.923947862319267, 39.115893995545612 ], [ -119.923716066464522, 39.115905890233073 ], [ -119.923232889537161, 39.116379586021878 ], [ -119.923368764275025, 39.115914733235023 ], [ -119.923179635890023, 39.116540332229235 ], [ -119.922171758114217, 39.117378517569875 ], [ -119.922162353549183, 39.117594473050026 ], [ -119.922340114726993, 39.117761323667004 ], [ -119.92227312552896, 39.118768505408681 ], [ -119.922143507072263, 39.119089385937777 ], [ -119.922083566826871, 39.119934600680352 ], [ -119.921844021691697, 39.120332191183216 ], [ -119.922195944436368, 39.120009638566991 ], [ -119.92220534970744, 39.119793683169611 ], [ -119.922302462158399, 39.119688147567373 ], [ -119.922394122191889, 39.118645583870091 ], [ -119.922731656827395, 39.11833019686658 ], [ -119.923178430323006, 39.118161830845231 ], [ -119.923914957601966, 39.117712844377607 ], [ -119.925279534105741, 39.117712843809024 ], [ -119.925676963199606, 39.117615233360169 ], [ -119.926414657836915, 39.117670737990281 ], [ -119.926407614063464, 39.117832705239223 ], [ -119.926540747480146, 39.117962337765945 ], [ -119.925609622646661, 39.118099915087576 ], [ -119.925302250063581, 39.118253953852175 ], [ -119.924882497845857, 39.118332956529393 ], [ -119.924574339626005, 39.118504989591841 ], [ -119.922551103561787, 39.119820836992425 ], [ -119.922653293954724, 39.120129826218182 ], [ -119.921630092782337, 39.120787430889017 ], [ -119.92164185184032, 39.120517486820532 ], [ -119.921598366499524, 39.120984779192682 ], [ -119.921682938635712, 39.121167184553045 ], [ -119.921557232317639, 39.121398082690938 ], [ -119.921587758866337, 39.121759229407047 ], [ -119.921465971147242, 39.121900146045768 ], [ -119.921451074730427, 39.122242075058722 ], [ -119.921618653228307, 39.122642878496912 ], [ -119.921733338519573, 39.123726929140062 ], [ -119.922068136437986, 39.124006032873986 ], [ -119.922240425347582, 39.124298858007172 ], [ -119.921806154022548, 39.124179278429914 ], [ -119.919707622748646, 39.124033707153757 ], [ -119.919106923465989, 39.124017817355536 ], [ -119.918869607518317, 39.124155674782315 ], [ -119.918803434993748, 39.124081856148699 ], [ -119.918277541435259, 39.123941822382861 ], [ -119.918088001730041, 39.12404490849039 ], [ -119.917835430012147, 39.124002190335119 ], [ -119.917671348473348, 39.124051898602865 ], [ -119.917310659280588, 39.124366657098747 ], [ -119.916917893349122, 39.124356259815137 ], [ -119.916447177058771, 39.124541983913531 ], [ -119.916264701934765, 39.124483101346627 ], [ -119.915932606945475, 39.124672493837934 ], [ -119.915923505023741, 39.125410948284312 ], [ -119.915783308746043, 39.125443269389038 ], [ -119.915773881973408, 39.125659223270674 ], [ -119.915704569157313, 39.125657387587658 ], [ -119.915625829051578, 39.125871505707146 ], [ -119.915440208700929, 39.12588460635417 ], [ -119.914984725028162, 39.12625089733433 ], [ -119.914905196178168, 39.126483010973104 ], [ -119.914765783202867, 39.126497334605233 ], [ -119.914739535254924, 39.12656870704938 ], [ -119.91453080844397, 39.126581194057664 ], [ -119.914292689254538, 39.126737037524428 ], [ -119.913664934823245, 39.126810487176421 ], [ -119.913587759430939, 39.126988611349617 ], [ -119.913350423080303, 39.127126456628019 ], [ -119.91331631106118, 39.127377789776673 ], [ -119.913005726770734, 39.127603777579608 ], [ -119.912416308600342, 39.127858406010581 ], [ -119.912387698232223, 39.127983766070422 ], [ -119.911983901636546, 39.128225296582265 ], [ -119.911859723482706, 39.128420190064119 ], [ -119.91164784422071, 39.128504655974041 ], [ -119.91152287788475, 39.128717545107143 ], [ -119.911291039328788, 39.12872941325012 ], [ -119.910310671485249, 39.129460118189598 ], [ -119.910106658532811, 39.12936462058282 ], [ -119.908635791788242, 39.129145415198217 ], [ -119.908607174095096, 39.129270774014337 ], [ -119.90841918157642, 39.129337851108282 ], [ -119.908151633726149, 39.129637035764752 ], [ -119.90817158867209, 39.129709633272071 ], [ -119.90802901783303, 39.129795932567959 ], [ -119.907853101011185, 39.130115566276423 ], [ -119.90761495554527, 39.130271394926588 ], [ -119.907502578751632, 39.130196343038506 ], [ -119.907337688371442, 39.130264031819586 ], [ -119.906798913889858, 39.129889383827802 ], [ -119.906761370739943, 39.129690200480866 ], [ -119.906375671795786, 39.129517802610842 ], [ -119.906087912803869, 39.12922188713263 ], [ -119.905120647456442, 39.129124117382794 ], [ -119.904964430171532, 39.128993847226162 ], [ -119.904687957184734, 39.128968482057154 ], [ -119.903813674106743, 39.128332665505191 ], [ -119.903243151663531, 39.128155343334413 ], [ -119.902796834251617, 39.12778313577541 ], [ -119.902559251509857, 39.127398461700274 ], [ -119.902834702096456, 39.126919331094193 ], [ -119.902210661568915, 39.126380242429676 ], [ -119.902006669140093, 39.126284731377133 ], [ -119.901614687423475, 39.126256286189019 ], [ -119.901192498302038, 39.126389188070171 ], [ -119.901081713304833, 39.126278138651145 ], [ -119.901244016608203, 39.125741950173897 ], [ -119.901716355310086, 39.125520297702209 ], [ -119.901845289732847, 39.125217440358838 ], [ -119.902057958457291, 39.125114996407021 ], [ -119.902224196103163, 39.124488826423246 ], [ -119.901891845430555, 39.124155680904188 ], [ -119.901170902469048, 39.124244600987119 ], [ -119.900849821625329, 39.124182006131875 ], [ -119.900626680811328, 39.123995898606374 ], [ -119.900415382506438, 39.123539852177032 ], [ -119.900457431419895, 39.123108565407605 ], [ -119.900278922106139, 39.122959678935253 ], [ -119.900047891612374, 39.122953529474103 ], [ -119.900060523428905, 39.122665595108735 ], [ -119.900477955433999, 39.122640671885797 ], [ -119.900622887868948, 39.12250039381567 ], [ -119.900485637835459, 39.121938216648878 ], [ -119.900760289136286, 39.121477086190033 ], [ -119.901816253100804, 39.120604336689681 ], [ -119.902134727846089, 39.120198419311087 ], [ -119.902344225264287, 39.120167957910134 ], [ -119.902578174290596, 39.119579621681623 ], [ -119.90281313779488, 39.119495785912115 ], [ -119.902942054878693, 39.119192926453415 ], [ -119.903133967368248, 39.119035877421595 ], [ -119.903389664650732, 39.119006642579578 ], [ -119.903749595645237, 39.118709924351947 ], [ -119.904099275212957, 39.118647152617555 ], [ -119.904623277530419, 39.118300742146872 ], [ -119.904855870109245, 39.118270889944753 ], [ -119.905738995352692, 39.117645746808414 ], [ -119.905934048865532, 39.117416708650794 ], [ -119.905949805549596, 39.117056788343419 ], [ -119.906429947815013, 39.116655153306432 ], [ -119.906395561062311, 39.116383985675526 ], [ -119.906842356733364, 39.116215683392674 ], [ -119.907183882904377, 39.115810363503314 ], [ -119.907468967428059, 39.115637764251574 ], [ -119.908006314197408, 39.114985403925587 ], [ -119.908699844369707, 39.114463305251263 ], [ -119.908921127494551, 39.114162890082497 ], [ -119.909730427627281, 39.114166349541854 ], [ -119.909802089091457, 39.114114200055525 ], [ -119.910485082683309, 39.11330353928907 ], [ -119.910797675905215, 39.112501067257739 ], [ -119.911143387616931, 39.112528253393869 ], [ -119.911175137565522, 39.112330908714874 ], [ -119.911910100540766, 39.111917990718489 ], [ -119.911948137179678, 39.111576676637888 ], [ -119.912141580996973, 39.111383618665009 ], [ -119.912064118965887, 39.111039242322036 ], [ -119.911930239290072, 39.110927590828211 ], [ -119.911537549958155, 39.110917178395944 ], [ -119.911295251364805, 39.110640498341944 ], [ -119.911280014995185, 39.110459924492901 ], [ -119.911119893184932, 39.110419644072699 ], [ -119.911033787184977, 39.110273224605969 ], [ -119.911298099400213, 39.110046013551433 ], [ -119.91146057918462, 39.11003230530455 ], [ -119.911535379876142, 39.109908169969401 ], [ -119.912467201605082, 39.109752705708139 ], [ -119.912312582600137, 39.109586453924692 ], [ -119.912439866828322, 39.109319573440132 ], [ -119.912376858033099, 39.109173767218451 ], [ -119.912517808746131, 39.109123452754652 ], [ -119.912559290803543, 39.109232654296946 ], [ -119.912703385074437, 39.109110354990918 ], [ -119.913124664078609, 39.108995402157085 ], [ -119.913127807178839, 39.108923417504691 ], [ -119.912738272012135, 39.108841024923606 ], [ -119.912292322691442, 39.108991356313744 ], [ -119.91223245844823, 39.108773565435726 ], [ -119.912585226007735, 39.108638781222901 ], [ -119.91259858626853, 39.108332846579636 ], [ -119.912690980458237, 39.108335295706766 ], [ -119.913420078354633, 39.107525837967522 ], [ -119.913424792303402, 39.107417860931207 ], [ -119.913688300313623, 39.107208639791402 ], [ -119.913489844096318, 39.106987176963699 ], [ -119.913633931995179, 39.106864876216591 ], [ -119.913616333041404, 39.106738290901376 ], [ -119.914162511817295, 39.106410439697896 ], [ -119.914627288518091, 39.105828191532453 ], [ -119.914815997008432, 39.105743105229195 ], [ -119.915066146327177, 39.10583981597825 ], [ -119.915255639511798, 39.105736732734421 ], [ -119.915487402197343, 39.105724853599433 ], [ -119.915924356121522, 39.105249965211542 ], [ -119.916882344822696, 39.105023089297745 ], [ -119.916770780722942, 39.104930051059092 ], [ -119.916893330692062, 39.10477114194488 ], [ -119.917118812990793, 39.104903229358108 ], [ -119.9174429629755, 39.104893791570952 ], [ -119.917561588761885, 39.10482486294152 ], [ -119.917697820337054, 39.10488251919098 ], [ -119.918215378574928, 39.10468001012368 ], [ -119.91821616293592, 39.104662013860995 ], [ -119.918280626094216, 39.104676398098533 ], [ -119.918403295658891, 39.104612913957986 ], [ -119.918844500092078, 39.104570535068703 ], [ -119.919299033447373, 39.104222217693604 ], [ -119.919554672359126, 39.104192944852265 ], [ -119.919078611221607, 39.104504659774015 ], [ -119.919744938857434, 39.104071857545257 ], [ -119.920018971093072, 39.104151172231361 ], [ -119.920069869024999, 39.104044415979715 ], [ -119.920686073553412, 39.10370036792439 ], [ -119.921047420399248, 39.103367596867827 ], [ -119.921491750041568, 39.103253222282177 ], [ -119.922066447014927, 39.102799967421952 ], [ -119.9220711469804, 39.102691989418382 ], [ -119.922361625202896, 39.102393375409278 ], [ -119.922956273886783, 39.102012711255725 ], [ -119.923442870841825, 39.101989530818464 ], [ -119.924131075809967, 39.102115808786309 ], [ -119.924606716088618, 39.102344572751129 ], [ -119.924768412087744, 39.103411847467626 ], [ -119.924779386628032, 39.104222904045464 ], [ -119.924798170735514, 39.103790991019935 ] ], [ [ -119.92477625590422, 39.104294889545834 ], [ -119.924779386628032, 39.104222904045464 ], [ -119.924755809823282, 39.10422427324297 ], [ -119.924687298880698, 39.104507131848294 ], [ -119.92477625590422, 39.104294889545834 ] ], [ [ -119.918165825702417, 39.104735809545929 ], [ -119.918270812519737, 39.104681476823771 ], [ -119.918215378574928, 39.10468001012368 ], [ -119.918165825702417, 39.104735809545929 ] ], [ [ -119.924574265312529, 39.104776816200996 ], [ -119.924587882263552, 39.10474432793616 ], [ -119.92455563071735, 39.104777101456747 ], [ -119.924574265312529, 39.104776816200996 ] ], [ [ -119.92414442720991, 39.112439919983089 ], [ -119.923837860283754, 39.112575959529941 ], [ -119.924302382220802, 39.112442039213384 ], [ -119.92414442720991, 39.112439919983089 ] ], [ [ -119.922574716446448, 39.111845498146131 ], [ -119.922635488625389, 39.112039720006955 ], [ -119.922915420587188, 39.112515558469923 ], [ -119.922574716446448, 39.111845498146131 ] ], [ [ -119.922486728628243, 39.111207006646914 ], [ -119.922904090033953, 39.111181999907494 ], [ -119.922471402746794, 39.11120596571201 ], [ -119.92249337569362, 39.111585539618453 ], [ -119.922548701906479, 39.111762357953275 ], [ -119.922486728628243, 39.111207006646914 ] ], [ [ -119.923942014493164, 39.108056437533776 ], [ -119.923952214173667, 39.108031814961159 ], [ -119.923875027564563, 39.108109635584832 ], [ -119.923942014493164, 39.108056437533776 ] ], [ [ -119.924492438639959, 39.104972043222894 ], [ -119.924530792664569, 39.104880536026336 ], [ -119.924388155154901, 39.105117356871922 ], [ -119.924393785417095, 39.105113574553279 ], [ -119.924204699515272, 39.105473426421426 ], [ -119.924338196094624, 39.105328311097139 ], [ -119.924420530182957, 39.105114280764248 ], [ -119.924416883169371, 39.105114184463112 ], [ -119.924417665965592, 39.105096188096752 ], [ -119.924425104283202, 39.105102390187724 ], [ -119.924468558152824, 39.104989429697497 ], [ -119.924938739672314, 39.105344167627038 ], [ -119.924492438639959, 39.104972043222894 ] ], [ [ -119.921978560891944, 39.108197831399472 ], [ -119.922016206208212, 39.108203747971032 ], [ -119.922684903273094, 39.107716940848725 ], [ -119.921978560891944, 39.108197831399472 ] ], [ [ -119.921731594298336, 39.107835885845788 ], [ -119.921616678307657, 39.1077487692313 ], [ -119.921929295977392, 39.10807533203721 ], [ -119.921731594298336, 39.107835885845788 ] ], [ [ -119.921588068172539, 39.107142622221183 ], [ -119.921122039551776, 39.107495467910539 ], [ -119.921239882863134, 39.10744453189406 ], [ -119.92125068455023, 39.1074519077657 ], [ -119.921588068172539, 39.107142622221183 ] ], [ [ -119.920947854208563, 39.106716131452757 ], [ -119.920862100897466, 39.10709222190161 ], [ -119.920864463963284, 39.107095887776616 ], [ -119.920947854208563, 39.106716131452757 ] ], [ [ -119.921793085961582, 39.106954676904991 ], [ -119.921876483695073, 39.106632574513675 ], [ -119.921732225836067, 39.107010469165417 ], [ -119.921793085961582, 39.106954676904991 ] ], [ [ -119.924084120108162, 39.10532160163563 ], [ -119.924287735857462, 39.105184816806513 ], [ -119.923520376415055, 39.105522917095847 ], [ -119.924084120108162, 39.10532160163563 ] ], [ [ -119.921857331839846, 39.105478978740926 ], [ -119.921978304909914, 39.105356056512122 ], [ -119.921674797567775, 39.105598040325276 ], [ -119.921857331839846, 39.105478978740926 ] ], [ [ -119.919793729096867, 39.106667598676232 ], [ -119.920558736493334, 39.106093265538426 ], [ -119.919768091430711, 39.106651852585074 ], [ -119.919793729096867, 39.106667598676232 ] ], [ [ -119.918910867763643, 39.10612535754673 ], [ -119.919693403254414, 39.106605980678189 ], [ -119.919615216322271, 39.106518741537073 ], [ -119.918910867763643, 39.10612535754673 ] ], [ [ -119.91866705666061, 39.105989185240155 ], [ -119.91866294558028, 39.105995082152617 ], [ -119.918673829178275, 39.105992967810785 ], [ -119.918667056660553, 39.105989185240283 ], [ -119.91866705666061, 39.105989185240155 ] ], [ [ -119.917996519452728, 39.104926457385524 ], [ -119.917999205596033, 39.104937174880391 ], [ -119.918013354825078, 39.104907499920962 ], [ -119.917996519452728, 39.104926457385524 ] ], [ [ -119.918709050362949, 39.105901111957785 ], [ -119.918717958103741, 39.105882429743701 ], [ -119.91856960610086, 39.105572215795029 ], [ -119.918709050362949, 39.105901111957785 ] ], [ [ -119.918585605596789, 39.105205091955995 ], [ -119.918803365756887, 39.104983838329197 ], [ -119.918587644727239, 39.105158301660772 ], [ -119.918585605596789, 39.105205091955995 ] ], [ [ -119.923418526445332, 39.113177461916585 ], [ -119.923416959893459, 39.113213454565489 ], [ -119.923435081774116, 39.11325254115453 ], [ -119.923441147465411, 39.113248125632637 ], [ -119.923418526445332, 39.113177461916585 ] ], [ [ -119.923675777912706, 39.115593553456137 ], [ -119.923635978786123, 39.115671878447372 ], [ -119.923657728722972, 39.115652111166575 ], [ -119.923675777912706, 39.115593553456137 ] ] ], [ [ [ -119.925483453659155, 39.112493291947764 ], [ -119.925484236389764, 39.112475295586137 ], [ -119.925506553843974, 39.112493901737551 ], [ -119.925483453659155, 39.112493291947764 ] ] ], [ [ [ -119.926910822496396, 39.119557600644903 ], [ -119.926911605060724, 39.119539604281023 ], [ -119.926933925018886, 39.11955821024354 ], [ -119.926910822496396, 39.119557600644903 ] ] ], [ [ [ -119.926932359899837, 39.119594202971903 ], [ -119.926933925018886, 39.11955821024354 ], [ -119.926978564970426, 39.119595422157012 ], [ -119.926932359899837, 39.119594202971903 ] ] ], [ [ [ -119.926977782421588, 39.119613418521865 ], [ -119.926978564970426, 39.119595422157012 ], [ -119.92704709005028, 39.119615247266417 ], [ -119.926977782421588, 39.119613418521865 ] ] ], [ [ [ -119.928293776657327, 39.121366486157413 ], [ -119.929045052989352, 39.122604721359458 ], [ -119.928668356228258, 39.122756940750506 ], [ -119.926863146486866, 39.122781387317573 ], [ -119.925938620458368, 39.123297497511963 ], [ -119.925836810246835, 39.12351101411349 ], [ -119.92569818751862, 39.123507354840662 ], [ -119.925434376603377, 39.123676643727904 ], [ -119.925577187492465, 39.123630279623626 ], [ -119.926620774017692, 39.123567739577659 ], [ -119.927914589354614, 39.123601876195217 ], [ -119.928335152922529, 39.123504867381932 ], [ -119.929213099437277, 39.123528020135879 ], [ -119.929354068823429, 39.123477686051729 ], [ -119.929654063450215, 39.124026105872247 ], [ -119.929327478643231, 39.124089563374625 ], [ -119.92899463599619, 39.124296991013985 ], [ -119.928362219520565, 39.124478499722514 ], [ -119.926396802703906, 39.124462678833972 ], [ -119.926192780129412, 39.124367209067344 ], [ -119.925846219044914, 39.124358061468286 ], [ -119.925148788726077, 39.123907241496049 ], [ -119.924756022448577, 39.123896870723343 ], [ -119.925113471485176, 39.123780825929764 ], [ -119.924945552721908, 39.123793773347593 ], [ -119.924685927521807, 39.123913036762644 ], [ -119.924136520002691, 39.124312918259754 ], [ -119.924035486213299, 39.124508436676507 ], [ -119.923798961012636, 39.124628308167871 ], [ -119.924013949015617, 39.124471833839998 ], [ -119.924147487577201, 39.124060970021731 ], [ -119.924674572416848, 39.123642481968517 ], [ -119.924706291840522, 39.123445132607422 ], [ -119.924777952721755, 39.123392973904259 ], [ -119.924777952721726, 39.123392973904259 ], [ -119.924778735935604, 39.123374977588284 ], [ -119.924789896191683, 39.123384280782339 ], [ -119.924801839658727, 39.123375587659027 ], [ -119.924801839658699, 39.123375587659027 ], [ -119.924802622866011, 39.123357591342611 ], [ -119.924813783122787, 39.123366894534385 ], [ -119.924825726583947, 39.123358201408401 ], [ -119.924826509784694, 39.12334020509153 ], [ -119.924837670042152, 39.123349508281052 ], [ -119.924849613497429, 39.123340815152375 ], [ -119.92485039669161, 39.123322818834986 ], [ -119.924861556949793, 39.12333212202229 ], [ -119.924873500399244, 39.123323428890849 ], [ -119.924873500399215, 39.123323428890842 ], [ -119.92487428358686, 39.123305432573069 ], [ -119.924885443845739, 39.1233147357581 ], [ -119.924897387289292, 39.123306042623973 ], [ -119.924898170470371, 39.123288046305696 ], [ -119.924909330729946, 39.123297349488489 ], [ -119.925088481987785, 39.123166952293772 ], [ -119.924921274167644, 39.123288656351647 ], [ -119.925076342144777, 39.122914393774863 ], [ -119.92507281661797, 39.122463875691224 ], [ -119.925263908601337, 39.122324784950834 ], [ -119.925302672950579, 39.121965468341095 ], [ -119.925612013490664, 39.121234937675368 ], [ -119.925662917143896, 39.121128179400223 ], [ -119.925849306987359, 39.121097065520757 ], [ -119.927344704516983, 39.120217661083316 ], [ -119.927553635150886, 39.120462639784044 ], [ -119.927589445829085, 39.120440322041468 ], [ -119.92820112313666, 39.121267222817366 ], [ -119.928336612799455, 39.121342864469703 ], [ -119.928293776657327, 39.121366486157413 ] ], [ [ -119.925294454261845, 39.122685931418715 ], [ -119.92560793448672, 39.122472079849004 ], [ -119.925581092280765, 39.122477294649151 ], [ -119.925294454261845, 39.122685931418715 ] ], [ [ -119.927176092749676, 39.12069792819571 ], [ -119.927533974376857, 39.120474892657221 ], [ -119.927472366818634, 39.120473267336088 ], [ -119.927176092749676, 39.12069792819571 ] ] ], [ [ [ -119.927458846637037, 39.125571723752991 ], [ -119.927223888421011, 39.125655609573293 ], [ -119.926784119885028, 39.125662022348926 ], [ -119.927491342128548, 39.125356377057194 ], [ -119.928025873947163, 39.125298410294356 ], [ -119.928354812411882, 39.125180967613787 ], [ -119.929581692208075, 39.125159269566289 ], [ -119.92990906380075, 39.125077815151322 ], [ -119.930081388317703, 39.125370630031469 ], [ -119.929754015511989, 39.125452084881516 ], [ -119.928573339535689, 39.125475003249434 ], [ -119.928407696368708, 39.125560719553889 ], [ -119.927458846637037, 39.125571723752991 ] ] ], [ [ [ -119.930027788193414, 39.126071880492283 ], [ -119.930138620235624, 39.126182904162071 ], [ -119.927921349345382, 39.126106418211187 ], [ -119.928157090788389, 39.126004534650036 ], [ -119.930027788193414, 39.126071880492283 ] ] ], [ [ [ -119.926981913178125, 39.126964465643844 ], [ -119.926571504306466, 39.12682751626231 ], [ -119.927018324720933, 39.126659137491288 ], [ -119.929259497905718, 39.126718254145615 ], [ -119.930096748868024, 39.126614208633256 ], [ -119.930250664029245, 39.126798435930731 ], [ -119.929696145194569, 39.126783817824517 ], [ -119.929481943833295, 39.126922306434196 ], [ -119.929085248127478, 39.12700193148553 ], [ -119.926981913178125, 39.126964465643844 ] ] ], [ [ [ -119.92969862646062, 39.12885583876762 ], [ -119.930061633239006, 39.128487051624283 ], [ -119.930751239070602, 39.128054803337236 ], [ -119.93038276462029, 39.128549567652243 ], [ -119.929854891288699, 39.128986077531351 ], [ -119.92971746368454, 39.129486930458754 ], [ -119.929611320385675, 39.129267927985836 ], [ -119.92969862646062, 39.12885583876762 ] ] ], [ [ [ -119.931697245582242, 39.131303384244958 ], [ -119.931720390828772, 39.131305385940585 ], [ -119.931564991048035, 39.132220158542061 ], [ -119.93176591676621, 39.132387605599021 ], [ -119.931457710516966, 39.132559654755994 ], [ -119.93099878280168, 39.133538495922359 ], [ -119.931392821225657, 39.1340533557564 ], [ -119.931342697310413, 39.134142119915182 ], [ -119.931007033605297, 39.133881036290887 ], [ -119.930868389874192, 39.133877382360019 ], [ -119.930665898371387, 39.133745926472805 ], [ -119.930863267533326, 39.13346285645838 ], [ -119.930730098492759, 39.133333227690265 ], [ -119.930782568400062, 39.133190474631604 ], [ -119.930181359143575, 39.132652134735558 ], [ -119.929810084912503, 39.132678380934721 ], [ -119.929867249116796, 39.132427650089127 ], [ -119.929776386345821, 39.132389220580002 ], [ -119.929721927891805, 39.132045461891721 ], [ -119.928621368231987, 39.130755250989075 ], [ -119.928505422464411, 39.130229700116516 ], [ -119.928880937596958, 39.130188238519288 ], [ -119.928877466328046, 39.130185461212086 ], [ -119.929070137742983, 39.130010372181012 ], [ -119.929586291292566, 39.129843812093299 ], [ -119.930277123835296, 39.129916075324182 ], [ -119.930502710078343, 39.130048140522597 ], [ -119.931772761007181, 39.130099626398717 ], [ -119.93167017528971, 39.130331144614182 ], [ -119.931697245582242, 39.131303384244958 ] ] ], [ [ [ -119.925613520653599, 39.116946929139907 ], [ -119.924130317841701, 39.11701586898598 ], [ -119.923683553804565, 39.117184239070831 ], [ -119.922513174903145, 39.118036151808219 ], [ -119.922383559083201, 39.118357032736697 ], [ -119.922333027513389, 39.11898629238059 ], [ -119.922369861267157, 39.118140466759726 ], [ -119.92256564777621, 39.117893402342581 ], [ -119.923401633378944, 39.117284894096279 ], [ -119.923624432100013, 39.116948456314631 ], [ -119.924075110774041, 39.116690104773902 ], [ -119.92455515225862, 39.116288390706039 ], [ -119.925099794568823, 39.115996482236987 ], [ -119.925543416650427, 39.115900091659149 ], [ -119.926302629394073, 39.115992198835741 ], [ -119.926417759611752, 39.116535747781576 ], [ -119.926302251997342, 39.116532699427388 ], [ -119.925800682129704, 39.116897818527008 ], [ -119.925613520653599, 39.116946929139907 ] ] ] ] } }
]
}
