{
"type": "FeatureCollection",
"name": "X04378",
"crs": { "type": "name", "properties": { "name": "urn:ogc:def:crs:OGC:1.3:CRS84" } },
"features": [
{ "type": "Feature", "properties": { "part": "direct", "crossing_id": "X04378", "area_ac": 6.8, "n_upstream": null }, "geometry": { "type": "Polygon", "coordinates": [ [ [ -119.953541971116096, 39.262374925466844 ], [ -119.953973243537547, 39.262584401799742 ], [ -119.954103567810193, 39.262785998336177 ], [ -119.954219318097685, 39.262789028540013 ], [ -119.9546675095241, 39.263143079565744 ], [ -119.955466856614365, 39.26341623441288 ], [ -119.955576374074155, 39.263563234509014 ], [ -119.956191305302582, 39.263813541946618 ], [ -119.956152572529049, 39.264172864474517 ], [ -119.955920062733995, 39.264725301841921 ], [ -119.955426333208209, 39.264352047078511 ], [ -119.954984913090584, 39.264376528647198 ], [ -119.954802826224451, 39.264299695779634 ], [ -119.954615283134558, 39.264348837317662 ], [ -119.954210267133078, 39.264067983468493 ], [ -119.953659334362328, 39.263945458802965 ], [ -119.95375661445415, 39.263839905173782 ], [ -119.953797698254931, 39.263426594786552 ], [ -119.953706656677284, 39.263388177525208 ], [ -119.953650461511586, 39.263080420810937 ], [ -119.953447568742192, 39.262948990743872 ], [ -119.953499327305096, 39.262824228529347 ], [ -119.953376022851373, 39.262460664080535 ], [ -119.953541971116096, 39.262374925466844 ] ] ] } },
{ "type": "Feature", "properties": { "part": "upstream", "crossing_id": "X04378", "area_ac": 40.8, "n_upstream": 15.0 }, "geometry": { "type": "Polygon", "coordinates": [ [ [ -119.954616062655958, 39.2643308409356 ], [ -119.95456664337037, 39.264401614510859 ], [ -119.954918579077031, 39.264302725385555 ], [ -119.954984913090584, 39.264376528647198 ], [ -119.955426333208209, 39.264352047078511 ], [ -119.955852948184088, 39.264669495468056 ], [ -119.95583078490175, 39.264729722237433 ], [ -119.956310508895172, 39.264807583987185 ], [ -119.956961629061439, 39.26529305250191 ], [ -119.956949165806279, 39.265580995187854 ], [ -119.95720382725024, 39.265587655656546 ], [ -119.957322697932639, 39.265518697264 ], [ -119.957737858966496, 39.265565587433557 ], [ -119.958641324066988, 39.266111695279875 ], [ -119.958945404195319, 39.266047576601814 ], [ -119.95918937090903, 39.265765684428672 ], [ -119.95930590500663, 39.265750713312251 ], [ -119.959365239917204, 39.265986482399981 ], [ -119.959813477918047, 39.266340515234404 ], [ -119.960154522923233, 39.266493560905602 ], [ -119.960211526705137, 39.266783319075159 ], [ -119.960462769655521, 39.267193093335372 ], [ -119.960431370200524, 39.267059314810751 ], [ -119.960711523537199, 39.26701258324195 ], [ -119.960824169455037, 39.267087593058939 ], [ -119.961240898648484, 39.267098478199188 ], [ -119.961711709169009, 39.266930606128888 ], [ -119.962222599459551, 39.266907913058269 ], [ -119.962241085186804, 39.267016496556522 ], [ -119.961163478226567, 39.267817128103182 ], [ -119.961023789082702, 39.267831496219472 ], [ -119.960855501860451, 39.267971234722729 ], [ -119.96062709516049, 39.267893200842231 ], [ -119.960441102041486, 39.267906358596804 ], [ -119.960057442180343, 39.26820262013085 ], [ -119.959639928562581, 39.268209726955163 ], [ -119.959528060631783, 39.268116719529615 ], [ -119.959731955602507, 39.267689644763834 ], [ -119.95962942825858, 39.267380679973172 ], [ -119.959357056815563, 39.267247444325122 ], [ -119.958262339163554, 39.266299972418452 ], [ -119.958053977479821, 39.266294524797139 ], [ -119.958035498385428, 39.266185940882373 ], [ -119.957626563845039, 39.26599508021183 ], [ -119.957921299553021, 39.266146921390323 ], [ -119.957225983654183, 39.266146755650361 ], [ -119.957161942455286, 39.266267040574618 ], [ -119.957198158954512, 39.266254128691074 ], [ -119.9570977644957, 39.266431670903259 ], [ -119.957211184354037, 39.266488687621752 ], [ -119.957338409106839, 39.266762266741281 ], [ -119.956856598170589, 39.267070134165685 ], [ -119.956861358277322, 39.267074092031777 ], [ -119.95685083485661, 39.267073816777199 ], [ -119.956768679066656, 39.267126312168394 ], [ -119.95631095253357, 39.267474080194802 ], [ -119.956233260922303, 39.267484058856965 ], [ -119.956240718407116, 39.267490259552943 ], [ -119.956217566758028, 39.267489653862896 ], [ -119.956217722597827, 39.267486054583067 ], [ -119.956194415109664, 39.267489048168251 ], [ -119.956037029055452, 39.267376829799389 ], [ -119.95621678755866, 39.26750765026204 ], [ -119.955738168110017, 39.267855463302247 ], [ -119.955335003541634, 39.268601618096724 ], [ -119.955056400118096, 39.268612343557265 ], [ -119.955053282004087, 39.268684329061699 ], [ -119.95493674236937, 39.268699295682531 ], [ -119.954570208416655, 39.268599617854441 ], [ -119.954310078666424, 39.268718925746924 ], [ -119.954592818005167, 39.268077723149482 ], [ -119.954577262760608, 39.268021357981326 ], [ -119.954310858387018, 39.268700929383492 ], [ -119.953624877344481, 39.268484784831799 ], [ -119.953760337904555, 39.267926208343525 ], [ -119.95366050731657, 39.268197449392609 ], [ -119.95362746159941, 39.267890298946618 ], [ -119.953769696874573, 39.267267039385196 ], [ -119.95374502331255, 39.267316840329599 ], [ -119.953412568574123, 39.266965816377557 ], [ -119.953537684080587, 39.266752891262783 ], [ -119.953378744273294, 39.26667666222454 ], [ -119.953214345215244, 39.266726407441958 ], [ -119.952862644746887, 39.266284794079205 ], [ -119.95303484273515, 39.266055085825684 ], [ -119.952946918276581, 39.265944682468522 ], [ -119.95297708919928, 39.265783321640257 ], [ -119.95284052315138, 39.265725694625715 ], [ -119.953250468205326, 39.265358078297972 ], [ -119.95328375763718, 39.265124731910895 ], [ -119.953567805857858, 39.264988035625066 ], [ -119.953671325841469, 39.26473851123265 ], [ -119.953860429998613, 39.264653378550094 ], [ -119.954061228719667, 39.264298299954703 ], [ -119.954042756162707, 39.264189715635851 ], [ -119.954210267133078, 39.264067983468493 ], [ -119.954616062655958, 39.2643308409356 ] ], [ [ -119.955002142832427, 39.265584104248752 ], [ -119.955095526253515, 39.265568531463828 ], [ -119.955137986728843, 39.265530005772916 ], [ -119.955002142832427, 39.265584104248752 ] ], [ [ -119.955698783378537, 39.266088787921511 ], [ -119.95553180102759, 39.266214808031656 ], [ -119.955777144338526, 39.266064875246592 ], [ -119.955747423573285, 39.266036010280281 ], [ -119.955749761407063, 39.265982021092611 ], [ -119.955699562671043, 39.26607079152668 ], [ -119.955150299503444, 39.26559574050259 ], [ -119.955140269396665, 39.265605736010222 ], [ -119.955095526253515, 39.265568531463828 ], [ -119.955698783378537, 39.266088787921511 ] ], [ [ -119.954479782066713, 39.266172076103267 ], [ -119.954537327469325, 39.266148475179179 ], [ -119.954972756111218, 39.265727469409313 ], [ -119.954479782066713, 39.266172076103267 ] ], [ [ -119.954176805315853, 39.26644532279424 ], [ -119.954383607415409, 39.266486770113332 ], [ -119.954247038776401, 39.266429144658161 ], [ -119.954305992161196, 39.266328812978017 ], [ -119.954176805315853, 39.26644532279424 ] ], [ [ -119.953976594955421, 39.266849434542742 ], [ -119.954043894976365, 39.266838212355211 ], [ -119.954044674712904, 39.266820215990386 ], [ -119.953984165511883, 39.26683415395857 ], [ -119.953976594955421, 39.266849434542742 ] ], [ [ -119.953947390620485, 39.2669257696692 ], [ -119.953938886019372, 39.266925547006515 ], [ -119.953923152572358, 39.266957303651445 ], [ -119.954114908579129, 39.266804037950898 ], [ -119.954079791649747, 39.266812126976106 ], [ -119.95409097747762, 39.266821428212658 ], [ -119.954067826094899, 39.266820822103817 ], [ -119.954068086004966, 39.266814823315421 ], [ -119.954044674712932, 39.266820215990386 ], [ -119.954067046364287, 39.266838818469033 ], [ -119.954043894976365, 39.266838212355211 ], [ -119.953947390620485, 39.2669257696692 ] ], [ [ -119.953848785911745, 39.267107406078111 ], [ -119.95385993562958, 39.267101645855163 ], [ -119.953898375013821, 39.267046600078565 ], [ -119.953877589166012, 39.267049269383698 ], [ -119.953848785911745, 39.267107406078111 ] ], [ [ -119.954561363922664, 39.267963747701643 ], [ -119.954552751511102, 39.267932540137423 ], [ -119.953953145392646, 39.267862792750172 ], [ -119.954561363922664, 39.267963747701643 ] ], [ [ -119.953910740941467, 39.26777159864892 ], [ -119.953818134179897, 39.267769173993841 ], [ -119.953812603447915, 39.267784201206162 ], [ -119.953910740941467, 39.26777159864892 ] ], [ [ -119.953958840565591, 39.267050549002008 ], [ -119.953989014924758, 39.267034960113619 ], [ -119.953971086153203, 39.267037262529961 ], [ -119.953958840565591, 39.267050549002008 ] ], [ [ -119.954758193028709, 39.266561843589756 ], [ -119.954797212413624, 39.266569663675881 ], [ -119.954804812606667, 39.266561417236723 ], [ -119.954758193028709, 39.266561843589756 ] ], [ [ -119.955075807714749, 39.2665589385172 ], [ -119.955206012835617, 39.266474893870999 ], [ -119.955251937804334, 39.266426016734151 ], [ -119.955075807714749, 39.2665589385172 ] ], [ [ -119.955721609615253, 39.265026394750784 ], [ -119.955820446780862, 39.264884846548981 ], [ -119.955801958087477, 39.26480805639212 ], [ -119.955721609615253, 39.265026394750784 ] ], [ [ -119.955322447246388, 39.267286064522281 ], [ -119.955226723212846, 39.267355626547278 ], [ -119.95537541254636, 39.267288688386429 ], [ -119.955323226668341, 39.267268068137462 ], [ -119.955372647416425, 39.267197294319793 ], [ -119.955324785510143, 39.267232075367581 ], [ -119.955311508092819, 39.267221771259464 ], [ -119.955322447246388, 39.267286064522281 ] ], [ [ -119.954857312084059, 39.266787438091633 ], [ -119.95478640948501, 39.266963842450039 ], [ -119.954799316141404, 39.267056171833971 ], [ -119.954857312084059, 39.266787438091633 ] ], [ [ -119.954932084896242, 39.266766428689493 ], [ -119.955127413500236, 39.266558545552776 ], [ -119.954857312084059, 39.266787438091633 ], [ -119.954932084896242, 39.266766428689493 ] ], [ [ -119.954936445379175, 39.266999931674263 ], [ -119.954895040148031, 39.266986610158419 ], [ -119.954799316141404, 39.267056171833971 ], [ -119.954936445379175, 39.266999931674263 ] ], [ [ -119.957130899731567, 39.266278107893946 ], [ -119.957014506791154, 39.266213291858818 ], [ -119.957103996030071, 39.266287699563684 ], [ -119.957130899731567, 39.266278107893946 ] ], [ [ -119.956866555418443, 39.265642080122831 ], [ -119.956783992560702, 39.265648742076209 ], [ -119.956051505519952, 39.265971899261459 ], [ -119.956866555418443, 39.265642080122831 ] ], [ [ -119.955100285382471, 39.267064049039313 ], [ -119.955128575183963, 39.267079803407192 ], [ -119.955061151754833, 39.267027478223902 ], [ -119.955077913376797, 39.267045446746614 ], [ -119.955100285382471, 39.267064049039313 ] ], [ [ -119.955051788610106, 39.267037041536639 ], [ -119.955077653550703, 39.267051445540432 ], [ -119.955077913376797, 39.267045446746614 ], [ -119.955051788610106, 39.267037041536639 ] ], [ [ -119.954944535416942, 39.266827011550561 ], [ -119.954922868694993, 39.266879237829961 ], [ -119.954978684697295, 39.266939073060911 ], [ -119.954944535416942, 39.266827011550561 ] ], [ [ -119.956122935492786, 39.266903944465696 ], [ -119.956314292625351, 39.266861596865951 ], [ -119.956176163164841, 39.266839966392403 ], [ -119.956122935492786, 39.266903944465696 ] ], [ [ -119.955659038534179, 39.267006603967573 ], [ -119.955731844666957, 39.266990492255182 ], [ -119.955382000250225, 39.266981337683774 ], [ -119.955659038534179, 39.267006603967573 ] ], [ [ -119.955859835863819, 39.266651522296442 ], [ -119.955828340931703, 39.266672318373097 ], [ -119.955756504680323, 39.266758662870686 ], [ -119.955857498058833, 39.26670551148348 ], [ -119.955859835863819, 39.266651522296442 ] ], [ [ -119.955728606858045, 39.266738172554298 ], [ -119.955597377530964, 39.266824822650399 ], [ -119.955596598191406, 39.266842819041223 ], [ -119.955728606858045, 39.266738172554298 ] ] ] } }
]
}
