{
"type": "FeatureCollection",
"name": "X04326",
"crs": { "type": "name", "properties": { "name": "urn:ogc:def:crs:OGC:1.3:CRS84" } },
"features": [
{ "type": "Feature", "properties": { "part": "direct", "crossing_id": "X04326", "area_ac": 2.3 }, "geometry": { "type": "Polygon", "coordinates": [ [ [ -119.952533492526669, 38.85986158385748 ], [ -119.952645511084143, 38.859936580070247 ], [ -119.951772280068525, 38.860418266651031 ], [ -119.950935074371316, 38.861135117567251 ], [ -119.949611365839573, 38.861911315604658 ], [ -119.949289094246481, 38.86190289028535 ], [ -119.949050432165194, 38.862094844515369 ], [ -119.949038960283133, 38.861824279637943 ], [ -119.949159445721605, 38.861701306278604 ], [ -119.949932167122256, 38.861415206971877 ], [ -119.950835365626148, 38.860772158669619 ], [ -119.951065556293571, 38.860778173651674 ], [ -119.952300997628839, 38.859909564667817 ], [ -119.952533492526669, 38.85986158385748 ] ] ] } }
]
}
