{
"type": "FeatureCollection",
"name": "X04360",
"crs": { "type": "name", "properties": { "name": "urn:ogc:def:crs:OGC:1.3:CRS84" } },
"features": [
{ "type": "Feature", "properties": { "part": "direct", "crossing_id": "X04360", "area_ac": 0.4 }, "geometry": { "type": "Polygon", "coordinates": [ [ [ -120.107835510200331, 38.990913506200052 ], [ -120.107753852661048, 38.991217785052505 ], [ -120.107495009900134, 38.991337488756081 ], [ -120.107015054225926, 38.991217472370018 ], [ -120.107136977016793, 38.991058336527878 ], [ -120.10773592050063, 38.991091214766989 ], [ -120.107835510200331, 38.990913506200052 ] ] ] } }
]
}
