{
"type": "FeatureCollection",
"name": "X04305",
"crs": { "type": "name", "properties": { "name": "urn:ogc:def:crs:OGC:1.3:CRS84" } },
"features": [
{ "type": "Feature", "properties": { "part": "direct", "crossing_id": "X04305", "area_ac": 0.0 }, "geometry": { "type": "Polygon", "coordinates": [ [ [ -120.196467382279067, 39.105457214143023 ], [ -120.196534552002333, 39.105512884439889 ], [ -120.196579331876436, 39.105549997951513 ], [ -120.196487631326121, 39.105529773206371 ], [ -120.196467382279067, 39.105457214143023 ] ] ] } }
]
}
