{
"type": "FeatureCollection",
"name": "X04321",
"crs": { "type": "name", "properties": { "name": "urn:ogc:def:crs:OGC:1.3:CRS84" } },
"features": [
{ "type": "Feature", "properties": { "part": "direct", "crossing_id": "X04321", "area_ac": 10.3 }, "geometry": { "type": "Polygon", "coordinates": [ [ [ -120.161135352774622, 39.139339846048784 ], [ -120.161178686655276, 39.139412973316631 ], [ -120.161410549112873, 39.139400607043775 ], [ -120.161636624687944, 39.139532241255978 ], [ -120.161916161984536, 39.139485000370698 ], [ -120.161981164197741, 39.139594690878582 ], [ -120.162163906361755, 39.139653197112814 ], [ -120.162673137608522, 39.139647586592858 ], [ -120.162848650011611, 39.139886093132795 ], [ -120.163074729938387, 39.140017724697913 ], [ -120.163093506084337, 39.14012628857153 ], [ -120.163275527670208, 39.140202793281198 ], [ -120.163483555512087, 39.140207860102819 ], [ -120.163555789675314, 39.140137548375264 ], [ -120.163760926049477, 39.140214615288279 ], [ -120.164140858504112, 39.140548186796579 ], [ -120.164042619015078, 39.140689936648478 ], [ -120.164321436983073, 39.140660690259182 ], [ -120.16505458826073, 39.14141726699058 ], [ -120.16484800174932, 39.141376202516959 ], [ -120.164691980441845, 39.141228262198723 ], [ -120.164505618600003, 39.141259760510906 ], [ -120.164235471155649, 39.141073005408067 ], [ -120.163656162956315, 39.141094933747389 ], [ -120.163487132199222, 39.141270994506634 ], [ -120.163024118175343, 39.141277734293858 ], [ -120.162516321447953, 39.141247345662116 ], [ -120.162036702877316, 39.141091517254999 ], [ -120.161947861594243, 39.140999263596825 ], [ -120.161975315871786, 39.140891826151986 ], [ -120.161385916904393, 39.140589177894036 ], [ -120.16118439979374, 39.140422106312151 ], [ -120.161233522183181, 39.140351232701136 ], [ -120.161144682860211, 39.140258978492611 ], [ -120.160801588205459, 39.140160526100857 ], [ -120.160351608417173, 39.139843253721054 ], [ -120.160431081867259, 39.139592943043347 ], [ -120.160522814012012, 39.139613197337795 ], [ -120.1607142379914, 39.139455704571937 ], [ -120.160968490997746, 39.139461902792213 ], [ -120.161135352774622, 39.139339846048784 ] ] ] } }
]
}
