{
"type": "FeatureCollection",
"name": "X04382",
"crs": { "type": "name", "properties": { "name": "urn:ogc:def:crs:OGC:1.3:CRS84" } },
"features": [
{ "type": "Feature", "properties": { "part": "direct", "crossing_id": "X04382", "area_ac": 0.2 }, "geometry": { "type": "Polygon", "coordinates": [ [ [ -119.941258991066135, 39.069109026855244 ], [ -119.941649127324197, 39.069173320294354 ], [ -119.941646017641617, 39.069245307366558 ], [ -119.941552894481646, 39.069260879973804 ], [ -119.94150050193231, 39.069403641988103 ], [ -119.941179623935724, 39.069341166401003 ], [ -119.941127230574011, 39.069483928213224 ], [ -119.941033329424712, 39.069517497144652 ], [ -119.941258991066135, 39.069109026855244 ] ] ] } }
]
}
