{
"type": "FeatureCollection",
"name": "X04352",
"crs": { "type": "name", "properties": { "name": "urn:ogc:def:crs:OGC:1.3:CRS84" } },
"features": [
{ "type": "Feature", "properties": { "part": "direct", "crossing_id": "X04352", "area_ac": 0.0 }, "geometry": { "type": "MultiPolygon", "coordinates": [ [ [ [ -120.188213783099144, 39.111798790517206 ], [ -120.188236172641197, 39.111817348850543 ], [ -120.188213067217418, 39.111816791134473 ], [ -120.188213783099144, 39.111798790517206 ] ] ], [ [ [ -120.188191393568815, 39.111780232179875 ], [ -120.188213783099144, 39.111798790517206 ], [ -120.188190677681845, 39.111798232796914 ], [ -120.188191393568815, 39.111780232179875 ] ] ], [ [ [ -120.188099687839369, 39.111760000638789 ], [ -120.188124225048256, 39.111724557144449 ], [ -120.188191393568815, 39.111780232179875 ], [ -120.188099687839369, 39.111760000638789 ] ] ], [ [ [ -120.188033951261446, 39.111668324323873 ], [ -120.188079446093141, 39.111687440434523 ], [ -120.188033235337301, 39.111686324938766 ], [ -120.188033951261446, 39.111668324323873 ] ] ], [ [ [ -120.188011561819749, 39.111649765954837 ], [ -120.188033951261446, 39.111668324323873 ], [ -120.188010845890346, 39.111667766569497 ], [ -120.188011561819749, 39.111649765954837 ] ] ] ] } }
]
}
