{
"type": "FeatureCollection",
"name": "X04340",
"crs": { "type": "name", "properties": { "name": "urn:ogc:def:crs:OGC:1.3:CRS84" } },
"features": [
{ "type": "Feature", "properties": { "part": "direct", "crossing_id": "X04340", "area_ac": 0.2 }, "geometry": { "type": "Polygon", "coordinates": [ [ [ -120.19377417895808, 39.17793221032705 ], [ -120.193583432105299, 39.178071754948427 ], [ -120.192996656038559, 39.178273823372514 ], [ -120.193213396972453, 39.178062835337812 ], [ -120.19377417895808, 39.17793221032705 ] ] ] } }
]
}
