{
"type": "FeatureCollection",
"name": "X04338",
"crs": { "type": "name", "properties": { "name": "urn:ogc:def:crs:OGC:1.3:CRS84" } },
"features": [
{ "type": "Feature", "properties": { "part": "direct", "crossing_id": "X04338", "area_ac": 3.0 }, "geometry": { "type": "Polygon", "coordinates": [ [ [ -120.228207027593484, 39.07565807764275 ], [ -120.228797617466014, 39.075924378602231 ], [ -120.22924612149788, 39.076277388577523 ], [ -120.229452564258153, 39.076318333640984 ], [ -120.229913753088653, 39.076347316681677 ], [ -120.230615044002917, 39.076147769239171 ], [ -120.230845286107566, 39.076171259363981 ], [ -120.230636730235148, 39.076184320891642 ], [ -120.230208349411654, 39.07649846476626 ], [ -120.22928526534767, 39.076458500484186 ], [ -120.228575672569477, 39.076279462081224 ], [ -120.227423762182667, 39.076179985925542 ], [ -120.227014406060405, 39.076008081740298 ], [ -120.226865261769973, 39.076274803828525 ], [ -120.226978793825921, 39.075736962656094 ], [ -120.227190168896442, 39.075651902344845 ], [ -120.228207027593484, 39.07565807764275 ] ] ] } }
]
}
