{
"type": "FeatureCollection",
"name": "X04389",
"crs": { "type": "name", "properties": { "name": "urn:ogc:def:crs:OGC:1.3:CRS84" } },
"features": [
{ "type": "Feature", "properties": { "part": "direct", "crossing_id": "X04389", "area_ac": 0.0 }, "geometry": { "type": "Polygon", "coordinates": [ [ [ -120.096743569717177, 39.197354238705373 ], [ -120.096762252882215, 39.197462809087035 ], [ -120.096642146273169, 39.197567918045472 ], [ -120.096649560597768, 39.197387928917408 ], [ -120.096743569717177, 39.197354238705373 ] ] ] } }
]
}
