{
"type": "FeatureCollection",
"name": "X04308",
"crs": { "type": "name", "properties": { "name": "urn:ogc:def:crs:OGC:1.3:CRS84" } },
"features": [
{ "type": "Feature", "properties": { "part": "direct", "crossing_id": "X04308", "area_ac": 0.2 }, "geometry": { "type": "MultiPolygon", "coordinates": [ [ [ [ -120.098231956376821, 38.945107502875267 ], [ -120.098455841331528, 38.94527523519951 ], [ -120.098719217819607, 38.945606111488523 ], [ -120.098708937725675, 38.945858107628538 ], [ -120.098526743546145, 38.94579952095625 ], [ -120.098441888643364, 38.945617229897287 ], [ -120.098517646397184, 38.945456952792348 ], [ -120.098231956376821, 38.945107502875267 ] ] ], [ [ [ -120.098187326394623, 38.945070356419542 ], [ -120.098209641379896, 38.94508892964933 ], [ -120.098186591985964, 38.945088356137418 ], [ -120.098187326394623, 38.945070356419542 ] ] ], [ [ [ -120.098165011420974, 38.945051783185896 ], [ -120.098187326394623, 38.945070356419542 ], [ -120.098164277007186, 38.94506978290346 ], [ -120.098165011420974, 38.945051783185896 ] ] ], [ [ [ -120.098142696458922, 38.945033209948306 ], [ -120.098165011420974, 38.945051783185896 ], [ -120.098141962039989, 38.945051209665621 ], [ -120.098142696458922, 38.945033209948306 ] ] ], [ [ [ -120.098120381508508, 38.94501463670688 ], [ -120.098142696458922, 38.945033209948306 ], [ -120.098119647084417, 38.945032636423853 ], [ -120.098120381508508, 38.94501463670688 ] ] ], [ [ [ -120.098098066569747, 38.944996063461552 ], [ -120.098120381508508, 38.94501463670688 ], [ -120.098097332140483, 38.945014063178256 ], [ -120.098098066569747, 38.944996063461552 ] ] ], [ [ [ -120.098075751642583, 38.944977490212381 ], [ -120.098098066569747, 38.944996063461552 ], [ -120.09807501720816, 38.94499548992875 ], [ -120.098075751642583, 38.944977490212381 ] ] ], [ [ [ -120.098053436727071, 38.944958916959308 ], [ -120.098075751642583, 38.944977490212381 ], [ -120.098052702287504, 38.944976916675401 ], [ -120.098053436727071, 38.944958916959308 ] ] ], [ [ [ -120.098031121823198, 38.944940343702328 ], [ -120.098053436727071, 38.944958916959308 ], [ -120.098030387378458, 38.944958343418151 ], [ -120.098031121823198, 38.944940343702328 ] ] ], [ [ [ -120.098008806930892, 38.944921770441496 ], [ -120.098031121823198, 38.944940343702328 ], [ -120.098008072481022, 38.944939770156985 ], [ -120.098008806930892, 38.944921770441496 ] ] ], [ [ [ -120.097986492050268, 38.944903197176785 ], [ -120.098008806930892, 38.944921770441496 ], [ -120.097985757595211, 38.94492119689199 ], [ -120.097986492050268, 38.944903197176785 ] ] ], [ [ [ -120.097964177181268, 38.944884623908209 ], [ -120.097986492050268, 38.944903197176785 ], [ -120.097963442721067, 38.944902623623086 ], [ -120.097964177181268, 38.944884623908209 ] ] ], [ [ [ -120.09794186232385, 38.944866050635738 ], [ -120.097964177181268, 38.944884623908209 ], [ -120.097941127858519, 38.944884050350339 ], [ -120.09794186232385, 38.944866050635738 ] ] ], [ [ [ -120.097919547478085, 38.944847477359367 ], [ -120.09794186232385, 38.944866050635738 ], [ -120.097918813007581, 38.944865477073691 ], [ -120.097919547478085, 38.944847477359367 ] ] ], [ [ [ -120.097897232643959, 38.944828904079145 ], [ -120.097919547478085, 38.944847477359367 ], [ -120.097896498168282, 38.944846903793142 ], [ -120.097897232643959, 38.944828904079145 ] ] ] ] } }
]
}
