{
"type": "FeatureCollection",
"name": "X04387",
"crs": { "type": "name", "properties": { "name": "urn:ogc:def:crs:OGC:1.3:CRS84" } },
"features": [
{ "type": "Feature", "properties": { "part": "direct", "crossing_id": "X04387", "area_ac": 0.2 }, "geometry": { "type": "MultiPolygon", "coordinates": [ [ [ [ -120.015055084989669, 38.822360718989344 ], [ -120.015077340917998, 38.822379306115451 ], [ -120.015054332858455, 38.822378717740051 ], [ -120.015055084989669, 38.822360718989344 ] ] ], [ [ [ -120.015078845168176, 38.82234330861327 ], [ -120.015101101097827, 38.822361895734865 ], [ -120.0150780930434, 38.822361307364368 ], [ -120.015078845168176, 38.82234330861327 ] ] ], [ [ [ -120.014297324234704, 38.822305302599119 ], [ -120.014410107464656, 38.822362241392312 ], [ -120.015052828594023, 38.822414715241166 ], [ -120.014772218568211, 38.822515646849261 ], [ -120.014472361077978, 38.822525995553271 ], [ -120.014293562625582, 38.822395296290438 ], [ -120.014297324234704, 38.822305302599119 ] ] ] ] } }
]
}
