{
"type": "FeatureCollection",
"name": "X04396",
"crs": { "type": "name", "properties": { "name": "urn:ogc:def:crs:OGC:1.3:CRS84" } },
"features": [
{ "type": "Feature", "properties": { "part": "direct", "crossing_id": "X04396", "area_ac": 0.0 }, "geometry": { "type": "MultiPolygon", "coordinates": [ [ [ [ -120.080906135265465, 39.226957017512838 ], [ -120.080928529995916, 39.22697559648357 ], [ -120.080905389034513, 39.226975016082321 ], [ -120.080906135265465, 39.226957017512838 ] ] ], [ [ [ -120.080814317703926, 39.226936697295379 ], [ -120.080863584560163, 39.226865863852652 ], [ -120.080906135265465, 39.226957017512838 ], [ -120.080814317703926, 39.226936697295379 ] ] ] ] } }
]
}
