{
"type": "FeatureCollection",
"name": "X04307",
"crs": { "type": "name", "properties": { "name": "urn:ogc:def:crs:OGC:1.3:CRS84" } },
"features": [
{ "type": "Feature", "properties": { "part": "direct", "crossing_id": "X04307", "area_ac": 3.0 }, "geometry": { "type": "Polygon", "coordinates": [ [ [ -120.18522888972484, 39.111834810275013 ], [ -120.185510628671281, 39.112310082862905 ], [ -120.185455101836467, 39.112542973779988 ], [ -120.185610392016471, 39.112708886753808 ], [ -120.185554865114895, 39.112941777704982 ], [ -120.185663944768024, 39.11310657410769 ], [ -120.185717673854469, 39.114080837992283 ], [ -120.185583511376748, 39.114546061529559 ], [ -120.185480163028714, 39.114237260475207 ], [ -120.185122648923354, 39.113922317709644 ], [ -120.185066231985502, 39.113596632497419 ], [ -120.184910941301624, 39.113430718795328 ], [ -120.185188756784726, 39.11284284214706 ], [ -120.185038484327748, 39.112550924680328 ], [ -120.185050668277697, 39.112244915051214 ], [ -120.18491418548173, 39.112187563172789 ], [ -120.184766065692628, 39.111841643724048 ], [ -120.18522888972484, 39.111834810275013 ] ] ] } }
]
}
