{
"type": "FeatureCollection",
"name": "X04347",
"crs": { "type": "name", "properties": { "name": "urn:ogc:def:crs:OGC:1.3:CRS84" } },
"features": [
{ "type": "Feature", "properties": { "part": "direct", "crossing_id": "X04347", "area_ac": 0.0 }, "geometry": { "type": "MultiPolygon", "coordinates": [ [ [ [ -120.000832319222809, 38.794104325102182 ], [ -120.000854562946074, 38.794122914522767 ], [ -120.000831564272602, 38.794122323705913 ], [ -120.000832319222809, 38.794104325102182 ] ] ], [ [ [ -120.000856072834281, 38.794086917314431 ], [ -120.000878316558911, 38.794105506730617 ], [ -120.000855317890526, 38.794104915918652 ], [ -120.000856072834281, 38.794086917314431 ] ] ], [ [ [ -120.000879071496897, 38.794087508126019 ], [ -120.000971066154108, 38.794089871327159 ], [ -120.001039307256491, 38.7941096422878 ], [ -120.000879071496897, 38.794087508126019 ] ] ] ] } }
]
}
