{
"type": "FeatureCollection",
"name": "X04332",
"crs": { "type": "name", "properties": { "name": "urn:ogc:def:crs:OGC:1.3:CRS84" } },
"features": [
{ "type": "Feature", "properties": { "part": "direct", "crossing_id": "X04332", "area_ac": 17.0 }, "geometry": { "type": "Polygon", "coordinates": [ [ [ -120.132566350280726, 39.230889803585086 ], [ -120.132420158702772, 39.231066376146082 ], [ -120.13367368145488, 39.232142266118039 ], [ -120.13393088722529, 39.232653088683946 ], [ -120.134355967054191, 39.233023904711473 ], [ -120.134589605529072, 39.232975604846715 ], [ -120.134951119075907, 39.23320071415818 ], [ -120.135421763650029, 39.233590665478204 ], [ -120.135619075458337, 39.233865783453282 ], [ -120.135425130891178, 39.234077219350667 ], [ -120.135605159063829, 39.234207772391159 ], [ -120.135615851908312, 39.234514332100815 ], [ -120.136351796326394, 39.235217105473744 ], [ -120.135550660965976, 39.236116279890794 ], [ -120.134988152477689, 39.235706050163159 ], [ -120.134521160743731, 39.235226099794524 ], [ -120.134204462362902, 39.235038127498818 ], [ -120.134233469615467, 39.234894702263851 ], [ -120.134007153225895, 39.234763007255395 ], [ -120.133814975969287, 39.234361891005427 ], [ -120.133389891459245, 39.233991072881793 ], [ -120.133375543244327, 39.233774510222659 ], [ -120.133264953147773, 39.233645664183854 ], [ -120.133526136316448, 39.233489940333953 ], [ -120.132462875998272, 39.232292614540924 ], [ -120.132316267617583, 39.231910636046067 ], [ -120.131920215419086, 39.231396388536119 ], [ -120.131914671503424, 39.230963833374965 ], [ -120.132005778202156, 39.231002113351408 ], [ -120.132566350280726, 39.230889803585086 ] ] ] } }
]
}
