{
"type": "FeatureCollection",
"name": "X04303",
"crs": { "type": "name", "properties": { "name": "urn:ogc:def:crs:OGC:1.3:CRS84" } },
"features": [
{ "type": "Feature", "properties": { "part": "direct", "crossing_id": "X04303", "area_ac": 0.1 }, "geometry": { "type": "MultiPolygon", "coordinates": [ [ [ [ -120.193857377894133, 39.178168446382948 ], [ -120.193879789002722, 39.178187004265951 ], [ -120.193856661758488, 39.178186446882115 ], [ -120.193857377894133, 39.178168446382948 ] ] ], [ [ [ -120.193856661758488, 39.178186446882115 ], [ -120.193730999168579, 39.178435666850007 ], [ -120.193564094398099, 39.178557768295178 ], [ -120.193308977194206, 39.178569636572867 ], [ -120.193856661758488, 39.178186446882115 ] ] ], [ [ [ -120.193881221261634, 39.178151003266905 ], [ -120.193903632371487, 39.178169561145324 ], [ -120.193880505132498, 39.178169003766428 ], [ -120.193881221261634, 39.178151003266905 ] ] ], [ [ [ -120.19390506461734, 39.178133560145454 ], [ -120.193927475728501, 39.178152118019398 ], [ -120.193904348494726, 39.178151560645439 ], [ -120.19390506461734, 39.178133560145454 ] ] ] ] } }
]
}
