{
"type": "FeatureCollection",
"name": "X04344",
"crs": { "type": "name", "properties": { "name": "urn:ogc:def:crs:OGC:1.3:CRS84" } },
"features": [
{ "type": "Feature", "properties": { "part": "direct", "crossing_id": "X04344", "area_ac": 1.5 }, "geometry": { "type": "Polygon", "coordinates": [ [ [ -120.213076612649161, 39.077153033154907 ], [ -120.213629466275577, 39.077202291248476 ], [ -120.213786877697046, 39.077314163758743 ], [ -120.21364830967768, 39.077310850214772 ], [ -120.212846790159745, 39.077706095726512 ], [ -120.212661323130376, 39.077719677204215 ], [ -120.212208344009966, 39.07806920126248 ], [ -120.211986611909651, 39.07782966123694 ], [ -120.212037055291901, 39.077722759903516 ], [ -120.21272664978612, 39.077234752414725 ], [ -120.213076612649161, 39.077153033154907 ] ] ] } }
]
}
