{
"type": "FeatureCollection",
"name": "X04312",
"crs": { "type": "name", "properties": { "name": "urn:ogc:def:crs:OGC:1.3:CRS84" } },
"features": [
{ "type": "Feature", "properties": { "part": "direct", "crossing_id": "X04312", "area_ac": 0.4 }, "geometry": { "type": "MultiPolygon", "coordinates": [ [ [ [ -120.078600670631729, 38.875878701597394 ], [ -120.079130449968801, 38.876450525295347 ], [ -120.079079234295875, 38.876575369796079 ], [ -120.07849676307022, 38.876164389313921 ], [ -120.078600670631729, 38.875878701597394 ] ] ], [ [ [ -120.078490700503423, 38.875749821600195 ], [ -120.078580594188011, 38.875806126599187 ], [ -120.078579119101406, 38.875842125834652 ], [ -120.078490700503423, 38.875749821600195 ] ] ], [ [ [ -120.078468411496971, 38.87573124543637 ], [ -120.078490700503423, 38.875749821600195 ], [ -120.078467673927662, 38.875749245052546 ], [ -120.078468411496971, 38.87573124543637 ] ] ] ] } }
]
}
