{
"type": "FeatureCollection",
"name": "X04354",
"crs": { "type": "name", "properties": { "name": "urn:ogc:def:crs:OGC:1.3:CRS84" } },
"features": [
{ "type": "Feature", "properties": { "part": "direct", "crossing_id": "X04354", "area_ac": 1.9 }, "geometry": { "type": "Polygon", "coordinates": [ [ [ -120.21560400729922, 39.078132377846515 ], [ -120.215593386266434, 39.078402394985105 ], [ -120.215432428961776, 39.078380530442978 ], [ -120.215337216205185, 39.07845032723791 ], [ -120.215232797051513, 39.078754138714011 ], [ -120.215249518681574, 39.078916700905573 ], [ -120.215385965611517, 39.078974016071882 ], [ -120.215195262933875, 39.079708198800027 ], [ -120.215507977758108, 39.07998594329802 ], [ -120.215341351487993, 39.080108087578914 ], [ -120.214849968992311, 39.080258505357449 ], [ -120.214752907326499, 39.079787715736472 ], [ -120.214824318731672, 39.079735368581957 ], [ -120.214831679929787, 39.078960768041426 ], [ -120.214926185621991, 39.078908972838647 ], [ -120.214938225880971, 39.078602953614173 ], [ -120.215315537423081, 39.078413773010247 ], [ -120.21560400729922, 39.078132377846515 ] ] ] } }
]
}
