{
"type": "FeatureCollection",
"name": "X04301",
"crs": { "type": "name", "properties": { "name": "urn:ogc:def:crs:OGC:1.3:CRS84" } },
"features": [
{ "type": "Feature", "properties": { "part": "direct", "crossing_id": "X04301", "area_ac": 27.2, "n_upstream": null }, "geometry": { "type": "Polygon", "coordinates": [ [ [ -120.229513756695496, 39.072391839273152 ], [ -120.23063970005299, 39.072562749403986 ], [ -120.230994411035411, 39.072949559716562 ], [ -120.23105031557192, 39.073293232547371 ], [ -120.23095512460857, 39.07336304297057 ], [ -120.230871762096839, 39.07372142437054 ], [ -120.231221551852002, 39.074234243921161 ], [ -120.23135786707536, 39.074886135309193 ], [ -120.231576138672239, 39.07521564757284 ], [ -120.231517982858691, 39.07552057388326 ], [ -120.231321259281145, 39.075822207693925 ], [ -120.230869084877483, 39.076153806831165 ], [ -120.230615044002917, 39.076147769239171 ], [ -120.229913753088653, 39.076347316681677 ], [ -120.22924612149788, 39.076277388577523 ], [ -120.228797617466014, 39.075924378602231 ], [ -120.228228007624566, 39.075712631039558 ], [ -120.228140563615483, 39.075584424147692 ], [ -120.226826299882617, 39.075499098066615 ], [ -120.226829825606686, 39.075409091451945 ], [ -120.226672396569398, 39.075297235948142 ], [ -120.22714767812802, 39.074966203149351 ], [ -120.227175707599912, 39.074840743407712 ], [ -120.227341596502015, 39.074736582239822 ], [ -120.227349351423427, 39.074538567572965 ], [ -120.228466483178636, 39.073754329379057 ], [ -120.22850296578487, 39.07341285294234 ], [ -120.22887528317807, 39.073349635449709 ], [ -120.22880952509388, 39.073257981003543 ], [ -120.228848119354993, 39.072862500279534 ], [ -120.229137922425238, 39.07254506585565 ], [ -120.229513756695496, 39.072391839273152 ] ] ] } },
{ "type": "Feature", "properties": { "part": "upstream", "crossing_id": "X04301", "area_ac": 0.1, "n_upstream": 1.0 }, "geometry": { "type": "MultiPolygon", "coordinates": [ [ [ [ -120.22717359247379, 39.074894747397821 ], [ -120.227150498328399, 39.074894197831533 ], [ -120.22715120337692, 39.074876196501926 ], [ -120.22717359247379, 39.074894747397821 ] ] ], [ [ [ -120.226765478799663, 39.075281433261075 ], [ -120.226650712673873, 39.07526068363638 ], [ -120.227127404183605, 39.074893648260669 ], [ -120.22714767812802, 39.074966203149351 ], [ -120.226765478799663, 39.075281433261075 ] ] ] ] } }
]
}
