{
"type": "FeatureCollection",
"name": "X04388",
"crs": { "type": "name", "properties": { "name": "urn:ogc:def:crs:OGC:1.3:CRS84" } },
"features": [
{ "type": "Feature", "properties": { "part": "direct", "crossing_id": "X04388", "area_ac": 278.3 }, "geometry": { "type": "Polygon", "coordinates": [ [ [ -119.991269682062494, 38.812344686065565 ], [ -119.991471416469366, 38.812476011033823 ], [ -119.99280112662241, 38.812618381858321 ], [ -119.99298061769089, 38.8127311132993 ], [ -119.993393941299914, 38.812759777820965 ], [ -119.993711461006114, 38.812876063238171 ], [ -119.994308065397277, 38.812927462537004 ], [ -119.994448364087958, 38.812877021191746 ], [ -119.994715334989266, 38.813100109975785 ], [ -119.994944624534867, 38.813124030846183 ], [ -119.994940082858037, 38.813232021532095 ], [ -119.995386553749853, 38.813567837252869 ], [ -119.99604537003691, 38.813782990480945 ], [ -119.99638287749606, 38.813971854841057 ], [ -119.996612927141825, 38.81397777409132 ], [ -119.99672416938941, 38.814070725919414 ], [ -119.998079197031728, 38.81415963455845 ], [ -119.998844412214083, 38.8140351673513 ], [ -119.999522139881719, 38.813800338606207 ], [ -119.999548923868829, 38.813710937321581 ], [ -119.999870993152385, 38.813719215371336 ], [ -120.000022203947225, 38.813957334948668 ], [ -120.0002499874183, 38.814017242629781 ], [ -120.00033596275226, 38.814163595612499 ], [ -120.00076701582725, 38.814318815383778 ], [ -120.00080622663647, 38.81448198441938 ], [ -120.000964241317504, 38.814558116062756 ], [ -120.00100571906178, 38.814667289420171 ], [ -120.001746011794239, 38.815136755354295 ], [ -120.002425200510629, 38.815965006667525 ], [ -120.003079532362392, 38.816288113220679 ], [ -120.003053506558274, 38.816359516847477 ], [ -120.00341178683172, 38.816602948406839 ], [ -120.003426488834279, 38.816801523347664 ], [ -120.003738005526998, 38.817061771397306 ], [ -120.003995964276285, 38.817500823565865 ], [ -120.004272039409599, 38.817507909161883 ], [ -120.004450806855814, 38.817638622668269 ], [ -120.004513788522303, 38.817784382598418 ], [ -120.004425902269205, 38.818232576128736 ], [ -120.004602019856023, 38.818975831922927 ], [ -120.004563164745548, 38.81935321187806 ], [ -120.004629166642772, 38.819426977427206 ], [ -120.004948999380645, 38.819489238269831 ], [ -120.005122490949901, 38.819745941115912 ], [ -120.005154922958695, 38.82007109642695 ], [ -120.005710485806674, 38.820553816151481 ], [ -120.005726703194796, 38.820716393767846 ], [ -120.006305282321179, 38.821199701163344 ], [ -120.00669414723265, 38.821263727816742 ], [ -120.006828421526535, 38.821357260888405 ], [ -120.007611432851803, 38.821359319121598 ], [ -120.007812469623005, 38.821508616489176 ], [ -120.008916836494663, 38.821536921332985 ], [ -120.009601038710372, 38.821698595874892 ], [ -120.009825088553143, 38.821848479411436 ], [ -120.010261483145527, 38.821877675882966 ], [ -120.010372755652881, 38.821970615778056 ], [ -120.011087504930089, 38.821952884359447 ], [ -120.011775481558487, 38.82202455302204 ], [ -120.01193879542754, 38.821974679941746 ], [ -120.012097591893379, 38.822032798843317 ], [ -120.012444968592547, 38.821987636541344 ], [ -120.013247987023192, 38.822062240967249 ], [ -120.01364288414004, 38.821982255070623 ], [ -120.013708898008005, 38.822056015920765 ], [ -120.014192064625263, 38.822068376332602 ], [ -120.01429807655451, 38.822287303860669 ], [ -120.013077900136693, 38.822274104377506 ], [ -120.012633973910042, 38.822424905414564 ], [ -120.011879980022471, 38.822279479849691 ], [ -120.010957402657311, 38.822309912219616 ], [ -120.010838596952524, 38.822396959652316 ], [ -120.00893119823742, 38.822294043845595 ], [ -120.008252661675982, 38.822546923634249 ], [ -120.007079256062895, 38.82251684206711 ], [ -120.006508583585429, 38.822394100244281 ], [ -120.006308301642733, 38.822226802050849 ], [ -120.006055215592667, 38.822220310697524 ], [ -120.005785911944457, 38.822051241206786 ], [ -120.005004403182156, 38.822013173246653 ], [ -120.004050518303373, 38.822240944990796 ], [ -120.003084947134241, 38.822198139642197 ], [ -120.00287334625402, 38.822300814169701 ], [ -120.002620260737928, 38.822294315364921 ], [ -120.001943970505138, 38.822493161947861 ], [ -120.000602716110237, 38.822620865210446 ], [ -120.000342827402648, 38.822776348009903 ], [ -120.000185551699076, 38.822682216415593 ], [ -119.99997621332308, 38.822730889949142 ], [ -119.99947230886076, 38.822663883640423 ], [ -119.999401017153872, 38.822716104746149 ], [ -119.999017445761382, 38.822526064335278 ], [ -119.998959765232314, 38.822254312418941 ], [ -119.998589373612361, 38.822298842548584 ], [ -119.998271804181158, 38.822182568588509 ], [ -119.998182799107198, 38.822108207937269 ], [ -119.998171137075019, 38.821837639131594 ], [ -119.997970120667446, 38.821688325918004 ], [ -119.997691005049802, 38.821753218658856 ], [ -119.997579750161464, 38.821660267332014 ], [ -119.997258402378122, 38.821633983090429 ], [ -119.996832611490419, 38.821352759892605 ], [ -119.996590125230796, 38.821094269834958 ], [ -119.996427257088953, 38.82058557715483 ], [ -119.996478568579704, 38.820460772039745 ], [ -119.996346580591393, 38.820313232300926 ], [ -119.995746127994693, 38.820351833163734 ], [ -119.994743664069588, 38.820091794501685 ], [ -119.994337870174917, 38.819883148914961 ], [ -119.994015774764435, 38.819874854512406 ], [ -119.993495232720619, 38.820203788311296 ], [ -119.993287413049359, 38.820216453165543 ], [ -119.993098812226108, 38.820319702298598 ], [ -119.992616424484467, 38.820289256734199 ], [ -119.992321881439594, 38.820173560048936 ], [ -119.992067290186199, 38.820203035442276 ], [ -119.991984627670632, 38.820525227571473 ], [ -119.991527029021015, 38.820999917641544 ], [ -119.991342214021543, 38.821013171913265 ], [ -119.991493143155566, 38.820710757776631 ], [ -119.991512093390412, 38.820260798571425 ], [ -119.991326256699736, 38.819751507240873 ], [ -119.991402856976123, 38.819573302581318 ], [ -119.991025389722239, 38.819239250389366 ], [ -119.990966983615152, 38.818985494070809 ], [ -119.990669416052981, 38.818941786956266 ], [ -119.990468423939802, 38.818792461700255 ], [ -119.990548057929786, 38.818542264190107 ], [ -119.990465131296148, 38.818323911246942 ], [ -119.990540215544016, 38.818181703858841 ], [ -119.99021559594371, 38.817686850498447 ], [ -119.99001309158335, 38.817573521316696 ], [ -119.989410638936903, 38.816566999696136 ], [ -119.989361341394186, 38.816097262634251 ], [ -119.989144180651323, 38.815785357002568 ], [ -119.989309769008941, 38.815681520585251 ], [ -119.989271342682486, 38.815500350388788 ], [ -119.989388644422306, 38.815449322123328 ], [ -119.989396986839012, 38.81525134028297 ], [ -119.989194490527183, 38.815138009966695 ], [ -119.989181345154904, 38.814903438081267 ], [ -119.989022584857537, 38.814845289294595 ], [ -119.989004889162374, 38.814718707473425 ], [ -119.98914747011942, 38.81461427776857 ], [ -119.988911101983916, 38.814211786743691 ], [ -119.988947001031548, 38.813906408287792 ], [ -119.988611032050443, 38.813681526524412 ], [ -119.988544045887622, 38.813085207340741 ], [ -119.9886342981778, 38.812583034123584 ], [ -119.988451780520734, 38.812542289649997 ], [ -119.988412598992454, 38.812379117583205 ], [ -119.988438637515799, 38.812307717707299 ], [ -119.988573628971324, 38.812383271948789 ], [ -119.988918693323555, 38.812392173414658 ], [ -119.989195503286354, 38.812381295499861 ], [ -119.989290553867733, 38.81231167540701 ], [ -119.991269682062494, 38.812344686065565 ] ] ] } }
]
}
