{
"type": "FeatureCollection",
"name": "X04402",
"crs": { "type": "name", "properties": { "name": "urn:ogc:def:crs:OGC:1.3:CRS84" } },
"features": [
{ "type": "Feature", "properties": { "part": "direct", "crossing_id": "X04402", "area_ac": 0.8 }, "geometry": { "type": "Polygon", "coordinates": [ [ [ -119.989734354711018, 39.249047550680459 ], [ -119.990147908181299, 39.249130316328639 ], [ -119.990105511030663, 39.249579643104369 ], [ -119.989897192700667, 39.249574254367488 ], [ -119.989855520369971, 39.249465074730928 ], [ -119.989740558303509, 39.249444083779856 ], [ -119.989231336969084, 39.24943090909742 ], [ -119.989269888340758, 39.249071567877515 ], [ -119.989734354711018, 39.249047550680459 ] ] ] } }
]
}
