{
"type": "FeatureCollection",
"name": "X04412",
"crs": { "type": "name", "properties": { "name": "urn:ogc:def:crs:OGC:1.3:CRS84" } },
"features": [
{ "type": "Feature", "properties": { "part": "direct", "crossing_id": "X04412", "area_ac": 0.1 }, "geometry": { "type": "Polygon", "coordinates": [ [ [ -120.029956270719921, 39.23763132773805 ], [ -120.030236269953861, 39.237584422159216 ], [ -120.03015772601087, 39.237798622905139 ], [ -120.02992857007925, 39.237738723341266 ], [ -120.029956270719921, 39.23763132773805 ] ] ] } }
]
}
