{
"type": "FeatureCollection",
"name": "X04498",
"crs": { "type": "name", "properties": { "name": "urn:ogc:def:crs:OGC:1.3:CRS84" } },
"features": [
{ "type": "Feature", "properties": { "part": "direct", "crossing_id": "X04498", "area_ac": 329.1, "n_upstream": null }, "geometry": { "type": "Polygon", "coordinates": [ [ [ -120.187301878394649, 39.120767699438147 ], [ -120.187958412818588, 39.121125890785763 ], [ -120.188087037435707, 39.121381246186345 ], [ -120.188244500553139, 39.121493154600799 ], [ -120.188195418850398, 39.12156404128541 ], [ -120.188282840486238, 39.121692276715336 ], [ -120.188441736749866, 39.12176818371649 ], [ -120.188742149622669, 39.121775434615685 ], [ -120.188844805465919, 39.122102233941703 ], [ -120.189064438574434, 39.122395820437319 ], [ -120.189178551248631, 39.122434609955064 ], [ -120.189196648836159, 39.12256117180204 ], [ -120.189337450170527, 39.122510515821176 ], [ -120.18986179856195, 39.122703346021829 ], [ -120.19012029177452, 39.122601474794834 ], [ -120.190325410175575, 39.122678494290533 ], [ -120.190815205604949, 39.123158772817611 ], [ -120.190953860695259, 39.1231621167585 ], [ -120.191155404559851, 39.123329138007868 ], [ -120.191388643115047, 39.123280708604639 ], [ -120.191751953417423, 39.123451629345034 ], [ -120.192081428157081, 39.123892001526805 ], [ -120.19244045260703, 39.124170924132471 ], [ -120.192779945457715, 39.124359285516711 ], [ -120.193169949173537, 39.124440755828473 ], [ -120.193712429129874, 39.124760131032104 ], [ -120.194056931433209, 39.124822484247211 ], [ -120.194480295835717, 39.125229075805905 ], [ -120.194475293418421, 39.125355080512428 ], [ -120.195283209885901, 39.12656371805538 ], [ -120.19539090304049, 39.126764507962029 ], [ -120.195284886403797, 39.127104294951074 ], [ -120.195168619122256, 39.127119513081936 ], [ -120.195060211607, 39.126936723660087 ], [ -120.194767635752854, 39.126731480855817 ], [ -120.194470773617454, 39.126634241381609 ], [ -120.194237525590566, 39.126682676609178 ], [ -120.193569468975838, 39.126612528407911 ], [ -120.193263314514226, 39.126749294398543 ], [ -120.192775850918053, 39.12679160053095 ], [ -120.192176411094053, 39.126741115938557 ], [ -120.190804312700209, 39.126924245826878 ], [ -120.189924685921227, 39.126939063124233 ], [ -120.189664028495301, 39.127094935037327 ], [ -120.189479144970775, 39.127090473993889 ], [ -120.189126044112541, 39.127244114003688 ], [ -120.188894939332613, 39.127238536569337 ], [ -120.188518009831014, 39.12740961746335 ], [ -120.18754235326729, 39.127512187928879 ], [ -120.186161801752689, 39.128487844050667 ], [ -120.185735052844464, 39.128747801400479 ], [ -120.185384087131567, 39.128847427850879 ], [ -120.185349503444058, 39.129134877685381 ], [ -120.185209403134465, 39.129167527686782 ], [ -120.18506069715302, 39.129416183687667 ], [ -120.184849828437422, 39.129483158573791 ], [ -120.184251247445957, 39.129991206789228 ], [ -120.184159519699591, 39.129970971375542 ], [ -120.183875009958015, 39.130144271131847 ], [ -120.183383931646389, 39.130276539289973 ], [ -120.183262633952822, 39.130417748624239 ], [ -120.182531683026397, 39.130183855152197 ], [ -120.18237636437847, 39.130017937367278 ], [ -120.181521966485064, 39.129979247383808 ], [ -120.18104250597284, 39.1304000720434 ], [ -120.180553576194399, 39.130478326664111 ], [ -120.180386049825685, 39.130618413846648 ], [ -120.18022714354457, 39.130542495538144 ], [ -120.179741804659628, 39.130530744523121 ], [ -120.178950987473144, 39.130637717702299 ], [ -120.178769690215319, 39.130543237265641 ], [ -120.178031565135967, 39.130489320101184 ], [ -120.177728960934502, 39.130536041441282 ], [ -120.177256666356016, 39.130776845589054 ], [ -120.176979329606809, 39.130770123869418 ], [ -120.176836345694298, 39.130874765055545 ], [ -120.176580681418926, 39.130904603330727 ], [ -120.176374117357938, 39.130863560133356 ], [ -120.176114136294302, 39.131001399610959 ], [ -120.175087796158834, 39.130634172707381 ], [ -120.174189335291359, 39.13054030663816 ], [ -120.173789963657356, 39.130692776736218 ], [ -120.173384109071279, 39.131007248350983 ], [ -120.173380508331888, 39.131097249989672 ], [ -120.173080059835058, 39.131089958056442 ], [ -120.172692208074452, 39.130954419065205 ], [ -120.171559751885511, 39.130926923447028 ], [ -120.17153880239141, 39.130872361298991 ], [ -120.171192132712903, 39.130863942024213 ], [ -120.170460500950682, 39.130647974349081 ], [ -120.170097210234346, 39.13047698787198 ], [ -120.169866098679563, 39.13047137232553 ], [ -120.169685535920777, 39.130358877925936 ], [ -120.169477535940047, 39.130353823232831 ], [ -120.168725689483594, 39.13006528231999 ], [ -120.168379024605358, 39.13005685482365 ], [ -120.16774781261401, 39.130221685165402 ], [ -120.167534040455152, 39.130360628942292 ], [ -120.167233596607261, 39.130353322054269 ], [ -120.167091321592707, 39.130439950542957 ], [ -120.166443489526074, 39.130442209406795 ], [ -120.166330099943735, 39.130385397411061 ], [ -120.166234767932124, 39.130455149137909 ], [ -120.165864990825824, 39.130446151795418 ], [ -120.165430213660201, 39.130327464694147 ], [ -120.16527421409738, 39.130179525763729 ], [ -120.165277102850212, 39.130107524946432 ], [ -120.165368824457715, 39.130127775047754 ], [ -120.165353657338443, 39.129929210316313 ], [ -120.165425156428483, 39.12987689707073 ], [ -120.165247491366358, 39.129692395267739 ], [ -120.16517888115456, 39.12967270759119 ], [ -120.165105215443432, 39.129779021296656 ], [ -120.16476722073179, 39.129554580710824 ], [ -120.164513724881047, 39.129530391887386 ], [ -120.16421978730466, 39.129361075634151 ], [ -120.163943181741445, 39.129336322914298 ], [ -120.163809575553586, 39.129206945113651 ], [ -120.163071481563975, 39.12915293400323 ], [ -120.162662719394291, 39.128962799233626 ], [ -120.162537067658121, 39.128635418243711 ], [ -120.162336302995698, 39.128450349347162 ], [ -120.161691382869449, 39.128380581798467 ], [ -120.161652392897551, 39.128199453908309 ], [ -120.161726061882135, 39.128093142493661 ], [ -120.16205032787083, 39.128083026165868 ], [ -120.162254705309152, 39.128178094684323 ], [ -120.162607141666399, 39.128042538705259 ], [ -120.163548880346838, 39.128209618821991 ], [ -120.164713782393818, 39.12858031964096 ], [ -120.164947053431561, 39.128531944564166 ], [ -120.164954275703479, 39.128351942519039 ], [ -120.165166601996646, 39.128249003818141 ], [ -120.165462703808657, 39.128364316983927 ], [ -120.165535645316339, 39.12827600316951 ], [ -120.165742916454121, 39.128299064890086 ], [ -120.165762416726238, 39.128389628344301 ], [ -120.165967522389835, 39.128466690336779 ], [ -120.166144464581606, 39.128669191253003 ], [ -120.167141102900047, 39.128621364706319 ], [ -120.167282652421406, 39.128552736236422 ], [ -120.16728626059556, 39.128462735032969 ], [ -120.167424923272279, 39.128466107340586 ], [ -120.16768491048704, 39.128328287499031 ], [ -120.16781056345819, 39.128079093867171 ], [ -120.168727043300848, 39.128299571371343 ], [ -120.169393604715069, 39.127829291926972 ], [ -120.170122278867737, 39.12754069567265 ], [ -120.170517314714601, 39.12749623948843 ], [ -120.170525243321237, 39.1272982362485 ], [ -120.170964335877187, 39.12730890219224 ], [ -120.171508838761952, 39.12699780579841 ], [ -120.171928421832021, 39.126917905254494 ], [ -120.172212225311966, 39.126762635536849 ], [ -120.173283206084506, 39.126590436092002 ], [ -120.173616105119422, 39.126364283104657 ], [ -120.173620424917061, 39.126256281028198 ], [ -120.17404504057474, 39.126050370141016 ], [ -120.175016371965611, 39.126055914978451 ], [ -120.175197652690201, 39.126150400718217 ], [ -120.175565971384344, 39.126195368388601 ], [ -120.175781873751816, 39.126002407587897 ], [ -120.175745006531486, 39.125767281931218 ], [ -120.175918284510871, 39.125483198168318 ], [ -120.176526327484368, 39.125317760952065 ], [ -120.176767491451869, 39.125071357101668 ], [ -120.177119167703154, 39.124953755928161 ], [ -120.177573345570607, 39.124586387847295 ], [ -120.177923580516094, 39.124504784929897 ], [ -120.178590765166064, 39.124016448559566 ], [ -120.178870231527782, 39.123969164175264 ], [ -120.180116693141542, 39.124035383014252 ], [ -120.180973890071243, 39.124002078815884 ], [ -120.181513436568949, 39.124393510635919 ], [ -120.181834096901639, 39.124473340847764 ], [ -120.182019690149886, 39.124459813285263 ], [ -120.182234852292865, 39.124284840108999 ], [ -120.182394464905428, 39.124342754823431 ], [ -120.18249120844888, 39.12423698792913 ], [ -120.18272158455143, 39.124260578195951 ], [ -120.182863828637238, 39.124173929362179 ], [ -120.182891960843492, 39.124048484807879 ], [ -120.183058031081387, 39.123944394126916 ], [ -120.183149750735979, 39.123964630128945 ], [ -120.183223383376202, 39.123858303692252 ], [ -120.183432084125755, 39.12384533265574 ], [ -120.18357647862338, 39.123704681359932 ], [ -120.183690590030409, 39.123743476217072 ], [ -120.183951247018271, 39.123587617631195 ], [ -120.184159946909972, 39.123574645254934 ], [ -120.184564276856477, 39.123296133443546 ], [ -120.184665318175163, 39.123082361393976 ], [ -120.185089167460148, 39.122894408774059 ], [ -120.185336745837205, 39.122485980841077 ], [ -120.185169798171273, 39.122031499929697 ], [ -120.185223016568145, 39.121276035677269 ], [ -120.18571187803218, 39.121197758813679 ], [ -120.185854828993641, 39.121093105373674 ], [ -120.186038262920903, 39.121133572704949 ], [ -120.186814454231197, 39.120809982022251 ], [ -120.187301878394649, 39.120767699438147 ] ], [ [ -120.167230675738836, 39.12927218372036 ], [ -120.167322396929464, 39.129292432265402 ], [ -120.167323118574444, 39.129274432026527 ], [ -120.167230675738836, 39.12927218372036 ] ], [ [ -120.165349320608243, 39.12888407334551 ], [ -120.16539409744378, 39.128921198664479 ], [ -120.165372431151695, 39.128884635797277 ], [ -120.165349320608243, 39.12888407334551 ] ] ] } },
{ "type": "Feature", "properties": { "part": "upstream", "crossing_id": "X04498", "area_ac": 6.5, "n_upstream": 5.0 }, "geometry": { "type": "MultiPolygon", "coordinates": [ [ [ [ -120.165263374215613, 39.127566683234306 ], [ -120.165352926252609, 39.127640933872549 ], [ -120.165897462174456, 39.12790643417754 ], [ -120.166130008378929, 39.127876056836364 ], [ -120.166426832225795, 39.127973367329226 ], [ -120.166636990012393, 39.127924426512791 ], [ -120.166998815542044, 39.12813142353906 ], [ -120.16718586315389, 39.12808191961571 ], [ -120.167322360227587, 39.128139292742965 ], [ -120.167558514535401, 39.128018911330258 ], [ -120.167856784118072, 39.128080217770929 ], [ -120.167762899796315, 39.128113970443941 ], [ -120.16768491048704, 39.128328287499031 ], [ -120.167424923272279, 39.128466107340586 ], [ -120.16728626059556, 39.128462735032969 ], [ -120.167211156038647, 39.128605050733512 ], [ -120.166490400145051, 39.128695625373602 ], [ -120.166144464581606, 39.128669191253003 ], [ -120.165967522389835, 39.128466690336779 ], [ -120.165628086714008, 39.128278252772233 ], [ -120.165535645316339, 39.12827600316951 ], [ -120.165508924560967, 39.128365441825487 ], [ -120.165233766543381, 39.128304691873936 ], [ -120.165235932995273, 39.12825069124559 ], [ -120.165049605950628, 39.128282191760832 ], [ -120.164954275703479, 39.128351942519039 ], [ -120.164947053431561, 39.128531944564166 ], [ -120.16484985720146, 39.12855210090445 ], [ -120.164875555427514, 39.128584257563787 ], [ -120.164783113690092, 39.128582007349621 ], [ -120.164801259067332, 39.128562179043371 ], [ -120.164713782393818, 39.12858031964096 ], [ -120.163548880346838, 39.128209618821991 ], [ -120.163248446675112, 39.12820230199732 ], [ -120.163328616990569, 39.127933987859805 ], [ -120.163995923002645, 39.128022309155774 ], [ -120.164375077532895, 39.12779730940089 ], [ -120.164404688836811, 39.127635870249129 ], [ -120.164567904274108, 39.127603808119609 ], [ -120.164666122931706, 39.127462056834915 ], [ -120.164925389136044, 39.127342243404378 ], [ -120.165312482886918, 39.127495807283999 ], [ -120.165263374215613, 39.127566683234306 ] ] ], [ [ [ -120.163227504374817, 39.128147738597328 ], [ -120.163042622315672, 39.128143235523702 ], [ -120.163122070645699, 39.127892921729604 ], [ -120.163305506798736, 39.127933425014227 ], [ -120.163227504374817, 39.128147738597328 ] ] ], [ [ [ -120.165372431151695, 39.128884635797277 ], [ -120.165347876332788, 39.1289200737641 ], [ -120.165349320608243, 39.12888407334551 ], [ -120.165372431151695, 39.128884635797277 ] ] ], [ [ [ -120.167230675738836, 39.12927218372036 ], [ -120.167322396929464, 39.129292432265402 ], [ -120.167229954070365, 39.129290183957785 ], [ -120.167230675738836, 39.12927218372036 ] ] ] ] } }
]
}
