{
"type": "FeatureCollection",
"name": "X04453",
"crs": { "type": "name", "properties": { "name": "urn:ogc:def:crs:OGC:1.3:CRS84" } },
"features": [
{ "type": "Feature", "properties": { "part": "direct", "crossing_id": "X04453", "area_ac": 0.0 }, "geometry": { "type": "MultiPolygon", "coordinates": [ [ [ [ -120.157565013168963, 39.132622232605975 ], [ -120.157564288953736, 39.132640232682171 ], [ -120.157541177339368, 39.132639668637282 ], [ -120.157541901560435, 39.132621668561455 ], [ -120.157565013168963, 39.132622232605975 ] ] ], [ [ [ -120.157589573194898, 39.132586796492582 ], [ -120.157565013168963, 39.132622232605975 ], [ -120.157566461597483, 39.132586232453356 ], [ -120.157589573194898, 39.132586796492582 ] ] ], [ [ [ -120.157661080558583, 39.132534488349066 ], [ -120.157683467958378, 39.132553052447221 ], [ -120.157660356370073, 39.132552488427024 ], [ -120.157661080558583, 39.132534488349066 ] ] ], [ [ [ -120.157660356370073, 39.132552488427024 ], [ -120.157589573194898, 39.132586796492582 ], [ -120.157590297402308, 39.132568796415825 ], [ -120.157660356370073, 39.132552488427024 ] ] ] ] } }
]
}
