{
"type": "FeatureCollection",
"name": "X04416",
"crs": { "type": "name", "properties": { "name": "urn:ogc:def:crs:OGC:1.3:CRS84" } },
"features": [
{ "type": "Feature", "properties": { "part": "direct", "crossing_id": "X04416", "area_ac": 9.7 }, "geometry": { "type": "Polygon", "coordinates": [ [ [ -119.944348256292727, 38.962599724130413 ], [ -119.944595636714837, 38.962750346321869 ], [ -119.945075858536342, 38.962853016572559 ], [ -119.945261821173531, 38.962821853927807 ], [ -119.945464647474139, 38.962935272167208 ], [ -119.944955025774064, 38.963516495235446 ], [ -119.944312498503933, 38.963968110937792 ], [ -119.944260203132103, 38.964110879740637 ], [ -119.944007401512238, 38.964086236635325 ], [ -119.943535518867648, 38.964326111388587 ], [ -119.943427997670938, 38.964143118607119 ], [ -119.943170551557856, 38.964226456412852 ], [ -119.943059934830771, 38.964115451802463 ], [ -119.942806359560961, 38.964108803221116 ], [ -119.942194789130539, 38.963840522210759 ], [ -119.941690739028985, 38.963755232438764 ], [ -119.941608599089193, 38.963518851557126 ], [ -119.94123298049945, 38.963130632651612 ], [ -119.941471245275409, 38.962956708889564 ], [ -119.941499718806213, 38.962831333919226 ], [ -119.941611105620908, 38.962924342757852 ], [ -119.941890051540042, 38.96287760707569 ], [ -119.94188540500771, 38.962985589678738 ], [ -119.942000664564418, 38.962988612666209 ], [ -119.942052189058955, 38.962863842106714 ], [ -119.942324165728607, 38.96297907931897 ], [ -119.942557007694049, 38.962931132977801 ], [ -119.942739100345946, 38.962989959980582 ], [ -119.942952760964062, 38.96285142281198 ], [ -119.943065698051299, 38.962908436098118 ], [ -119.943297765315378, 38.962878485369508 ], [ -119.943432206606346, 38.962972096891349 ], [ -119.943690421770611, 38.962870761166286 ], [ -119.94398932278672, 38.962896613179169 ], [ -119.944090816840344, 38.96268306425646 ], [ -119.944348256292727, 38.962599724130413 ] ] ] } }
]
}
