{
"type": "FeatureCollection",
"name": "X04417",
"crs": { "type": "name", "properties": { "name": "urn:ogc:def:crs:OGC:1.3:CRS84" } },
"features": [
{ "type": "Feature", "properties": { "part": "direct", "crossing_id": "X04417", "area_ac": 142.6 }, "geometry": { "type": "MultiPolygon", "coordinates": [ [ [ [ -119.877839685351091, 38.986728404537686 ], [ -119.877861952273918, 38.986747018046543 ], [ -119.877838894054477, 38.986746400475909 ], [ -119.877839685351091, 38.986728404537686 ] ] ], [ [ [ -119.889713941750131, 38.980739816230994 ], [ -119.889736210165964, 38.980758427536607 ], [ -119.889713153628279, 38.980757812391275 ], [ -119.889713941750131, 38.980739816230994 ] ] ], [ [ [ -119.889737786397362, 38.980722435215185 ], [ -119.889760054814559, 38.980741046516343 ], [ -119.88973699828199, 38.980740431375942 ], [ -119.889737786397362, 38.980722435215185 ] ] ], [ [ [ -119.889761631032911, 38.98070505419399 ], [ -119.88978389945153, 38.980723665490643 ], [ -119.889760842924076, 38.980723050355188 ], [ -119.889761631032911, 38.98070505419399 ] ] ], [ [ [ -119.889785475656851, 38.980687673167402 ], [ -119.889807744076876, 38.980706284459579 ], [ -119.889784687554538, 38.980705669329048 ], [ -119.889785475656851, 38.980687673167402 ] ] ], [ [ [ -119.888967070318998, 38.97987307961295 ], [ -119.889200983159739, 38.980329751296928 ], [ -119.889357648680388, 38.980442034819845 ], [ -119.889690097091332, 38.980757197241388 ], [ -119.889735422049199, 38.980776423697201 ], [ -119.889725176467152, 38.981010373778922 ], [ -119.890213510105525, 38.98145581396642 ], [ -119.890251743585793, 38.981637005744155 ], [ -119.89040841361124, 38.981749288017838 ], [ -119.890380628845506, 38.981856650003223 ], [ -119.89061986510653, 38.981664842179285 ], [ -119.890849645795114, 38.981688987932714 ], [ -119.890673484822273, 38.982549114533661 ], [ -119.890332560503339, 38.98295441613962 ], [ -119.890314435693469, 38.983368327894837 ], [ -119.890416326344777, 38.983677337939262 ], [ -119.890800424633312, 38.983867754778565 ], [ -119.890816390818671, 38.9840303352739 ], [ -119.890439588626933, 38.984200456752731 ], [ -119.890302818758784, 38.984160774055077 ], [ -119.889213786858562, 38.984780336811532 ], [ -119.888591225675626, 38.984763722074497 ], [ -119.888238261090521, 38.984916455334634 ], [ -119.887753257579632, 38.984921525076111 ], [ -119.887611755436183, 38.98498981590145 ], [ -119.887087126603817, 38.985372185432453 ], [ -119.886805085141987, 38.986013271594871 ], [ -119.886282811714324, 38.98634164869636 ], [ -119.886371099182853, 38.986434092684242 ], [ -119.88634093864637, 38.986595441562486 ], [ -119.886519881852877, 38.986726341155325 ], [ -119.88650646707822, 38.987032274626905 ], [ -119.886705313946564, 38.98723577419802 ], [ -119.886566173422239, 38.987250075238975 ], [ -119.886274303752103, 38.987062107924757 ], [ -119.886019081749851, 38.987091324793056 ], [ -119.885723267716713, 38.986993336553645 ], [ -119.885600081960888, 38.987170217109892 ], [ -119.884992665507468, 38.987334159002287 ], [ -119.884328863422795, 38.987730813631501 ], [ -119.884095117682946, 38.987796634539826 ], [ -119.883958345065039, 38.987756944275169 ], [ -119.883838312823485, 38.98786183856096 ], [ -119.883372399140811, 38.987957485787668 ], [ -119.883203088280055, 38.988133130471631 ], [ -119.883021136067981, 38.988596711222243 ], [ -119.882121979329128, 38.989095162313248 ], [ -119.881998780848804, 38.989272038490327 ], [ -119.881098684775552, 38.989265976434091 ], [ -119.880828300404659, 38.989114604707304 ], [ -119.880414028273606, 38.989085501753664 ], [ -119.880282000022262, 38.988937831317536 ], [ -119.880114260883516, 38.989077479135545 ], [ -119.878740330303359, 38.989346990216326 ], [ -119.878525677809833, 38.989503396646228 ], [ -119.878000066033181, 38.989381217954573 ], [ -119.878014309866458, 38.989057291152349 ], [ -119.878271010806188, 38.988469600620107 ], [ -119.878233596915038, 38.988270410251616 ], [ -119.87840450232757, 38.98805878142398 ], [ -119.87836471461091, 38.987913578911126 ], [ -119.877986170279499, 38.987597150081058 ], [ -119.877835047966116, 38.987358879918986 ], [ -119.877777742626577, 38.987087088119466 ], [ -119.877861952273918, 38.986747018046543 ], [ -119.878495600271961, 38.98651174743798 ], [ -119.878740420952084, 38.986193994424902 ], [ -119.878952689509632, 38.986091574972903 ], [ -119.8791036930037, 38.985807343559628 ], [ -119.879363657478365, 38.98567016596116 ], [ -119.879440739787583, 38.985492058020441 ], [ -119.879790561412634, 38.985411336227394 ], [ -119.879912176431944, 38.985270454193881 ], [ -119.879968444027753, 38.984515240166537 ], [ -119.880175042263545, 38.984016289400166 ], [ -119.880138415126567, 38.983799103404145 ], [ -119.880397579574762, 38.983679919064876 ], [ -119.880832506219335, 38.983763625748992 ], [ -119.880974011810423, 38.983695343313713 ], [ -119.881691949337835, 38.983642481379526 ], [ -119.882705533024719, 38.983165109417484 ], [ -119.883240586958777, 38.983071312933582 ], [ -119.883503692694589, 38.982862141121608 ], [ -119.884182612955243, 38.98264606610438 ], [ -119.884545837027773, 38.982259396111495 ], [ -119.884800252499318, 38.982248177837185 ], [ -119.884909846445765, 38.981854728727797 ], [ -119.885179257112043, 38.981501584082402 ], [ -119.886249946981096, 38.980773465696402 ], [ -119.886444655061993, 38.980544442848995 ], [ -119.88702106519321, 38.980559836193144 ], [ -119.887255573060145, 38.980476012140571 ], [ -119.887599053069252, 38.980539234445807 ], [ -119.887880461636712, 38.980438644089745 ], [ -119.888111025608126, 38.98044479891761 ], [ -119.888353416482843, 38.980181011217013 ], [ -119.88882242633575, 38.980013357011508 ], [ -119.888944014085325, 38.979872464327293 ], [ -119.888967070318998, 38.97987307961295 ] ] ], [ [ [ -119.888991703112808, 38.979837702592725 ], [ -119.888967070318998, 38.97987307961295 ], [ -119.888968646890078, 38.979837087312397 ], [ -119.888991703112808, 38.979837702592725 ] ] ] ] } }
]
}
