{
"type": "FeatureCollection",
"name": "X04446",
"crs": { "type": "name", "properties": { "name": "urn:ogc:def:crs:OGC:1.3:CRS84" } },
"features": [
{ "type": "Feature", "properties": { "part": "direct", "crossing_id": "X04446", "area_ac": 314.1, "n_upstream": null }, "geometry": { "type": "MultiPolygon", "coordinates": [ [ [ [ -119.933191737128496, 39.138442841464723 ], [ -119.933214064471485, 39.138461446475013 ], [ -119.933190955636235, 39.138460837876174 ], [ -119.933191737128496, 39.138442841464723 ] ] ], [ [ [ -119.923405383023763, 39.125698930659887 ], [ -119.924233611855072, 39.126333385580168 ], [ -119.924972961888884, 39.126352910263314 ], [ -119.925079086732254, 39.126571916311491 ], [ -119.925516511326677, 39.126619499168541 ], [ -119.925546669916898, 39.127521144949242 ], [ -119.925765974686044, 39.127797189260278 ], [ -119.925968837184968, 39.12845115595951 ], [ -119.926103554545364, 39.128544796908471 ], [ -119.926251981893415, 39.128855003456792 ], [ -119.928105576801258, 39.130381306417334 ], [ -119.928315096602958, 39.130350799064807 ], [ -119.928530093407147, 39.130194316821026 ], [ -119.928664450944169, 39.130828455229363 ], [ -119.929721927891805, 39.132045461891721 ], [ -119.929776386345821, 39.132389220580002 ], [ -119.929867249116796, 39.132427650089127 ], [ -119.929810084912503, 39.132678380934721 ], [ -119.930181359143575, 39.132652134735558 ], [ -119.930782568400062, 39.133190474631604 ], [ -119.930730098492759, 39.133333227690265 ], [ -119.930863267533326, 39.13346285645838 ], [ -119.930665898371387, 39.133745926472805 ], [ -119.930868389874192, 39.133877382360019 ], [ -119.931007033605297, 39.133881036290887 ], [ -119.931342697310413, 39.134142119915182 ], [ -119.931363893120533, 39.134719222314587 ], [ -119.931105800268156, 39.134802505913051 ], [ -119.930972628397853, 39.134672877329592 ], [ -119.930240226426918, 39.134491419886849 ], [ -119.929806300338186, 39.134894371143041 ], [ -119.930077334038714, 39.135045652482773 ], [ -119.930516379536002, 39.135057225966314 ], [ -119.930738853951411, 39.135261276794076 ], [ -119.930877500379523, 39.135264930986629 ], [ -119.931327145227158, 39.135565052671453 ], [ -119.931343216121221, 39.135727629103606 ], [ -119.931197531397501, 39.135885942903784 ], [ -119.930892436065406, 39.135986004281875 ], [ -119.92997359326769, 39.135835665078019 ], [ -119.92977188044118, 39.135686211151771 ], [ -119.929359851133512, 39.135585262259148 ], [ -119.928704638057752, 39.136288662612998 ], [ -119.929153496881014, 39.136606788889871 ], [ -119.929612530436074, 39.136690960952734 ], [ -119.92996583376204, 39.137078632571686 ], [ -119.930127591971498, 39.137082897017926 ], [ -119.930345735160898, 39.136854426764735 ], [ -119.930576035563348, 39.136878514352198 ], [ -119.930881917264585, 39.136760457610826 ], [ -119.930941075693823, 39.136996237620792 ], [ -119.930853763618387, 39.137408327164856 ], [ -119.930983029944272, 39.137627937913784 ], [ -119.930830301553556, 39.137948218391742 ], [ -119.931182053651085, 39.138371879514423 ], [ -119.931416269075157, 39.138305983740878 ], [ -119.932130295254552, 39.138378848204731 ], [ -119.93248083546338, 39.13829799784633 ], [ -119.932520018054774, 39.138461182920686 ], [ -119.932678653320252, 39.138537429558482 ], [ -119.933071503851892, 39.138547776860115 ], [ -119.933190955636235, 39.138460837876174 ], [ -119.933139267420188, 39.138585595537833 ], [ -119.932688474540114, 39.138843977100208 ], [ -119.93273000271067, 39.138953172916572 ], [ -119.933085678924385, 39.139286846852507 ], [ -119.933451964315665, 39.139909070973665 ], [ -119.934122586333615, 39.140449222197347 ], [ -119.934051364647544, 39.141023890716191 ], [ -119.93390723683379, 39.141146214759871 ], [ -119.933901767122023, 39.141272189664782 ], [ -119.933712981796461, 39.14135730360308 ], [ -119.933750605627822, 39.141556481192765 ], [ -119.933628023122594, 39.141715406165979 ], [ -119.933639410962613, 39.141985960849681 ], [ -119.933905009808157, 39.142263209398173 ], [ -119.933918742923069, 39.142479774845157 ], [ -119.933649682839089, 39.142815012692147 ], [ -119.933068799767639, 39.142871782682768 ], [ -119.932306942933906, 39.142833697288232 ], [ -119.932257595034542, 39.142904465141449 ], [ -119.931956379685829, 39.142914546163482 ], [ -119.931837700526941, 39.14298348708752 ], [ -119.931144392315147, 39.1429652171892 ], [ -119.930676711378965, 39.14307900945461 ], [ -119.928509044050045, 39.142913750347894 ], [ -119.92853606824454, 39.142824378336719 ], [ -119.928155721909349, 39.142526073792993 ], [ -119.928048783689675, 39.142325066039938 ], [ -119.928062469946283, 39.141478629613196 ], [ -119.927566584581257, 39.141177275131277 ], [ -119.927503519901123, 39.141031475398883 ], [ -119.92674247147697, 39.140975358171332 ], [ -119.926448314036136, 39.1408234586061 ], [ -119.92589682082972, 39.140736832919004 ], [ -119.926171391324601, 39.14027564004077 ], [ -119.926384074488894, 39.140173152256835 ], [ -119.926868970797827, 39.139663458100117 ], [ -119.92695474339726, 39.139287365329771 ], [ -119.927220687610827, 39.139024128757946 ], [ -119.927261022823203, 39.138628819726847 ], [ -119.927149394198352, 39.138535789229735 ], [ -119.927111790190082, 39.138336610224037 ], [ -119.927237512549127, 39.13810570714022 ], [ -119.927055776029164, 39.13802884354299 ], [ -119.926008450782717, 39.138703862732299 ], [ -119.925828280972908, 39.138591004640908 ], [ -119.925711953992405, 39.138605950555828 ], [ -119.925601110967833, 39.138494922372111 ], [ -119.92507274571733, 39.138408903619805 ], [ -119.924697139205293, 39.138002611480097 ], [ -119.924534596032728, 39.138016335680661 ], [ -119.924413567522109, 39.138139257916613 ], [ -119.924137048888227, 39.138113937282164 ], [ -119.923949045365006, 39.138181039028019 ], [ -119.923674094620935, 39.138119724786641 ], [ -119.923430092533422, 39.13787905796918 ], [ -119.923392499329879, 39.137679878175362 ], [ -119.923094442739284, 39.137617952122007 ], [ -119.922986741699376, 39.137434936686937 ], [ -119.922826551973785, 39.137394669819749 ], [ -119.922798369869341, 39.136979535015065 ], [ -119.922464294940639, 39.136682435104163 ], [ -119.921772623330043, 39.136628119458173 ], [ -119.921525495191418, 39.136459433948104 ], [ -119.921371584156773, 39.136275195439964 ], [ -119.921420153169421, 39.136222428604853 ], [ -119.920884394443107, 39.135775856489673 ], [ -119.92083311625953, 39.135360110589637 ], [ -119.92070231679098, 39.135176482340633 ], [ -119.920427380906943, 39.135115160980838 ], [ -119.920321259678062, 39.134896151029167 ], [ -119.920271121484234, 39.134984909827239 ], [ -119.919877510690185, 39.134992516368001 ], [ -119.919525405457648, 39.1351093212579 ], [ -119.91932450284979, 39.134941853983022 ], [ -119.919409522999729, 39.134583764081029 ], [ -119.919254051586051, 39.134435515484356 ], [ -119.919294426924409, 39.134040210627006 ], [ -119.918427349824668, 39.133765031512404 ], [ -119.918204131815358, 39.133578954885834 ], [ -119.918197513471839, 39.133200423732312 ], [ -119.918007612159016, 39.13278100805649 ], [ -119.917977102941535, 39.132419861529378 ], [ -119.918247762440089, 39.132048668444241 ], [ -119.918256398691611, 39.131850710475661 ], [ -119.918128752565877, 39.131595095052539 ], [ -119.918323023708552, 39.131384032712091 ], [ -119.918360261127006, 39.131060712873897 ], [ -119.918156231869361, 39.130965228781406 ], [ -119.917958484435673, 39.130725774931967 ], [ -119.917908795588247, 39.130274035913544 ], [ -119.918030605711294, 39.130133124033975 ], [ -119.918042382422882, 39.129863181313809 ], [ -119.918446169415944, 39.129621629381276 ], [ -119.918426988807568, 39.129531037023433 ], [ -119.918618898161313, 39.129373962437654 ], [ -119.918704698203612, 39.128997876437047 ], [ -119.919373623232985, 39.12851109863167 ], [ -119.921535748684079, 39.128261985320989 ], [ -119.921750753024256, 39.128105515901183 ], [ -119.922256715681982, 39.128172939732792 ], [ -119.922380081430717, 39.127996030244077 ], [ -119.922878615374174, 39.12770291542617 ], [ -119.923099885163879, 39.127402473126352 ], [ -119.923039191595649, 39.127202682713616 ], [ -119.923430029462295, 39.126726549998018 ], [ -119.923460591285888, 39.126024694915756 ], [ -119.923309046956163, 39.125786470540902 ], [ -119.923405383023763, 39.125698930659887 ] ], [ [ -119.927532039922028, 39.137717105149235 ], [ -119.927529691181221, 39.137771094103513 ], [ -119.927552799668277, 39.137771703815787 ], [ -119.927532039922028, 39.137717105149235 ] ], [ [ -119.92772708489106, 39.137488030527294 ], [ -119.927770953151864, 39.137543238830283 ], [ -119.927750193289839, 39.137488640196764 ], [ -119.92772708489106, 39.137488030527294 ] ] ] ] } },
{ "type": "Feature", "properties": { "part": "upstream", "crossing_id": "X04446", "area_ac": 6.6, "n_upstream": 4.0 }, "geometry": { "type": "MultiPolygon", "coordinates": [ [ [ [ -119.930972628397853, 39.134672877329592 ], [ -119.931105800268156, 39.134802505913051 ], [ -119.931292224789985, 39.134771384722164 ], [ -119.931379964035003, 39.134881798757576 ], [ -119.931333400296907, 39.135421081557624 ], [ -119.931424267790348, 39.135459510023075 ], [ -119.93135025307545, 39.135565661602286 ], [ -119.930877500379523, 39.135264930986629 ], [ -119.930738853951411, 39.135261276794076 ], [ -119.930516379536002, 39.135057225966314 ], [ -119.930077334038714, 39.135045652482773 ], [ -119.929806300338186, 39.134894371143041 ], [ -119.92997196458667, 39.134808653771287 ], [ -119.930144667905907, 39.134560968800436 ], [ -119.930332656326456, 39.134493856388993 ], [ -119.930604471798873, 39.134627140115647 ], [ -119.930972628397853, 39.134672877329592 ] ] ], [ [ [ -119.92997359326769, 39.135835665078019 ], [ -119.930893218073962, 39.135968007901496 ], [ -119.930858026996546, 39.136777844949009 ], [ -119.930576035563348, 39.136878514352198 ], [ -119.930345735160898, 39.136854426764735 ], [ -119.930127591971498, 39.137082897017926 ], [ -119.92996583376204, 39.137078632571686 ], [ -119.929612530436074, 39.136690960952734 ], [ -119.929153496881014, 39.136606788889871 ], [ -119.928726963517008, 39.136307268415905 ], [ -119.928707768349142, 39.136216677242743 ], [ -119.92882487346148, 39.136183731800379 ], [ -119.929216509723688, 39.135689584355291 ], [ -119.929406066758716, 39.135586480896777 ], [ -119.929817313875873, 39.135705425991702 ], [ -119.92997359326769, 39.135835665078019 ] ] ], [ [ [ -119.92772708489106, 39.137488030527294 ], [ -119.927750193289839, 39.137488640196764 ], [ -119.927725519176633, 39.137524023171558 ], [ -119.92772708489106, 39.137488030527294 ] ] ], [ [ [ -119.927748627587178, 39.137524632841803 ], [ -119.927770953151864, 39.137543238830283 ], [ -119.927747844734782, 39.137542629164216 ], [ -119.927748627587178, 39.137524632841803 ] ] ], [ [ [ -119.927485040060617, 39.137733882030652 ], [ -119.927554365484426, 39.137735711178877 ], [ -119.927552799668277, 39.137771703815787 ], [ -119.927485040060617, 39.137733882030652 ] ] ] ] } }
]
}
