{
"type": "FeatureCollection",
"name": "X04434",
"crs": { "type": "name", "properties": { "name": "urn:ogc:def:crs:OGC:1.3:CRS84" } },
"features": [
{ "type": "Feature", "properties": { "part": "direct", "crossing_id": "X04434", "area_ac": 3.3 }, "geometry": { "type": "Polygon", "coordinates": [ [ [ -120.001126017814912, 38.794237995623142 ], [ -120.00121499325482, 38.79431235307586 ], [ -120.00101816984909, 38.79461360326232 ], [ -120.001005336165107, 38.79491957954226 ], [ -120.000728942873522, 38.795471037089655 ], [ -120.000229348722158, 38.795854597069123 ], [ -120.000173533149379, 38.796087396774801 ], [ -119.999721441039384, 38.79643613903869 ], [ -119.999688622717144, 38.79666952947607 ], [ -119.998858709613131, 38.797242791598144 ], [ -119.998910753015991, 38.797099985582946 ], [ -119.999576646723824, 38.796594579736173 ], [ -119.999575551817088, 38.796072029932624 ], [ -119.999695079920329, 38.795966993857455 ], [ -119.999707919686145, 38.795661018 ], [ -120.000087233734178, 38.795400495574519 ], [ -120.000287083799435, 38.795027252869197 ], [ -120.000377223042989, 38.794525065029511 ], [ -120.000935233745224, 38.794395256821446 ], [ -120.001126017814912, 38.794237995623142 ] ] ] } }
]
}
