{
"type": "FeatureCollection",
"name": "X04489",
"crs": { "type": "name", "properties": { "name": "urn:ogc:def:crs:OGC:1.3:CRS84" } },
"features": [
{ "type": "Feature", "properties": { "part": "direct", "crossing_id": "X04489", "area_ac": 0.1 }, "geometry": { "type": "Polygon", "coordinates": [ [ [ -120.153490398595324, 39.139585669746445 ], [ -120.153530097395176, 39.139748799527169 ], [ -120.153436191069233, 39.139782539758002 ], [ -120.153138612959111, 39.13970319512142 ], [ -120.153490398595324, 39.139585669746445 ] ] ] } }
]
}
