{
"type": "FeatureCollection",
"name": "X04481",
"crs": { "type": "name", "properties": { "name": "urn:ogc:def:crs:OGC:1.3:CRS84" } },
"features": [
{ "type": "Feature", "properties": { "part": "direct", "crossing_id": "X04481", "area_ac": 0.1 }, "geometry": { "type": "Polygon", "coordinates": [ [ [ -120.079784174296378, 39.226082059644334 ], [ -120.079889426959809, 39.226336942441321 ], [ -120.079791638544435, 39.226460609888157 ], [ -120.079724455796324, 39.226404872355729 ], [ -120.079784174296378, 39.226082059644334 ] ] ] } }
]
}
