{
"type": "FeatureCollection",
"name": "X04494",
"crs": { "type": "name", "properties": { "name": "urn:ogc:def:crs:OGC:1.3:CRS84" } },
"features": [
{ "type": "Feature", "properties": { "part": "direct", "crossing_id": "X04494", "area_ac": 0.0, "n_upstream": null }, "geometry": { "type": "Polygon", "coordinates": [ [ [ -120.164103517671506, 39.09651176289232 ], [ -120.164191587861097, 39.096622013856702 ], [ -120.163845809852802, 39.096595578599491 ], [ -120.164103517671506, 39.09651176289232 ] ] ] } },
{ "type": "Feature", "properties": { "part": "upstream", "crossing_id": "X04494", "area_ac": 0.1, "n_upstream": 1.0 }, "geometry": { "type": "Polygon", "coordinates": [ [ [ -120.164223346959744, 39.096406572649165 ], [ -120.164429803147911, 39.09644763364949 ], [ -120.164608830683818, 39.09659613386988 ], [ -120.164494773817523, 39.096557322149934 ], [ -120.164191587861097, 39.096622013856702 ], [ -120.164128060850004, 39.096476324622287 ], [ -120.164223346959744, 39.096406572649165 ] ] ] } }
]
}
