{
"type": "FeatureCollection",
"name": "X04459",
"crs": { "type": "name", "properties": { "name": "urn:ogc:def:crs:OGC:1.3:CRS84" } },
"features": [
{ "type": "Feature", "properties": { "part": "direct", "crossing_id": "X04459", "area_ac": 0.0 }, "geometry": { "type": "MultiPolygon", "coordinates": [ [ [ [ -120.161290774840026, 39.107253960201632 ], [ -120.161313155628974, 39.107272523412014 ], [ -120.16129005222615, 39.107271960414565 ], [ -120.161290774840026, 39.107253960201632 ] ] ], [ [ [ -120.161292220065832, 39.107217959775625 ], [ -120.161336981634591, 39.10725508619123 ], [ -120.161291497453249, 39.107235959988678 ], [ -120.161292220065832, 39.107217959775625 ] ] ] ] } }
]
}
