{
"type": "FeatureCollection",
"name": "X04490",
"crs": { "type": "name", "properties": { "name": "urn:ogc:def:crs:OGC:1.3:CRS84" } },
"features": [
{ "type": "Feature", "properties": { "part": "direct", "crossing_id": "X04490", "area_ac": 0.1 }, "geometry": { "type": "Polygon", "coordinates": [ [ [ -120.16179711207775, 39.12171657889828 ], [ -120.161817328798961, 39.121789142673705 ], [ -120.161351550984776, 39.121867881217817 ], [ -120.161561693306027, 39.12181894897941 ], [ -120.161612247058898, 39.121712074172684 ], [ -120.16179711207775, 39.12171657889828 ] ] ] } }
]
}
