{
"type": "FeatureCollection",
"name": "X04457",
"crs": { "type": "name", "properties": { "name": "urn:ogc:def:crs:OGC:1.3:CRS84" } },
"features": [
{ "type": "Feature", "properties": { "part": "direct", "crossing_id": "X04457", "area_ac": 0.5 }, "geometry": { "type": "MultiPolygon", "coordinates": [ [ [ [ -120.223445966101281, 39.073869041518691 ], [ -120.223279367895486, 39.073991198290031 ], [ -120.223109738674182, 39.074779952127599 ], [ -120.22274164662646, 39.074735143137929 ], [ -120.222886565822677, 39.074576434308263 ], [ -120.222894333150506, 39.074378420384001 ], [ -120.223042075537833, 39.074147706240659 ], [ -120.223207968488865, 39.074043551111998 ], [ -120.223212910677319, 39.073917542206118 ], [ -120.223427108172586, 39.073760483569892 ], [ -120.223445966101281, 39.073869041518691 ] ] ], [ [ [ -120.223623858354671, 39.073458864011336 ], [ -120.22355034196346, 39.073565220913956 ], [ -120.223450201875593, 39.073761033860279 ], [ -120.223527954257989, 39.073546669367303 ], [ -120.223623858354671, 39.073458864011336 ] ] ] ] } }
]
}
