{
"type": "FeatureCollection",
"name": "X04485",
"crs": { "type": "name", "properties": { "name": "urn:ogc:def:crs:OGC:1.3:CRS84" } },
"features": [
{ "type": "Feature", "properties": { "part": "direct", "crossing_id": "X04485", "area_ac": 0.1 }, "geometry": { "type": "MultiPolygon", "coordinates": [ [ [ [ -120.118382359957309, 39.181207691813583 ], [ -120.118404751219614, 39.181226263522611 ], [ -120.118381624496607, 39.181225691122549 ], [ -120.118382359957309, 39.181207691813583 ] ] ], [ [ [ -120.118358497774295, 39.181225118717904 ], [ -120.118369121563831, 39.18153167936493 ], [ -120.11853248019942, 39.181499687491666 ], [ -120.118480343016586, 39.181642537206926 ], [ -120.118277349773876, 39.181511390387691 ], [ -120.118358497774295, 39.181225118717904 ] ] ] ] } }
]
}
