{
"type": "FeatureCollection",
"name": "X04435",
"crs": { "type": "name", "properties": { "name": "urn:ogc:def:crs:OGC:1.3:CRS84" } },
"features": [
{ "type": "Feature", "properties": { "part": "direct", "crossing_id": "X04435", "area_ac": 0.1 }, "geometry": { "type": "Polygon", "coordinates": [ [ [ -119.947987666888451, 39.007342124101257 ], [ -119.947882240925907, 39.007645658242069 ], [ -119.947631605970415, 39.007567025718153 ], [ -119.947638573735546, 39.007405052183067 ], [ -119.947891530530853, 39.007429693479864 ], [ -119.947987666888451, 39.007342124101257 ] ] ] } }
]
}
