{
"type": "FeatureCollection",
"name": "X04572",
"crs": { "type": "name", "properties": { "name": "urn:ogc:def:crs:OGC:1.3:CRS84" } },
"features": [
{ "type": "Feature", "properties": { "part": "direct", "crossing_id": "X04572", "area_ac": 0.1 }, "geometry": { "type": "Polygon", "coordinates": [ [ [ -120.048755221751634, 39.239064497296063 ], [ -120.048584908977347, 39.23925836670719 ], [ -120.048528052671372, 39.239509164860578 ], [ -120.048440004205432, 39.239398828818516 ], [ -120.048537110671404, 39.23929318876138 ], [ -120.048522269482319, 39.239094623676586 ], [ -120.048755221751634, 39.239064497296063 ] ] ] } }
]
}
