{
"type": "FeatureCollection",
"name": "X04589",
"crs": { "type": "name", "properties": { "name": "urn:ogc:def:crs:OGC:1.3:CRS84" } },
"features": [
{ "type": "Feature", "properties": { "part": "direct", "crossing_id": "X04589", "area_ac": 0.7 }, "geometry": { "type": "Polygon", "coordinates": [ [ [ -120.021688376493884, 39.24248281797874 ], [ -120.021966114389485, 39.242489925991727 ], [ -120.021994123207875, 39.242923052165771 ], [ -120.021850682906319, 39.243027483615414 ], [ -120.021841541864916, 39.24324345435334 ], [ -120.021583898799832, 39.243308928550888 ], [ -120.021610852977787, 39.243219533155631 ], [ -120.021471220772384, 39.243233976308325 ], [ -120.021505793449151, 39.242964605381488 ], [ -120.021439405935624, 39.242890837926133 ], [ -120.021679235131799, 39.242698788705042 ], [ -120.021688376493884, 39.24248281797874 ] ] ] } }
]
}
