{
"type": "FeatureCollection",
"name": "X04505",
"crs": { "type": "name", "properties": { "name": "urn:ogc:def:crs:OGC:1.3:CRS84" } },
"features": [
{ "type": "Feature", "properties": { "part": "direct", "crossing_id": "X04505", "area_ac": 1.4 }, "geometry": { "type": "Polygon", "coordinates": [ [ [ -120.147142167966265, 39.071016821004079 ], [ -120.147253272949001, 39.071127648409593 ], [ -120.147463995745156, 39.071060735902691 ], [ -120.147484186296722, 39.071133301638248 ], [ -120.147780748158127, 39.071230650718171 ], [ -120.147820404917468, 39.071393782213782 ], [ -120.147911320460267, 39.071432043352416 ], [ -120.145439813954368, 39.071389538852692 ], [ -120.145185083027229, 39.071401315860783 ], [ -120.145019814262255, 39.071487355783837 ], [ -120.14502924995999, 39.071253354884398 ], [ -120.145213254830168, 39.071275881111553 ], [ -120.14526379206221, 39.071169012165079 ], [ -120.145608710369757, 39.071213497911337 ], [ -120.145961610556469, 39.071059981722321 ], [ -120.146029433289925, 39.071097678675464 ], [ -120.145999811868862, 39.071259113851823 ], [ -120.146482553992513, 39.071324990627161 ], [ -120.14664709530706, 39.071256948640617 ], [ -120.14678419274081, 39.071296341556348 ], [ -120.146904727031441, 39.071173168008784 ], [ -120.147020183736302, 39.071175995028014 ], [ -120.147002894907615, 39.071031428825108 ], [ -120.147142167966265, 39.071016821004079 ] ] ] } }
]
}
