{
"type": "FeatureCollection",
"name": "X04526",
"crs": { "type": "name", "properties": { "name": "urn:ogc:def:crs:OGC:1.3:CRS84" } },
"features": [
{ "type": "Feature", "properties": { "part": "direct", "crossing_id": "X04526", "area_ac": 0.1 }, "geometry": { "type": "Polygon", "coordinates": [ [ [ -120.090467151397789, 39.217575173443812 ], [ -120.090598544758208, 39.217758631230197 ], [ -120.090853064282769, 39.217764992965726 ], [ -120.090847860138368, 39.2178909842659 ], [ -120.090433603612937, 39.217826577566512 ], [ -120.090467151397789, 39.217575173443812 ] ] ] } }
]
}
