{
"type": "FeatureCollection",
"name": "X04581",
"crs": { "type": "name", "properties": { "name": "urn:ogc:def:crs:OGC:1.3:CRS84" } },
"features": [
{ "type": "Feature", "properties": { "part": "direct", "crossing_id": "X04581", "area_ac": 15.2 }, "geometry": { "type": "Polygon", "coordinates": [ [ [ -120.08638295741342, 39.225598817512846 ], [ -120.086539728486912, 39.225728863137064 ], [ -120.087533288818108, 39.225789764816234 ], [ -120.088564201927923, 39.226067800159626 ], [ -120.089351809431562, 39.226628019038714 ], [ -120.089680325209471, 39.227086667107706 ], [ -120.089994630883822, 39.227328751209981 ], [ -120.090013308657575, 39.227437322095277 ], [ -120.090441836337533, 39.227718295471476 ], [ -120.090725568454104, 39.228139786472177 ], [ -120.090840532467723, 39.228160677474634 ], [ -120.091033932919046, 39.228525857841369 ], [ -120.09148635662649, 39.228789407406261 ], [ -120.09171777440983, 39.228795190414552 ], [ -120.092009696286638, 39.229018692536798 ], [ -120.092262026643027, 39.229079048942971 ], [ -120.092167972283079, 39.229112733700099 ], [ -120.091663311982671, 39.228992019945473 ], [ -120.090942940218014, 39.229046085611529 ], [ -120.090694330204883, 39.228895732788914 ], [ -120.090698049105697, 39.228805739186036 ], [ -120.090541263495055, 39.228675698680604 ], [ -120.090403157047874, 39.228654228820645 ], [ -120.090111241965602, 39.228430722902274 ], [ -120.089719322406467, 39.228384888752622 ], [ -120.089630476185036, 39.228292580511024 ], [ -120.088738375000077, 39.228018026572109 ], [ -120.088335227186178, 39.227683629999902 ], [ -120.088014970559669, 39.227585531035793 ], [ -120.087792491349163, 39.227363756680354 ], [ -120.087677529715336, 39.227342862745473 ], [ -120.087254228178196, 39.226935888971234 ], [ -120.086956372941188, 39.226856365072976 ], [ -120.086804066983319, 39.226618327919155 ], [ -120.086082178813527, 39.226149823939515 ], [ -120.085907481475274, 39.225893207736895 ], [ -120.085935836602047, 39.225767796555651 ], [ -120.086077660135516, 39.225699278184308 ], [ -120.086035103271797, 39.225608126175466 ], [ -120.08638295741342, 39.225598817512846 ] ] ] } }
]
}
