{
"type": "FeatureCollection",
"name": "X04530",
"crs": { "type": "name", "properties": { "name": "urn:ogc:def:crs:OGC:1.3:CRS84" } },
"features": [
{ "type": "Feature", "properties": { "part": "direct", "crossing_id": "X04530", "area_ac": 33.6, "n_upstream": null }, "geometry": { "type": "MultiPolygon", "coordinates": [ [ [ [ -120.100504250994504, 39.214005956878658 ], [ -120.100526647223589, 39.214024532151363 ], [ -120.100503510110713, 39.214023955801842 ], [ -120.100504250994504, 39.214005956878658 ] ] ], [ [ [ -120.093852852516363, 39.207371844378436 ], [ -120.094048445579674, 39.207683022797958 ], [ -120.09410597264376, 39.207972736890163 ], [ -120.09441650158702, 39.208304801313197 ], [ -120.09486807132447, 39.208586332966732 ], [ -120.094949479769184, 39.208858625312544 ], [ -120.095106974151932, 39.208970660058426 ], [ -120.095012948477347, 39.209004348277197 ], [ -120.095008495545173, 39.20911234138223 ], [ -120.095157085080118, 39.20944036229762 ], [ -120.095513896428571, 39.209773578861324 ], [ -120.095484082321292, 39.20993499127227 ], [ -120.095702824957144, 39.210246744628606 ], [ -120.095751456236272, 39.210752444419526 ], [ -120.095949292259718, 39.21100962357729 ], [ -120.095896342362607, 39.211170458858149 ], [ -120.096209118957177, 39.211448522601266 ], [ -120.096109896793436, 39.211608203619228 ], [ -120.096120420012056, 39.211914761436923 ], [ -120.096278664802085, 39.21200879601065 ], [ -120.096293640186246, 39.21220736065613 ], [ -120.096606422769554, 39.21248542351946 ], [ -120.096602713568828, 39.212575417847233 ], [ -120.096760218669971, 39.212687450703008 ], [ -120.097081905926345, 39.212749525975667 ], [ -120.098982076297972, 39.212724830232723 ], [ -120.099240285402814, 39.212641178438474 ], [ -120.099328385047954, 39.212751478196239 ], [ -120.100059126292976, 39.213003912031141 ], [ -120.100281603023987, 39.213225663147654 ], [ -120.10041375612569, 39.213391111697696 ], [ -120.100353405060105, 39.213731938488678 ], [ -120.100504250994504, 39.214005956878658 ], [ -120.100299721735411, 39.213910774929381 ], [ -120.100250483809035, 39.213981617815946 ], [ -120.099692229394776, 39.214039778498694 ], [ -120.098706386168956, 39.214357539888269 ], [ -120.098523512902275, 39.214298929367089 ], [ -120.098413758489102, 39.214152054454438 ], [ -120.098251057260455, 39.214166015849891 ], [ -120.098074858450872, 39.213945414684908 ], [ -120.097683753721824, 39.213881611222 ], [ -120.097617309167276, 39.213807884960524 ], [ -120.097385197701271, 39.213820114381299 ], [ -120.097139591771068, 39.213597781004069 ], [ -120.096817158811319, 39.213553704617283 ], [ -120.096593208703013, 39.213367944981535 ], [ -120.096499177661315, 39.213401634185736 ], [ -120.09624986628107, 39.213269293372299 ], [ -120.095905040803942, 39.213206638488977 ], [ -120.095718462656492, 39.213238018 ], [ -120.095631852483521, 39.213091718009053 ], [ -120.095401969773079, 39.213049947010951 ], [ -120.095107872992287, 39.212880451470831 ], [ -120.095092158706493, 39.212699885653791 ], [ -120.094884671913789, 39.212676689937489 ], [ -120.094774185317931, 39.212547810771724 ], [ -120.094756119965453, 39.211862700020639 ], [ -120.094490362345255, 39.211567788741228 ], [ -120.094431346943551, 39.211314072494893 ], [ -120.093872249722324, 39.210831663463551 ], [ -120.09358324708667, 39.209977631489402 ], [ -120.093423525356698, 39.209919591172508 ], [ -120.093292137799139, 39.209736136634803 ], [ -120.093201709443335, 39.209121288020363 ], [ -120.092744090892438, 39.208425199448286 ], [ -120.092561238274882, 39.2083665802664 ], [ -120.092925346072178, 39.207961274785035 ], [ -120.093641669560682, 39.207438641208782 ], [ -120.093852852516363, 39.207371844378436 ] ] ] ] } },
{ "type": "Feature", "properties": { "part": "upstream", "crossing_id": "X04530", "area_ac": 68.1, "n_upstream": 7.0 }, "geometry": { "type": "MultiPolygon", "coordinates": [ [ [ [ -120.095894318147103, 39.208972288839369 ], [ -120.096513038948729, 39.209131862711011 ], [ -120.096571318810845, 39.209403577071846 ], [ -120.096501912266632, 39.209401845822619 ], [ -120.097344578436989, 39.209747174969742 ], [ -120.098061783730813, 39.209765057497599 ], [ -120.098341635728346, 39.209717981877198 ], [ -120.098508774283886, 39.209596026530541 ], [ -120.098593904199859, 39.209778322330756 ], [ -120.099031258797154, 39.209843275144145 ], [ -120.099417155441714, 39.210033065748512 ], [ -120.099525424051976, 39.210215937481735 ], [ -120.099684410994342, 39.210291968552838 ], [ -120.099743444864686, 39.210545682850587 ], [ -120.100369597560501, 39.210525247740769 ], [ -120.100712933363596, 39.210623886944937 ], [ -120.100784319557505, 39.211127218773328 ], [ -120.100919850535206, 39.211223614408226 ], [ -120.101846780087044, 39.211210662226897 ], [ -120.101833451572034, 39.21153464337516 ], [ -120.101552112987747, 39.211617725095373 ], [ -120.10149229497992, 39.211982319906518 ], [ -120.101606711184118, 39.211979432372289 ], [ -120.10174182740684, 39.212072883681564 ], [ -120.101757979438943, 39.212232293668976 ], [ -120.101875463019852, 39.212202332747495 ], [ -120.101973192416764, 39.212078644272388 ], [ -120.102205297891445, 39.212066405448127 ], [ -120.102222511237898, 39.212210973087331 ], [ -120.102777788697082, 39.212224795483927 ], [ -120.102815178856019, 39.212441934814819 ], [ -120.102954738929242, 39.212427391005292 ], [ -120.102998051385001, 39.212500538558196 ], [ -120.103253294868409, 39.212488873524237 ], [ -120.103297347807356, 39.212544022006071 ], [ -120.103370458425616, 39.212455754454218 ], [ -120.103807095021139, 39.212538689050135 ], [ -120.104004965938287, 39.21279585572772 ], [ -120.104625220469941, 39.212919390327862 ], [ -120.104849191376672, 39.213105135251638 ], [ -120.105033546894759, 39.213127737923003 ], [ -120.105031327779727, 39.213181734917086 ], [ -120.105669547960289, 39.21343183260278 ], [ -120.106316645509111, 39.213465938741585 ], [ -120.10651896429286, 39.213615107434237 ], [ -120.106772733177493, 39.213639432854009 ], [ -120.10715349818274, 39.213955192433119 ], [ -120.107517042047348, 39.214126383643311 ], [ -120.107716409116335, 39.214347546548048 ], [ -120.107832834978382, 39.214332422067855 ], [ -120.108035898488041, 39.214463589275297 ], [ -120.108409052658487, 39.214400790275704 ], [ -120.109959504215951, 39.214997836360318 ], [ -120.110582005340305, 39.215067343041497 ], [ -120.110977560389742, 39.215023109286705 ], [ -120.111576187301935, 39.215110035497965 ], [ -120.112138395093737, 39.215520368510049 ], [ -120.112178767228031, 39.215665509452869 ], [ -120.112292242933506, 39.215722376977403 ], [ -120.113405813972633, 39.215677928693424 ], [ -120.113532102236846, 39.215987356592237 ], [ -120.113315008055622, 39.216198181762003 ], [ -120.113332982476933, 39.216324749436644 ], [ -120.114317876735427, 39.21715995465771 ], [ -120.114704593965513, 39.217331698234482 ], [ -120.114472471707074, 39.217343961424312 ], [ -120.114336590546642, 39.217268523102263 ], [ -120.11384404494423, 39.217418467695268 ], [ -120.113543244505095, 39.217411008641044 ], [ -120.11339924979994, 39.217533559563371 ], [ -120.112849090071606, 39.217393792479115 ], [ -120.112713948528196, 39.217300353215229 ], [ -120.112632462852574, 39.217028070716047 ], [ -120.112762911200846, 39.216670958367821 ], [ -120.112626295393881, 39.216613517265976 ], [ -120.112500748099407, 39.216286089412385 ], [ -120.11240967150961, 39.216247795177843 ], [ -120.112463326560103, 39.216068952128559 ], [ -120.11239833987824, 39.215959235465995 ], [ -120.112129539610592, 39.21573635774994 ], [ -120.111940008271731, 39.21583975969277 ], [ -120.11166456725384, 39.21577887284608 ], [ -120.111428759267596, 39.215881125600866 ], [ -120.111243655723243, 39.215876531817372 ], [ -120.110152235435848, 39.2153809870846 ], [ -120.110020055314109, 39.215215548653518 ], [ -120.108944404336597, 39.214900558331706 ], [ -120.108091270460648, 39.214807295640753 ], [ -120.107928568792502, 39.214821270586732 ], [ -120.107783831267128, 39.214961813475021 ], [ -120.107557629352456, 39.214830070842837 ], [ -120.107232964927761, 39.214840019972144 ], [ -120.107029162722, 39.214726850410706 ], [ -120.106703759470662, 39.214754797099808 ], [ -120.106313380093084, 39.214673023184275 ], [ -120.105905780437638, 39.214446680645423 ], [ -120.105775091302874, 39.21424523979146 ], [ -120.105499662673736, 39.214184338764198 ], [ -120.105251809842429, 39.214016018523232 ], [ -120.104972683917069, 39.214045111277727 ], [ -120.10472779208979, 39.213804794011715 ], [ -120.104195638339419, 39.213791556064528 ], [ -120.103535957773474, 39.214063420577475 ], [ -120.103423232399862, 39.213988545891304 ], [ -120.103450810340433, 39.213881127838192 ], [ -120.103242576232347, 39.213875945769999 ], [ -120.103246277128804, 39.213785950932724 ], [ -120.102988067950918, 39.213869611626393 ], [ -120.103023048817064, 39.213582204054099 ], [ -120.102813335104884, 39.213613019176819 ], [ -120.102757437159966, 39.213845853872677 ], [ -120.102440181272044, 39.213675800201905 ], [ -120.101597620572917, 39.213889048802777 ], [ -120.101348297261197, 39.213756718503184 ], [ -120.101343112614998, 39.213882711063704 ], [ -120.101596139369093, 39.213925046684714 ], [ -120.101661107158264, 39.214034768715628 ], [ -120.101517099945141, 39.214157304474824 ], [ -120.101378276894351, 39.214153847479444 ], [ -120.10130442127452, 39.214260112532244 ], [ -120.100826688949866, 39.2140500232058 ], [ -120.100593835981641, 39.214080257945945 ], [ -120.100597540286174, 39.21399026332297 ], [ -120.100526647223589, 39.214024532151363 ], [ -120.100372096608922, 39.213840508395428 ], [ -120.10041375612569, 39.213391111697696 ], [ -120.10012631374002, 39.213059638053977 ], [ -120.099626938600494, 39.212812969952843 ], [ -120.099328385047954, 39.212751478196239 ], [ -120.099240285402814, 39.212641178438474 ], [ -120.09872683182931, 39.212736485835052 ], [ -120.097243862311686, 39.212753564973617 ], [ -120.096760218669971, 39.212687450703008 ], [ -120.096293640186246, 39.21220736065613 ], [ -120.096278664802085, 39.21200879601065 ], [ -120.096120420012056, 39.211914761436923 ], [ -120.096109896793436, 39.211608203619228 ], [ -120.096133774959284, 39.211590781950854 ], [ -120.096134516894494, 39.211572783089849 ], [ -120.096145714037789, 39.211582071114648 ], [ -120.096372555969879, 39.211416564970612 ], [ -120.096355268533031, 39.211354359882613 ], [ -120.096229287504897, 39.211521095223446 ], [ -120.095896342362607, 39.211170458858149 ], [ -120.095949292259718, 39.21100962357729 ], [ -120.095751456236272, 39.210752444419526 ], [ -120.095702824957144, 39.210246744628606 ], [ -120.095484082321292, 39.20993499127227 ], [ -120.095513896428571, 39.209773578861324 ], [ -120.095157085080118, 39.20944036229762 ], [ -120.095008495545173, 39.20911234138223 ], [ -120.095012948477347, 39.209004348277197 ], [ -120.095337585551491, 39.208994432302326 ], [ -120.095106232023113, 39.208988658911068 ], [ -120.094949479769184, 39.208858625312544 ], [ -120.094933023983472, 39.208696058264898 ], [ -120.094756106305212, 39.208493451645488 ], [ -120.09505909008297, 39.20844696122947 ], [ -120.095394987067294, 39.208725604062955 ], [ -120.095579327239932, 39.208748221189026 ], [ -120.095894318147103, 39.208972288839369 ] ], [ [ -120.097554578589467, 39.210833454167748 ], [ -120.097498996317753, 39.210882086593664 ], [ -120.09758798070682, 39.210856142909215 ], [ -120.097554578589467, 39.210833454167748 ] ], [ [ -120.09623593711332, 39.210236021883226 ], [ -120.096208026555018, 39.210527788057284 ], [ -120.096223933890386, 39.210527234308429 ], [ -120.09623593711332, 39.210236021883226 ] ], [ [ -120.096335206603484, 39.211282171259427 ], [ -120.096312050060305, 39.21119884715381 ], [ -120.096154548893736, 39.211086813817936 ], [ -120.096335206603484, 39.211282171259427 ] ], [ [ -120.096469875229246, 39.209617255204307 ], [ -120.096475420118011, 39.209579972812982 ], [ -120.096307033490419, 39.209775349508462 ], [ -120.096469875229246, 39.209617255204307 ] ], [ [ -120.095833208508338, 39.209331111695725 ], [ -120.095811556947552, 39.209294536745887 ], [ -120.095605563822815, 39.209235344949349 ], [ -120.095833208508338, 39.209331111695725 ] ], [ [ -120.096797308067167, 39.211787507240771 ], [ -120.096930191985649, 39.211934960504216 ], [ -120.096952586603962, 39.211953536410775 ], [ -120.096974981234069, 39.211972112313383 ], [ -120.096797308067167, 39.211787507240771 ] ], [ [ -120.096769573636067, 39.211828255446825 ], [ -120.096793599202172, 39.211877501594579 ], [ -120.096929635679473, 39.211948459658615 ], [ -120.096930191985649, 39.211934960504216 ], [ -120.096769573636067, 39.211828255446825 ] ], [ [ -120.096938704787959, 39.211953190190918 ], [ -120.096952308452884, 39.211960285988084 ], [ -120.096952586603962, 39.211953536410775 ], [ -120.096938704787959, 39.211953190190918 ] ], [ [ -120.09646435881713, 39.211436872361915 ], [ -120.096550968935944, 39.211583171757759 ], [ -120.096686819151643, 39.211658629795586 ], [ -120.09646435881713, 39.211436872361915 ] ], [ [ -120.096544329203368, 39.211294728184725 ], [ -120.096516565840986, 39.211294035655769 ], [ -120.09646435881713, 39.211436872361915 ], [ -120.096544329203368, 39.211294728184725 ] ], [ [ -120.096782331274198, 39.211588942597658 ], [ -120.096609110385998, 39.211296344059939 ], [ -120.09658854493064, 39.21129583108759 ], [ -120.096782331274198, 39.211588942597658 ] ], [ [ -120.100887999647497, 39.211997568699957 ], [ -120.101379749656701, 39.211985160114907 ], [ -120.100890221842263, 39.211943571892952 ], [ -120.100823775519615, 39.211869847384385 ], [ -120.100681993929044, 39.211938385461032 ], [ -120.100679771575216, 39.211992382258103 ], [ -120.100887999647497, 39.211997568699957 ] ] ], [ [ [ -120.096206151301701, 39.211520518051096 ], [ -120.096157653113352, 39.211573360277065 ], [ -120.096159136969959, 39.211537362554175 ], [ -120.096206151301701, 39.211520518051096 ] ] ], [ [ [ -120.100823034773668, 39.211887846319279 ], [ -120.100890221842263, 39.211943571892952 ], [ -120.101189514280222, 39.211987060630626 ], [ -120.100679771575216, 39.211992382258103 ], [ -120.100823034773668, 39.211887846319279 ] ] ] ] } }
]
}
