{
"type": "FeatureCollection",
"name": "X04533",
"crs": { "type": "name", "properties": { "name": "urn:ogc:def:crs:OGC:1.3:CRS84" } },
"features": [
{ "type": "Feature", "properties": { "part": "direct", "crossing_id": "X04533", "area_ac": 27.6, "n_upstream": null }, "geometry": { "type": "Polygon", "coordinates": [ [ [ -120.064512007109599, 39.236796476179286 ], [ -120.064592571907212, 39.237086783685719 ], [ -120.064861292080593, 39.237309767941682 ], [ -120.064913460466528, 39.237725479504441 ], [ -120.065072467360537, 39.237801558510988 ], [ -120.065079849676522, 39.238180106085366 ], [ -120.065306789758523, 39.238293932417186 ], [ -120.065237984864865, 39.238832713568065 ], [ -120.065117758727908, 39.238937784867559 ], [ -120.065250499052624, 39.239643803470543 ], [ -120.065216846154485, 39.239895195680489 ], [ -120.065120513594977, 39.239982852299434 ], [ -120.065204836736214, 39.240183168101346 ], [ -120.065128646281778, 39.240343401491664 ], [ -120.065012170512574, 39.240358481190754 ], [ -120.065112883160396, 39.240721365231465 ], [ -120.06496425354176, 39.240951840392334 ], [ -120.065122516933911, 39.241045917842811 ], [ -120.065115761163867, 39.241207902285893 ], [ -120.065393504930171, 39.241214906551996 ], [ -120.065524871436409, 39.241398391212094 ], [ -120.065907836721735, 39.24166028834739 ], [ -120.066172825860932, 39.241973261660959 ], [ -120.066230256499921, 39.242262984770392 ], [ -120.066790142491939, 39.24272752839255 ], [ -120.066828931697529, 39.242908678127002 ], [ -120.067857644176456, 39.243799428361648 ], [ -120.067875540331897, 39.243925999715465 ], [ -120.068141296369319, 39.244220970782663 ], [ -120.068360660996504, 39.245073305898579 ], [ -120.068603276424312, 39.245367692974902 ], [ -120.068280721891085, 39.245323532859189 ], [ -120.067693909022935, 39.244948403700391 ], [ -120.067187685001286, 39.244863577909555 ], [ -120.066969724265036, 39.24453377495832 ], [ -120.065673767786535, 39.243384037843725 ], [ -120.06559694574527, 39.243003739551725 ], [ -120.065330454396758, 39.242726761464091 ], [ -120.064982018262256, 39.241636942089983 ], [ -120.06469389042725, 39.241323382496439 ], [ -120.064656608904059, 39.241106235720181 ], [ -120.064275903970838, 39.240790339957023 ], [ -120.064192333761611, 39.240572025314201 ], [ -120.064242378174583, 39.240483201793445 ], [ -120.064107262273907, 39.24038970713876 ], [ -120.064091626079644, 39.240209140656113 ], [ -120.06393186413203, 39.240151058425198 ], [ -120.064029700136743, 39.240027406343529 ], [ -120.063785619589197, 39.239769007421003 ], [ -120.063867068780979, 39.239482787196451 ], [ -120.063754348985597, 39.239407874404783 ], [ -120.063655897755339, 39.238990994689985 ], [ -120.063564070537893, 39.238970660484092 ], [ -120.063576086146298, 39.238682688427055 ], [ -120.063299854898503, 39.238639683703923 ], [ -120.063266195768051, 39.238891075141218 ], [ -120.06317662204161, 39.238816745895065 ], [ -120.063184132765954, 39.238636763419272 ], [ -120.06311469949452, 39.238635011193402 ], [ -120.063083293012028, 39.238832407815543 ], [ -120.062798047474161, 39.239005380803306 ], [ -120.062617398528701, 39.238892718032275 ], [ -120.062622657057247, 39.238766730364866 ], [ -120.063007239626984, 39.238434110026674 ], [ -120.063120096107539, 39.237950493695713 ], [ -120.063011134967965, 39.237785589048073 ], [ -120.06262519653302, 39.237595676398776 ], [ -120.062592429808745, 39.23727053970088 ], [ -120.063577993614786, 39.236971102092987 ], [ -120.064512007109599, 39.236796476179286 ] ] ] } },
{ "type": "Feature", "properties": { "part": "upstream", "crossing_id": "X04533", "area_ac": 13.5, "n_upstream": 2.0 }, "geometry": { "type": "Polygon", "coordinates": [ [ [ -120.063576086146298, 39.238682688427055 ], [ -120.063564070537893, 39.238970660484092 ], [ -120.063655897755339, 39.238990994689985 ], [ -120.063754348985597, 39.239407874404783 ], [ -120.063867068780979, 39.239482787196451 ], [ -120.063785619589197, 39.239769007421003 ], [ -120.064029700136743, 39.240027406343529 ], [ -120.06393186413203, 39.240151058425198 ], [ -120.064091626079644, 39.240209140656113 ], [ -120.064107262273907, 39.24038970713876 ], [ -120.064242378174583, 39.240483201793445 ], [ -120.064232617094078, 39.240717179158487 ], [ -120.064656608904059, 39.241106235720181 ], [ -120.06469389042725, 39.241323382496439 ], [ -120.064980516881363, 39.241672938625165 ], [ -120.065132025953275, 39.241929000530995 ], [ -120.065330454396758, 39.242726761464091 ], [ -120.06559694574527, 39.243003739551725 ], [ -120.065673767786535, 39.243384037843725 ], [ -120.066969724265036, 39.24453377495832 ], [ -120.067187685001286, 39.244863577909555 ], [ -120.067693909022935, 39.244948403700391 ], [ -120.068100048029365, 39.245210877765309 ], [ -120.067199578385711, 39.245134135654112 ], [ -120.067064449787637, 39.245040644013542 ], [ -120.0669024235347, 39.245036560265213 ], [ -120.065598953514865, 39.244066804882458 ], [ -120.065451191721337, 39.243720752085082 ], [ -120.065248881872293, 39.243571512645929 ], [ -120.065209345832884, 39.243408360808523 ], [ -120.064920459440287, 39.243112799810277 ], [ -120.064930219067278, 39.242878822397259 ], [ -120.064549503750456, 39.242562927203672 ], [ -120.063667985982036, 39.241477673251175 ], [ -120.063386624570271, 39.241002126449011 ], [ -120.06343967457542, 39.240841310350497 ], [ -120.063305310236444, 39.240729816539179 ], [ -120.06328817389948, 39.240585246520304 ], [ -120.062838043204465, 39.240267594140882 ], [ -120.062853067091382, 39.23990762938179 ], [ -120.062720959070035, 39.239742140269243 ], [ -120.062778516629891, 39.239473335034347 ], [ -120.062641902182634, 39.239415835285598 ], [ -120.062714341031878, 39.239345594870329 ], [ -120.06267481268867, 39.239182442380859 ], [ -120.06281743614565, 39.239095956154408 ], [ -120.062751758399656, 39.239004212494756 ], [ -120.063083293012028, 39.238832407815543 ], [ -120.06311469949452, 39.238635011193402 ], [ -120.063184132765954, 39.238636763419272 ], [ -120.063314452150792, 39.239106379633775 ], [ -120.063275208378357, 39.238675096154864 ], [ -120.063576086146298, 39.238682688427055 ] ], [ [ -120.063322861571777, 39.239198797519194 ], [ -120.063318834523301, 39.239154541067158 ], [ -120.063176483035647, 39.239375275608218 ], [ -120.063322861571777, 39.239198797519194 ] ] ] } }
]
}
