{
"type": "FeatureCollection",
"name": "X04556",
"crs": { "type": "name", "properties": { "name": "urn:ogc:def:crs:OGC:1.3:CRS84" } },
"features": [
{ "type": "Feature", "properties": { "part": "direct", "crossing_id": "X04556", "area_ac": 5.9, "n_upstream": null }, "geometry": { "type": "MultiPolygon", "coordinates": [ [ [ [ -120.148356405625847, 39.064397948967397 ], [ -120.149065648368335, 39.064577464589981 ], [ -120.149415609607516, 39.064495936898908 ], [ -120.149828317866124, 39.064578103899493 ], [ -120.150141426520705, 39.064838012430812 ], [ -120.150801518307745, 39.065664959371922 ], [ -120.151186076756716, 39.065872558542033 ], [ -120.150592176297494, 39.066272448504577 ], [ -120.149983148084473, 39.066473768634232 ], [ -120.149826590339373, 39.066343814159858 ], [ -120.149131194751419, 39.06524572987626 ], [ -120.148510782180978, 39.064581905630945 ], [ -120.148307328066792, 39.064468819434715 ], [ -120.148356405625847, 39.064397948967397 ] ] ], [ [ [ -120.148311676920144, 39.064360818581164 ], [ -120.148334041267148, 39.064379383776213 ], [ -120.14831095211288, 39.064378818723576 ], [ -120.148311676920144, 39.064360818581164 ] ] ] ] } },
{ "type": "Feature", "properties": { "part": "upstream", "crossing_id": "X04556", "area_ac": 31.3, "n_upstream": 3.0 }, "geometry": { "type": "MultiPolygon", "coordinates": [ [ [ [ -120.157100740980326, 39.064773776141756 ], [ -120.156182070399893, 39.065387719096115 ], [ -120.156197320497739, 39.065400376211947 ], [ -120.156174230852841, 39.065399812703859 ], [ -120.156149695521734, 39.0654352497152 ], [ -120.156150764073118, 39.065408640632299 ], [ -120.156067319347315, 39.065464405353083 ], [ -120.156100624783591, 39.065506123719068 ], [ -120.156008266077819, 39.065503869577661 ], [ -120.155936105452938, 39.065574179956805 ], [ -120.155774477592615, 39.065570234927655 ], [ -120.154974965472363, 39.065911075030748 ], [ -120.154406344738689, 39.066257548276383 ], [ -120.154284385242704, 39.066416730935792 ], [ -120.154026055508368, 39.066518529148318 ], [ -120.152502842965646, 39.066463298360539 ], [ -120.152269772256176, 39.066511656225487 ], [ -120.152266094732099, 39.066456362607127 ], [ -120.151813765590731, 39.066356367849117 ], [ -120.151350520174319, 39.066381079599608 ], [ -120.15109870412445, 39.066320869533861 ], [ -120.150865633102399, 39.066369224571126 ], [ -120.15068960532966, 39.066148705754493 ], [ -120.150781240222273, 39.06616896431477 ], [ -120.151127699942691, 39.065949326583912 ], [ -120.151091545547359, 39.065924301034805 ], [ -120.151351325028315, 39.065786509028179 ], [ -120.151689784167786, 39.065416407139146 ], [ -120.151964762539194, 39.064900609530348 ], [ -120.152127836040009, 39.064868559381786 ], [ -120.152462667787987, 39.064588455905572 ], [ -120.152790260180439, 39.064488353482268 ], [ -120.15300457627967, 39.06433142887974 ], [ -120.153537799244006, 39.064290401875738 ], [ -120.153847363461296, 39.064063730751116 ], [ -120.154102790946112, 39.064033933511617 ], [ -120.154549440409966, 39.063846644209313 ], [ -120.154943401524307, 39.06382022788133 ], [ -120.156833166706264, 39.062803295632449 ], [ -120.157362042144882, 39.062870252312166 ], [ -120.157608795381634, 39.063056450653242 ], [ -120.157770417767324, 39.06306039292874 ], [ -120.158442863755482, 39.063581294386687 ], [ -120.157531523292917, 39.064405909145243 ], [ -120.157280307788525, 39.064385746802081 ], [ -120.157413909070343, 39.064457093794168 ], [ -120.157100740980326, 39.064773776141756 ] ], [ [ -120.156174513702013, 39.065392769122937 ], [ -120.156164335290981, 39.065399571199002 ], [ -120.156174230852841, 39.065399812703859 ], [ -120.156174513702013, 39.065392769122937 ] ], [ [ -120.155987471821362, 39.063719589486695 ], [ -120.155659887026644, 39.063819701216012 ], [ -120.156333808296182, 39.063728041880459 ], [ -120.155987471821362, 39.063719589486695 ] ], [ [ -120.15684823743608, 39.064155006607272 ], [ -120.157055574675255, 39.064265732091101 ], [ -120.156333808296182, 39.063728041880459 ], [ -120.15684823743608, 39.064155006607272 ] ], [ [ -120.152459701574116, 39.065237027554048 ], [ -120.154005977279127, 39.065292821875644 ], [ -120.152207164606438, 39.065194820193689 ], [ -120.152459701574116, 39.065237027554048 ] ], [ [ -120.152263477124805, 39.064943945941351 ], [ -120.15218697048347, 39.065122255095211 ], [ -120.152207164606438, 39.065194820193689 ], [ -120.152263477124805, 39.064943945941351 ] ], [ [ -120.154618654550333, 39.06442490717555 ], [ -120.154635958217483, 39.064569472909376 ], [ -120.15466553999012, 39.064394410847704 ], [ -120.154618654550333, 39.06442490717555 ] ], [ [ -120.154832243451537, 39.064285979293665 ], [ -120.154683378547588, 39.06438280786238 ], [ -120.155230545252692, 39.06415156058965 ], [ -120.154832243451537, 39.064285979293665 ] ] ], [ [ [ -120.156126605866461, 39.065434686197257 ], [ -120.156149695521734, 39.0654352497152 ], [ -120.156148972677357, 39.065453249977111 ], [ -120.15612588301623, 39.065452686458812 ], [ -120.156126605866461, 39.065434686197257 ] ] ] ] } }
]
}
