{
"type": "FeatureCollection",
"name": "X04551",
"crs": { "type": "name", "properties": { "name": "urn:ogc:def:crs:OGC:1.3:CRS84" } },
"features": [
{ "type": "Feature", "properties": { "part": "direct", "crossing_id": "X04551", "area_ac": 0.6 }, "geometry": { "type": "MultiPolygon", "coordinates": [ [ [ [ -120.10460959082431, 39.189063934691312 ], [ -120.10463198066121, 39.189082508986651 ], [ -120.104608851644826, 39.189081933757116 ], [ -120.10460959082431, 39.189063934691312 ] ] ], [ [ [ -120.104833795998061, 39.188114585655512 ], [ -120.104912268302499, 39.188458868711002 ], [ -120.104690065206057, 39.188795674353059 ], [ -120.10470432433435, 39.189012238378204 ], [ -120.104632719834825, 39.189064509920485 ], [ -120.104385480195205, 39.188319645276209 ], [ -120.104833795998061, 39.188114585655512 ] ] ] ] } }
]
}
