{
"type": "FeatureCollection",
"name": "X04552",
"crs": { "type": "name", "properties": { "name": "urn:ogc:def:crs:OGC:1.3:CRS84" } },
"features": [
{ "type": "Feature", "properties": { "part": "direct", "crossing_id": "X04552", "area_ac": 3.9, "n_upstream": null }, "geometry": { "type": "MultiPolygon", "coordinates": [ [ [ [ -120.104027248983016, 39.188022455471426 ], [ -120.104049638345487, 39.188041029863598 ], [ -120.104026509682356, 39.188040454531198 ], [ -120.104027248983016, 39.188022455471426 ] ] ], [ [ [ -120.10479280088164, 39.186293803253072 ], [ -120.104693113843695, 39.187030039818275 ], [ -120.104478306320217, 39.187186854551193 ], [ -120.10444926455375, 39.187330271865839 ], [ -120.104189677077642, 39.18744993737613 ], [ -120.104067381236916, 39.187609052401619 ], [ -120.104130852693103, 39.187754770845395 ], [ -120.103986166838794, 39.187895311378426 ], [ -120.104028727582303, 39.187986457351691 ], [ -120.104004120326408, 39.188021880134805 ], [ -120.103048044903176, 39.187061185961156 ], [ -120.102938319714795, 39.186914315954134 ], [ -120.102968103846905, 39.186752900069777 ], [ -120.103206041348571, 39.186596663673669 ], [ -120.1036275241146, 39.186481028163819 ], [ -120.104530261347975, 39.186485466004314 ], [ -120.10479280088164, 39.186293803253072 ] ] ] ] } },
{ "type": "Feature", "properties": { "part": "upstream", "crossing_id": "X04552", "area_ac": 4.6, "n_upstream": 1.0 }, "geometry": { "type": "Polygon", "coordinates": [ [ [ -120.103227155656043, 39.187209782348937 ], [ -120.104426563268788, 39.188446789256389 ], [ -120.104636415692951, 39.18897451458848 ], [ -120.104608851644826, 39.189081933757116 ], [ -120.10430743523483, 39.189092454416965 ], [ -120.104234351816231, 39.189180723819412 ], [ -120.103931456275276, 39.189227241600108 ], [ -120.103693511045421, 39.189383479145391 ], [ -120.103794160770192, 39.189187791204304 ], [ -120.102750736098059, 39.188098799386239 ], [ -120.102940740522428, 39.187418864757433 ], [ -120.103227155656043, 39.187209782348937 ] ] ] } }
]
}
