{
"type": "FeatureCollection",
"name": "X04565",
"crs": { "type": "name", "properties": { "name": "urn:ogc:def:crs:OGC:1.3:CRS84" } },
"features": [
{ "type": "Feature", "properties": { "part": "direct", "crossing_id": "X04565", "area_ac": 40.0, "n_upstream": null }, "geometry": { "type": "Polygon", "coordinates": [ [ [ -120.15259143182719, 39.141797891057159 ], [ -120.152818948643485, 39.141893542082379 ], [ -120.153075385465655, 39.141845757915242 ], [ -120.153207542609266, 39.142011147906324 ], [ -120.153459626640327, 39.142071362787682 ], [ -120.153477662753517, 39.142197927635443 ], [ -120.153614174304934, 39.142255317313619 ], [ -120.154240446804707, 39.142216569078485 ], [ -120.154444852652972, 39.142311652231392 ], [ -120.154371156840241, 39.142417957855919 ], [ -120.154408683060694, 39.142635087388541 ], [ -120.154707000160414, 39.142696429251757 ], [ -120.154623151095777, 39.143054735013592 ], [ -120.155139568162809, 39.143445723188584 ], [ -120.155446503763343, 39.143867628092899 ], [ -120.155545404470146, 39.144284451237191 ], [ -120.155495548491999, 39.144373322100975 ], [ -120.155868211830366, 39.144886919887611 ], [ -120.155972190737799, 39.145177742668402 ], [ -120.156352834979373, 39.145493338963291 ], [ -120.156370876809575, 39.145619903521194 ], [ -120.157710734081263, 39.146823763773675 ], [ -120.157826315366947, 39.146826584635271 ], [ -120.158003276275011, 39.147029098203525 ], [ -120.158571044037586, 39.147295200636648 ], [ -120.159380787626958, 39.14787350415925 ], [ -120.159710883691901, 39.148295963048398 ], [ -120.16038339403822, 39.148834877191547 ], [ -120.160803073600789, 39.149331588296533 ], [ -120.161052295847526, 39.149463788177101 ], [ -120.161406973763249, 39.14985080619072 ], [ -120.161907595855894, 39.150061202791036 ], [ -120.162849623190382, 39.150228298776391 ], [ -120.163098852603213, 39.15036049451416 ], [ -120.164602215689939, 39.15037908994605 ], [ -120.164920079145091, 39.150530970617943 ], [ -120.165548590782933, 39.150438163628785 ], [ -120.166256568082872, 39.150095038598991 ], [ -120.166181435822324, 39.150237352246776 ], [ -120.165942312533119, 39.150429728247623 ], [ -120.165547145500582, 39.150474163920229 ], [ -120.165473456714665, 39.150580476746185 ], [ -120.165240112176548, 39.150628850047703 ], [ -120.165142582328116, 39.150752600038174 ], [ -120.164789311465924, 39.150906159366414 ], [ -120.164688166058738, 39.151119909582789 ], [ -120.164427363784952, 39.151275719075294 ], [ -120.163704202655325, 39.151420267851321 ], [ -120.163545993390741, 39.151326325830397 ], [ -120.163268579290815, 39.151319568536607 ], [ -120.163249077694772, 39.151229004862628 ], [ -120.162994058537052, 39.151240810170279 ], [ -120.162792508561708, 39.151073740381037 ], [ -120.162423348132421, 39.151046728071478 ], [ -120.162220353095066, 39.150915657543983 ], [ -120.16137151264374, 39.150732810175739 ], [ -120.160513313954127, 39.150207391821951 ], [ -120.160406414182049, 39.149988572624153 ], [ -120.16006979039534, 39.149728115935325 ], [ -120.159561935133837, 39.149697712257286 ], [ -120.158817899433402, 39.149211101544665 ], [ -120.158289105084009, 39.149126128353629 ], [ -120.156726003284149, 39.147718629315726 ], [ -120.156640785556476, 39.147536371566765 ], [ -120.156617747382427, 39.146959242236676 ], [ -120.156434266924492, 39.146918726844355 ], [ -120.156292669738278, 39.146987340181603 ], [ -120.155690196538188, 39.14700866249774 ], [ -120.155534183441219, 39.146860710277259 ], [ -120.155260503639752, 39.146187369995445 ], [ -120.155305461791926, 39.14507136997679 ], [ -120.15510539787924, 39.144868288038921 ], [ -120.155052004877575, 39.144470593997525 ], [ -120.154590514949547, 39.143864734853004 ], [ -120.154382477950946, 39.143859651764039 ], [ -120.154435236094955, 39.143698781437081 ], [ -120.154346402026931, 39.143606522258324 ], [ -120.153927329359149, 39.144244919231078 ], [ -120.15398942110356, 39.144426613761063 ], [ -120.153845650463353, 39.144549224190179 ], [ -120.153672335196489, 39.14425670499876 ], [ -120.15370923492182, 39.143915270324015 ], [ -120.153487514769495, 39.143675620959193 ], [ -120.153513532035433, 39.143604186025492 ], [ -120.15342179712114, 39.143583926101336 ], [ -120.153272326370342, 39.143273971436628 ], [ -120.153049884001106, 39.143052321318869 ], [ -120.152756647055725, 39.142864975425525 ], [ -120.152787744552143, 39.142667540871614 ], [ -120.152676524881784, 39.142556715450588 ], [ -120.152683782009021, 39.142376715757223 ], [ -120.152592774678823, 39.14233845527469 ], [ -120.152718507883861, 39.142089281353158 ], [ -120.152704827310629, 39.14185471660852 ], [ -120.15259143182719, 39.141797891057159 ] ] ] } },
{ "type": "Feature", "properties": { "part": "upstream", "crossing_id": "X04565", "area_ac": 5.7, "n_upstream": 1.0 }, "geometry": { "type": "MultiPolygon", "coordinates": [ [ [ [ -120.154590514949547, 39.143864734853004 ], [ -120.154768909806037, 39.144031252820589 ], [ -120.155052004877575, 39.144470593997525 ], [ -120.15510539787924, 39.144868288038921 ], [ -120.155305461791926, 39.14507136997679 ], [ -120.155260503639752, 39.146187369995445 ], [ -120.155534183441219, 39.146860710277259 ], [ -120.155427303827011, 39.146641887152256 ], [ -120.15484731680273, 39.146105205368784 ], [ -120.154251476664683, 39.145387956277659 ], [ -120.153957501559333, 39.145218612982262 ], [ -120.153961854298515, 39.145110613096101 ], [ -120.153827513518365, 39.144999223697802 ], [ -120.153553754370563, 39.144902444307441 ], [ -120.15398942110356, 39.144426613761063 ], [ -120.153927329359149, 39.144244919231078 ], [ -120.154346402026931, 39.143606522258324 ], [ -120.154415747436744, 39.143608216674856 ], [ -120.154382477950946, 39.143859651764039 ], [ -120.154590514949547, 39.143864734853004 ] ] ], [ [ [ -120.155533458341623, 39.146878710277633 ], [ -120.155534183441219, 39.146860710277259 ], [ -120.155556574571719, 39.146879274891603 ], [ -120.155533458341623, 39.146878710277633 ] ] ], [ [ [ -120.155555849477309, 39.146897274892304 ], [ -120.155556574571719, 39.146879274891603 ], [ -120.155578965713929, 39.146897839502053 ], [ -120.155555849477309, 39.146897274892304 ] ] ], [ [ [ -120.155578240624763, 39.146915839503009 ], [ -120.155578965713929, 39.146897839502053 ], [ -120.155601356867891, 39.146916404108538 ], [ -120.155578240624763, 39.146915839503009 ] ] ] ] } }
]
}
