{
"type": "FeatureCollection",
"name": "X04576",
"crs": { "type": "name", "properties": { "name": "urn:ogc:def:crs:OGC:1.3:CRS84" } },
"features": [
{ "type": "Feature", "properties": { "part": "direct", "crossing_id": "X04576", "area_ac": 8.8, "n_upstream": null }, "geometry": { "type": "Polygon", "coordinates": [ [ [ -120.026412396175033, 39.236513854232797 ], [ -120.027143088300662, 39.236766744719915 ], [ -120.027137006458275, 39.236910726061005 ], [ -120.027316829996948, 39.237041439280333 ], [ -120.02737941786927, 39.23720519182212 ], [ -120.027347152395095, 39.237420572690468 ], [ -120.027462868784781, 39.237423528503307 ], [ -120.02752697758855, 39.237551285639903 ], [ -120.027428322885996, 39.237692902403175 ], [ -120.027416159923021, 39.237980865109748 ], [ -120.026932428316229, 39.237914456600507 ], [ -120.026936229869889, 39.237824468295102 ], [ -120.026779548519983, 39.237694345745354 ], [ -120.026707837367496, 39.237746564827496 ], [ -120.026671767589605, 39.238051933685689 ], [ -120.026759779305692, 39.23816228485871 ], [ -120.026684265716696, 39.238304492185236 ], [ -120.026972966916844, 39.238600141476105 ], [ -120.02698850739182, 39.238780709331877 ], [ -120.026919836587041, 39.238760937866083 ], [ -120.026893651496522, 39.238832337218341 ], [ -120.026985466100271, 39.238852699967886 ], [ -120.026969499140776, 39.23923065078921 ], [ -120.027057512696317, 39.239341001792042 ], [ -120.026937991447937, 39.239428033738761 ], [ -120.026951250819323, 39.239662594548221 ], [ -120.026673522813539, 39.239655498847931 ], [ -120.02673501894904, 39.239296728456125 ], [ -120.026083948314479, 39.239352160289869 ], [ -120.025663117876391, 39.239990019847383 ], [ -120.025402446897914, 39.240127493654441 ], [ -120.025315956677119, 39.239981146217779 ], [ -120.025418422775502, 39.239749543429689 ], [ -120.02555956893066, 39.239699099967446 ], [ -120.025544792793767, 39.239500534445156 ], [ -120.025737550782509, 39.239325290397602 ], [ -120.025656385430821, 39.239052959749856 ], [ -120.02589314749045, 39.238932891341207 ], [ -120.025958449607273, 39.238484133236774 ], [ -120.025581306083808, 39.238636647968107 ], [ -120.025435597823375, 39.238795077350602 ], [ -120.025454937938804, 39.238885657088922 ], [ -120.025269788218154, 39.238880924394905 ], [ -120.025251209109626, 39.238772347004186 ], [ -120.02534454456152, 39.238756715764971 ], [ -120.025401482050285, 39.238505932063333 ], [ -120.025784710138865, 39.238209436772706 ], [ -120.025791555634243, 39.238047457998896 ], [ -120.026175540039972, 39.237732963594489 ], [ -120.026207048798511, 39.237535580854676 ], [ -120.026298861499853, 39.237555944077705 ], [ -120.026211611711389, 39.237427594952138 ], [ -120.026304945195008, 39.237411962862254 ], [ -120.026360357018817, 39.237197173774746 ], [ -120.026320154242143, 39.237052009804557 ], [ -120.026107303063796, 39.237154673157114 ], [ -120.025880434827656, 39.237040772879723 ], [ -120.025691486852239, 39.23712602926323 ], [ -120.025496890370064, 39.23679674805846 ], [ -120.025597829343099, 39.236601140086691 ], [ -120.025735166010321, 39.236640684362833 ], [ -120.025853162609494, 39.236589648786463 ], [ -120.0262196479473, 39.236689099832496 ], [ -120.026412396175033, 39.236513854232797 ] ] ] } },
{ "type": "Feature", "properties": { "part": "upstream", "crossing_id": "X04576", "area_ac": 158.5, "n_upstream": 13.0 }, "geometry": { "type": "MultiPolygon", "coordinates": [ [ [ [ -120.026298861499853, 39.237555944077705 ], [ -120.026229431606936, 39.237554169904953 ], [ -120.026072752195688, 39.237424046470949 ], [ -120.026128164733464, 39.237209257522011 ], [ -120.026061016739575, 39.237153490313808 ], [ -120.026320154242143, 39.237052009804557 ], [ -120.026331130254491, 39.237340563630127 ], [ -120.026211611711389, 39.237427594952138 ], [ -120.026298861499853, 39.237555944077705 ] ] ], [ [ [ -120.027348249956034, 39.237943096251897 ], [ -120.027572082955515, 39.238128984536566 ], [ -120.027671837750972, 39.238509891279669 ], [ -120.028318340014664, 39.238562436292298 ], [ -120.028236749018603, 39.238848626163737 ], [ -120.028363452023967, 39.239140135069135 ], [ -120.028264036519815, 39.239299750166055 ], [ -120.028772442889107, 39.239330749080615 ], [ -120.02843702835861, 39.239592441036187 ], [ -120.028669574908051, 39.240120874410735 ], [ -120.02920189148756, 39.240134464933909 ], [ -120.029195053326916, 39.240296444151369 ], [ -120.029100196822412, 39.240348073809805 ], [ -120.029488331510493, 39.240484101671832 ], [ -120.029206040815552, 39.240584998037725 ], [ -120.029193124054714, 39.240890958754647 ], [ -120.029054257334934, 39.240887413567634 ], [ -120.029115332488217, 39.241087160740449 ], [ -120.028973425882739, 39.241155606183497 ], [ -120.029224566695532, 39.241792615690137 ], [ -120.029220767529154, 39.241882604121159 ], [ -120.028943030196729, 39.241875513498734 ], [ -120.028914566025151, 39.24200090635 ], [ -120.029007905179995, 39.241985272310998 ], [ -120.029207850236133, 39.242188564773905 ], [ -120.02918464357262, 39.24328701430936 ], [ -120.029112928145338, 39.243339234681045 ], [ -120.027307600074977, 39.243293130720964 ], [ -120.027005952026968, 39.243303441656941 ], [ -120.027306839712622, 39.243311128371339 ], [ -120.027302277524171, 39.243419114272065 ], [ -120.027208175761842, 39.243452744499486 ], [ -120.027221435944142, 39.243687305201178 ], [ -120.027100386302365, 39.243810332275473 ], [ -120.027163739105731, 39.243956087334404 ], [ -120.026997918884078, 39.244041936391042 ], [ -120.026969450151839, 39.244167328559072 ], [ -120.02716635318582, 39.24444261505154 ], [ -120.02713712410366, 39.244586004902281 ], [ -120.026851771487898, 39.244758885292171 ], [ -120.02648024664424, 39.245325938522001 ], [ -120.026474922228459, 39.24545192193434 ], [ -120.026212710386218, 39.245625391984319 ], [ -120.025914417859198, 39.246104229361251 ], [ -120.025579720189043, 39.246347913549094 ], [ -120.025377810127765, 39.246739127700863 ], [ -120.024996053741674, 39.246999624222234 ], [ -120.024749367650969, 39.247353658312505 ], [ -120.024583536422824, 39.247439503462267 ], [ -120.023985533987272, 39.247334125923693 ], [ -120.023794271339256, 39.247473370687906 ], [ -120.023630722989836, 39.247505221687184 ], [ -120.023662932722161, 39.247482360200792 ], [ -120.023443266522406, 39.247554477950395 ], [ -120.023101699473017, 39.247960132485915 ], [ -120.02227480802101, 39.248335350597905 ], [ -120.022135927494261, 39.248331796601867 ], [ -120.021846738073194, 39.248594651290517 ], [ -120.021143950496921, 39.248774849869072 ], [ -120.021029740348766, 39.24873589200444 ], [ -120.020816083433488, 39.248856541366166 ], [ -120.020584614496684, 39.248850614983063 ], [ -120.019965260564248, 39.249249147025886 ], [ -120.01922074369871, 39.249320162912007 ], [ -120.018788577528156, 39.24912892133176 ], [ -120.018432982760714, 39.249317997844003 ], [ -120.018155218827303, 39.249310880376171 ], [ -120.017753327439237, 39.249498768390467 ], [ -120.017243329542396, 39.249503713638916 ], [ -120.01695106476113, 39.249838545067462 ], [ -120.016306245055972, 39.250290455390328 ], [ -120.016010918657202, 39.250697273896996 ], [ -120.016026431583938, 39.250877841912569 ], [ -120.015881438920701, 39.251018259790378 ], [ -120.015915518162828, 39.251307406059638 ], [ -120.015835386180285, 39.251557589301306 ], [ -120.015529121216886, 39.251675853625727 ], [ -120.014883511488208, 39.252145752358807 ], [ -120.014510854304206, 39.252190242638328 ], [ -120.014289536732747, 39.252490853214553 ], [ -120.014038729287094, 39.252394332373825 ], [ -120.013525654616004, 39.25247125009394 ], [ -120.013367439976378, 39.252377104245063 ], [ -120.013227024189831, 39.252409534105261 ], [ -120.01315223088055, 39.252533733309704 ], [ -120.01273403931917, 39.252559032005841 ], [ -120.012708051425733, 39.253170942982386 ], [ -120.012382448581434, 39.253198617347678 ], [ -120.012380155242042, 39.253252609472568 ], [ -120.011617030833492, 39.253214996149481 ], [ -120.010569246135233, 39.25333221782887 ], [ -120.009938125677351, 39.253460137708075 ], [ -120.009206757599856, 39.253765647399092 ], [ -120.007239157473194, 39.253715057126001 ], [ -120.006642665784, 39.253573594871192 ], [ -120.006494416007229, 39.253245475322821 ], [ -120.006646324726148, 39.252943094566483 ], [ -120.00732144397125, 39.252870375178503 ], [ -120.007770442164983, 39.252665718353938 ], [ -120.008211017389613, 39.252659030082114 ], [ -120.0087040113727, 39.252509551758514 ], [ -120.009652308356721, 39.252551943040729 ], [ -120.009908465157608, 39.252522491776695 ], [ -120.010028029667581, 39.252435479173137 ], [ -120.01056196008561, 39.252413163765944 ], [ -120.011226923918372, 39.252033871614707 ], [ -120.011980648671482, 39.251746939888413 ], [ -120.012172710105702, 39.25158971861643 ], [ -120.012356362215726, 39.251630468168976 ], [ -120.012685779380973, 39.251512806665481 ], [ -120.01278295555997, 39.251407199365254 ], [ -120.012780443851611, 39.250920675650057 ], [ -120.012994120118094, 39.250800041862931 ], [ -120.013273416923553, 39.250771177070149 ], [ -120.013281822550809, 39.25057320569659 ], [ -120.013547139961773, 39.250327777259614 ], [ -120.014256834807256, 39.249985649245161 ], [ -120.014465922829501, 39.249972997038157 ], [ -120.01537300346051, 39.249347653940568 ], [ -120.015960838364052, 39.249146525735718 ], [ -120.016202994294147, 39.248900497036338 ], [ -120.016388932134475, 39.248887247696857 ], [ -120.01641513213626, 39.248815851371219 ], [ -120.01664660007944, 39.24882178603638 ], [ -120.017027632853456, 39.248579316033009 ], [ -120.017728901515369, 39.248435137613995 ], [ -120.018017342119578, 39.248190291209959 ], [ -120.018156984679578, 39.24817585262106 ], [ -120.01847238300715, 39.247841610662725 ], [ -120.01878167703839, 39.247651347697492 ], [ -120.019056115335133, 39.247189935408684 ], [ -120.019728609151599, 39.246630615569202 ], [ -120.019733183475395, 39.246522630472121 ], [ -120.019993126920284, 39.246403168362498 ], [ -120.020146486572401, 39.246064771813622 ], [ -120.02028764906882, 39.24601433543026 ], [ -120.020571978489258, 39.245318950915092 ], [ -120.020870302860246, 39.244840128456204 ], [ -120.021037655960541, 39.24471829342086 ], [ -120.021173956711152, 39.244235322213868 ], [ -120.021364453156366, 39.244114079104129 ], [ -120.02158799819523, 39.243759459846409 ], [ -120.021654857685974, 39.243274710593781 ], [ -120.021930313487061, 39.243335811493054 ], [ -120.022768106881614, 39.243249146746784 ], [ -120.023136144208337, 39.243312613417935 ], [ -120.024443318845314, 39.243303705322866 ], [ -120.02420310409039, 39.243285851656701 ], [ -120.024225422246928, 39.243253820072582 ], [ -120.0232526312343, 39.243297576199993 ], [ -120.023266336295066, 39.242973619676398 ], [ -120.023382822735257, 39.242958582304603 ], [ -120.023466723079821, 39.2426184041868 ], [ -120.023588537945798, 39.242477383446449 ], [ -120.023843892658689, 39.242465897399768 ], [ -120.023990373693081, 39.242289472928761 ], [ -120.023934640774186, 39.241963740424978 ], [ -120.024287900084246, 39.241828637702696 ], [ -120.024612686406456, 39.241818925362651 ], [ -120.02489727085559, 39.241664047761141 ], [ -120.024948886533011, 39.241539247861056 ], [ -120.024860873855303, 39.241428895319778 ], [ -120.025187621797414, 39.240824668115238 ], [ -120.025057886133183, 39.240605146699572 ], [ -120.025132644868449, 39.240480938322477 ], [ -120.025078429218183, 39.240119210883009 ], [ -120.025262957646419, 39.240120294345523 ], [ -120.025226423597616, 39.23990678923527 ], [ -120.025301181221351, 39.239782580696954 ], [ -120.025126680679463, 39.239525880905859 ], [ -120.025112666589251, 39.239309317744933 ], [ -120.025276195100929, 39.239277463865363 ], [ -120.025330851114319, 39.239080673135838 ], [ -120.025197313954308, 39.238951140076686 ], [ -120.025454937938804, 39.238885657088922 ], [ -120.025435597823375, 39.238795077350602 ], [ -120.025581306083808, 39.238636647968107 ], [ -120.025958449607273, 39.238484133236774 ], [ -120.02589314749045, 39.238932891341207 ], [ -120.025656385430821, 39.239052959749856 ], [ -120.025737550782509, 39.239325290397602 ], [ -120.025544792793767, 39.239500534445156 ], [ -120.02555956893066, 39.239699099967446 ], [ -120.025418422775502, 39.239749543429689 ], [ -120.025315956677119, 39.239981146217779 ], [ -120.02542711253632, 39.24009208998757 ], [ -120.025281752209935, 39.240120404681775 ], [ -120.026908337204247, 39.240129942283261 ], [ -120.026005715590117, 39.240106878278908 ], [ -120.026055806827941, 39.240018073018796 ], [ -120.025958666709485, 39.240123692959365 ], [ -120.025518928263594, 39.240112453938039 ], [ -120.02574091752075, 39.239793820461777 ], [ -120.025906728816679, 39.239707972817882 ], [ -120.025963665303493, 39.239457188829213 ], [ -120.026083948314479, 39.239352160289869 ], [ -120.02673501894904, 39.239296728456125 ], [ -120.026675727003678, 39.239655555165612 ], [ -120.027003324831369, 39.239663924918425 ], [ -120.026937991447937, 39.239428033738761 ], [ -120.027059033333046, 39.239305006474837 ], [ -120.026969499140776, 39.23923065078921 ], [ -120.026936137273637, 39.238923508062939 ], [ -120.026982424797794, 39.23892469060285 ], [ -120.026893651496522, 39.238832337218341 ], [ -120.026942219962038, 39.238779526797991 ], [ -120.027427477901028, 39.238809940154134 ], [ -120.02698850739182, 39.238780709331877 ], [ -120.026950119949603, 39.238455421119689 ], [ -120.026952104237736, 39.238545557233074 ], [ -120.026725990563676, 39.238413660746907 ], [ -120.026684265716696, 39.238304492185236 ], [ -120.026759779305692, 39.23816228485871 ], [ -120.026677090252164, 39.237925950090442 ], [ -120.026779548519983, 39.237694345745354 ], [ -120.026936229869889, 39.237824468295102 ], [ -120.026938258932404, 39.237916637561597 ], [ -120.027348249956034, 39.237943096251897 ] ], [ [ -120.027456059237508, 39.243206837713537 ], [ -120.027427127763204, 39.243206098678819 ], [ -120.027452553909129, 39.243152696947874 ], [ -120.027307600074977, 39.243293130720964 ], [ -120.027456059237508, 39.243206837713537 ] ], [ [ -120.027237006229413, 39.238931194244117 ], [ -120.027285574519155, 39.238878383673871 ], [ -120.026982424797794, 39.23892469060285 ], [ -120.027237006229413, 39.238931194244117 ] ], [ [ -120.02769128393669, 39.239256295301438 ], [ -120.027526472442119, 39.239208844656318 ], [ -120.027691744524418, 39.239261915731191 ], [ -120.02769128393669, 39.239256295301438 ] ], [ [ -120.027012658203716, 39.239697623656063 ], [ -120.027006238491637, 39.239724227884217 ], [ -120.027018401821437, 39.239718361340486 ], [ -120.027012658203716, 39.239697623656063 ] ], [ [ -120.027662043645989, 39.242581501566718 ], [ -120.027621835780096, 39.242436337941953 ], [ -120.027642365025159, 39.242641055850541 ], [ -120.027662043645989, 39.242581501566718 ] ], [ [ -120.027176425793144, 39.242010567394161 ], [ -120.027109272586273, 39.241954800623475 ], [ -120.027325513744842, 39.242320666262799 ], [ -120.027176425793144, 39.242010567394161 ] ], [ [ -120.026974966490855, 39.241843266976502 ], [ -120.026974974734273, 39.241856668318306 ], [ -120.026988397081269, 39.241854420347522 ], [ -120.026974966490855, 39.241843266976502 ] ], [ [ -120.026830345781789, 39.242524220960085 ], [ -120.026902061945449, 39.242472002022915 ], [ -120.026975298848953, 39.242383787741602 ], [ -120.026830345781789, 39.242524220960085 ] ], [ [ -120.024574886788884, 39.243260785080039 ], [ -120.024573109267422, 39.243302820028532 ], [ -120.02536112267272, 39.243297441914635 ], [ -120.024574886788884, 39.243260785080039 ] ], [ [ -120.024506720851676, 39.243241165733494 ], [ -120.02427406177955, 39.243251632051361 ], [ -120.02450551308992, 39.243257550399726 ], [ -120.024506720851676, 39.243241165733494 ] ], [ [ -120.027116022224092, 39.242891860984912 ], [ -120.027270434102874, 39.243075976400199 ], [ -120.027288646065088, 39.24308364846717 ], [ -120.027116022224092, 39.242891860984912 ] ], [ [ -120.026989318702178, 39.242600350822343 ], [ -120.027058753617482, 39.242602124731874 ], [ -120.02696769459142, 39.242563764215959 ], [ -120.026938797791729, 39.243247674756368 ], [ -120.026989318702178, 39.242600350822343 ] ] ] ] } }
]
}
