{
"type": "FeatureCollection",
"name": "X04516",
"crs": { "type": "name", "properties": { "name": "urn:ogc:def:crs:OGC:1.3:CRS84" } },
"features": [
{ "type": "Feature", "properties": { "part": "direct", "crossing_id": "X04516", "area_ac": 0.2 }, "geometry": { "type": "Polygon", "coordinates": [ [ [ -120.155359718980677, 39.139703414451454 ], [ -120.155423986016658, 39.139831108269227 ], [ -120.155282402562506, 39.139899720939503 ], [ -120.155132118533587, 39.140184333608921 ], [ -120.154901703330935, 39.140160687214383 ], [ -120.154745706214982, 39.14001273440423 ], [ -120.155070751917378, 39.139984639587148 ], [ -120.155260013609919, 39.139881156337267 ], [ -120.155359718980677, 39.139703414451454 ] ] ] } }
]
}
