{
"type": "FeatureCollection",
"name": "X04506",
"crs": { "type": "name", "properties": { "name": "urn:ogc:def:crs:OGC:1.3:CRS84" } },
"features": [
{ "type": "Feature", "properties": { "part": "direct", "crossing_id": "X04506", "area_ac": 1.1 }, "geometry": { "type": "Polygon", "coordinates": [ [ [ -120.145632992623518, 39.072331199734492 ], [ -120.145875391120981, 39.072625423217069 ], [ -120.145780846967938, 39.07267716086551 ], [ -120.145597563955505, 39.07263663532342 ], [ -120.145546300308666, 39.072761504443989 ], [ -120.145265569409503, 39.072844716017251 ], [ -120.1451904872998, 39.072987019253191 ], [ -120.144955938959725, 39.073071361574122 ], [ -120.14476249241099, 39.073282835550323 ], [ -120.144498456712284, 39.072952043844985 ], [ -120.145091722247642, 39.072570188800732 ], [ -120.145096077257023, 39.072462188400358 ], [ -120.145301725446387, 39.07252128052621 ], [ -120.145352263551956, 39.072414411589527 ], [ -120.145632992623518, 39.072331199734492 ] ] ] } }
]
}
