{
"type": "FeatureCollection",
"name": "X04596",
"crs": { "type": "name", "properties": { "name": "urn:ogc:def:crs:OGC:1.3:CRS84" } },
"features": [
{ "type": "Feature", "properties": { "part": "direct", "crossing_id": "X04596", "area_ac": 2.8 }, "geometry": { "type": "Polygon", "coordinates": [ [ [ -120.040038616982258, 39.250752427806219 ], [ -120.040059492993223, 39.250807010128497 ], [ -120.040385078700524, 39.250779257410109 ], [ -120.040404440554283, 39.250869835361918 ], [ -120.040563447647827, 39.250945947853758 ], [ -120.040513365681718, 39.251034759621312 ], [ -120.040604443449553, 39.251073110182539 ], [ -120.040575995136649, 39.25119850636851 ], [ -120.040664044495671, 39.251308848263605 ], [ -120.040588542658455, 39.251451064875759 ], [ -120.040648143891204, 39.251686802961871 ], [ -120.040560526251156, 39.252116984976581 ], [ -120.040133252920796, 39.252358356706225 ], [ -120.039956823609671, 39.252696193592655 ], [ -120.039840323397669, 39.25271124706515 ], [ -120.039591749034216, 39.252560786504461 ], [ -120.03981599130087, 39.252188132337629 ], [ -120.039874406289599, 39.251901344838032 ], [ -120.039969271562214, 39.251849706772646 ], [ -120.03985083121276, 39.251360232225423 ], [ -120.039931635841072, 39.251092031319615 ], [ -120.039823469401625, 39.250909108734341 ], [ -120.039963871906238, 39.250876646165231 ], [ -120.040038616982258, 39.250752427806219 ] ] ] } }
]
}
