{
"type": "FeatureCollection",
"name": "X04520",
"crs": { "type": "name", "properties": { "name": "urn:ogc:def:crs:OGC:1.3:CRS84" } },
"features": [
{ "type": "Feature", "properties": { "part": "direct", "crossing_id": "X04520", "area_ac": 4.6, "n_upstream": null }, "geometry": { "type": "Polygon", "coordinates": [ [ [ -120.152695467278718, 39.145530100482802 ], [ -120.153019706317565, 39.146096576309901 ], [ -120.153221944296376, 39.146245661804414 ], [ -120.153283309986691, 39.146445356620362 ], [ -120.153723138783221, 39.147014656003066 ], [ -120.154193345512411, 39.147404519056884 ], [ -120.154603637550522, 39.147558686177454 ], [ -120.154531386760013, 39.147628991660305 ], [ -120.154371747834674, 39.147571037840279 ], [ -120.154459861218413, 39.14768129711117 ], [ -120.154383983077381, 39.147841602391289 ], [ -120.154061077337772, 39.147815693987013 ], [ -120.15363990107312, 39.147931524467594 ], [ -120.153246920053675, 39.147921918730212 ], [ -120.153092361865745, 39.147737963450545 ], [ -120.153013685486997, 39.147393703756116 ], [ -120.152661970031559, 39.1469346623552 ], [ -120.152672857449971, 39.14666466301923 ], [ -120.152583296427125, 39.146590402438797 ], [ -120.152529191150549, 39.146210707776092 ], [ -120.152648399997389, 39.146123533952434 ], [ -120.152634719692927, 39.145888969321973 ], [ -120.152410819929841, 39.145703317752641 ], [ -120.152415900968407, 39.145577318065321 ], [ -120.152695467278718, 39.145530100482802 ] ] ] } },
{ "type": "Feature", "properties": { "part": "upstream", "crossing_id": "X04520", "area_ac": 2.1, "n_upstream": 1.0 }, "geometry": { "type": "Polygon", "coordinates": [ [ [ -120.155287067601435, 39.147251063803274 ], [ -120.155510254811404, 39.147454710254664 ], [ -120.15585410101437, 39.147535179170106 ], [ -120.156101857252295, 39.147703389122078 ], [ -120.155873507605378, 39.148202308386374 ], [ -120.15632496710333, 39.148483598888916 ], [ -120.155752123630222, 39.148343485501741 ], [ -120.155463208863367, 39.148048145517151 ], [ -120.155279001191758, 39.148025628223998 ], [ -120.154962621591309, 39.147837722367214 ], [ -120.154594207889502, 39.147792685959914 ], [ -120.154370297005983, 39.147607037800199 ], [ -120.154531386760013, 39.147628991660305 ], [ -120.155287067601435, 39.147251063803274 ] ] ] } }
]
}
