{
"type": "FeatureCollection",
"name": "X04507",
"crs": { "type": "name", "properties": { "name": "urn:ogc:def:crs:OGC:1.3:CRS84" } },
"features": [
{ "type": "Feature", "properties": { "part": "direct", "crossing_id": "X04507", "area_ac": 0.7 }, "geometry": { "type": "Polygon", "coordinates": [ [ [ -120.148162480810655, 39.063474291079032 ], [ -120.148158131867248, 39.063582291934971 ], [ -120.148015249353136, 39.063686902239972 ], [ -120.148237440888849, 39.063908554780056 ], [ -120.148230192715133, 39.064088556203636 ], [ -120.148040406185928, 39.064210036490657 ], [ -120.147699869512749, 39.064057558312236 ], [ -120.147477679284279, 39.063835904796562 ], [ -120.148162480810655, 39.063474291079032 ] ] ] } }
]
}
