{
"type": "FeatureCollection",
"name": "X04653",
"crs": { "type": "name", "properties": { "name": "urn:ogc:def:crs:OGC:1.3:CRS84" } },
"features": [
{ "type": "Feature", "properties": { "part": "direct", "crossing_id": "X04653", "area_ac": 0.4 }, "geometry": { "type": "Polygon", "coordinates": [ [ [ -120.034189638765341, 39.238333857857178 ], [ -120.034224549264948, 39.238605004175668 ], [ -120.034098211194561, 39.238854023863844 ], [ -120.033981733221296, 39.238869072326757 ], [ -120.033872082282784, 39.23872214072783 ], [ -120.033902053093328, 39.238560750667368 ], [ -120.033632672457244, 39.238355696251396 ], [ -120.034189638765341, 39.238333857857178 ] ] ] } }
]
}
