{
"type": "FeatureCollection",
"name": "X04673",
"crs": { "type": "name", "properties": { "name": "urn:ogc:def:crs:OGC:1.3:CRS84" } },
"features": [
{ "type": "Feature", "properties": { "part": "direct", "crossing_id": "X04673", "area_ac": 2.8 }, "geometry": { "type": "Polygon", "coordinates": [ [ [ -120.181983799695757, 39.137539891226936 ], [ -120.18241578004384, 39.1377305207996 ], [ -120.182412907963169, 39.137802522588359 ], [ -120.181774471894087, 39.138147431873364 ], [ -120.17996104292294, 39.139526943362142 ], [ -120.179821638324412, 39.139541585578208 ], [ -120.179463422551265, 39.139821195717914 ], [ -120.1795233086726, 39.139480307749039 ], [ -120.18014296505126, 39.139026849637375 ], [ -120.180792912033169, 39.138393943217615 ], [ -120.181983799695757, 39.137539891226936 ] ] ] } }
]
}
