{
"type": "FeatureCollection",
"name": "X04687",
"crs": { "type": "name", "properties": { "name": "urn:ogc:def:crs:OGC:1.3:CRS84" } },
"features": [
{ "type": "Feature", "properties": { "part": "direct", "crossing_id": "X04687", "area_ac": 23.7 }, "geometry": { "type": "Polygon", "coordinates": [ [ [ -120.204913415308425, 39.146849124853873 ], [ -120.20513817518777, 39.147016679771269 ], [ -120.205941581660582, 39.147180100495746 ], [ -120.205699011060616, 39.147462566481636 ], [ -120.20585513462926, 39.147610455313441 ], [ -120.205756966133393, 39.147752242915068 ], [ -120.205670126617278, 39.148777177692239 ], [ -120.20577859235847, 39.148959958843214 ], [ -120.204928848883199, 39.149966585662469 ], [ -120.204965109082309, 39.150219705966109 ], [ -120.204873348474564, 39.150199485768191 ], [ -120.204923148090217, 39.150110591716377 ], [ -120.204745328398133, 39.149926145162048 ], [ -120.204284389902767, 39.149879044919679 ], [ -120.203989556242306, 39.149727823816356 ], [ -120.203756236333149, 39.149776275414659 ], [ -120.203196108804221, 39.149312378544536 ], [ -120.202921545504651, 39.149233713001991 ], [ -120.202757580514572, 39.149283828351031 ], [ -120.202691079239329, 39.149210159596358 ], [ -120.202436782023355, 39.14920405112256 ], [ -120.20239339906432, 39.149130937549614 ], [ -120.202230860514206, 39.149145050714424 ], [ -120.202188904348901, 39.149035935637762 ], [ -120.202006814713457, 39.148959489525808 ], [ -120.201745808425258, 39.148538807746782 ], [ -120.20156229372941, 39.14849836241941 ], [ -120.20126005100029, 39.147950563711383 ], [ -120.201010039884466, 39.147836448060389 ], [ -120.200838658360425, 39.147489989730438 ], [ -120.200868911359237, 39.147310538341671 ], [ -120.201008328547204, 39.14729587133192 ], [ -120.201012609700612, 39.147187867101067 ], [ -120.201198261097289, 39.147174311043543 ], [ -120.201937299711133, 39.147210087424106 ], [ -120.20210197355317, 39.147141972338964 ], [ -120.20221470691358, 39.147216752092497 ], [ -120.20237938052729, 39.147148636605749 ], [ -120.202538348765984, 39.147224526705649 ], [ -120.204433967842789, 39.147270045704069 ], [ -120.204644874256871, 39.147203036772517 ], [ -120.204774712097361, 39.146845795839752 ], [ -120.204913415308425, 39.146849124853873 ] ] ] } }
]
}
