{
"type": "FeatureCollection",
"name": "X04690",
"crs": { "type": "name", "properties": { "name": "urn:ogc:def:crs:OGC:1.3:CRS84" } },
"features": [
{ "type": "Feature", "properties": { "part": "direct", "crossing_id": "X04690", "area_ac": 22.5, "n_upstream": null }, "geometry": { "type": "Polygon", "coordinates": [ [ [ -120.154105999718496, 39.067979930968747 ], [ -120.154149951267158, 39.068611630570182 ], [ -120.153933453556519, 39.068822557443163 ], [ -120.153814382365624, 39.068909738484102 ], [ -120.153377105682608, 39.068863020867695 ], [ -120.153278229855061, 39.069022766263508 ], [ -120.153117318209652, 39.069000817056825 ], [ -120.15280200931187, 39.068794916197852 ], [ -120.152793323894841, 39.069010918582634 ], [ -120.152946997919472, 39.069212870238566 ], [ -120.15264319812448, 39.069295536291307 ], [ -120.152264333605459, 39.069520510060798 ], [ -120.152237622979115, 39.069609946664137 ], [ -120.152003817619075, 39.069676303767409 ], [ -120.151782241820243, 39.070013227515091 ], [ -120.150981936354626, 39.0703720375652 ], [ -120.151538215303177, 39.070908156134557 ], [ -120.150919008281207, 39.07136148195918 ], [ -120.150755194824896, 39.071411529966028 ], [ -120.150484616857582, 39.071242752374523 ], [ -120.150392251126547, 39.07124049350908 ], [ -120.150314283105374, 39.071454801140014 ], [ -120.149483714227088, 39.071416467276038 ], [ -120.149187148994045, 39.07131912242 ], [ -120.148998793489, 39.071404603211484 ], [ -120.148886960421919, 39.071311777488326 ], [ -120.148778856079858, 39.070552381831845 ], [ -120.148867802649548, 39.069491504029102 ], [ -120.149261796264184, 39.069465108193143 ], [ -120.149512896898344, 39.069543322706011 ], [ -120.149584343334766, 39.069491016883617 ], [ -120.149720810314776, 39.068971836817994 ], [ -120.149772063552064, 39.068846965412334 ], [ -120.14993659607957, 39.068778918420143 ], [ -120.149943841129812, 39.068598916873988 ], [ -120.150503085310675, 39.068486469191555 ], [ -120.150741233656888, 39.068312113987083 ], [ -120.151229030640323, 39.068251969319938 ], [ -120.151280198142913, 39.06870366728112 ], [ -120.151349470013869, 39.068705360817937 ], [ -120.151582548556661, 39.068657005102899 ], [ -120.152008315386638, 39.068415161996136 ], [ -120.152199555060506, 39.068257675102423 ], [ -120.152227712940089, 39.068132238088182 ], [ -120.152365531810133, 39.068153624148103 ], [ -120.15274221712113, 39.067982650321674 ], [ -120.154105999718496, 39.067979930968747 ] ] ] } },
{ "type": "Feature", "properties": { "part": "upstream", "crossing_id": "X04690", "area_ac": 9.3, "n_upstream": 7.0 }, "geometry": { "type": "MultiPolygon", "coordinates": [ [ [ [ -120.155033957138727, 39.06789448393252 ], [ -120.154746022984739, 39.068157721890898 ], [ -120.154451633104884, 39.068006389946049 ], [ -120.154676751444342, 39.068156030391428 ], [ -120.154739513522486, 39.068319723972103 ], [ -120.154681759695549, 39.068606599978807 ], [ -120.153908192339074, 39.068875994094597 ], [ -120.154149951267158, 39.068611630570182 ], [ -120.154105276289528, 39.067997931190767 ], [ -120.154115404236279, 39.067745928076086 ], [ -120.154326111036056, 39.067679002501961 ], [ -120.154567140796161, 39.067432638083424 ], [ -120.155194917271416, 39.067339859005337 ], [ -120.155044081745913, 39.067642480609898 ], [ -120.155033957138727, 39.06789448393252 ] ] ], [ [ [ -120.152153374070068, 39.068256546429843 ], [ -120.151582548556661, 39.068657005102899 ], [ -120.151280198142913, 39.06870366728112 ], [ -120.151274487435529, 39.068271098535277 ], [ -120.151623016932732, 39.068225565200414 ], [ -120.151873392169165, 39.068321774755667 ], [ -120.152084826538299, 39.068236853197149 ], [ -120.152153374070068, 39.068256546429843 ] ] ], [ [ [ -120.153253691743998, 39.069058202544788 ], [ -120.152947721673939, 39.069194870038437 ], [ -120.152793323894841, 39.069010918582634 ], [ -120.152823652443871, 39.068831480813316 ], [ -120.153117318209652, 39.069000817056825 ], [ -120.153255862759863, 39.069004201928294 ], [ -120.153253691743998, 39.069058202544788 ] ] ], [ [ [ -120.152487856702805, 39.070859295823972 ], [ -120.152155889879026, 39.071067397281979 ], [ -120.151650051398676, 39.071000979422536 ], [ -120.15098048778566, 39.07040803789657 ], [ -120.151360085238736, 39.07016506849029 ], [ -120.151782241820243, 39.070013227515091 ], [ -120.151926580457626, 39.069872612591254 ], [ -120.152338599224251, 39.069972772087397 ], [ -120.152537732205857, 39.070193853118774 ], [ -120.152487856702805, 39.070859295823972 ] ] ], [ [ [ -120.150956499435068, 39.071578613139465 ], [ -120.150720513262172, 39.07169896783725 ], [ -120.150630320138205, 39.071642708668087 ], [ -120.150874186572437, 39.071900922144088 ], [ -120.15040003753063, 39.072195631046988 ], [ -120.150395690646775, 39.072303631951641 ], [ -120.150184966525018, 39.072370549717 ], [ -120.150047864907975, 39.072331160663971 ], [ -120.149882599392981, 39.072417207616098 ], [ -120.14956656113641, 39.072229298025732 ], [ -120.149404194260129, 39.072243343742826 ], [ -120.149437432113999, 39.071991906769071 ], [ -120.149345065490692, 39.071989647038087 ], [ -120.149078837783961, 39.071712865438045 ], [ -120.148872463487194, 39.071671780074645 ], [ -120.149024059368458, 39.071351167816815 ], [ -120.149187148994045, 39.07131912242 ], [ -120.149483714227088, 39.071416467276038 ], [ -120.150268824599962, 39.07143567149263 ], [ -120.150260130644256, 39.071651673303045 ], [ -120.150367710770368, 39.071275929088074 ], [ -120.150484616857582, 39.071242752374523 ], [ -120.150755194824896, 39.071411529966028 ], [ -120.151014271414866, 39.071291739760149 ], [ -120.150956499435068, 39.071578613139465 ] ] ] ] } }
]
}
