{
"type": "FeatureCollection",
"name": "X04613",
"crs": { "type": "name", "properties": { "name": "urn:ogc:def:crs:OGC:1.3:CRS84" } },
"features": [
{ "type": "Feature", "properties": { "part": "direct", "crossing_id": "X04613", "area_ac": 5.2 }, "geometry": { "type": "Polygon", "coordinates": [ [ [ -120.104518597658597, 39.207061082750521 ], [ -120.104796216627548, 39.207067988052437 ], [ -120.105407549518929, 39.207407504969865 ], [ -120.105685170070032, 39.207414408204201 ], [ -120.105797148530002, 39.207507279496163 ], [ -120.106145653388836, 39.207479909227146 ], [ -120.106257632582398, 39.207572780101522 ], [ -120.106236194187176, 39.208094752082737 ], [ -120.106069811365742, 39.208198720164724 ], [ -120.105933217519564, 39.208141271947575 ], [ -120.105792187632261, 39.208191817732079 ], [ -120.105433326513165, 39.208471173073541 ], [ -120.105043722843675, 39.208371397162828 ], [ -120.104511609951615, 39.208358162184872 ], [ -120.104369838956828, 39.208426705191798 ], [ -120.103956362090074, 39.208344349185865 ], [ -120.103981716948709, 39.208290927791502 ], [ -120.103668181699931, 39.208030883184513 ], [ -120.103783857762551, 39.208033761377536 ], [ -120.103950983196, 39.207911797677511 ], [ -120.104385169998906, 39.207490181491956 ], [ -120.104518597658597, 39.207061082750521 ] ] ] } }
]
}
