{
"type": "FeatureCollection",
"name": "X04693",
"crs": { "type": "name", "properties": { "name": "urn:ogc:def:crs:OGC:1.3:CRS84" } },
"features": [
{ "type": "Feature", "properties": { "part": "direct", "crossing_id": "X04693", "area_ac": 0.3 }, "geometry": { "type": "Polygon", "coordinates": [ [ [ -120.098479352706946, 39.205811641902891 ], [ -120.098637587634386, 39.205905672957229 ], [ -120.098868931772941, 39.205911438958438 ], [ -120.09892944214107, 39.206129155744001 ], [ -120.099174288343562, 39.206369483751864 ], [ -120.099143002426672, 39.206566895401409 ], [ -120.098894450226837, 39.206416561919148 ], [ -120.098813028592545, 39.206144271768139 ], [ -120.09865775747771, 39.205978245252979 ], [ -120.098405502356542, 39.205917905412129 ], [ -120.098479352706946, 39.205811641902891 ] ] ] } }
]
}
