{
"type": "FeatureCollection",
"name": "X04651",
"crs": { "type": "name", "properties": { "name": "urn:ogc:def:crs:OGC:1.3:CRS84" } },
"features": [
{ "type": "Feature", "properties": { "part": "direct", "crossing_id": "X04651", "area_ac": 0.9 }, "geometry": { "type": "MultiPolygon", "coordinates": [ [ [ [ -120.031337627596301, 39.239486300976658 ], [ -120.031360012411696, 39.239504889109789 ], [ -120.031336868366651, 39.239504298704695 ], [ -120.031337627596301, 39.239486300976658 ] ] ], [ [ [ -120.031673050197213, 39.238125557660069 ], [ -120.032041829837951, 39.23817099773315 ], [ -120.032035757705188, 39.238314979679771 ], [ -120.031891582306187, 39.238437422259238 ], [ -120.031828595163859, 39.238832191936559 ], [ -120.031709839533079, 39.238901231317058 ], [ -120.031697693551379, 39.239189195083078 ], [ -120.031360771635462, 39.239486891381382 ], [ -120.031620690029925, 39.238268358897805 ], [ -120.031673050197213, 39.238125557660069 ] ] ] ] } }
]
}
