{
"type": "FeatureCollection",
"name": "X04603",
"crs": { "type": "name", "properties": { "name": "urn:ogc:def:crs:OGC:1.3:CRS84" } },
"features": [
{ "type": "Feature", "properties": { "part": "direct", "crossing_id": "X04603", "area_ac": 7.3, "n_upstream": null }, "geometry": { "type": "MultiPolygon", "coordinates": [ [ [ [ -120.06794819570456, 39.258305546833071 ], [ -120.067970596323676, 39.258324128459854 ], [ -120.067947445327761, 39.258323545096935 ], [ -120.06794819570456, 39.258305546833071 ] ] ], [ [ [ -120.067925795097253, 39.258286965202316 ], [ -120.06794819570456, 39.258305546833071 ], [ -120.06792504471521, 39.25830496346591 ], [ -120.067925795097253, 39.258286965202316 ] ] ], [ [ [ -120.066038429375467, 39.255753021856208 ], [ -120.066119768152134, 39.256025330301 ], [ -120.066339258532594, 39.256319138987081 ], [ -120.066501310670091, 39.256323224495418 ], [ -120.066589407874801, 39.25643354845851 ], [ -120.066658738780518, 39.256993828564198 ], [ -120.067232883213535, 39.257674936197013 ], [ -120.067329123493366, 39.258145808273945 ], [ -120.067698037494992, 39.258191139981463 ], [ -120.067925795097253, 39.258286965202316 ], [ -120.067024408489502, 39.258228213815578 ], [ -120.066928051534958, 39.258315870826685 ], [ -120.066815299346842, 39.258240959947543 ], [ -120.065927304107319, 39.258416760782865 ], [ -120.065511337500411, 39.258388253990958 ], [ -120.065540496412538, 39.258244852039041 ], [ -120.065867612981052, 39.258181032464478 ], [ -120.065733213191109, 39.258069540348082 ], [ -120.065762371481071, 39.257926138311575 ], [ -120.065856476566537, 39.257892476990754 ], [ -120.065721326386267, 39.257798983107783 ], [ -120.065796035105876, 39.257674746874493 ], [ -120.065762499204411, 39.25736760936887 ], [ -120.065609456141061, 39.257147543989738 ], [ -120.06559681880762, 39.256894984953732 ], [ -120.065343796125433, 39.256294037353804 ], [ -120.065136194727444, 39.256270784223588 ], [ -120.065028705161836, 39.25606988421584 ], [ -120.065963723329816, 39.255877258374355 ], [ -120.065921928004471, 39.255768101473272 ], [ -120.066038429375467, 39.255753021856208 ] ] ] ] } },
{ "type": "Feature", "properties": { "part": "upstream", "crossing_id": "X04603", "area_ac": 7.6, "n_upstream": 1.0 }, "geometry": { "type": "Polygon", "coordinates": [ [ [ -120.067603182326849, 39.258242801068029 ], [ -120.068498567990915, 39.258445534174378 ], [ -120.068496317269478, 39.258499528991138 ], [ -120.069088493982633, 39.258748669811403 ], [ -120.069357307581384, 39.258971646624119 ], [ -120.069021938490806, 39.259233457055373 ], [ -120.068682065572361, 39.259603256046368 ], [ -120.068652162049673, 39.259764657248574 ], [ -120.068438546682714, 39.259885395746259 ], [ -120.068050112958076, 39.260308020811991 ], [ -120.06804561052293, 39.260416010366981 ], [ -120.06782823979654, 39.260626738899198 ], [ -120.067722874326023, 39.260930375489416 ], [ -120.067761673067295, 39.261111524890005 ], [ -120.067512140425151, 39.261537648238779 ], [ -120.067653418783863, 39.26092862514249 ], [ -120.067585464325546, 39.260890878254202 ], [ -120.067579574830276, 39.260476335022126 ], [ -120.067423517512736, 39.260328264663478 ], [ -120.067391590859359, 39.259426601671578 ], [ -120.06722889768173, 39.258881986124294 ], [ -120.066827190338671, 39.258511517220107 ], [ -120.066858598622247, 39.258314120102696 ], [ -120.067024408489502, 39.258228213815578 ], [ -120.067603182326849, 39.258242801068029 ] ] ] } }
]
}
