{
"type": "FeatureCollection",
"name": "X04679",
"crs": { "type": "name", "properties": { "name": "urn:ogc:def:crs:OGC:1.3:CRS84" } },
"features": [
{ "type": "Feature", "properties": { "part": "direct", "crossing_id": "X04679", "area_ac": 2.6 }, "geometry": { "type": "Polygon", "coordinates": [ [ [ -120.196189156449449, 39.142207022074786 ], [ -120.196839501593729, 39.142727176935914 ], [ -120.19638815545386, 39.143022616001026 ], [ -120.195306482888427, 39.14404160681098 ], [ -120.195168024445977, 39.144614843260186 ], [ -120.194998345593547, 39.144808952873227 ], [ -120.194970702875011, 39.144339823211141 ], [ -120.195077466830796, 39.143982037769405 ], [ -120.1956839605852, 39.143275929451129 ], [ -120.195797866450647, 39.142738136723061 ], [ -120.196022345192361, 39.142329130986873 ], [ -120.196189156449449, 39.142207022074786 ] ] ] } }
]
}
