{
"type": "FeatureCollection",
"name": "X04669",
"crs": { "type": "name", "properties": { "name": "urn:ogc:def:crs:OGC:1.3:CRS84" } },
"features": [
{ "type": "Feature", "properties": { "part": "direct", "crossing_id": "X04669", "area_ac": 0.8 }, "geometry": { "type": "Polygon", "coordinates": [ [ [ -120.172934023023601, 39.136473734762681 ], [ -120.173443953586656, 39.136450075931194 ], [ -120.173477935451174, 39.136757203107486 ], [ -120.173776967747045, 39.136800495526693 ], [ -120.173758242465723, 39.137268503722368 ], [ -120.174047915295418, 39.137545799643441 ], [ -120.173641954972794, 39.13728369954292 ], [ -120.173579817170818, 39.137102013674181 ], [ -120.173269195641552, 39.136770154802534 ], [ -120.172990395548084, 39.136799423345138 ], [ -120.172876990409947, 39.136742617213365 ], [ -120.172934023023601, 39.136473734762681 ] ] ] } }
]
}
