{
"type": "FeatureCollection",
"name": "X04604",
"crs": { "type": "name", "properties": { "name": "urn:ogc:def:crs:OGC:1.3:CRS84" } },
"features": [
{ "type": "Feature", "properties": { "part": "direct", "crossing_id": "X04604", "area_ac": 18.4 }, "geometry": { "type": "Polygon", "coordinates": [ [ [ -120.067255903563776, 39.251009160193227 ], [ -120.06739329438355, 39.251048657139258 ], [ -120.067403687459162, 39.251355211235349 ], [ -120.067537327547996, 39.251484699426328 ], [ -120.067657463176687, 39.251938156511791 ], [ -120.067623810206285, 39.252189549058905 ], [ -120.067756701940723, 39.252337035335351 ], [ -120.06789623806992, 39.252881066953719 ], [ -120.067728611034255, 39.254678561184292 ], [ -120.067313415764346, 39.254632063363836 ], [ -120.067261112587005, 39.254774882575731 ], [ -120.06712371469871, 39.254735385223029 ], [ -120.067191777939726, 39.25421460254443 ], [ -120.067131334749376, 39.253996872965708 ], [ -120.066708005963463, 39.253589824460015 ], [ -120.064689637180877, 39.253088498333824 ], [ -120.064370806411787, 39.252954335052991 ], [ -120.064107289633597, 39.252605360444981 ], [ -120.064118557652208, 39.252335387143631 ], [ -120.064551762621207, 39.2519499383233 ], [ -120.064758732803128, 39.251432661117747 ], [ -120.065754125949425, 39.251457765166442 ], [ -120.065873623036467, 39.251370692431877 ], [ -120.066058061712141, 39.251393360071681 ], [ -120.066107361716632, 39.251322534349875 ], [ -120.066317200854087, 39.251291790445258 ], [ -120.066461346742045, 39.251169304144163 ], [ -120.066668933764973, 39.251192554373112 ], [ -120.06676528070868, 39.251104897126403 ], [ -120.067255903563776, 39.251009160193227 ] ] ] } }
]
}
