{
"type": "FeatureCollection",
"name": "X04677",
"crs": { "type": "name", "properties": { "name": "urn:ogc:def:crs:OGC:1.3:CRS84" } },
"features": [
{ "type": "Feature", "properties": { "part": "direct", "crossing_id": "X04677", "area_ac": 0.4 }, "geometry": { "type": "Polygon", "coordinates": [ [ [ -120.194683554111037, 39.141666265806805 ], [ -120.1949566482714, 39.14178095072571 ], [ -120.194223625040891, 39.142177703876158 ], [ -120.193887849980442, 39.142475917392737 ], [ -120.194183830321919, 39.142014584551283 ], [ -120.194683554111037, 39.141666265806805 ] ] ] } }
]
}
