{
"type": "FeatureCollection",
"name": "X04692",
"crs": { "type": "name", "properties": { "name": "urn:ogc:def:crs:OGC:1.3:CRS84" } },
"features": [
{ "type": "Feature", "properties": { "part": "direct", "crossing_id": "X04692", "area_ac": 5.3, "n_upstream": null }, "geometry": { "type": "Polygon", "coordinates": [ [ [ -120.113792883850493, 39.189832490050733 ], [ -120.114068226933838, 39.189893368376843 ], [ -120.113990284976126, 39.190666187734905 ], [ -120.114045674638419, 39.191009892880786 ], [ -120.113969653524151, 39.191170165590364 ], [ -120.113443108441231, 39.191589530484684 ], [ -120.113331880473794, 39.19147866770237 ], [ -120.113235675345095, 39.191566369525184 ], [ -120.112842465324874, 39.191556618519037 ], [ -120.112776023984409, 39.191482900863221 ], [ -120.112657425381357, 39.191552029351811 ], [ -120.112216481076757, 39.191577127261915 ], [ -120.112376641560942, 39.191058593406659 ], [ -120.112633281205348, 39.191010906420942 ], [ -120.112729945331466, 39.190346657365161 ], [ -120.112883464914162, 39.189990115215444 ], [ -120.113792883850493, 39.189832490050733 ] ] ] } },
{ "type": "Feature", "properties": { "part": "upstream", "crossing_id": "X04692", "area_ac": 4.4, "n_upstream": 3.0 }, "geometry": { "type": "Polygon", "coordinates": [ [ [ -120.113788584985841, 39.191634131007746 ], [ -120.11378195281263, 39.191796123839808 ], [ -120.113687958574261, 39.191829828430684 ], [ -120.113610461740265, 39.192026099223071 ], [ -120.11335529293747, 39.192037789852442 ], [ -120.1134283684667, 39.191949514441646 ], [ -120.113067411598124, 39.192282895815204 ], [ -120.113059303390528, 39.192480886905656 ], [ -120.112131879748844, 39.192511936931538 ], [ -120.112298215670677, 39.192407958215419 ], [ -120.111828236264643, 39.19257647408044 ], [ -120.111753683190315, 39.192700746715211 ], [ -120.111768970805471, 39.193457859459073 ], [ -120.111559320415807, 39.193488692824396 ], [ -120.11154430258587, 39.193290128126286 ], [ -120.111409944700299, 39.193178689638756 ], [ -120.111450776127143, 39.192747283668567 ], [ -120.111708628295716, 39.192105052568905 ], [ -120.111877913413707, 39.191929077749187 ], [ -120.111915791268729, 39.191569668097436 ], [ -120.112657425381357, 39.191552029351811 ], [ -120.112845413897546, 39.19148462176215 ], [ -120.112842465324874, 39.191556618519037 ], [ -120.113235675345095, 39.191566369525184 ], [ -120.113401270416787, 39.191480388270108 ], [ -120.113396848405273, 39.191588383458054 ], [ -120.113512498500072, 39.191591250990243 ], [ -120.113488631499138, 39.191608676692177 ], [ -120.113788584985841, 39.191634131007746 ] ], [ [ -120.112569451387671, 39.192004037773835 ], [ -120.112383730821008, 39.192178906120922 ], [ -120.112566656068125, 39.192072284676954 ], [ -120.112569451387671, 39.192004037773835 ] ] ] } }
]
}
