{
"type": "FeatureCollection",
"name": "X04698",
"crs": { "type": "name", "properties": { "name": "urn:ogc:def:crs:OGC:1.3:CRS84" } },
"features": [
{ "type": "Feature", "properties": { "part": "direct", "crossing_id": "X04698", "area_ac": 5.1, "n_upstream": null }, "geometry": { "type": "Polygon", "coordinates": [ [ [ -120.02752697758855, 39.237551285639903 ], [ -120.028985008286128, 39.23758851834603 ], [ -120.030066671194533, 39.237760264961992 ], [ -120.030154688064542, 39.237870613760542 ], [ -120.030015067654489, 39.23788506765829 ], [ -120.030004434251723, 39.238137035611068 ], [ -120.030136460158019, 39.238302558870068 ], [ -120.030251418814615, 39.238323509680974 ], [ -120.030269246145281, 39.238450084285191 ], [ -120.030040847548022, 39.238372187151619 ], [ -120.029853419669351, 39.238421454920335 ], [ -120.029909581312808, 39.238188666080696 ], [ -120.029404980784591, 39.238067683926204 ], [ -120.029397383902364, 39.238247660931357 ], [ -120.029280906234035, 39.238262704687038 ], [ -120.029179974624796, 39.23845831610862 ], [ -120.028994825400787, 39.238453589378722 ], [ -120.028991786195149, 39.238525580150025 ], [ -120.028874548168432, 39.238558621168579 ], [ -120.028481865601833, 39.238530577778953 ], [ -120.028465146906825, 39.23892652681787 ], [ -120.028302380371912, 39.238940387590127 ], [ -120.028236749018603, 39.238848626163737 ], [ -120.028318340014664, 39.238562436292298 ], [ -120.027671837750972, 39.238509891279669 ], [ -120.027572082955515, 39.238128984536566 ], [ -120.027415399732064, 39.237998862778305 ], [ -120.027428322885996, 39.237692902403175 ], [ -120.02752697758855, 39.237551285639903 ] ] ] } },
{ "type": "Feature", "properties": { "part": "upstream", "crossing_id": "X04698", "area_ac": 4.9, "n_upstream": 3.0 }, "geometry": { "type": "MultiPolygon", "coordinates": [ [ [ [ -120.030236269953861, 39.237584422159216 ], [ -120.03015772601087, 39.237798622905139 ], [ -120.02992857007925, 39.237738723341266 ], [ -120.029956270719921, 39.23763132773805 ], [ -120.030236269953861, 39.237584422159216 ] ] ], [ [ [ -120.029701289098256, 39.238183349824034 ], [ -120.029909581312808, 39.238188666080696 ], [ -120.029860172264463, 39.23839346564899 ], [ -120.030040847548022, 39.238372187151619 ], [ -120.030292389821497, 39.238450674889222 ], [ -120.030352707396531, 39.238668419252399 ], [ -120.029956985074591, 39.238712371640716 ], [ -120.029884515490068, 39.238782590431541 ], [ -120.029837824173626, 39.239339928598682 ], [ -120.029351801180042, 39.239327522819146 ], [ -120.029113523614299, 39.239483593821582 ], [ -120.029204580035284, 39.239521952566783 ], [ -120.029095288277006, 39.239915538402975 ], [ -120.029204930652355, 39.240062474168788 ], [ -120.029039882055685, 39.240130328944858 ], [ -120.028930999795818, 39.239965395346836 ], [ -120.029017497693275, 39.240111740382723 ], [ -120.028670334835923, 39.240102876728209 ], [ -120.02843702835861, 39.239592441036187 ], [ -120.028772442889107, 39.239330749080615 ], [ -120.028264036519815, 39.239299750166055 ], [ -120.028363452023967, 39.239140135069135 ], [ -120.02832552416794, 39.238940978591117 ], [ -120.028465146906825, 39.23892652681787 ], [ -120.028481865601833, 39.238530577778953 ], [ -120.028874548168432, 39.238558621168579 ], [ -120.028991786195149, 39.238525580150025 ], [ -120.028994825400787, 39.238453589378722 ], [ -120.029179974624796, 39.23845831610862 ], [ -120.029280906234035, 39.238262704687038 ], [ -120.029397383902364, 39.238247660931357 ], [ -120.02938107756178, 39.238085090851065 ], [ -120.029590129063223, 39.238072409965461 ], [ -120.029701289098256, 39.238183349824034 ] ], [ [ -120.028958328964379, 39.239380795114577 ], [ -120.029076353296446, 39.239266439818174 ], [ -120.028957594381467, 39.23933547625191 ], [ -120.028958328964379, 39.239380795114577 ] ], [ [ -120.028838423218531, 39.239963031745233 ], [ -120.02896402195141, 39.23973201629105 ], [ -120.028842222614031, 39.239873043315725 ], [ -120.028838423218531, 39.239963031745233 ] ] ] ] } }
]
}
