{
"type": "FeatureCollection",
"name": "X04644",
"crs": { "type": "name", "properties": { "name": "urn:ogc:def:crs:OGC:1.3:CRS84" } },
"features": [
{ "type": "Feature", "properties": { "part": "direct", "crossing_id": "X04644", "area_ac": 0.2 }, "geometry": { "type": "Polygon", "coordinates": [ [ [ -120.019205757080201, 39.234906138775308 ], [ -120.019549842866411, 39.234987019857023 ], [ -120.019474318813536, 39.235129222139619 ], [ -120.019314608874552, 39.235071080425847 ], [ -120.019218990712332, 39.235140699600315 ], [ -120.019060805474467, 39.235046562461442 ], [ -120.018871093150864, 39.235149805215308 ], [ -120.018993665299774, 39.234990791449263 ], [ -120.019131756898133, 39.235012345728535 ], [ -120.019205757080201, 39.234906138775308 ] ] ] } }
]
}
