{
"type": "FeatureCollection",
"name": "X04639",
"crs": { "type": "name", "properties": { "name": "urn:ogc:def:crs:OGC:1.3:CRS84" } },
"features": [
{ "type": "Feature", "properties": { "part": "direct", "crossing_id": "X04639", "area_ac": 6.3, "n_upstream": null }, "geometry": { "type": "Polygon", "coordinates": [ [ [ -120.069555970234191, 39.236401096378081 ], [ -120.069641801282572, 39.236565412669599 ], [ -120.069845600337715, 39.236678647490436 ], [ -120.069925437975357, 39.236986950496316 ], [ -120.070105345373861, 39.23711760056905 ], [ -120.070221814958913, 39.237102515517236 ], [ -120.070158294090064, 39.237515312594056 ], [ -120.070338203233888, 39.237645962363665 ], [ -120.070484480195688, 39.238028006427761 ], [ -120.07038216289564, 39.238259654703569 ], [ -120.070494139195503, 39.238352559648007 ], [ -120.070582891275436, 39.239003413877867 ], [ -120.070155047312952, 39.239262901668809 ], [ -120.070063966872425, 39.239224574154065 ], [ -120.069986289763278, 39.239420807919444 ], [ -120.069972137184934, 39.239204244927265 ], [ -120.069772827228121, 39.238983019968828 ], [ -120.069590667609432, 39.238906364312811 ], [ -120.069573518503134, 39.238761794708893 ], [ -120.069329420959775, 39.238503406768942 ], [ -120.06942649581724, 39.238397748019722 ], [ -120.069802802481163, 39.23826308578812 ], [ -120.069689328481786, 39.23820617692526 ], [ -120.06936614542191, 39.237621487660078 ], [ -120.069093661551577, 39.237488504973733 ], [ -120.068770486472104, 39.236903814302408 ], [ -120.068712298682442, 39.236632090328378 ], [ -120.068719794679453, 39.236452106891541 ], [ -120.069038561639189, 39.236586256064662 ], [ -120.069555970234191, 39.236401096378081 ] ] ] } },
{ "type": "Feature", "properties": { "part": "upstream", "crossing_id": "X04639", "area_ac": 39.2, "n_upstream": 2.0 }, "geometry": { "type": "MultiPolygon", "coordinates": [ [ [ [ -120.070149853014371, 39.239292653120692 ], [ -120.070225980213962, 39.239228653001788 ], [ -120.070339456278433, 39.239285561411108 ], [ -120.070311815896673, 39.239392968918892 ], [ -120.070509630240792, 39.239650189774039 ], [ -120.070800775150005, 39.239891742290638 ], [ -120.071326369004865, 39.24006712557226 ], [ -120.074339671553176, 39.240593350063179 ], [ -120.074498695740218, 39.240669416778445 ], [ -120.074506128171024, 39.241047965519328 ], [ -120.074264197430821, 39.241294124669238 ], [ -120.074182787543947, 39.241580353617103 ], [ -120.073662356984968, 39.241837526395315 ], [ -120.073388292080253, 39.242299082286038 ], [ -120.073133687881622, 39.242292679062601 ], [ -120.072989572265627, 39.242415174923224 ], [ -120.072950704176762, 39.242792559013054 ], [ -120.072324196579999, 39.243371367405928 ], [ -120.071032349326472, 39.244347824024416 ], [ -120.070387911049579, 39.244800049700196 ], [ -120.069536643179774, 39.245211028994085 ], [ -120.068718260344696, 39.245388606607698 ], [ -120.068653319176221, 39.245278867537991 ], [ -120.068794448952247, 39.24522837088378 ], [ -120.068849739913972, 39.245013557114291 ], [ -120.068956763137663, 39.243556858976802 ], [ -120.069662480882712, 39.242745839971846 ], [ -120.069742500038643, 39.241937080236362 ], [ -120.07005472000256, 39.241116149498659 ], [ -120.070037569683066, 39.240971579954511 ], [ -120.070282510730451, 39.240653436678478 ], [ -120.070069792406855, 39.240197650787131 ], [ -120.070101180245928, 39.240000251600016 ], [ -120.069913857811827, 39.239491053135353 ], [ -120.070113616418467, 39.239323117157767 ], [ -120.070010933277814, 39.239385393932231 ], [ -120.0700393234453, 39.239259988156505 ], [ -120.070110256395211, 39.23922573956208 ], [ -120.070149853014371, 39.239292653120692 ] ] ], [ [ [ -120.069987039114807, 39.239402809564133 ], [ -120.069987788465681, 39.239384811208801 ], [ -120.070010183932851, 39.239403392287926 ], [ -120.069987039114807, 39.239402809564133 ] ] ] ] } }
]
}
