{
"type": "FeatureCollection",
"name": "X04734",
"crs": { "type": "name", "properties": { "name": "urn:ogc:def:crs:OGC:1.3:CRS84" } },
"features": [
{ "type": "Feature", "properties": { "part": "direct", "crossing_id": "X04734", "area_ac": 31.4, "n_upstream": null }, "geometry": { "type": "Polygon", "coordinates": [ [ [ -119.949732449482553, 38.985550749992626 ], [ -119.950191318686763, 38.98561680759687 ], [ -119.951394032939433, 38.986639222409629 ], [ -119.951624630812674, 38.986645252540995 ], [ -119.952005059593859, 38.986925460672481 ], [ -119.952413958358548, 38.987080290097914 ], [ -119.952759085333128, 38.987107329394711 ], [ -119.953051914560206, 38.987277139965919 ], [ -119.952819769677916, 38.987307106991409 ], [ -119.952135579011653, 38.987649568897766 ], [ -119.951890298858132, 38.987985486289915 ], [ -119.951868666322511, 38.988489407613919 ], [ -119.951953182101576, 38.988671791345105 ], [ -119.951838534387846, 38.989191297939946 ], [ -119.952171310510536, 38.989506294401274 ], [ -119.952623255994183, 38.989734318257113 ], [ -119.952479483754018, 38.989856681546087 ], [ -119.952466351439966, 38.990162633854538 ], [ -119.952282636402074, 38.990139813562742 ], [ -119.95213963531468, 38.990244179179385 ], [ -119.950723642184087, 38.990423357650691 ], [ -119.950588368120734, 38.990347749618309 ], [ -119.950150982904063, 38.990318290026316 ], [ -119.949838953930936, 38.990057882876826 ], [ -119.949697496010216, 38.990126251062399 ], [ -119.949399251184118, 38.990082411982307 ], [ -119.949254975839438, 38.989141732680324 ], [ -119.948982255778006, 38.988503987030938 ], [ -119.948495811688844, 38.988004785529732 ], [ -119.948458199298017, 38.98780560979737 ], [ -119.94886568786643, 38.98745592804292 ], [ -119.948955886004484, 38.986431297876713 ], [ -119.949155054670086, 38.986094179993572 ], [ -119.949239697290338, 38.985736047328984 ], [ -119.949337347224784, 38.985612481004864 ], [ -119.949732449482553, 38.985550749992626 ] ] ] } },
{ "type": "Feature", "properties": { "part": "upstream", "crossing_id": "X04734", "area_ac": 6.8, "n_upstream": 1.0 }, "geometry": { "type": "Polygon", "coordinates": [ [ [ -119.948523512452297, 38.987897406345596 ], [ -119.948495811688844, 38.988004785529732 ], [ -119.949024509845287, 38.988595179801571 ], [ -119.949275716563804, 38.989196327599757 ], [ -119.94940853036772, 38.989866446263342 ], [ -119.94910796684087, 38.98987659790857 ], [ -119.948847337603624, 38.990031933015672 ], [ -119.94866285098621, 38.990027104206355 ], [ -119.948486872882199, 38.989824306698459 ], [ -119.948187856696748, 38.989798461720845 ], [ -119.947607469834338, 38.989873353109743 ], [ -119.947242366938255, 38.989773705774958 ], [ -119.946937934435994, 38.989873837345918 ], [ -119.946672040963605, 38.989614630146647 ], [ -119.946809630949886, 38.989636251210456 ], [ -119.947263259479172, 38.989287783845171 ], [ -119.947729886392722, 38.989173880841989 ], [ -119.94769150209261, 38.988992702075514 ], [ -119.947794574982098, 38.988743157557153 ], [ -119.947704654414665, 38.988686751067426 ], [ -119.947799216803091, 38.988635174835686 ], [ -119.947783119186411, 38.988472596977935 ], [ -119.948165234192373, 38.988176305599765 ], [ -119.948217542740124, 38.988033535945746 ], [ -119.948523512452297, 38.987897406345596 ] ] ] } }
]
}
