{
"type": "FeatureCollection",
"name": "X04736",
"crs": { "type": "name", "properties": { "name": "urn:ogc:def:crs:OGC:1.3:CRS84" } },
"features": [
{ "type": "Feature", "properties": { "part": "direct", "crossing_id": "X04736", "area_ac": 0.1 }, "geometry": { "type": "Polygon", "coordinates": [ [ [ -119.950573211686873, 39.034219559379743 ], [ -119.950218566362437, 39.034408468909682 ], [ -119.950143146107479, 39.034550633381393 ], [ -119.950050844833072, 39.03454821774028 ], [ -119.950203233948173, 39.034227894827303 ], [ -119.950573211686873, 39.034219559379743 ] ] ] } }
]
}
