{
"type": "FeatureCollection",
"name": "X04729",
"crs": { "type": "name", "properties": { "name": "urn:ogc:def:crs:OGC:1.3:CRS84" } },
"features": [
{ "type": "Feature", "properties": { "part": "direct", "crossing_id": "X04729", "area_ac": 4.0 }, "geometry": { "type": "MultiPolygon", "coordinates": [ [ [ [ -119.950186638674538, 39.004534923691821 ], [ -119.950208930778714, 39.004553524306729 ], [ -119.950185865205952, 39.004552920803206 ], [ -119.950186638674538, 39.004534923691821 ] ] ], [ [ [ -119.950164346581971, 39.004516323073119 ], [ -119.950186638674538, 39.004534923691821 ], [ -119.950163573108242, 39.004534320184142 ], [ -119.950164346581971, 39.004516323073119 ] ] ], [ [ [ -119.947675758824047, 39.001172026043427 ], [ -119.948281473470516, 39.001584267224843 ], [ -119.948131477431517, 39.001850600364847 ], [ -119.948458101366313, 39.002309585261443 ], [ -119.948582561529733, 39.00263715572715 ], [ -119.948479467964816, 39.002886699735114 ], [ -119.948542472226904, 39.003032487889264 ], [ -119.949102077010266, 39.003443517884186 ], [ -119.949119726232666, 39.003570101264629 ], [ -119.949409516956649, 39.003811911343796 ], [ -119.949427166779458, 39.003938494696385 ], [ -119.949586303479194, 39.003996711429046 ], [ -119.950164346581971, 39.004516323073119 ], [ -119.94961077333916, 39.00450183753248 ], [ -119.948968954823471, 39.00385443245726 ], [ -119.948695266346135, 39.003775198927009 ], [ -119.948433186823834, 39.003426008503915 ], [ -119.948183339730377, 39.00332938060675 ], [ -119.948291078511005, 39.002971854439373 ], [ -119.947774515871515, 39.002634017085121 ], [ -119.948063677915329, 39.00235331093873 ], [ -119.948070643401095, 39.002191337193402 ], [ -119.947831637029878, 39.001842749578657 ], [ -119.947318955137106, 39.001414925183134 ], [ -119.947675758824047, 39.001172026043427 ] ] ] ] } }
]
}
