{
"type": "FeatureCollection",
"name": "X04701",
"crs": { "type": "name", "properties": { "name": "urn:ogc:def:crs:OGC:1.3:CRS84" } },
"features": [
{ "type": "Feature", "properties": { "part": "direct", "crossing_id": "X04701", "area_ac": 0.7 }, "geometry": { "type": "Polygon", "coordinates": [ [ [ -120.116583708148823, 39.194622225739643 ], [ -120.116766548112622, 39.194680806695587 ], [ -120.116807656803047, 39.194807947154885 ], [ -120.117034551292647, 39.194921671197626 ], [ -120.117095847207736, 39.195121381391083 ], [ -120.116539224783097, 39.195143630706603 ], [ -120.116450381386869, 39.19505134274376 ], [ -120.116240727740703, 39.195082184437723 ], [ -120.116173543241217, 39.195026467736191 ], [ -120.116133171998356, 39.194881327863946 ], [ -120.116583708148823, 39.194622225739643 ] ] ] } }
]
}
