{
"type": "FeatureCollection",
"name": "X04775",
"crs": { "type": "name", "properties": { "name": "urn:ogc:def:crs:OGC:1.3:CRS84" } },
"features": [
{ "type": "Feature", "properties": { "part": "direct", "crossing_id": "X04775", "area_ac": 1.3 }, "geometry": { "type": "Polygon", "coordinates": [ [ [ -119.927290459945141, 38.968547603673215 ], [ -119.927428002103397, 38.96856924581455 ], [ -119.927418663213672, 38.968785207880835 ], [ -119.927529261298446, 38.968896226573733 ], [ -119.927477706630441, 38.969020989394657 ], [ -119.927612915157681, 38.969096621875252 ], [ -119.92737304017129, 38.969306508611545 ], [ -119.927481304198622, 38.969471517881558 ], [ -119.927405138681081, 38.969631666769466 ], [ -119.927085499644605, 38.969551173226868 ], [ -119.927094839800944, 38.969335211256578 ], [ -119.926803704988572, 38.969129346812579 ], [ -119.926812267458047, 38.968931381711585 ], [ -119.926556343476079, 38.968978687608995 ], [ -119.926564128126856, 38.968798719372856 ], [ -119.926840769729083, 38.968806011574138 ], [ -119.927290459945141, 38.968547603673215 ] ] ] } }
]
}
