{
"type": "FeatureCollection",
"name": "X04731",
"crs": { "type": "name", "properties": { "name": "urn:ogc:def:crs:OGC:1.3:CRS84" } },
"features": [
{ "type": "Feature", "properties": { "part": "direct", "crossing_id": "X04731", "area_ac": 1.1 }, "geometry": { "type": "Polygon", "coordinates": [ [ [ -119.913178826446384, 38.966120869191812 ], [ -119.91361682035263, 38.966132464448897 ], [ -119.913701213190208, 38.966314871487036 ], [ -119.913559772197758, 38.966383196534814 ], [ -119.913555863764103, 38.966473179589407 ], [ -119.913691051716341, 38.966548827459384 ], [ -119.913707850943837, 38.966693410584774 ], [ -119.913375735093169, 38.966900826300744 ], [ -119.91305378113077, 38.966874285177994 ], [ -119.912842398844063, 38.96695877479069 ], [ -119.912834202028336, 38.966616229040604 ], [ -119.913167881540986, 38.966372821661125 ], [ -119.913178826446384, 38.966120869191812 ] ] ] } }
]
}
