{
"type": "FeatureCollection",
"name": "X04754",
"crs": { "type": "name", "properties": { "name": "urn:ogc:def:crs:OGC:1.3:CRS84" } },
"features": [
{ "type": "Feature", "properties": { "part": "direct", "crossing_id": "X04754", "area_ac": 99.7, "n_upstream": null }, "geometry": { "type": "Polygon", "coordinates": [ [ [ -119.912626758226608, 38.965547715274944 ], [ -119.913363644278945, 38.965585243043698 ], [ -119.913472651472105, 38.965732267263903 ], [ -119.914140383600568, 38.96576795942137 ], [ -119.91449749756498, 38.966047670273248 ], [ -119.91477021847362, 38.966144973809946 ], [ -119.915208994446942, 38.966138566460664 ], [ -119.915157420815433, 38.966263323085172 ], [ -119.915245724115181, 38.966355745972244 ], [ -119.915154295700205, 38.966335309638922 ], [ -119.915130461997506, 38.966352696342092 ], [ -119.915198847399168, 38.967435544235926 ], [ -119.915127345125441, 38.967487704304567 ], [ -119.915237140034776, 38.96761673046386 ], [ -119.91519142918618, 38.968138022925388 ], [ -119.915017556314083, 38.968421699254819 ], [ -119.914948397047411, 38.968419869274221 ], [ -119.915124226948251, 38.968622712073731 ], [ -119.914904246008831, 38.968905168202021 ], [ -119.914996851752093, 38.969430120407345 ], [ -119.914783900806114, 38.969550606543798 ], [ -119.914183729707005, 38.969552740381324 ], [ -119.914108316309779, 38.96969488274587 ], [ -119.91394459690629, 38.969744601175861 ], [ -119.914029775943405, 38.969909011479714 ], [ -119.913909818026582, 38.970013940052709 ], [ -119.913927399749653, 38.970140526518549 ], [ -119.913597613059849, 38.970293952329541 ], [ -119.91352376124172, 38.970400101023813 ], [ -119.913566741457529, 38.970473308024815 ], [ -119.913891838797952, 38.970427861968346 ], [ -119.913857840941773, 38.970679204177877 ], [ -119.91340887310939, 38.970919561026847 ], [ -119.91296615803428, 38.971015943322413 ], [ -119.912822360717911, 38.971138256774438 ], [ -119.911981468893543, 38.971368229389341 ], [ -119.911596958851433, 38.971718390047293 ], [ -119.911461346857422, 38.972183246982198 ], [ -119.911396878522609, 38.972073435407182 ], [ -119.911328498348936, 38.972053606582094 ], [ -119.911521121183895, 38.972401037876359 ], [ -119.911512515087296, 38.972599000008849 ], [ -119.911624657540941, 38.972674039856223 ], [ -119.911589085364326, 38.972961374067083 ], [ -119.911986074026132, 38.973386287311108 ], [ -119.911932141825687, 38.973565031617248 ], [ -119.912336175601652, 38.973827974771439 ], [ -119.912376027625569, 38.97397316847897 ], [ -119.912558119853614, 38.974032042693622 ], [ -119.912544823175438, 38.974337984381435 ], [ -119.912231810664906, 38.974635988396749 ], [ -119.911790635504772, 38.974696372052065 ], [ -119.911552260740351, 38.974870230274369 ], [ -119.911497543636315, 38.97506697080005 ], [ -119.911038005551603, 38.975018761429432 ], [ -119.910597609952646, 38.975061143888645 ], [ -119.910106406820304, 38.975210281736089 ], [ -119.909682450818849, 38.974874733717847 ], [ -119.909560912020027, 38.975015650170157 ], [ -119.909354199058058, 38.974992153115359 ], [ -119.909069707321521, 38.975164783571635 ], [ -119.908536648481032, 38.97574521940723 ], [ -119.907855510140195, 38.976015431734638 ], [ -119.907624956216125, 38.97600931649869 ], [ -119.907320535021213, 38.976109344863467 ], [ -119.906919973055238, 38.976296908022022 ], [ -119.906916054837509, 38.976386890359265 ], [ -119.906749964254729, 38.976490587194561 ], [ -119.906426403188931, 38.976500019050533 ], [ -119.906342019028585, 38.976317607282233 ], [ -119.906049352846338, 38.976147685371629 ], [ -119.906057191391128, 38.975967720835548 ], [ -119.906221714032384, 38.975900017885536 ], [ -119.906052948411343, 38.975535194072442 ], [ -119.905711040104151, 38.975436033552747 ], [ -119.905578196842328, 38.97530638683601 ], [ -119.905498519924876, 38.975015995884334 ], [ -119.905630257552005, 38.974641130143475 ], [ -119.905963999944419, 38.974397746218706 ], [ -119.905910512280087, 38.974035981503462 ], [ -119.906350903096509, 38.973993616612979 ], [ -119.906718211249, 38.974039397319871 ], [ -119.906921002373778, 38.974152881279714 ], [ -119.906998002298806, 38.97397475148486 ], [ -119.908138309756467, 38.973230255795876 ], [ -119.908334493711479, 38.972965199396953 ], [ -119.908704147576273, 38.972956984167844 ], [ -119.908916335664614, 38.97285450655032 ], [ -119.908922599965649, 38.972710534450499 ], [ -119.90906797303488, 38.972552233210827 ], [ -119.909950727666867, 38.971890976895786 ], [ -119.909704960684451, 38.971704289969779 ], [ -119.909757331117319, 38.971561539877101 ], [ -119.909736625513247, 38.971506939217321 ], [ -119.909619789996242, 38.971539876865869 ], [ -119.909517396972632, 38.971771387295306 ], [ -119.909163756721327, 38.971942185224385 ], [ -119.909064493502868, 38.972101709087795 ], [ -119.908551820512727, 38.972214236907412 ], [ -119.908419760628817, 38.972066596896866 ], [ -119.908192352188436, 38.971988497282638 ], [ -119.907775811934982, 38.972013484667968 ], [ -119.906934231262539, 38.97119840053255 ], [ -119.906918228935126, 38.97103582055869 ], [ -119.907488753057578, 38.970654575282694 ], [ -119.907715034643815, 38.970228162649484 ], [ -119.907938520899322, 38.970396245482284 ], [ -119.90821516386076, 38.970403582086085 ], [ -119.908617254493961, 38.970180019793403 ], [ -119.90871573270536, 38.970038492715311 ], [ -119.908926345861104, 38.969972007721076 ], [ -119.908938090144318, 38.969702059894104 ], [ -119.909191677286017, 38.969708782867301 ], [ -119.90943160497207, 38.96949893581278 ], [ -119.909399589129706, 38.969173776034104 ], [ -119.909494150354547, 38.969122230822606 ], [ -119.909501978220305, 38.96894226548357 ], [ -119.909862646473371, 38.968609496943706 ], [ -119.910326055081882, 38.968567726535753 ], [ -119.910702728410101, 38.968397535039848 ], [ -119.910933258327447, 38.968403643199935 ], [ -119.91103564122885, 38.96817213102748 ], [ -119.911625262284929, 38.967881457116206 ], [ -119.912066804924649, 38.967280564294384 ], [ -119.912814654933257, 38.967066143970399 ], [ -119.912842398844063, 38.96695877479069 ], [ -119.91305378113077, 38.966874285177994 ], [ -119.913375735093169, 38.966900826300744 ], [ -119.913707850943837, 38.966693410584774 ], [ -119.913691051716341, 38.966548827459384 ], [ -119.913555863764103, 38.966473179589407 ], [ -119.913703558128958, 38.96626088164561 ], [ -119.91357149739386, 38.96611324736066 ], [ -119.913317922023069, 38.966106534421371 ], [ -119.913276507907284, 38.965997334184273 ], [ -119.913375752453547, 38.965837805859699 ], [ -119.913264400096907, 38.965744771377125 ], [ -119.912840860539859, 38.965931747883019 ], [ -119.912632608541074, 38.965944250838227 ], [ -119.912298554933386, 38.965665145074411 ], [ -119.912577526371905, 38.965618480810619 ], [ -119.912626758226608, 38.965547715274944 ] ], [ [ -119.910437144546975, 38.97291283568088 ], [ -119.909946739074385, 38.973043976958593 ], [ -119.909892802118918, 38.973222720131972 ], [ -119.909969364517522, 38.97358509491373 ], [ -119.910279606246021, 38.973881593712569 ], [ -119.910351118636356, 38.973829437073761 ], [ -119.910426187277935, 38.973164787204418 ], [ -119.910520753322004, 38.97311324137511 ], [ -119.910437144546975, 38.97291283568088 ] ] ] } },
{ "type": "Feature", "properties": { "part": "upstream", "crossing_id": "X04754", "area_ac": 1825.8, "n_upstream": 44.0 }, "geometry": { "type": "MultiPolygon", "coordinates": [ [ [ [ -119.902637401067935, 38.955931800736501 ], [ -119.90272676835778, 38.956528745150067 ], [ -119.904108777082229, 38.957646485221325 ], [ -119.904563494687068, 38.957802696199835 ], [ -119.904558008619233, 38.957928671590558 ], [ -119.904778315526485, 38.958168744856046 ], [ -119.90515840412688, 38.958449093473938 ], [ -119.905152135391674, 38.958593065413837 ], [ -119.905323996074287, 38.958885903638986 ], [ -119.905524392609252, 38.959053377921698 ], [ -119.905842389936581, 38.959169920840303 ], [ -119.90583220520665, 38.959403875362831 ], [ -119.905682936621901, 38.959652156161148 ], [ -119.905783300970427, 38.959997148169506 ], [ -119.905958301079821, 38.960217999643966 ], [ -119.906409122685645, 38.960464186719008 ], [ -119.906290737637789, 38.960533114770165 ], [ -119.906357871855477, 38.961111449356849 ], [ -119.906780166965618, 38.961482999200683 ], [ -119.907009107207926, 38.961525107233705 ], [ -119.907250917514958, 38.961801780999153 ], [ -119.907329024167041, 38.96212816404114 ], [ -119.907974010529216, 38.962685789258714 ], [ -119.908035333953777, 38.962867588431457 ], [ -119.908479916462525, 38.96325774062619 ], [ -119.908736178419133, 38.963732984819387 ], [ -119.909289766286875, 38.964270162389433 ], [ -119.909849623063721, 38.964663365201552 ], [ -119.909844927596552, 38.964771344520592 ], [ -119.910174272088057, 38.965158436140442 ], [ -119.910144177513942, 38.965319794247357 ], [ -119.910389142266681, 38.965524476132344 ], [ -119.910527454580617, 38.9655281412292 ], [ -119.910698570445703, 38.965838969371312 ], [ -119.911414752132771, 38.96582190902383 ], [ -119.911580810348099, 38.965718204087409 ], [ -119.912321607071107, 38.965665755559932 ], [ -119.912632608541074, 38.965944250838227 ], [ -119.91277092196421, 38.965947913309151 ], [ -119.913264400096907, 38.965744771377125 ], [ -119.913375752453547, 38.965837805859699 ], [ -119.913276507907284, 38.965997334184273 ], [ -119.913317922023069, 38.966106534421371 ], [ -119.913570715719018, 38.966131243972796 ], [ -119.91361682035263, 38.966132464448897 ], [ -119.913701213190208, 38.966314871487036 ], [ -119.913559772197758, 38.966383196534814 ], [ -119.913555863764103, 38.966473179589407 ], [ -119.913691051716341, 38.966548827459384 ], [ -119.913707850943837, 38.966693410584774 ], [ -119.913375735093169, 38.966900826300744 ], [ -119.91305378113077, 38.966874285177994 ], [ -119.912842398844063, 38.96695877479069 ], [ -119.912834202028336, 38.966616229040604 ], [ -119.912838489422654, 38.967048757775501 ], [ -119.912066804924649, 38.967280564294384 ], [ -119.911625262284929, 38.967881457116206 ], [ -119.91103564122885, 38.96817213102748 ], [ -119.910933258327447, 38.968403643199935 ], [ -119.910702728410101, 38.968397535039848 ], [ -119.910326055081882, 38.968567726535753 ], [ -119.909862646473371, 38.968609496943706 ], [ -119.909501978220305, 38.96894226548357 ], [ -119.909494150354547, 38.969122230822606 ], [ -119.909399589129706, 38.969173776034104 ], [ -119.90943160497207, 38.96949893581278 ], [ -119.909191677286017, 38.969708782867301 ], [ -119.908938090144318, 38.969702059894104 ], [ -119.908926345861104, 38.969972007721076 ], [ -119.90871573270536, 38.970038492715311 ], [ -119.908617254493961, 38.970180019793403 ], [ -119.90821516386076, 38.970403582086085 ], [ -119.907938520899322, 38.970396245482284 ], [ -119.907715034643815, 38.970228162649484 ], [ -119.90753721034153, 38.97060180879307 ], [ -119.907062819174811, 38.97089551831035 ], [ -119.906888334543339, 38.971161148339895 ], [ -119.906935798252775, 38.971162407565195 ], [ -119.907775811934982, 38.972013484667968 ], [ -119.908192352188436, 38.971988497282638 ], [ -119.908419760628817, 38.972066596896866 ], [ -119.908551820512727, 38.972214236907412 ], [ -119.909064493502868, 38.972101709087795 ], [ -119.909163756721327, 38.971942185224385 ], [ -119.909517396972632, 38.971771387295306 ], [ -119.909619789996242, 38.971539876865869 ], [ -119.909736625513247, 38.971506939217321 ], [ -119.909704960684451, 38.971704289969779 ], [ -119.909950727666867, 38.971890976895786 ], [ -119.90906797303488, 38.972552233210827 ], [ -119.908922599965649, 38.972710534450499 ], [ -119.908916335664614, 38.97285450655032 ], [ -119.908770875329381, 38.972882180041509 ], [ -119.908776443160264, 38.972886831988561 ], [ -119.908753388759024, 38.972886220708297 ], [ -119.908704147576273, 38.972956984167844 ], [ -119.908520495359838, 38.972934097171674 ], [ -119.908532567751166, 38.972927517060484 ], [ -119.908334493711479, 38.972965199396953 ], [ -119.908138309756467, 38.973230255795876 ], [ -119.906998002298806, 38.97397475148486 ], [ -119.906921002373778, 38.974152881279714 ], [ -119.906718211249, 38.974039397319871 ], [ -119.906350903096509, 38.973993616612979 ], [ -119.905910512280087, 38.974035981503462 ], [ -119.905963999944419, 38.974397746218706 ], [ -119.905653312454135, 38.97464174206371 ], [ -119.905609053682667, 38.974607402839574 ], [ -119.905624770081005, 38.974767105297282 ], [ -119.905504791628744, 38.974872024303082 ], [ -119.905578196842328, 38.97530638683601 ], [ -119.905711040104151, 38.975436033552747 ], [ -119.906052948411343, 38.975535194072442 ], [ -119.906221714032384, 38.975900017885536 ], [ -119.906057191391128, 38.975967720835548 ], [ -119.906049352846338, 38.976147685371629 ], [ -119.906342019028585, 38.976317607282233 ], [ -119.906358804204729, 38.976462190746439 ], [ -119.906749964254729, 38.976490587194561 ], [ -119.906731155487321, 38.976922502313684 ], [ -119.906844866466415, 38.976961553859915 ], [ -119.906863220093555, 38.977070144357349 ], [ -119.906146141647909, 38.977105168496536 ], [ -119.906095326981429, 38.977211923487545 ], [ -119.905911664961963, 38.977189031980096 ], [ -119.905723299260501, 38.977274118854446 ], [ -119.90575529937729, 38.977599278721605 ], [ -119.905540740375827, 38.977755739068172 ], [ -119.905553603890965, 38.977990304761398 ], [ -119.905382018962243, 38.97821997444678 ], [ -119.905194433998801, 38.97828706388291 ], [ -119.905088878928737, 38.978590554930264 ], [ -119.904473732175845, 38.978934567652779 ], [ -119.904395151096523, 38.979148688005552 ], [ -119.904133687156602, 38.979321917361091 ], [ -119.90401056058856, 38.979498819992216 ], [ -119.904046475485387, 38.979733997906315 ], [ -119.903804926937241, 38.97997982430936 ], [ -119.903641961652838, 38.980011530527278 ], [ -119.903504709462965, 38.980512367669682 ], [ -119.903241668844913, 38.980721587482392 ], [ -119.902962632735608, 38.980768226625536 ], [ -119.902720291986896, 38.981032046829903 ], [ -119.902056643571413, 38.981428809278512 ], [ -119.901951854754174, 38.981714300241443 ], [ -119.901369930700184, 38.981824954765401 ], [ -119.900939981381256, 38.982155853195927 ], [ -119.900690559789538, 38.982581635722084 ], [ -119.900845175040331, 38.983270400665937 ], [ -119.900507444976512, 38.983603748878984 ], [ -119.900520291588307, 38.983838314293799 ], [ -119.899803417642786, 38.984395802986199 ], [ -119.89908154921747, 38.984538758330338 ], [ -119.898689298475801, 38.984005824588053 ], [ -119.899103035483776, 38.984575364292112 ], [ -119.898833679270922, 38.98492854332811 ], [ -119.898309108014203, 38.985310965885773 ], [ -119.898122284053741, 38.98536004653824 ], [ -119.898046820272896, 38.985502176184411 ], [ -119.897417957101567, 38.985629578535381 ], [ -119.897360831982667, 38.98588029900624 ], [ -119.897378386064517, 38.98600688663462 ], [ -119.897622593364005, 38.986229592428202 ], [ -119.897745219381292, 38.986593199889455 ], [ -119.897681804191251, 38.986987890720435 ], [ -119.897774825383479, 38.986972349024867 ], [ -119.897880684272792, 38.987191372513792 ], [ -119.898241763759032, 38.987381152682453 ], [ -119.898433571572099, 38.987746600209782 ], [ -119.89873098046256, 38.987808564415204 ], [ -119.898841559521571, 38.987919609415741 ], [ -119.899094423279308, 38.987944353256289 ], [ -119.899476211531677, 38.988188732158839 ], [ -119.899591507347964, 38.988191798682259 ], [ -119.899387386923934, 38.988636799741144 ], [ -119.899199768739621, 38.98870387807127 ], [ -119.898980444851162, 38.988968301895945 ], [ -119.898403173828626, 38.988970961151331 ], [ -119.898135368550513, 38.989288144965649 ], [ -119.897652692139843, 38.989239265918656 ], [ -119.897581154650041, 38.98929141363287 ], [ -119.897078565280637, 38.989169933461795 ], [ -119.896726381279635, 38.989304695940547 ], [ -119.896611870586213, 38.989283630261241 ], [ -119.896463287368363, 38.989513898037707 ], [ -119.896208845906145, 38.989525140789198 ], [ -119.896018075555276, 38.989664198735461 ], [ -119.89524924059134, 38.989823895909524 ], [ -119.895054532477175, 38.990052933283884 ], [ -119.894702340544399, 38.990187689290366 ], [ -119.894627651425282, 38.990311819917707 ], [ -119.894440024716928, 38.990378890201114 ], [ -119.894412241734869, 38.990486253123272 ], [ -119.89403698667364, 38.990620392621196 ], [ -119.893748458054162, 38.990882962196174 ], [ -119.893237202622529, 38.990959423406828 ], [ -119.89304721029508, 38.991080479877262 ], [ -119.892746643241708, 38.991090485553883 ], [ -119.892531226666051, 38.991264914976156 ], [ -119.892255294397614, 38.991239541729783 ], [ -119.892183751046346, 38.991291685870046 ], [ -119.892175842984216, 38.991276156085505 ], [ -119.891904879223731, 38.991860800082463 ], [ -119.89164491363826, 38.991998005611649 ], [ -119.891590913548256, 38.992176737349446 ], [ -119.891190220066036, 38.992364240587193 ], [ -119.891019340307977, 38.992575889174702 ], [ -119.890231544355956, 38.993167458699297 ], [ -119.890314794751447, 38.99301987399722 ], [ -119.890210848814462, 38.993112855097074 ], [ -119.890334234181694, 38.993458472799929 ], [ -119.890251650303199, 38.993762561411359 ], [ -119.890432983248175, 38.993839467493608 ], [ -119.890380555080426, 38.993982206178252 ], [ -119.890447372686012, 38.994038040122689 ], [ -119.890131813698716, 38.994389964953562 ], [ -119.889901204041223, 38.994383812283367 ], [ -119.889822364266919, 38.994075417041195 ], [ -119.889623490240808, 38.993871921849234 ], [ -119.889605160553188, 38.993763329800899 ], [ -119.889822957323688, 38.993534918088912 ], [ -119.889789451304196, 38.993245749532846 ], [ -119.889478431055934, 38.992967193160666 ], [ -119.889377322451665, 38.992640186221166 ], [ -119.889201513816388, 38.992437305847275 ], [ -119.888867439096742, 38.9921581326482 ], [ -119.888616931626629, 38.992079377834735 ], [ -119.888468919134823, 38.991769135356421 ], [ -119.888479172781174, 38.991535185986294 ], [ -119.88838929903946, 38.991478735503499 ], [ -119.887910561631614, 38.991339835267929 ], [ -119.887361246971594, 38.991757580357103 ], [ -119.887200615676448, 38.991735273862041 ], [ -119.886865148672811, 38.992014589611756 ], [ -119.886613854989164, 38.991953826674219 ], [ -119.886402367725296, 38.992038263667162 ], [ -119.885942744167465, 38.991989951627609 ], [ -119.885737571641158, 38.991930418905355 ], [ -119.885582466981873, 38.991782137789819 ], [ -119.885523550296341, 38.99154634073048 ], [ -119.885044818841834, 38.991407428927701 ], [ -119.885051925245335, 38.991245464498078 ], [ -119.884531025895285, 38.991015338064706 ], [ -119.884422834885044, 38.990850292130538 ], [ -119.884189078746999, 38.990916112781257 ], [ -119.883361299633975, 38.990839932344286 ], [ -119.882768069787829, 38.990679932798066 ], [ -119.882748170840699, 38.990607332103536 ], [ -119.882340210898931, 38.990434267566087 ], [ -119.881874930245175, 38.989989411270962 ], [ -119.881931323518359, 38.989756696915059 ], [ -119.882216727987853, 38.989566142187734 ], [ -119.882176931742634, 38.989420940655698 ], [ -119.882041737891825, 38.98934525605943 ], [ -119.882031633838992, 38.989224871525458 ], [ -119.881998780848804, 38.989272038490327 ], [ -119.881098684775552, 38.989265976434091 ], [ -119.880828300404659, 38.989114604707304 ], [ -119.880414028273606, 38.989085501753664 ], [ -119.880282000022262, 38.988937831317536 ], [ -119.880114260883516, 38.989077479135545 ], [ -119.878740330303359, 38.989346990216326 ], [ -119.878525677809833, 38.989503396646228 ], [ -119.878000066033181, 38.989381217954573 ], [ -119.878014309866458, 38.989057291152349 ], [ -119.878271010806188, 38.988469600620107 ], [ -119.878233596915038, 38.988270410251616 ], [ -119.87840450232757, 38.98805878142398 ], [ -119.87836471461091, 38.987913578911126 ], [ -119.877986170279499, 38.987597150081058 ], [ -119.877835047966116, 38.987358879918986 ], [ -119.877777742626577, 38.987087088119466 ], [ -119.877861952273918, 38.986747018046543 ], [ -119.878495600271961, 38.98651174743798 ], [ -119.878740420952084, 38.986193994424902 ], [ -119.878952689509632, 38.986091574972903 ], [ -119.8791036930037, 38.985807343559628 ], [ -119.879363657478365, 38.98567016596116 ], [ -119.879440739787583, 38.985492058020441 ], [ -119.879790561412634, 38.985411336227394 ], [ -119.879912176431944, 38.985270454193881 ], [ -119.879968444027753, 38.984515240166537 ], [ -119.880175042263545, 38.984016289400166 ], [ -119.880138415126567, 38.983799103404145 ], [ -119.880397579574762, 38.983679919064876 ], [ -119.880832506219335, 38.983763625748992 ], [ -119.880974011810423, 38.983695343313713 ], [ -119.881691949337835, 38.983642481379526 ], [ -119.882705533024719, 38.983165109417484 ], [ -119.883240586958777, 38.983071312933582 ], [ -119.883503692694589, 38.982862141121608 ], [ -119.884182612955243, 38.98264606610438 ], [ -119.884545837027773, 38.982259396111495 ], [ -119.884800252499318, 38.982248177837185 ], [ -119.884909846445765, 38.981854728727797 ], [ -119.885179257112043, 38.981501584082402 ], [ -119.886249946981096, 38.980773465696402 ], [ -119.886444655061993, 38.980544442848995 ], [ -119.88702106519321, 38.980559836193144 ], [ -119.887255573060145, 38.980476012140571 ], [ -119.887599053069252, 38.980539234445807 ], [ -119.887880461636712, 38.980438644089745 ], [ -119.888111025608126, 38.98044479891761 ], [ -119.888353416482843, 38.980181011217013 ], [ -119.88882242633575, 38.980013357011508 ], [ -119.888944014085325, 38.979872464327293 ], [ -119.888967070318998, 38.97987307961295 ], [ -119.888968646890078, 38.979837087312397 ], [ -119.888991703112779, 38.979837702592725 ], [ -119.889065601341869, 38.979731571493559 ], [ -119.889610280774818, 38.979944294248412 ], [ -119.889044909938178, 38.979676967773095 ], [ -119.889078213368848, 38.979443633047239 ], [ -119.889372226291968, 38.97905510029279 ], [ -119.889359582781751, 38.978823581323667 ], [ -119.889198813326061, 38.978798232408479 ], [ -119.889096933630597, 38.97848922158019 ], [ -119.889220882576609, 38.978294339971235 ], [ -119.888668138983192, 38.977739073719171 ], [ -119.888698882223622, 38.977037223750493 ], [ -119.888572374946634, 38.976763589586156 ], [ -119.888415718469375, 38.97665130532863 ], [ -119.888425178442205, 38.976435351514823 ], [ -119.888175514249539, 38.976338601705628 ], [ -119.888095908452314, 38.976048201751176 ], [ -119.887788908351311, 38.975679662787336 ], [ -119.887810006855617, 38.97467126322934 ], [ -119.887619673803897, 38.973747305206949 ], [ -119.887638596525235, 38.973315397681176 ], [ -119.887466779586347, 38.973022535537417 ], [ -119.887216339995788, 38.972943780310942 ], [ -119.887315652370617, 38.972784277134771 ], [ -119.887570822185481, 38.972755055242487 ], [ -119.887878406489776, 38.972583094372226 ], [ -119.888031111909754, 38.972785359799339 ], [ -119.887856929367999, 38.97254648665993 ], [ -119.888050819790251, 38.972335455875402 ], [ -119.888283722265427, 38.972287620814015 ], [ -119.888430715115561, 38.972093354831642 ], [ -119.888302639969353, 38.9718557129072 ], [ -119.888331471308803, 38.971714937209363 ], [ -119.888308157556509, 38.971729739760207 ], [ -119.888157029905187, 38.97149148240112 ], [ -119.887743643764836, 38.971444413359208 ], [ -119.887869159375626, 38.971213540322417 ], [ -119.887807882520192, 38.971031732569728 ], [ -119.887865621499444, 38.970240516940933 ], [ -119.887194716890477, 38.970276657628169 ], [ -119.886771691239645, 38.969923035460219 ], [ -119.886645990958996, 38.969631403596985 ], [ -119.886768167286604, 38.968950012478658 ], [ -119.887025688766911, 38.968866802762818 ], [ -119.887060568249126, 38.968597476004064 ], [ -119.887229031694133, 38.968439819074099 ], [ -119.887575607425973, 38.968431054543601 ], [ -119.887616194260232, 38.968558258485757 ], [ -119.887736974899624, 38.968435362285398 ], [ -119.887946812085147, 38.968386911978911 ], [ -119.887999222720637, 38.96824417328277 ], [ -119.887909377636547, 38.968187723456275 ], [ -119.888003163734481, 38.968154192434078 ], [ -119.888034098064963, 38.96797484604469 ], [ -119.887367156750784, 38.967921007794374 ], [ -119.886879717658957, 38.96745756316988 ], [ -119.886607034422553, 38.967360195714363 ], [ -119.887135688739647, 38.965302332616218 ], [ -119.887141995440118, 38.965158363302997 ], [ -119.887006052017043, 38.965100682033878 ], [ -119.887172930118084, 38.964979017099139 ], [ -119.886912269632134, 38.965134212413908 ], [ -119.886311960900571, 38.964613700161145 ], [ -119.886373648940747, 38.963732504220594 ], [ -119.886503095838577, 38.963411651230523 ], [ -119.886522018370769, 38.962979743397426 ], [ -119.886424899240524, 38.962562753955659 ], [ -119.886507454080473, 38.962258665855046 ], [ -119.887226556444801, 38.961647263784577 ], [ -119.887458635668551, 38.961617425067594 ], [ -119.888099117341127, 38.961220125196192 ], [ -119.888331194906769, 38.961190284667069 ], [ -119.888498061225761, 38.961068617296306 ], [ -119.88882076308775, 38.961077228648833 ], [ -119.889125928962031, 38.960959250629401 ], [ -119.889168878357495, 38.961032465474275 ], [ -119.889160794625951, 38.960689922446029 ], [ -119.888951563635302, 38.960197874628889 ], [ -119.889000814246927, 38.960127119827973 ], [ -119.889136750195746, 38.960184798488662 ], [ -119.88959044904, 38.959836558048814 ], [ -119.890075854837235, 38.959290971886375 ], [ -119.890129828138456, 38.959112239125105 ], [ -119.890360323473445, 38.959118386701789 ], [ -119.89076891726053, 38.959273421154329 ], [ -119.891012008269271, 38.958991627503636 ], [ -119.891151092490674, 38.958977318797217 ], [ -119.891281295156517, 38.958638462784847 ], [ -119.891545070086551, 38.958411271142019 ], [ -119.891273200725308, 38.958295919378223 ], [ -119.891300972550695, 38.958188556378254 ], [ -119.89108386138696, 38.957876474467248 ], [ -119.890983571597729, 38.957531472723517 ], [ -119.891149637507027, 38.957427797208958 ], [ -119.891157508510915, 38.957247834636625 ], [ -119.891536522767694, 38.957023715465354 ], [ -119.891734291881704, 38.956722694556568 ], [ -119.892014024884858, 38.956658082318725 ], [ -119.892423162838995, 38.956272607861493 ], [ -119.893183530371402, 38.955770370241254 ], [ -119.893428172162913, 38.955452577923829 ], [ -119.893428476653412, 38.954389567864638 ], [ -119.893503125830733, 38.954265435898122 ], [ -119.893279723802578, 38.954097328436987 ], [ -119.893461506611487, 38.953633722984129 ], [ -119.893404945923706, 38.953343939892562 ], [ -119.893315114320202, 38.953287494705592 ], [ -119.893501612749859, 38.952715911179851 ], [ -119.893502942745627, 38.952157411465116 ], [ -119.893376454510289, 38.951883782573368 ], [ -119.893512678724917, 38.95087844504112 ], [ -119.893485456671996, 38.950445305402681 ], [ -119.894059806530308, 38.949974139307535 ], [ -119.894068205902272, 38.949253672195518 ], [ -119.894240536155309, 38.949006020501436 ], [ -119.89424839698134, 38.948826057140671 ], [ -119.894421511515276, 38.948560408756478 ], [ -119.894802825774264, 38.948282287327991 ], [ -119.8948287608725, 38.947688407820543 ], [ -119.895004227782081, 38.94736876926688 ], [ -119.895192523464488, 38.9472836966427 ], [ -119.895301207806497, 38.946908227554935 ], [ -119.895807950645107, 38.946399217408384 ], [ -119.895619396697484, 38.945961782968496 ], [ -119.895998335255584, 38.945737645881415 ], [ -119.896367060574136, 38.945747460430319 ], [ -119.896742854322085, 38.945595306318289 ], [ -119.896892120570456, 38.94534703653153 ], [ -119.897840115469734, 38.945300190905769 ], [ -119.897935436567366, 38.945230657533081 ], [ -119.897975752490922, 38.944835349531502 ], [ -119.89848246117127, 38.944326326214266 ], [ -119.898514139697724, 38.944128978491513 ], [ -119.898752436417013, 38.943955143262286 ], [ -119.898909826278341, 38.94404941545492 ], [ -119.899191072624973, 38.943948790697625 ], [ -119.899555866785192, 38.944048576994589 ], [ -119.899815636556085, 38.943911345080828 ], [ -119.900037160510834, 38.943592922794878 ], [ -119.900250838336902, 38.943454464550129 ], [ -119.901310894383769, 38.94348263824412 ], [ -119.901477696096137, 38.943360949367943 ], [ -119.901910841146119, 38.943480561771302 ], [ -119.902021360989565, 38.943591601870438 ], [ -119.902853324204273, 38.943559649648456 ], [ -119.903034547553645, 38.943636532022161 ], [ -119.903162310408348, 38.943351648032113 ], [ -119.903255272905753, 38.943336099488427 ], [ -119.903181118339177, 38.942919731882689 ], [ -119.903526003420183, 38.942946907742588 ], [ -119.904164659043346, 38.942585500996273 ], [ -119.90455328218323, 38.942667886928902 ], [ -119.905648903752038, 38.942408687778368 ], [ -119.906157447813726, 38.942386146486413 ], [ -119.906148053106776, 38.94260210519397 ], [ -119.905935171677612, 38.942722578288141 ], [ -119.905875772033468, 38.943027296794895 ], [ -119.905708195231014, 38.943166988860838 ], [ -119.905624966266075, 38.943489092211401 ], [ -119.90474724386624, 38.944042352032497 ], [ -119.904680787830372, 38.94450903837447 ], [ -119.904378067757605, 38.944573071781875 ], [ -119.904230395717804, 38.944785359279741 ], [ -119.904090557585448, 38.944817681384535 ], [ -119.904077238350354, 38.94512362215815 ], [ -119.904186980634705, 38.94525265693445 ], [ -119.904156100531068, 38.945432010272128 ], [ -119.904011559974194, 38.945572311310784 ], [ -119.904048248726937, 38.945789493184904 ], [ -119.903917350091817, 38.946146364049753 ], [ -119.903640018928201, 38.946157017577924 ], [ -119.902089524424554, 38.947322995698684 ], [ -119.902058637814761, 38.947502348173821 ], [ -119.901793369475556, 38.947765559938695 ], [ -119.901859371306244, 38.947839382780408 ], [ -119.90178160727217, 38.948035506957567 ], [ -119.901451118210971, 38.948206898453186 ], [ -119.901645203147126, 38.948518349773181 ], [ -119.901870961822439, 38.948632452021904 ], [ -119.901812322423496, 38.948919170816623 ], [ -119.901644723352561, 38.949058856026589 ], [ -119.901682190121349, 38.949258041851813 ], [ -119.90151615847725, 38.949361733907232 ], [ -119.901544213906121, 38.949776877257491 ], [ -119.90196328258088, 38.950220427256959 ], [ -119.902171796370467, 38.950730451364642 ], [ -119.902147488040484, 38.951288341769271 ], [ -119.902254098962842, 38.951489364351197 ], [ -119.902188400572612, 38.951938051348925 ], [ -119.90249381535466, 38.952342545444907 ], [ -119.902432037919937, 38.952701250231669 ], [ -119.902262862258453, 38.952876928863496 ], [ -119.902006504768551, 38.953464688647408 ], [ -119.901993956726315, 38.953752631910142 ], [ -119.902121265862405, 38.954008256403554 ], [ -119.902105863028012, 38.954020673046166 ], [ -119.902184136533506, 38.954154065063882 ], [ -119.902178168265394, 38.954820546212325 ], [ -119.90286679469493, 38.955433410030594 ], [ -119.902903483005062, 38.955650592015878 ], [ -119.902637401067935, 38.955931800736501 ] ], [ [ -119.913167881540986, 38.966372821661125 ], [ -119.913169340869615, 38.96633922799932 ], [ -119.912834202028336, 38.966616229040604 ], [ -119.913167881540986, 38.966372821661125 ] ], [ [ -119.90875342008232, 38.972885500847909 ], [ -119.90875009527312, 38.972886133382175 ], [ -119.908753388759024, 38.972886220708297 ], [ -119.90875342008232, 38.972885500847909 ] ], [ [ -119.906214689634922, 38.971092600703841 ], [ -119.906290292059353, 38.971145280449974 ], [ -119.90637921379826, 38.971147640009157 ], [ -119.906214689634922, 38.971092600703841 ] ], [ [ -119.903381092237922, 38.97156176633063 ], [ -119.903478042703767, 38.97159312217503 ], [ -119.903530022967132, 38.97156066881989 ], [ -119.903381092237922, 38.97156176633063 ] ], [ [ -119.899648569693866, 38.972332393750023 ], [ -119.899707985231444, 38.972303704802151 ], [ -119.899737322020982, 38.972160346999601 ], [ -119.899648569693866, 38.972332393750023 ] ], [ [ -119.894294173795998, 38.97365504196361 ], [ -119.894293678185861, 38.973641377831576 ], [ -119.893840403949412, 38.974003297357271 ], [ -119.894294173795998, 38.97365504196361 ] ], [ [ -119.894283707679364, 38.973366487641428 ], [ -119.894232878569241, 38.973473236898954 ], [ -119.894290016022808, 38.973540410795671 ], [ -119.894283707679364, 38.973366487641428 ] ], [ [ -119.894170010057579, 38.97332742432895 ], [ -119.893984002610367, 38.97335850334116 ], [ -119.894283707679364, 38.973366487641428 ], [ -119.894170010057579, 38.97332742432895 ] ], [ [ -119.892452625007522, 38.973708025545726 ], [ -119.892514268850576, 38.973715716384355 ], [ -119.892803514924893, 38.973435150312852 ], [ -119.892452625007522, 38.973708025545726 ] ], [ [ -119.892107951772658, 38.973506696164428 ], [ -119.89233140887481, 38.973674807772809 ], [ -119.892273940395597, 38.97368573221852 ], [ -119.892431250219673, 38.973705358766281 ], [ -119.892107951772658, 38.973506696164428 ] ], [ [ -119.888789134553917, 38.973922657535887 ], [ -119.888794453915395, 38.973274180302774 ], [ -119.888766080253674, 38.97392204229341 ], [ -119.888779439933742, 38.973933209138686 ], [ -119.88918972644116, 38.973735158063519 ], [ -119.888789134553917, 38.973922657535887 ] ], [ [ -119.891490730983733, 38.967040077122981 ], [ -119.891445414026251, 38.967020851649778 ], [ -119.891619596689452, 38.967259719556402 ], [ -119.891490730983733, 38.967040077122981 ] ], [ [ -119.891469253440192, 38.967003470039401 ], [ -119.891477126321917, 38.966823507708156 ], [ -119.891448056725679, 38.96700440632214 ], [ -119.891490730983733, 38.967040077122981 ], [ -119.891469253440192, 38.967003470039401 ] ], [ [ -119.899399047405367, 38.956364768096222 ], [ -119.899387815271311, 38.956367934271974 ], [ -119.899193219005326, 38.956596983963536 ], [ -119.899399047405367, 38.956364768096222 ] ], [ [ -119.900356743144442, 38.955935987826585 ], [ -119.900261026885445, 38.95592270223046 ], [ -119.899932066166443, 38.956058094748698 ], [ -119.900356743144442, 38.955935987826585 ] ], [ [ -119.900563014324845, 38.955876678169346 ], [ -119.900638628014491, 38.955823576413714 ], [ -119.90052326964819, 38.955888106090242 ], [ -119.900563014324845, 38.955876678169346 ] ], [ [ -119.901205727101726, 38.955425311523236 ], [ -119.90147102802797, 38.955162102645019 ], [ -119.900835821459637, 38.955685091365368 ], [ -119.901205727101726, 38.955425311523236 ] ], [ [ -119.913209562852643, 38.966121682947602 ], [ -119.913148598719644, 38.966090885939686 ], [ -119.913174396382146, 38.966222849954825 ], [ -119.91317804467198, 38.966138865797198 ], [ -119.913178826446384, 38.966120869191812 ], [ -119.913209562852643, 38.966121682947602 ] ], [ [ -119.906589412682891, 38.972756754172849 ], [ -119.906588890265013, 38.972768751821448 ], [ -119.906635521307791, 38.972757977580436 ], [ -119.906605304639214, 38.972745164328572 ], [ -119.906589412682891, 38.972756754172849 ] ], [ [ -119.906590196309125, 38.972738757699865 ], [ -119.906577885527113, 38.972756448318101 ], [ -119.906589412682891, 38.972756754172849 ], [ -119.906590196309125, 38.972738757699865 ] ], [ [ -119.901259915735579, 38.973214737757054 ], [ -119.901237980972354, 38.973209208834987 ], [ -119.901119569176458, 38.97327813043394 ], [ -119.901259915735579, 38.973214737757054 ] ], [ [ -119.90276614660641, 38.973628178842105 ], [ -119.902767797009361, 38.973590324334616 ], [ -119.902660548838, 38.973597549336532 ], [ -119.90276614660641, 38.973628178842105 ] ], [ [ -119.902628604206825, 38.973606507507029 ], [ -119.902628901833666, 38.973599681285272 ], [ -119.90236433952343, 38.973617503586148 ], [ -119.90276614660641, 38.973628178842105 ], [ -119.902628604206825, 38.973606507507029 ] ], [ [ -119.898114164765275, 38.983431989088871 ], [ -119.898376879024724, 38.983694111788765 ], [ -119.898337666547661, 38.983600090781593 ], [ -119.898114164765275, 38.983431989088871 ] ], [ [ -119.900693118827121, 38.976250792487384 ], [ -119.900288161924578, 38.976463096645261 ], [ -119.900689526080072, 38.976257560684303 ], [ -119.900693118827121, 38.976250792487384 ] ], [ [ -119.901980724007942, 38.973643344845506 ], [ -119.901917457018271, 38.973703782788952 ], [ -119.902042006997533, 38.973639216763075 ], [ -119.901980724007942, 38.973643344845506 ] ], [ [ -119.903476761673488, 38.973475891251773 ], [ -119.903350445282399, 38.973539306004334 ], [ -119.903393325412196, 38.973536735516255 ], [ -119.903476761673488, 38.973475891251773 ] ], [ [ -119.903598273615643, 38.973414888238999 ], [ -119.903538810213149, 38.973444740862973 ], [ -119.903550710626632, 38.973504501899441 ], [ -119.903598273615643, 38.973414888238999 ] ], [ [ -119.903562083697807, 38.973561614669102 ], [ -119.903612104331458, 38.973812805080989 ], [ -119.90363014556668, 38.973398887426299 ], [ -119.903601609053027, 38.973413213735775 ], [ -119.903580899031297, 38.973469648493044 ], [ -119.903562083697807, 38.973561614669102 ] ], [ [ -119.895316571383546, 38.977195631041312 ], [ -119.895496121296375, 38.977312519635895 ], [ -119.895497082649058, 38.977290524195034 ], [ -119.895486341442805, 38.977272220945181 ], [ -119.895474813676202, 38.977271913964053 ], [ -119.895475600241824, 38.977253917694519 ], [ -119.895316571383546, 38.977195631041312 ] ], [ [ -119.894738610482975, 38.977216272293298 ], [ -119.894481376656785, 38.976236490794342 ], [ -119.894734830149829, 38.977222621341632 ], [ -119.895316571383546, 38.977195631041312 ], [ -119.894738610482975, 38.977216272293298 ] ], [ [ -119.895475600241852, 38.977253917694561 ], [ -119.895475600241824, 38.977253917694505 ], [ -119.895475600241824, 38.977253917694519 ], [ -119.895475600241852, 38.977253917694561 ] ], [ [ -119.895518565077452, 38.977327130692302 ], [ -119.895514268590105, 38.97731980939313 ], [ -119.895509782727231, 38.977321413322883 ], [ -119.895518565077452, 38.977327130692302 ] ], [ [ -119.894003577250032, 38.979773152263682 ], [ -119.894301735497706, 38.979817130093068 ], [ -119.894065071603436, 38.979764192279241 ], [ -119.894035743528903, 38.979768465506716 ], [ -119.894049689875359, 38.979774380828481 ], [ -119.894003577250032, 38.979773152263682 ] ], [ [ -119.892154534021103, 38.989849532949094 ], [ -119.892604480063596, 38.989591270310612 ], [ -119.892779533659336, 38.989410316454084 ], [ -119.892154534021103, 38.989849532949094 ] ], [ [ -119.89321258806217, 38.988962660423446 ], [ -119.893233162953535, 38.988941391603639 ], [ -119.893222245233218, 38.988898690956951 ], [ -119.89321258806217, 38.988962660423446 ] ], [ [ -119.893169698317308, 38.988693172386832 ], [ -119.893154313009433, 38.988632998027391 ], [ -119.893047409006115, 38.988543666306448 ], [ -119.893169698317308, 38.988693172386832 ] ], [ [ -119.892831078260699, 38.98834593539835 ], [ -119.892915625269922, 38.988284309837731 ], [ -119.892821026438426, 38.988335839916395 ], [ -119.892831078260699, 38.98834593539835 ] ], [ [ -119.892314869115864, 38.987241316451254 ], [ -119.892003075530525, 38.986980763426232 ], [ -119.892664906904145, 38.987683059933985 ], [ -119.89232945393897, 38.987259722447746 ], [ -119.892314081469948, 38.987259312635963 ], [ -119.892314869115864, 38.987241316451254 ] ], [ [ -119.891164090260148, 38.986634082570475 ], [ -119.891186360821294, 38.986652693673697 ], [ -119.891167145420027, 38.986652181227051 ], [ -119.891185572906167, 38.986670689840949 ], [ -119.892003075530525, 38.986980763426232 ], [ -119.891164090260148, 38.986634082570475 ] ], [ [ -119.890964443699247, 38.986448586304853 ], [ -119.891163459924002, 38.986648479504012 ], [ -119.891164090260148, 38.986634082570475 ], [ -119.890964443699247, 38.986448586304853 ] ], [ [ -119.890091296504892, 38.986575718383797 ], [ -119.890035014024932, 38.98658594898896 ], [ -119.890032865308726, 38.986601002844402 ], [ -119.890091296504892, 38.986575718383797 ] ], [ [ -119.891794185689093, 38.987533726520233 ], [ -119.890436871352989, 38.987425459288296 ], [ -119.89007423771919, 38.987271648060236 ], [ -119.890346212792153, 38.987387006581471 ], [ -119.890353456535948, 38.987443264136616 ], [ -119.891794185689093, 38.987533726520233 ] ], [ [ -119.892014533017701, 38.987773824867311 ], [ -119.892795940586439, 38.988337981276331 ], [ -119.891794185689093, 38.987533726520233 ], [ -119.892014533017701, 38.987773824867311 ] ], [ [ -119.894234927354731, 38.97976129866516 ], [ -119.89421265799696, 38.979742688181489 ], [ -119.894108117642773, 38.979757920270451 ], [ -119.894234927354731, 38.97976129866516 ] ], [ [ -119.899998825037585, 38.973572645457118 ], [ -119.899952716174028, 38.973571419405936 ], [ -119.900332580394476, 38.973329278208801 ], [ -119.900463839823246, 38.973494923137991 ], [ -119.900476406733702, 38.973724377224272 ], [ -119.900494823234339, 38.973726220475633 ], [ -119.90046462502039, 38.973476926771674 ], [ -119.900334150845211, 38.973293285479507 ], [ -119.900264202558304, 38.973309442969146 ], [ -119.900132943924518, 38.973143797843385 ], [ -119.899985839591082, 38.9730768260617 ], [ -119.900286471674207, 38.973328052295876 ], [ -119.899861042705894, 38.973595673927818 ], [ -119.899929072742026, 38.973584303641246 ], [ -119.899929661743329, 38.973570806373523 ], [ -119.899943023202738, 38.973581972007842 ], [ -119.899998825037585, 38.973572645457118 ] ], [ [ -119.900511802961773, 38.973982663798864 ], [ -119.900535938783634, 38.97406563741567 ], [ -119.900519238585531, 38.973927774284597 ], [ -119.900511802961773, 38.973982663798864 ] ], [ [ -119.900420117092182, 38.974376090720135 ], [ -119.900570190336026, 38.974348388898562 ], [ -119.900568997753794, 38.97433854398863 ], [ -119.900420117092182, 38.974376090720135 ] ], [ [ -119.900620293691617, 38.974670203200404 ], [ -119.900755481886449, 38.974745866064744 ], [ -119.900614479845743, 38.974611083127165 ], [ -119.900620293691617, 38.974670203200404 ] ], [ [ -119.900251416951377, 38.974660396015793 ], [ -119.90045262822116, 38.974809883599001 ], [ -119.900514752090515, 38.974796751863131 ], [ -119.900251416951377, 38.974660396015793 ] ], [ [ -119.899520733212242, 38.974478811032839 ], [ -119.89958276903107, 38.974530651697123 ], [ -119.899679667554693, 38.974512766135597 ], [ -119.899430085327197, 38.974440365795559 ], [ -119.899386644839836, 38.974451780642738 ], [ -119.899520733212242, 38.974478811032839 ] ], [ [ -119.899268702434895, 38.974436073670645 ], [ -119.899278128699862, 38.974220117549464 ], [ -119.89912618786974, 38.974679376682886 ], [ -119.899282129554564, 38.974479244018198 ], [ -119.899243291139285, 38.974489449519368 ], [ -119.899364063232767, 38.97436654096186 ], [ -119.899392045687094, 38.974223147284583 ], [ -119.899268702434895, 38.974436073670645 ] ], [ [ -119.898719588557626, 38.974853881402495 ], [ -119.899094750414704, 38.974719722758614 ], [ -119.899103967682834, 38.974707893543723 ], [ -119.898719588557626, 38.974853881402495 ] ], [ [ -119.898349925758609, 38.974862064497259 ], [ -119.8983251877047, 38.974877506853396 ], [ -119.898719588557626, 38.974853881402495 ], [ -119.898349925758609, 38.974862064497259 ] ], [ [ -119.897808662478553, 38.975099904360711 ], [ -119.897779598670667, 38.975124431779051 ], [ -119.898017728147607, 38.975069432801241 ], [ -119.897808662478553, 38.975099904360711 ] ], [ [ -119.897353327170777, 38.975484166311205 ], [ -119.89771015544116, 38.975241420942965 ], [ -119.897729474084983, 38.975166732669827 ], [ -119.897353327170777, 38.975484166311205 ] ], [ [ -119.896679496607916, 38.97601693187179 ], [ -119.896732829465378, 38.975791961211129 ], [ -119.896692849613018, 38.975808914217197 ], [ -119.896801579866249, 38.975433446755488 ], [ -119.896676084285602, 38.975664330153741 ], [ -119.896679496607916, 38.97601693187179 ] ], [ [ -119.896398890167319, 38.976197467813471 ], [ -119.896656428643965, 38.976114237506764 ], [ -119.896658722974422, 38.976104559541312 ], [ -119.896398890167319, 38.976197467813471 ] ], [ [ -119.895870979946636, 38.976129361137396 ], [ -119.895849307262878, 38.976160494381695 ], [ -119.896148428415074, 38.976118730966853 ], [ -119.895870979946636, 38.976129361137396 ] ], [ [ -119.894365001515496, 38.977314423485204 ], [ -119.894347801320308, 38.977335162001864 ], [ -119.894417327486863, 38.977303173743927 ], [ -119.894365001515496, 38.977314423485204 ] ], [ [ -119.893169364694415, 38.977962072481233 ], [ -119.893182314479418, 38.977967565361659 ], [ -119.893272445032636, 38.977912312210222 ], [ -119.893169364694415, 38.977962072481233 ] ], [ [ -119.893435549440028, 38.978234276247626 ], [ -119.893429630478067, 38.978118293624611 ], [ -119.893380167193214, 38.978088148010876 ], [ -119.893435549440028, 38.978234276247626 ] ], [ [ -119.893790561027572, 38.979893597127194 ], [ -119.893831918282942, 38.979928159595183 ], [ -119.893858943021087, 38.979913436332339 ], [ -119.893801350401475, 38.979849033269502 ], [ -119.893676853493048, 38.979854532955756 ], [ -119.89369912273655, 38.979873143537247 ], [ -119.893791348093032, 38.97987560089453 ], [ -119.893790561027572, 38.979893597127194 ] ], [ [ -119.89367894844132, 38.979872605980646 ], [ -119.893693613100609, 38.979999117153511 ], [ -119.893754136096447, 38.980000729809632 ], [ -119.89369912273655, 38.979873143537247 ], [ -119.89367894844132, 38.979872605980646 ] ], [ [ -119.893788986894535, 38.979929589592331 ], [ -119.893788003059967, 38.97995208488291 ], [ -119.893827414158821, 38.97993061347168 ], [ -119.893788986894535, 38.979929589592331 ] ], [ [ -119.893704384523247, 38.980816096330294 ], [ -119.893734358816161, 38.980809175232565 ], [ -119.893704809860196, 38.980810159425239 ], [ -119.893704384523247, 38.980816096330294 ] ], [ [ -119.893996089440222, 38.980811515864048 ], [ -119.894004829910102, 38.98080016625012 ], [ -119.893983363951278, 38.980800881271769 ], [ -119.893996089440222, 38.980811515864048 ] ], [ [ -119.89388482428437, 38.980905072080276 ], [ -119.893893260167005, 38.980945040674548 ], [ -119.893974238252952, 38.9808398898954 ], [ -119.89388482428437, 38.980905072080276 ] ], [ [ -119.893896900918833, 38.980962290278256 ], [ -119.893903945629887, 38.980995667560009 ], [ -119.893808953658933, 38.98100183451524 ], [ -119.89406534259092, 38.980999967707483 ], [ -119.893896900918833, 38.980962290278256 ] ], [ [ -119.89432123531526, 38.982470950089599 ], [ -119.894324391697012, 38.982466262499187 ], [ -119.894249477336786, 38.982067888300918 ], [ -119.89432123531526, 38.982470950089599 ] ], [ [ -119.892441670921073, 38.984343929816397 ], [ -119.892202909878662, 38.984368483252339 ], [ -119.892623770565919, 38.984402835512725 ], [ -119.892441670921073, 38.984343929816397 ] ], [ [ -119.89195824576457, 38.984313024857194 ], [ -119.891716056877343, 38.984328742518407 ], [ -119.891992479725644, 38.984351306558068 ], [ -119.89195824576457, 38.984313024857194 ] ], [ [ -119.890814174340278, 38.984031335992277 ], [ -119.890802933627697, 38.984036411063336 ], [ -119.890815326914876, 38.98404504823084 ], [ -119.890814174340278, 38.984031335992277 ] ], [ [ -119.882121979329128, 38.989095162313248 ], [ -119.882104586640992, 38.989120133077392 ], [ -119.883021136067981, 38.988596711222243 ], [ -119.882121979329128, 38.989095162313248 ] ], [ [ -119.89986469506043, 38.973021672698245 ], [ -119.899838735543369, 38.97300985410488 ], [ -119.899236183392929, 38.97306589877811 ], [ -119.899768787447144, 38.973026011304484 ], [ -119.899785489117903, 38.973039968364859 ], [ -119.89986469506043, 38.973021672698245 ] ], [ [ -119.898950105583168, 38.97327449656909 ], [ -119.899275222507995, 38.97322909222364 ], [ -119.89904467949053, 38.973222960401451 ], [ -119.899236183392929, 38.97306589877811 ], [ -119.898950105583168, 38.97327449656909 ] ], [ [ -119.898546044094417, 38.973805889427524 ], [ -119.89886601627542, 38.973614587323219 ], [ -119.898677652659956, 38.973699662891562 ], [ -119.898950105583168, 38.97327449656909 ], [ -119.898546044094417, 38.973805889427524 ] ], [ [ -119.897142170888245, 38.974505616328088 ], [ -119.897371778018112, 38.974362290057506 ], [ -119.897619769276005, 38.974139964755089 ], [ -119.897142170888245, 38.974505616328088 ] ], [ [ -119.89992641309172, 38.973193045630083 ], [ -119.899610826859771, 38.973472241684114 ], [ -119.899945368298859, 38.973210879220431 ], [ -119.89992641309172, 38.973193045630083 ] ], [ [ -119.899764353861698, 38.97365649678963 ], [ -119.899755322840065, 38.97364565825886 ], [ -119.89965189993076, 38.97372107098272 ], [ -119.899810462772166, 38.973657722917466 ], [ -119.899811819314792, 38.973626638304758 ], [ -119.899764353861698, 38.97365649678963 ] ], [ [ -119.899615031283275, 38.973904767211714 ], [ -119.899609436285033, 38.973847864121808 ], [ -119.899541577222095, 38.973965010277119 ], [ -119.899615031283275, 38.973904767211714 ] ], [ [ -119.899609275464556, 38.973738099993646 ], [ -119.899463075101636, 38.973684519212874 ], [ -119.899599045589753, 38.973742186953828 ], [ -119.899609275464556, 38.973738099993646 ] ], [ [ -119.895997551973736, 38.974817474032008 ], [ -119.895996765608515, 38.974835470317977 ], [ -119.896019034003118, 38.974854080430248 ], [ -119.896007506622752, 38.974853773517623 ], [ -119.896018247642289, 38.974872076716515 ], [ -119.896040909231644, 38.974881688682018 ], [ -119.896041302409401, 38.974872690538739 ], [ -119.896063570827337, 38.97489130064335 ], [ -119.895997551973736, 38.974817474032008 ] ], [ [ -119.893516061200373, 38.981013743863265 ], [ -119.893623483366099, 38.98087177575097 ], [ -119.89351434322289, 38.980931234743181 ], [ -119.893492632398306, 38.98102650771164 ], [ -119.893516061200373, 38.981013743863265 ] ], [ [ -119.893148091398871, 38.981177318760139 ], [ -119.893250485785813, 38.981158426940254 ], [ -119.893345074411442, 38.981106896056147 ], [ -119.893148091398871, 38.981177318760139 ] ], [ [ -119.892883152620925, 38.981112602668304 ], [ -119.892716243974959, 38.981234274348033 ], [ -119.892589936463906, 38.981483148396329 ], [ -119.892728305821848, 38.981268704738937 ], [ -119.892714669222798, 38.981270266768149 ], [ -119.892883152620925, 38.981112602668304 ] ], [ [ -119.893264428723512, 38.980311990109577 ], [ -119.89323568320998, 38.980281893729504 ], [ -119.893323364566157, 38.980547784309373 ], [ -119.893264428723512, 38.980311990109577 ] ], [ [ -119.892731507700404, 38.980203714785986 ], [ -119.892965712643644, 38.980153368065402 ], [ -119.892927241980516, 38.980104814611529 ], [ -119.892738854142522, 38.980189879503882 ], [ -119.892731507700404, 38.980203714785986 ] ], [ [ -119.892322767745313, 38.980467063618441 ], [ -119.89254101713064, 38.980490898590318 ], [ -119.892551891750998, 38.980473171261316 ], [ -119.892322767745313, 38.980467063618441 ] ], [ [ -119.891948635961441, 38.980312952037977 ], [ -119.892104518533841, 38.98044322824358 ], [ -119.892150813806694, 38.980448284265869 ], [ -119.891948635961441, 38.980312952037977 ] ], [ [ -119.891748847529669, 38.980369232558957 ], [ -119.891799531777224, 38.980400122539336 ], [ -119.891784090540654, 38.980380633814043 ], [ -119.891948635961441, 38.980312952037977 ], [ -119.891748847529669, 38.980369232558957 ] ], [ [ -119.889982333328135, 38.979882151512335 ], [ -119.890822022458593, 38.980210841552548 ], [ -119.890861320022239, 38.980213754620735 ], [ -119.889982333328135, 38.979882151512335 ] ], [ [ -119.891989718317518, 38.977791639424737 ], [ -119.891748136738897, 38.978037439464799 ], [ -119.892031115643732, 38.977768167297342 ], [ -119.891991293241475, 38.977755647007918 ], [ -119.891951481776459, 38.977610448018986 ], [ -119.891989718317518, 38.977791639424737 ] ], [ [ -119.89085153887396, 38.978481978090358 ], [ -119.890820915153043, 38.978513135538989 ], [ -119.891748136738897, 38.978037439464799 ], [ -119.89085153887396, 38.978481978090358 ] ], [ [ -119.890749074208586, 38.9787134688846 ], [ -119.890775691701322, 38.978559147103212 ], [ -119.890730745149767, 38.978604876861695 ], [ -119.890749074208586, 38.9787134688846 ] ], [ [ -119.89024258233276, 38.978669432768598 ], [ -119.89046772010812, 38.978689007284999 ], [ -119.890336431895335, 38.978648411127416 ], [ -119.89024258233276, 38.978669432768598 ] ], [ [ -119.890055821659601, 38.978731011702301 ], [ -119.890094925584293, 38.978702506659644 ], [ -119.889848918808767, 38.978757609652483 ], [ -119.890055821659601, 38.978731011702301 ] ], [ [ -119.894123339761094, 38.975890631504662 ], [ -119.894176702088899, 38.975813978529878 ], [ -119.894153647057422, 38.975813364326903 ], [ -119.89415443391654, 38.975795368075438 ], [ -119.89413504565988, 38.975816472211477 ], [ -119.894152860197579, 38.975831360578347 ], [ -119.894129805160944, 38.975830746370427 ], [ -119.894130198593871, 38.975821748244925 ], [ -119.894110369679851, 38.975843332015593 ], [ -119.894123339761094, 38.975890631504662 ] ], [ [ -119.891749539787952, 38.973785416441757 ], [ -119.892027766371598, 38.973756799514085 ], [ -119.892072800593041, 38.973723967549411 ], [ -119.891749539787952, 38.973785416441757 ] ], [ [ -119.890262249732615, 38.975557175988875 ], [ -119.890312132772323, 38.975512770598328 ], [ -119.890249131532357, 38.975561865846657 ], [ -119.890262249732615, 38.975557175988875 ] ], [ [ -119.890837063032663, 38.981750425565217 ], [ -119.890673484822273, 38.982549114533661 ], [ -119.890839403546821, 38.981922938225509 ], [ -119.890904635098991, 38.982014763910911 ], [ -119.890837063032663, 38.981750425565217 ] ], [ [ -119.890843806928572, 38.981686773100428 ], [ -119.89061986510653, 38.981664842179285 ], [ -119.890842465145781, 38.981688233384673 ], [ -119.890843806928572, 38.981686773100428 ] ], [ [ -119.891827840732347, 38.980435851864428 ], [ -119.891822231729719, 38.980428772628017 ], [ -119.891703894625778, 38.980630736325672 ], [ -119.891827840732347, 38.980435851864428 ] ], [ [ -119.889784687554538, 38.980705669329048 ], [ -119.889784845175058, 38.98070207009674 ], [ -119.889769053837838, 38.980711257959982 ], [ -119.889779445766891, 38.980719943231634 ], [ -119.889792373061908, 38.980705874373065 ], [ -119.889784687554538, 38.980705669329048 ] ], [ [ -119.889795372730987, 38.980695944853281 ], [ -119.88979883670747, 38.980698839943166 ], [ -119.889808532173362, 38.980688288297529 ], [ -119.889795372730987, 38.980695944853281 ] ], [ [ -119.889760842924076, 38.980723050355188 ], [ -119.889761158167701, 38.980715851890736 ], [ -119.88974273493352, 38.980726571060224 ], [ -119.889760054814559, 38.980741046516343 ], [ -119.889776213942326, 38.980723460445994 ], [ -119.889760842924076, 38.980723050355188 ] ], [ [ -119.88973699828199, 38.980740431375942 ], [ -119.889737471151292, 38.980729633679516 ], [ -119.889716416018004, 38.980741884154035 ], [ -119.889728787359374, 38.980752223768505 ], [ -119.889760054814559, 38.980741046516343 ], [ -119.88973699828199, 38.980740431375942 ] ], [ [ -119.889713784125817, 38.980743415463067 ], [ -119.889690097091332, 38.980757197241388 ], [ -119.889713598918149, 38.980767166516841 ], [ -119.889713153628279, 38.980757812391275 ], [ -119.889713784125817, 38.980743415463067 ] ], [ [ -119.889174540695933, 38.980278127560219 ], [ -119.889200983159739, 38.980329751296928 ], [ -119.889328273857302, 38.980420981673937 ], [ -119.889174540695933, 38.980278127560219 ] ], [ [ -119.89210218343311, 38.986298752794795 ], [ -119.892177130214634, 38.986382558644472 ], [ -119.892061143104712, 38.986136654010217 ], [ -119.89210218343311, 38.986298752794795 ] ], [ [ -119.891840811353902, 38.985773380683014 ], [ -119.89196440583558, 38.985754563975682 ], [ -119.891895231216466, 38.985752719649675 ], [ -119.891840811353902, 38.985773380683014 ] ], [ [ -119.886793407661457, 38.963270302855868 ], [ -119.886688291009747, 38.963398579349509 ], [ -119.886657258604146, 38.963524018881827 ], [ -119.886793407661457, 38.963270302855868 ] ] ], [ [ [ -119.915130461997506, 38.966352696342092 ], [ -119.915131243283895, 38.966334699704191 ], [ -119.915153514419643, 38.966353306277213 ], [ -119.915130461997506, 38.966352696342092 ] ] ], [ [ [ -119.915730623721515, 38.967413578318762 ], [ -119.915724374383984, 38.967557551474641 ], [ -119.915927944242156, 38.967653023050481 ], [ -119.915897861211107, 38.967814383071293 ], [ -119.915711875574786, 38.967845497773062 ], [ -119.915542692910407, 38.968021195167758 ], [ -119.915214482188304, 38.968138632871771 ], [ -119.915237140034776, 38.96761673046386 ], [ -119.915127345125441, 38.967487704304567 ], [ -119.915206660359857, 38.967255577875861 ], [ -119.915153514419643, 38.966353306277213 ], [ -119.915245724115181, 38.966355745972244 ], [ -119.915459843059736, 38.966739774393886 ], [ -119.915426634587064, 38.966973120852458 ], [ -119.915560263197975, 38.967084759951099 ], [ -119.91555088876747, 38.967300719660692 ], [ -119.915730623721515, 38.967413578318762 ] ] ], [ [ [ -119.915167594857579, 38.968155409607384 ], [ -119.915168376184766, 38.96813741297445 ], [ -119.915190647864819, 38.968156019558705 ], [ -119.915167594857579, 38.968155409607384 ] ] ], [ [ [ -119.912660201230423, 38.971151980053271 ], [ -119.912912230469104, 38.971194688317418 ], [ -119.913495996451502, 38.971570490083728 ], [ -119.913376816690047, 38.971657421344169 ], [ -119.913321325756499, 38.97187215971492 ], [ -119.913524122240943, 38.971985632392837 ], [ -119.913510830688395, 38.972291574466958 ], [ -119.912848480647597, 38.973192919333997 ], [ -119.911936053301972, 38.973475048810066 ], [ -119.911986074026132, 38.973386287311108 ], [ -119.911589085364326, 38.972961374067083 ], [ -119.911624657540941, 38.972674039856223 ], [ -119.911512515087296, 38.972599000008849 ], [ -119.911497284505671, 38.972418423702152 ], [ -119.911533834074234, 38.972391765433741 ], [ -119.911389054578819, 38.97225340097156 ], [ -119.911374606724408, 38.972054828098841 ], [ -119.911451428068744, 38.97217803441616 ], [ -119.911443769292802, 38.972056660339845 ], [ -119.911767724883049, 38.97150670610143 ], [ -119.912169811623258, 38.971283131382719 ], [ -119.912660201230423, 38.971151980053271 ] ] ], [ [ [ -119.909969364517522, 38.97358509491373 ], [ -119.909892802118918, 38.973222720131972 ], [ -119.909946739074385, 38.973043976958593 ], [ -119.910459416341794, 38.97293144316707 ], [ -119.910520753322004, 38.97311324137511 ], [ -119.910426187277935, 38.973164787204418 ], [ -119.910351118636356, 38.973829437073761 ], [ -119.910279606246021, 38.973881593712569 ], [ -119.909969364517522, 38.97358509491373 ] ] ], [ [ [ -119.896041302409401, 38.974872690538739 ], [ -119.896018247642289, 38.974872076716515 ], [ -119.896019034003118, 38.974854080430248 ], [ -119.896041302409401, 38.974872690538739 ] ] ], [ [ [ -119.891185572906167, 38.986670689840949 ], [ -119.891186360821294, 38.986652693673697 ], [ -119.891208631394093, 38.986671304773132 ], [ -119.891185572906167, 38.986670689840949 ] ] ], [ [ [ -119.877861952273918, 38.986747018046543 ], [ -119.877838894054477, 38.986746400475909 ], [ -119.877839685351091, 38.986728404537686 ], [ -119.877861952273918, 38.986747018046543 ] ] ] ] } }
]
}
