{
"type": "FeatureCollection",
"name": "X04728",
"crs": { "type": "name", "properties": { "name": "urn:ogc:def:crs:OGC:1.3:CRS84" } },
"features": [
{ "type": "Feature", "properties": { "part": "direct", "crossing_id": "X04728", "area_ac": 1.5 }, "geometry": { "type": "Polygon", "coordinates": [ [ [ -119.946510562676522, 39.040581378228076 ], [ -119.946575917395293, 39.04067317699684 ], [ -119.946455103344817, 39.040796132068941 ], [ -119.946701199840078, 39.040982753024309 ], [ -119.946694221595322, 39.04114472548374 ], [ -119.946975620626034, 39.041584512441723 ], [ -119.946949441840104, 39.041655895590793 ], [ -119.946693262560771, 39.041703235257572 ], [ -119.946499336842365, 39.04191436091665 ], [ -119.945968929708584, 39.040819425981923 ], [ -119.945997435690941, 39.040694052283975 ], [ -119.946205130780001, 39.040699495304885 ], [ -119.946510562676522, 39.040581378228076 ] ] ] } }
]
}
