{
"type": "FeatureCollection",
"name": "X04776",
"crs": { "type": "name", "properties": { "name": "urn:ogc:def:crs:OGC:1.3:CRS84" } },
"features": [
{ "type": "Feature", "properties": { "part": "direct", "crossing_id": "X04776", "area_ac": 0.1 }, "geometry": { "type": "MultiPolygon", "coordinates": [ [ [ [ -119.925927196271957, 38.968583736742517 ], [ -119.926249165113148, 38.9686102427886 ], [ -119.926289822215978, 38.968737436058724 ], [ -119.926011623824095, 38.968766136191704 ], [ -119.925927196271957, 38.968583736742517 ] ] ], [ [ [ -119.925928753504166, 38.968547743114662 ], [ -119.925951028262119, 38.968566347759719 ], [ -119.925927974888424, 38.968565739928636 ], [ -119.925928753504166, 38.968547743114662 ] ] ] ] } }
]
}
