{
"type": "FeatureCollection",
"name": "X04795",
"crs": { "type": "name", "properties": { "name": "urn:ogc:def:crs:OGC:1.3:CRS84" } },
"features": [
{ "type": "Feature", "properties": { "part": "direct", "crossing_id": "X04795", "area_ac": 0.8 }, "geometry": { "type": "Polygon", "coordinates": [ [ [ -120.023579407929489, 38.825623440831315 ], [ -120.024288946525445, 38.825731622047549 ], [ -120.024475270749292, 38.82568231802896 ], [ -120.025371135487234, 38.825741188403256 ], [ -120.025042257173908, 38.825894968658076 ], [ -120.023802750628036, 38.825791297956904 ], [ -120.022994423211898, 38.825842756242665 ], [ -120.022998924551842, 38.825734763020506 ], [ -120.023579407929489, 38.825623440831315 ] ] ] } }
]
}
