{
"type": "FeatureCollection",
"name": "X04787",
"crs": { "type": "name", "properties": { "name": "urn:ogc:def:crs:OGC:1.3:CRS84" } },
"features": [
{ "type": "Feature", "properties": { "part": "direct", "crossing_id": "X04787", "area_ac": 0.6 }, "geometry": { "type": "Polygon", "coordinates": [ [ [ -120.018729234172412, 38.820418584913497 ], [ -120.01884051607513, 38.820511517096193 ], [ -120.018796476519498, 38.82101489636738 ], [ -120.018403843233173, 38.821040903734826 ], [ -120.0184278829676, 38.82046494178843 ], [ -120.018729234172412, 38.820418584913497 ] ] ] } }
]
}
