{
"type": "FeatureCollection",
"name": "X04797",
"crs": { "type": "name", "properties": { "name": "urn:ogc:def:crs:OGC:1.3:CRS84" } },
"features": [
{ "type": "Feature", "properties": { "part": "direct", "crossing_id": "X04797", "area_ac": 4.0, "n_upstream": null }, "geometry": { "type": "Polygon", "coordinates": [ [ [ -119.964116762730526, 38.907135582434925 ], [ -119.96471951137292, 38.907601708645501 ], [ -119.965105728331508, 38.907737881187217 ], [ -119.965052755806852, 38.907898661484552 ], [ -119.964844677508864, 38.907911265032453 ], [ -119.964490701017041, 38.907559719250422 ], [ -119.964281089197684, 38.907608317124776 ], [ -119.963946329433256, 38.907887886306092 ], [ -119.963916388793308, 38.908049265516937 ], [ -119.963703705578169, 38.908169852823391 ], [ -119.963628462279033, 38.908312035090795 ], [ -119.963298301678236, 38.908483616369296 ], [ -119.963278346079264, 38.908951554663552 ], [ -119.963178530970282, 38.909129132112774 ], [ -119.962900576506257, 38.909157930498708 ], [ -119.962836077577123, 38.909048145473861 ], [ -119.962561961924308, 38.908986954982765 ], [ -119.962520498509363, 38.908877769634131 ], [ -119.962317023817306, 38.908782382866605 ], [ -119.962368467725042, 38.908657599330496 ], [ -119.962489783347422, 38.908516617685109 ], [ -119.962628759392089, 38.908502219017763 ], [ -119.962563493722953, 38.908410431487987 ], [ -119.963141655583357, 38.907830904268813 ], [ -119.964116762730526, 38.907135582434925 ] ] ] } },
{ "type": "Feature", "properties": { "part": "upstream", "crossing_id": "X04797", "area_ac": 12.8, "n_upstream": 7.0 }, "geometry": { "type": "MultiPolygon", "coordinates": [ [ [ [ -119.960721518105075, 38.906722850187101 ], [ -119.960302307436478, 38.90627950424409 ], [ -119.959890001299385, 38.906214706434817 ], [ -119.959995197826103, 38.905911148829759 ], [ -119.959795576654486, 38.905725770200377 ], [ -119.959671972750627, 38.90538021417219 ], [ -119.95992611123242, 38.905368820210747 ], [ -119.960396770500552, 38.905146856721068 ], [ -119.961217527685932, 38.905906963000824 ], [ -119.961424064484035, 38.905930360923989 ], [ -119.961457845635834, 38.906219522615707 ], [ -119.961793373271277, 38.906462491211073 ], [ -119.9619538438115, 38.906484688357097 ], [ -119.962095886975305, 38.906398299714766 ], [ -119.962105880049066, 38.906409752727093 ], [ -119.962237162075937, 38.906329908500965 ], [ -119.962385349479305, 38.906640066927231 ], [ -119.962564248878252, 38.906770848807263 ], [ -119.962705524329053, 38.906702457041114 ], [ -119.963047966434246, 38.906783443633998 ], [ -119.962846316521521, 38.90708776871589 ], [ -119.962945851473606, 38.907015013920464 ], [ -119.963072535659762, 38.906748048079514 ], [ -119.963638414034634, 38.906997008477731 ], [ -119.963710586287405, 38.906926816677547 ], [ -119.963915592499816, 38.906986205615979 ], [ -119.964326355281997, 38.906546455849991 ], [ -119.964485292703941, 38.906604644854148 ], [ -119.964526758083551, 38.90671382960803 ], [ -119.963449546385903, 38.907640726042857 ], [ -119.963120156148477, 38.907794309312173 ], [ -119.963166992687647, 38.907777511085129 ], [ -119.963235328680867, 38.907797307779376 ], [ -119.963022834393726, 38.90792129338007 ], [ -119.963044912154245, 38.907936491180003 ], [ -119.962563493722953, 38.908410431487987 ], [ -119.962604956979575, 38.90851961682062 ], [ -119.96246521317174, 38.908552013071429 ], [ -119.962308576628487, 38.908439828388161 ], [ -119.962373071853804, 38.908009085418897 ], [ -119.962263273400879, 38.907880102804015 ], [ -119.962036767369753, 38.907784115785262 ], [ -119.961930041213009, 38.907583142458151 ], [ -119.961749605344707, 38.907488354794971 ], [ -119.961709679687161, 38.907343174009107 ], [ -119.961124611886135, 38.907003616353222 ], [ -119.961285083366619, 38.907025814458727 ], [ -119.961102345707843, 38.906985018667179 ], [ -119.960721518105075, 38.906722850187101 ] ], [ [ -119.96142712841214, 38.906939426714061 ], [ -119.961421404865646, 38.906926173905575 ], [ -119.961285083366619, 38.907025814458727 ], [ -119.96142712841214, 38.906939426714061 ] ], [ [ -119.961932944964218, 38.907230994833334 ], [ -119.962134914681869, 38.907347415102684 ], [ -119.962005883227803, 38.907251600358578 ], [ -119.961932944964218, 38.907230994833334 ] ], [ [ -119.960748401763951, 38.906092934496463 ], [ -119.96068653821159, 38.906153097263683 ], [ -119.960693243746377, 38.90615869813179 ], [ -119.960872976574592, 38.90611194564449 ], [ -119.96070002964143, 38.906145726960247 ], [ -119.960972304459119, 38.906000364241557 ], [ -119.960842841591202, 38.906041342281398 ], [ -119.960818271554459, 38.906076737334921 ], [ -119.960748401763951, 38.906092934496463 ] ], [ [ -119.962560262325297, 38.906930513395992 ], [ -119.962755436605519, 38.907154196925326 ], [ -119.962780536789708, 38.907135850094356 ], [ -119.962560262325297, 38.906930513395992 ] ], [ [ -119.962767937300598, 38.907745827593999 ], [ -119.962960280790455, 38.90787823292613 ], [ -119.962912078040659, 38.90780690940867 ], [ -119.962767937300598, 38.907745827593999 ] ], [ [ -119.962148045031455, 38.907357165270035 ], [ -119.962187258623516, 38.90749975342969 ], [ -119.962169598632144, 38.907373170258928 ], [ -119.962148045031455, 38.907357165270035 ] ] ], [ [ [ -119.965056567938731, 38.907268144074585 ], [ -119.965214740597631, 38.907344329828312 ], [ -119.965134132064691, 38.907612496872382 ], [ -119.965247003522251, 38.907669486329489 ], [ -119.965243168514775, 38.907759474641871 ], [ -119.96471951137292, 38.907601708645501 ], [ -119.96409372841768, 38.907134982932966 ], [ -119.964406984044473, 38.906818818393177 ], [ -119.964868435594454, 38.906812808594069 ], [ -119.964957504299235, 38.906887196588237 ], [ -119.965124113131637, 38.90676540814944 ], [ -119.965065772332053, 38.907052172141164 ], [ -119.965154841536261, 38.907126560002141 ], [ -119.965056567938731, 38.907268144074585 ] ] ], [ [ [ -119.963284467691636, 38.907726516616286 ], [ -119.963306734686924, 38.907745113915531 ], [ -119.96328370019441, 38.907744514245927 ], [ -119.963284467691636, 38.907726516616286 ] ] ], [ [ [ -119.96323763121147, 38.907743314893104 ], [ -119.963282165197882, 38.907780509505052 ], [ -119.96323609619175, 38.90777931015068 ], [ -119.96323763121147, 38.907743314893104 ] ] ] ] } }
]
}
