{
"type": "FeatureCollection",
"name": "X04739",
"crs": { "type": "name", "properties": { "name": "urn:ogc:def:crs:OGC:1.3:CRS84" } },
"features": [
{ "type": "Feature", "properties": { "part": "direct", "crossing_id": "X04739", "area_ac": 5.4, "n_upstream": null }, "geometry": { "type": "Polygon", "coordinates": [ [ [ -119.911404363962177, 39.095437047442246 ], [ -119.911603569156497, 39.095640516457578 ], [ -119.911571830981558, 39.095837862086888 ], [ -119.911727206004031, 39.095986117732181 ], [ -119.912829773982722, 39.096681974372551 ], [ -119.912967557018703, 39.096703643047746 ], [ -119.91316834107333, 39.096871117271817 ], [ -119.913229771409405, 39.097052915357153 ], [ -119.913699058026594, 39.097425690928119 ], [ -119.913467322587778, 39.097437567597453 ], [ -119.91337886949357, 39.097345138638318 ], [ -119.912757661984429, 39.097274624582461 ], [ -119.912485236403171, 39.09715930174039 ], [ -119.91179238979548, 39.097140934655819 ], [ -119.910838126055864, 39.096755290607184 ], [ -119.910827607575797, 39.096466739522235 ], [ -119.911008133093816, 39.096039118829367 ], [ -119.911054805664918, 39.095499846217947 ], [ -119.911285748949652, 39.095505970283014 ], [ -119.911404363962177, 39.095437047442246 ] ] ] } },
{ "type": "Feature", "properties": { "part": "upstream", "crossing_id": "X04739", "area_ac": 145.5, "n_upstream": 4.0 }, "geometry": { "type": "MultiPolygon", "coordinates": [ [ [ [ -119.899751072233812, 39.094388773930255 ], [ -119.899796470910616, 39.094407999209913 ], [ -119.899750283466275, 39.094406769910762 ], [ -119.899751072233812, 39.094388773930255 ] ] ], [ [ [ -119.908637770784779, 39.095255554676619 ], [ -119.908652642560625, 39.095267960698514 ], [ -119.909033517886854, 39.095193988856195 ], [ -119.908660864977662, 39.095256167579237 ], [ -119.908873431577675, 39.095153706697459 ], [ -119.909385435063299, 39.095077207732601 ], [ -119.909460221741853, 39.094953072968352 ], [ -119.909622666815736, 39.094939365875938 ], [ -119.909731847402696, 39.09508639853609 ], [ -119.910275101874831, 39.095353047885595 ], [ -119.910260951614745, 39.095676978695614 ], [ -119.910350184642525, 39.095751413642269 ], [ -119.910603436945991, 39.09577614782112 ], [ -119.910691098414745, 39.095886574848159 ], [ -119.910631546746004, 39.09619128455946 ], [ -119.91088558674258, 39.09619802202738 ], [ -119.910838126055864, 39.096755290607184 ], [ -119.91120056849833, 39.096927055352005 ], [ -119.911521538137663, 39.096989617290596 ], [ -119.91179238979548, 39.097140934655819 ], [ -119.912485236403171, 39.09715930174039 ], [ -119.912757661984429, 39.097274624582461 ], [ -119.91337886949357, 39.097345138638318 ], [ -119.913467322587778, 39.097437567597453 ], [ -119.913653653324602, 39.097406470849876 ], [ -119.913765987191169, 39.097481515328312 ], [ -119.913739750966386, 39.09755288824352 ], [ -119.914288536311417, 39.097693546636521 ], [ -119.914497177450741, 39.097681056587113 ], [ -119.914561752214553, 39.097790869227538 ], [ -119.914859634139503, 39.097852810461852 ], [ -119.91487880421694, 39.097943403301329 ], [ -119.915571660695491, 39.097961752358721 ], [ -119.916094219225144, 39.098173775905039 ], [ -119.916462959602043, 39.098201555029434 ], [ -119.916598393190583, 39.098277208327829 ], [ -119.916830915812, 39.098247329256203 ], [ -119.916942470025333, 39.098340367108491 ], [ -119.916271919626908, 39.098340633733493 ], [ -119.916199494744674, 39.098410784406049 ], [ -119.915666731369271, 39.098432712366503 ], [ -119.91524395011335, 39.098583669736698 ], [ -119.914504111826929, 39.098582091144607 ], [ -119.914218329714956, 39.098772707728877 ], [ -119.914056661501078, 39.098768424699266 ], [ -119.913979522388601, 39.098946551135491 ], [ -119.913696878826471, 39.099065181492449 ], [ -119.91330268374513, 39.099090770033449 ], [ -119.913205588690928, 39.099196299042255 ], [ -119.913024751726155, 39.099101421525496 ], [ -119.912561269724449, 39.09912517125786 ], [ -119.912976989566801, 39.09913618972616 ], [ -119.912765514865228, 39.09974316315752 ], [ -119.91226400381727, 39.100108226795463 ], [ -119.911703416386274, 39.100237500810955 ], [ -119.911675605097201, 39.100344865437805 ], [ -119.911393738266952, 39.100445493635142 ], [ -119.911342830429561, 39.100552245726597 ], [ -119.911061748399447, 39.100634876908927 ], [ -119.910761500454356, 39.10062691408838 ], [ -119.910547346972479, 39.100765370073496 ], [ -119.910433439282897, 39.100726314738068 ], [ -119.910405625842756, 39.100833678968399 ], [ -119.91014449256221, 39.10098890502573 ], [ -119.909622142581171, 39.100885804167014 ], [ -119.909278926052963, 39.101218178401524 ], [ -119.908685001979492, 39.101580773914925 ], [ -119.907861682131966, 39.101901242708351 ], [ -119.907188740110698, 39.101955443906228 ], [ -119.907132831778924, 39.101647670632069 ], [ -119.907413921882068, 39.10156504929774 ], [ -119.907408140068398, 39.101168522102377 ], [ -119.90660659502872, 39.100462592082458 ], [ -119.905405353485875, 39.099908191073268 ], [ -119.904648711484796, 39.099761967259283 ], [ -119.904362648431942, 39.099430059299443 ], [ -119.903576615229213, 39.099427183276632 ], [ -119.903442770399579, 39.099315523254617 ], [ -119.903212604424667, 39.099291387131998 ], [ -119.902924185841627, 39.099013464029341 ], [ -119.902892180979705, 39.09868830748561 ], [ -119.902010622819603, 39.098754948878607 ], [ -119.901670502262007, 39.098601766414873 ], [ -119.901358209128333, 39.098341221431845 ], [ -119.901058762212145, 39.09831523802211 ], [ -119.899945030448151, 39.09734871941545 ], [ -119.899681304983574, 39.097035411737473 ], [ -119.899875527323758, 39.096824377512561 ], [ -119.899347294001274, 39.096215757426741 ], [ -119.899071740400757, 39.096172388079275 ], [ -119.899054958062507, 39.096027805558705 ], [ -119.898900399686312, 39.095861538104529 ], [ -119.899061845166685, 39.095343344091319 ], [ -119.899226658974428, 39.095275663723939 ], [ -119.899163688518357, 39.09512985165199 ], [ -119.899221710213283, 39.094861141659393 ], [ -119.899385733856235, 39.094811456982356 ], [ -119.899441387820374, 39.094596734746041 ], [ -119.899750283466275, 39.094406769910762 ], [ -119.899875437248554, 39.094716389451527 ], [ -119.90005387826649, 39.094865274248797 ], [ -119.900303179115483, 39.094980010502752 ], [ -119.900762692085166, 39.095046288619919 ], [ -119.901055028964009, 39.095234236245084 ], [ -119.901442897231959, 39.095352656536349 ], [ -119.901438955402014, 39.095442636567526 ], [ -119.901853860986918, 39.095471689839052 ], [ -119.902530683425866, 39.095327536988037 ], [ -119.902643001611125, 39.095402591615787 ], [ -119.903312731085038, 39.095420398428082 ], [ -119.903654416283587, 39.095537583603694 ], [ -119.903742066276152, 39.095648015419044 ], [ -119.903792193577999, 39.095559262941258 ], [ -119.904283472812139, 39.095428184741671 ], [ -119.907078657512599, 39.095484421336522 ], [ -119.907452099533401, 39.095404251677373 ], [ -119.907890889748742, 39.095415900545305 ], [ -119.908637096613646, 39.095270979930213 ], [ -119.908637770784779, 39.095255554676619 ] ], [ [ -119.91169071246054, 39.098939939663268 ], [ -119.91208864388264, 39.098934180419747 ], [ -119.912084121160092, 39.098932352747411 ], [ -119.91169071246054, 39.098939939663268 ] ], [ [ -119.910199238306461, 39.099206674471198 ], [ -119.910198452059731, 39.099224670614717 ], [ -119.91019998803506, 39.099204635273281 ], [ -119.910199238306461, 39.099206674471198 ] ], [ [ -119.910445171582523, 39.096297995991016 ], [ -119.910531637265791, 39.096399452242458 ], [ -119.910554402393757, 39.096369408559113 ], [ -119.910445171582523, 39.096297995991016 ] ], [ [ -119.909342912198568, 39.095247747122542 ], [ -119.909471196733207, 39.09531405756217 ], [ -119.909400665861199, 39.095257781909858 ], [ -119.909342912198568, 39.095247747122542 ] ], [ [ -119.91007540489511, 39.09992406946926 ], [ -119.910180445337858, 39.099327021685326 ], [ -119.910168233207884, 39.099321851866662 ], [ -119.91007540489511, 39.09992406946926 ] ], [ [ -119.909798154886658, 39.100704231377243 ], [ -119.909810633481598, 39.100691776184043 ], [ -119.910163856506998, 39.100016500860036 ], [ -119.909798154886658, 39.100704231377243 ] ] ] ] } }
]
}
