{
"type": "FeatureCollection",
"name": "X04717",
"crs": { "type": "name", "properties": { "name": "urn:ogc:def:crs:OGC:1.3:CRS84" } },
"features": [
{ "type": "Feature", "properties": { "part": "direct", "crossing_id": "X04717", "area_ac": 1.7, "n_upstream": null }, "geometry": { "type": "MultiPolygon", "coordinates": [ [ [ [ -119.982225709625297, 39.249609769734434 ], [ -119.982248083901226, 39.249628366914848 ], [ -119.982224937568859, 39.249627766622503 ], [ -119.982225709625297, 39.249609769734434 ] ] ], [ [ [ -119.981694926981064, 39.248478954341842 ], [ -119.981874689736159, 39.248609735477061 ], [ -119.981822220694511, 39.248752509839825 ], [ -119.982326801599328, 39.248873698080203 ], [ -119.982436356173054, 39.24902067449635 ], [ -119.98242786428446, 39.249218640319746 ], [ -119.982285126931814, 39.24930502319333 ], [ -119.982225709625297, 39.249609769734434 ], [ -119.981995790627522, 39.249567772793448 ], [ -119.98194718163451, 39.249620562756014 ], [ -119.981414816372009, 39.249606753496835 ], [ -119.981546764676281, 39.249231821293655 ], [ -119.981512055690743, 39.248960667269593 ], [ -119.981735041655227, 39.24862413016961 ], [ -119.981694926981064, 39.248478954341842 ] ] ] ] } },
{ "type": "Feature", "properties": { "part": "upstream", "crossing_id": "X04717", "area_ac": 2.1, "n_upstream": 2.0 }, "geometry": { "type": "Polygon", "coordinates": [ [ [ -119.982225709625297, 39.249609769734434 ], [ -119.982126947666799, 39.249751343610932 ], [ -119.982119998871852, 39.249913315582262 ], [ -119.98220949629507, 39.249987704369254 ], [ -119.981757867884511, 39.250281411527219 ], [ -119.981755814469054, 39.250300241614504 ], [ -119.981143963993489, 39.25051858903575 ], [ -119.980537517502839, 39.25061095508525 ], [ -119.980569934182881, 39.25039559343243 ], [ -119.980991206534242, 39.250298422896876 ], [ -119.980983507798896, 39.24993788503086 ], [ -119.981197231783582, 39.249817311661793 ], [ -119.981273621638508, 39.249657141298556 ], [ -119.981832222181296, 39.249599564068255 ], [ -119.981794018571392, 39.24994990286384 ], [ -119.981831450024572, 39.249617560949815 ], [ -119.982225709625297, 39.249609769734434 ] ] ] } }
]
}
