{
"type": "FeatureCollection",
"name": "X04756",
"crs": { "type": "name", "properties": { "name": "urn:ogc:def:crs:OGC:1.3:CRS84" } },
"features": [
{ "type": "Feature", "properties": { "part": "direct", "crossing_id": "X04756", "area_ac": 0.0 }, "geometry": { "type": "Polygon", "coordinates": [ [ [ -119.918007921272064, 38.980356170975739 ], [ -119.918120863642386, 38.980413208612923 ], [ -119.918093901953185, 38.980502582303423 ], [ -119.918003235569827, 38.980464150834877 ], [ -119.918007921272064, 38.980356170975739 ] ] ] } }
]
}
