{
"type": "FeatureCollection",
"name": "X04831",
"crs": { "type": "name", "properties": { "name": "urn:ogc:def:crs:OGC:1.3:CRS84" } },
"features": [
{ "type": "Feature", "properties": { "part": "direct", "crossing_id": "X04831", "area_ac": 47.3, "n_upstream": null }, "geometry": { "type": "MultiPolygon", "coordinates": [ [ [ [ -119.94619115410255, 38.96160299531288 ], [ -119.946143504377361, 38.961637782174996 ], [ -119.946168102548597, 38.961602391570096 ], [ -119.94619115410255, 38.96160299531288 ] ] ], [ [ [ -119.944781472948449, 38.955205912338961 ], [ -119.944965095151133, 38.955228740859319 ], [ -119.945074155234948, 38.955375737725333 ], [ -119.945329246602725, 38.955346385773638 ], [ -119.945622704118691, 38.955498212670015 ], [ -119.945712582630989, 38.955554619292201 ], [ -119.945635701161379, 38.955732779862238 ], [ -119.946071324957202, 38.955798242333096 ], [ -119.94611201219594, 38.955925430056141 ], [ -119.946481580761372, 38.955917091199076 ], [ -119.946749674425334, 38.95612230342784 ], [ -119.947053186397213, 38.956040163273315 ], [ -119.947279819792527, 38.956136184091179 ], [ -119.947568648136681, 38.956395989653281 ], [ -119.947541734178571, 38.956485372327947 ], [ -119.947655438242279, 38.956524383743911 ], [ -119.947605474364423, 38.956613163044935 ], [ -119.947737592030563, 38.956760761088553 ], [ -119.947964228673769, 38.956856780694203 ], [ -119.947981869730768, 38.956983364571691 ], [ -119.948164725180192, 38.957024185491953 ], [ -119.948103943854861, 38.957364926133408 ], [ -119.948471974896805, 38.957392575707303 ], [ -119.948340498268564, 38.957767501210306 ], [ -119.948567138926776, 38.957863519790365 ], [ -119.948450341721696, 38.957896498071783 ], [ -119.948555549959764, 38.958133478208737 ], [ -119.948485625899096, 38.958149665728399 ], [ -119.948378743597829, 38.958489199976455 ], [ -119.948003752180711, 38.958623524838366 ], [ -119.947851538076719, 38.958943854538632 ], [ -119.94800593830044, 38.959110053013724 ], [ -119.947929830841673, 38.95927021786671 ], [ -119.947767702174076, 38.959283991397271 ], [ -119.947781479023718, 38.959500561321001 ], [ -119.947641627848427, 38.95953293525934 ], [ -119.947676136685345, 38.959804100224304 ], [ -119.947505504683122, 38.960015842597358 ], [ -119.947456946672091, 38.960609146814441 ], [ -119.947340144425567, 38.960642123767904 ], [ -119.947397703722558, 38.960913892248861 ], [ -119.947276262911984, 38.961054852302752 ], [ -119.947261575652973, 38.961396799031007 ], [ -119.947039423583391, 38.961733313746691 ], [ -119.947057836706932, 38.961841900464968 ], [ -119.947171548856133, 38.961880912655488 ], [ -119.947076249876062, 38.96195048718085 ], [ -119.947093116928002, 38.96209506827563 ], [ -119.946999363788905, 38.96212864834235 ], [ -119.946983901516617, 38.962488592106773 ], [ -119.946734970211438, 38.962373969181584 ], [ -119.946478307296374, 38.962439317550221 ], [ -119.946161768329276, 38.962286887987688 ], [ -119.946310904958622, 38.962038549956823 ], [ -119.94634864871108, 38.961697207282526 ], [ -119.946492370807661, 38.961574849191393 ], [ -119.946507835063414, 38.961214905535627 ], [ -119.946426309098854, 38.961501049404674 ], [ -119.94619115410255, 38.96160299531288 ], [ -119.946237404071994, 38.961063683700004 ], [ -119.946166703356965, 38.961097866862694 ], [ -119.945942376245227, 38.960947851851095 ], [ -119.945389917845361, 38.960915362628128 ], [ -119.945011969918156, 38.960581146969183 ], [ -119.944622420649168, 38.960516887527369 ], [ -119.944622579252012, 38.959976368850981 ], [ -119.944488915392427, 38.959864761672293 ], [ -119.94437288692005, 38.959879738496028 ], [ -119.944266143223402, 38.959678749400481 ], [ -119.944422243390903, 38.959268439359676 ], [ -119.944381557695849, 38.959141251153831 ], [ -119.944135737313886, 38.958954634649281 ], [ -119.944019710289695, 38.958969611179931 ], [ -119.943922091084445, 38.959093174629956 ], [ -119.943673176691959, 38.958978545781314 ], [ -119.943723147232561, 38.95888976846156 ], [ -119.943815349726322, 38.958892185196717 ], [ -119.943871510466209, 38.958659430630988 ], [ -119.944012908846688, 38.958591066914721 ], [ -119.943971450430425, 38.958481875747502 ], [ -119.944114395825579, 38.958377517586193 ], [ -119.944095214047437, 38.958286927715918 ], [ -119.943935408572074, 38.958246704524697 ], [ -119.944219750656913, 38.958073982365271 ], [ -119.944134512652852, 38.957909591610509 ], [ -119.943951657690079, 38.957868764371852 ], [ -119.94377344577471, 38.957719953965736 ], [ -119.943515249927472, 38.957821290708097 ], [ -119.94305811455709, 38.957719219716253 ], [ -119.944170423176359, 38.956000684796713 ], [ -119.944781472948449, 38.955205912338961 ] ], [ [ -119.945803416516043, 38.95773710877193 ], [ -119.945728852482389, 38.957861277717058 ], [ -119.945589003810539, 38.9578936492913 ], [ -119.945407694684334, 38.957816829952527 ], [ -119.945131091005678, 38.957809583469682 ], [ -119.945035022375208, 38.957897153675738 ], [ -119.944852166833314, 38.957856327830825 ], [ -119.944823701739551, 38.957981704029862 ], [ -119.944660802127288, 38.958013470496908 ], [ -119.944936632961699, 38.958038715292894 ], [ -119.945412956964219, 38.958231368823526 ], [ -119.945945437182502, 38.958191264636 ], [ -119.946238907471567, 38.958343090441019 ], [ -119.946905826182231, 38.958396589907174 ], [ -119.947055724191316, 38.958130253147495 ], [ -119.947092688103794, 38.957806907012362 ], [ -119.947025856016964, 38.957751104843446 ], [ -119.946241372215397, 38.957748579526864 ], [ -119.946144531776241, 38.957854147895198 ], [ -119.945803416516043, 38.95773710877193 ] ] ] ] } },
{ "type": "Feature", "properties": { "part": "upstream", "crossing_id": "X04831", "area_ac": 14.3, "n_upstream": 3.0 }, "geometry": { "type": "MultiPolygon", "coordinates": [ [ [ [ -119.946121481437942, 38.957853544191664 ], [ -119.946241372215397, 38.957748579526864 ], [ -119.947025856016964, 38.957751104843446 ], [ -119.947092688103794, 38.957806907012362 ], [ -119.947055724191316, 38.958130253147495 ], [ -119.946905826182231, 38.958396589907174 ], [ -119.946238907471567, 38.958343090441019 ], [ -119.945945437182502, 38.958191264636 ], [ -119.945412956964219, 38.958231368823526 ], [ -119.944936632961699, 38.958038715292894 ], [ -119.944660802127288, 38.958013470496908 ], [ -119.944823701739551, 38.957981704029862 ], [ -119.944852166833314, 38.957856327830825 ], [ -119.945035022375208, 38.957897153675738 ], [ -119.945131091005678, 38.957809583469682 ], [ -119.945407694684334, 38.957816829952527 ], [ -119.94554290313296, 38.957892441659226 ], [ -119.945728852482389, 38.957861277717058 ], [ -119.945757315930663, 38.95773590122861 ], [ -119.946121481437942, 38.957853544191664 ] ] ], [ [ [ -119.944423017070378, 38.959250442205217 ], [ -119.944266143223402, 38.959678749400481 ], [ -119.94437288692005, 38.959879738496028 ], [ -119.944488915392427, 38.959864761672293 ], [ -119.944622579252012, 38.959976368850981 ], [ -119.944622420649168, 38.960516887527369 ], [ -119.945011969918156, 38.960581146969183 ], [ -119.945389917845361, 38.960915362628128 ], [ -119.945942376245227, 38.960947851851095 ], [ -119.946166703356965, 38.961097866862694 ], [ -119.946259682188227, 38.961082284601915 ], [ -119.94619115410255, 38.96160299531288 ], [ -119.94618206872002, 38.96161913684039 ], [ -119.946426309098854, 38.961501049404674 ], [ -119.946484783628378, 38.961214301860409 ], [ -119.946492370807661, 38.961574849191393 ], [ -119.94634864871108, 38.961697207282526 ], [ -119.946310904958622, 38.962038549956823 ], [ -119.946036455826558, 38.96251783239078 ], [ -119.945808257641431, 38.962457802831231 ], [ -119.945772917406032, 38.962290927125487 ], [ -119.945769114827371, 38.962294620660963 ], [ -119.945561648931417, 38.962289185981547 ], [ -119.945435561001716, 38.962538126822068 ], [ -119.945246504922082, 38.962641278410352 ], [ -119.945130471984953, 38.962656255806834 ], [ -119.944836213367978, 38.962522423837768 ], [ -119.945186013953943, 38.961900979144517 ], [ -119.944692804534441, 38.961563742577752 ], [ -119.944606788063865, 38.961417349192509 ], [ -119.944444654127082, 38.961431117871982 ], [ -119.943816239047663, 38.961018264721197 ], [ -119.943618064406976, 38.960796861089342 ], [ -119.943546588865317, 38.960849039758791 ], [ -119.943433654527468, 38.960792027037449 ], [ -119.943441394212059, 38.960612055702853 ], [ -119.943306183174442, 38.960536441469664 ], [ -119.943251735889419, 38.960192683065699 ], [ -119.943026643983472, 38.96006065991196 ], [ -119.943100441157, 38.959954490148931 ], [ -119.943062079663903, 38.959773310183827 ], [ -119.942299253771552, 38.95926683798983 ], [ -119.942071069492357, 38.959206801627765 ], [ -119.942169466229444, 38.95906524274919 ], [ -119.942706425571558, 38.959457689128811 ], [ -119.942920075168857, 38.959319151524006 ], [ -119.943122887826064, 38.959432573347165 ], [ -119.943330344919048, 38.95943801202921 ], [ -119.943440181345437, 38.959567013320878 ], [ -119.943727625485948, 38.959322304094357 ], [ -119.94378533461483, 38.959053555322164 ], [ -119.943922091084445, 38.959093174629956 ], [ -119.944019710289695, 38.958969611179931 ], [ -119.944337777353383, 38.959086051552063 ], [ -119.944423017070378, 38.959250442205217 ] ] ] ] } }
]
}
