{
"type": "FeatureCollection",
"name": "X04823",
"crs": { "type": "name", "properties": { "name": "urn:ogc:def:crs:OGC:1.3:CRS84" } },
"features": [
{ "type": "Feature", "properties": { "part": "direct", "crossing_id": "X04823", "area_ac": 0.3 }, "geometry": { "type": "MultiPolygon", "coordinates": [ [ [ [ -119.993730772536082, 38.919578036056443 ], [ -119.993753051377197, 38.919596627969256 ], [ -119.993730012405678, 38.919596034155575 ], [ -119.993730772536082, 38.919578036056443 ] ] ], [ [ [ -119.993730012405678, 38.919596034155575 ], [ -119.993534297923873, 38.919861254915965 ], [ -119.993574294602851, 38.920006427387015 ], [ -119.993383899977061, 38.920145661162096 ], [ -119.993322385026389, 38.919963898559104 ], [ -119.993094275147612, 38.919903965058715 ], [ -119.99303276111597, 38.919722202333993 ], [ -119.993468981784019, 38.919769482851315 ], [ -119.993730012405678, 38.919596034155575 ] ] ] ] } }
]
}
