{
"type": "FeatureCollection",
"name": "X04804",
"crs": { "type": "name", "properties": { "name": "urn:ogc:def:crs:OGC:1.3:CRS84" } },
"features": [
{ "type": "Feature", "properties": { "part": "direct", "crossing_id": "X04804", "area_ac": 3.1 }, "geometry": { "type": "MultiPolygon", "coordinates": [ [ [ [ -120.080588274674383, 38.944937432985903 ], [ -120.080610584809008, 38.944956009407946 ], [ -120.080587535818978, 38.944955432422383 ], [ -120.080588274674383, 38.944937432985903 ] ] ], [ [ [ -120.077141172952736, 38.944040283863345 ], [ -120.07718505112166, 38.944095437322005 ], [ -120.078220761781182, 38.944157425731419 ], [ -120.078470600475512, 38.944253774379057 ], [ -120.078438679169096, 38.944469189825831 ], [ -120.079992696339559, 38.944832432640155 ], [ -120.080127295128889, 38.944925892327703 ], [ -120.0803600016052, 38.944877664585121 ], [ -120.08058531924884, 38.945009430731467 ], [ -120.080200278143522, 38.945396185778634 ], [ -120.080196583308961, 38.94548618292221 ], [ -120.079804008726953, 38.945494371470616 ], [ -120.07995412807351, 38.945209843484655 ], [ -120.079479706804094, 38.944963730608663 ], [ -120.078768885637459, 38.944855837980505 ], [ -120.078383708771852, 38.944684027832068 ], [ -120.078342786966289, 38.944556877173895 ], [ -120.078092207949069, 38.944478527620213 ], [ -120.077167298288984, 38.944527422529369 ], [ -120.076898110725395, 38.944340496519658 ], [ -120.076735290111415, 38.944372451199776 ], [ -120.076692891791566, 38.94428129882909 ], [ -120.076831183951043, 38.944284765238649 ], [ -120.076930036592245, 38.94412508166792 ], [ -120.077141172952736, 38.944040283863345 ] ] ] ] } }
]
}
