{
"type": "FeatureCollection",
"name": "X04835",
"crs": { "type": "name", "properties": { "name": "urn:ogc:def:crs:OGC:1.3:CRS84" } },
"features": [
{ "type": "Feature", "properties": { "part": "direct", "crossing_id": "X04835", "area_ac": 72.1 }, "geometry": { "type": "Polygon", "coordinates": [ [ [ -119.939581873881721, 38.927502856167131 ], [ -119.939766970858528, 38.927489695680258 ], [ -119.940127877982903, 38.927679339978468 ], [ -119.940752893332686, 38.92816419109181 ], [ -119.941442564819354, 38.92821831489541 ], [ -119.942003885788736, 38.928575366604782 ], [ -119.943405508636872, 38.928702196854509 ], [ -119.943539888396032, 38.928795806131937 ], [ -119.943519788527183, 38.929263734185653 ], [ -119.943703343724309, 38.929286562072569 ], [ -119.943833859924695, 38.929470157242449 ], [ -119.944040456895252, 38.929493588411589 ], [ -119.944241643680172, 38.929642999921896 ], [ -119.94472164434255, 38.929745663128692 ], [ -119.94479898425233, 38.930630546459689 ], [ -119.945219773563693, 38.931037953949769 ], [ -119.945202773992946, 38.931433893544053 ], [ -119.945370881931922, 38.931816664136861 ], [ -119.945764776217743, 38.932313452764831 ], [ -119.945864535023773, 38.93267641516799 ], [ -119.946464273525677, 38.93321462698605 ], [ -119.94665388963503, 38.933633993932034 ], [ -119.946938767827149, 38.933983784520528 ], [ -119.946933361382264, 38.934109765442606 ], [ -119.947047030082189, 38.934148776130975 ], [ -119.946776567913432, 38.934538080438557 ], [ -119.946963871811477, 38.935011438826862 ], [ -119.947215799802464, 38.935054068790549 ], [ -119.947525273654875, 38.935368466852083 ], [ -119.947868603595296, 38.935431505268959 ], [ -119.948421521190838, 38.935986499461904 ], [ -119.948418433076441, 38.936058488635467 ], [ -119.948017430969429, 38.936264204915183 ], [ -119.948012025993521, 38.936390185914725 ], [ -119.947617198836639, 38.936451922436952 ], [ -119.947144744699798, 38.936709817907804 ], [ -119.946788407887254, 38.936412209411756 ], [ -119.94643734903255, 38.936529140258479 ], [ -119.946117058813911, 38.936466700905342 ], [ -119.945570199182598, 38.936308239318663 ], [ -119.94545884636301, 38.936215235367101 ], [ -119.945182326605973, 38.936207992358035 ], [ -119.944891265809332, 38.936002175455023 ], [ -119.944895903316521, 38.935894192048686 ], [ -119.944595568767397, 38.935904341264866 ], [ -119.944359725454149, 38.936024284383414 ], [ -119.943810554053158, 38.935919806482765 ], [ -119.943703843507691, 38.935718817672019 ], [ -119.94297326576617, 38.936078035938117 ], [ -119.942812736694876, 38.936055810307636 ], [ -119.941827629895414, 38.934822810909345 ], [ -119.94162720822554, 38.934655397776332 ], [ -119.941262393629586, 38.93455574261926 ], [ -119.941038931435514, 38.934387724187914 ], [ -119.94073336097513, 38.933983324328942 ], [ -119.941149845232218, 38.933417689805019 ], [ -119.942220785078035, 38.932653005195853 ], [ -119.942532707113742, 38.932372903478225 ], [ -119.942561936384507, 38.932229529909463 ], [ -119.942823904749829, 38.932038205158754 ], [ -119.943102727493539, 38.93199146145772 ], [ -119.943224896064606, 38.931832506268719 ], [ -119.943304381161241, 38.93051931300591 ], [ -119.943177730600269, 38.930245731133965 ], [ -119.942951956771438, 38.930131708291128 ], [ -119.942467316362581, 38.930137021069314 ], [ -119.94105672378349, 38.929145104711523 ], [ -119.940761060558245, 38.929047262052222 ], [ -119.940582923931629, 38.928898449308946 ], [ -119.939990053889545, 38.928738755343851 ], [ -119.939212270503006, 38.928051698687582 ], [ -119.939581873881721, 38.927502856167131 ] ] ] } }
]
}
