{
"type": "FeatureCollection",
"name": "X04805",
"crs": { "type": "name", "properties": { "name": "urn:ogc:def:crs:OGC:1.3:CRS84" } },
"features": [
{ "type": "Feature", "properties": { "part": "direct", "crossing_id": "X04805", "area_ac": 0.8 }, "geometry": { "type": "Polygon", "coordinates": [ [ [ -120.117415445727758, 39.012556060055424 ], [ -120.117549488138792, 39.012667482117429 ], [ -120.116933532475258, 39.013048642941904 ], [ -120.116763983451733, 39.013242646176295 ], [ -120.116432198352086, 39.013450653816648 ], [ -120.115990173170573, 39.013529807781055 ], [ -120.11680387919273, 39.012829221359446 ], [ -120.116963187154283, 39.012887215319694 ], [ -120.116967575697515, 39.012779216475792 ], [ -120.117415445727758, 39.012556060055424 ] ] ] } }
]
}
