{
"type": "FeatureCollection",
"name": "X04844",
"crs": { "type": "name", "properties": { "name": "urn:ogc:def:crs:OGC:1.3:CRS84" } },
"features": [
{ "type": "Feature", "properties": { "part": "direct", "crossing_id": "X04844", "area_ac": 4.7 }, "geometry": { "type": "Polygon", "coordinates": [ [ [ -119.98922315473223, 38.937263211408037 ], [ -119.989377611486091, 38.937429357561832 ], [ -119.990196558125831, 38.937702742892355 ], [ -119.990142853321316, 38.937881533231192 ], [ -119.989979254937452, 38.937931363762807 ], [ -119.989928595754563, 38.938038162050617 ], [ -119.989580637936839, 38.938083233441375 ], [ -119.989600636096114, 38.938155820203932 ], [ -119.988605134959002, 38.938238224444362 ], [ -119.988664364701762, 38.938473983065208 ], [ -119.988798825092388, 38.938567543117045 ], [ -119.988606845664762, 38.938742762278501 ], [ -119.988601512034222, 38.938868747962992 ], [ -119.988321160805739, 38.938951596499827 ], [ -119.988258121752494, 38.938805827497312 ], [ -119.988144420536884, 38.938766855841735 ], [ -119.987976246213364, 38.938924671091215 ], [ -119.987847121289789, 38.938705124514129 ], [ -119.987875501212557, 38.938579734129377 ], [ -119.987737993452086, 38.938558164825452 ], [ -119.98772028361374, 38.938431583994493 ], [ -119.987585062776901, 38.938356020702166 ], [ -119.9875704020086, 38.938157448098281 ], [ -119.98770943325016, 38.938143021684319 ], [ -119.987646396082411, 38.937997252411563 ], [ -119.987812282414623, 38.937893431392723 ], [ -119.987973595788262, 38.937897597801857 ], [ -119.988120246897694, 38.937703191383235 ], [ -119.988493534016385, 38.937604725525865 ], [ -119.988793114995673, 38.937612461169401 ], [ -119.989124120396241, 38.937422813362247 ], [ -119.98922315473223, 38.937263211408037 ] ] ] } }
]
}
