{
"type": "FeatureCollection",
"name": "X04875",
"crs": { "type": "name", "properties": { "name": "urn:ogc:def:crs:OGC:1.3:CRS84" } },
"features": [
{ "type": "Feature", "properties": { "part": "direct", "crossing_id": "X04875", "area_ac": 0.4, "n_upstream": null }, "geometry": { "type": "Polygon", "coordinates": [ [ [ -119.949700589175691, 38.957262565572059 ], [ -119.95010236606997, 38.957579372024981 ], [ -119.95039815986685, 38.957677195848909 ], [ -119.950540322554573, 38.957590826609497 ], [ -119.950896004228383, 38.957906424857754 ], [ -119.950344337728552, 38.957855962707995 ], [ -119.950187617827623, 38.957743758959317 ], [ -119.950672448223131, 38.957738421621038 ], [ -119.950303641935363, 38.957728776151235 ], [ -119.950214529077186, 38.957654375575736 ], [ -119.949961747376861, 38.957629746204852 ], [ -119.949625260031837, 38.957404734560548 ], [ -119.949700589175691, 38.957262565572059 ] ] ] } },
{ "type": "Feature", "properties": { "part": "upstream", "crossing_id": "X04875", "area_ac": 0.0, "n_upstream": 1.0 }, "geometry": { "type": "Polygon", "coordinates": [ [ [ -119.950146150183215, 38.957634569615152 ], [ -119.950303641935363, 38.957728776151235 ], [ -119.950671676166181, 38.957756418885111 ], [ -119.950164567438136, 38.957743156055713 ], [ -119.950007075852184, 38.957648949337944 ], [ -119.950146150183215, 38.957634569615152 ] ] ] } }
]
}
