{
"type": "FeatureCollection",
"name": "X04893",
"crs": { "type": "name", "properties": { "name": "urn:ogc:def:crs:OGC:1.3:CRS84" } },
"features": [
{ "type": "Feature", "properties": { "part": "direct", "crossing_id": "X04893", "area_ac": 4.9, "n_upstream": null }, "geometry": { "type": "Polygon", "coordinates": [ [ [ -119.996641036026077, 38.903076707894812 ], [ -119.996954401341995, 38.903300988326023 ], [ -119.996876952168847, 38.903497189601794 ], [ -119.996966051997035, 38.903571554334803 ], [ -119.997080462453766, 38.903592517349445 ], [ -119.997200184728811, 38.903487492812715 ], [ -119.997509759894882, 38.903801762920956 ], [ -119.997450034212321, 38.904124544935037 ], [ -119.997510031253299, 38.904342302078724 ], [ -119.997298930112393, 38.904426957036712 ], [ -119.997246032327155, 38.904587755025034 ], [ -119.997128584765846, 38.904638784917104 ], [ -119.997122513804698, 38.904782770526595 ], [ -119.996816237991567, 38.904937045450055 ], [ -119.996741063305123, 38.905079251920128 ], [ -119.996473000720556, 38.904874155064029 ], [ -119.996378586454099, 38.904925777243299 ], [ -119.996104452482385, 38.904864665086052 ], [ -119.995722740111717, 38.904620604399916 ], [ -119.996018128825995, 38.904177768266614 ], [ -119.996103172262764, 38.903801585836653 ], [ -119.996443863496097, 38.903377932807722 ], [ -119.996357041545664, 38.903249573125905 ], [ -119.996641036026077, 38.903076707894812 ] ] ] } },
{ "type": "Feature", "properties": { "part": "upstream", "crossing_id": "X04893", "area_ac": 1.0, "n_upstream": 1.0 }, "geometry": { "type": "Polygon", "coordinates": [ [ [ -119.997468460301249, 38.902593511263809 ], [ -119.997484665344189, 38.902756088044661 ], [ -119.997335840986636, 38.903004505743851 ], [ -119.997372803196569, 38.903221670044779 ], [ -119.997205496439605, 38.903361505367648 ], [ -119.997247011211684, 38.903470680449068 ], [ -119.99701136084974, 38.903590738475501 ], [ -119.996876952168847, 38.903497189601794 ], [ -119.996954401341995, 38.903300988326023 ], [ -119.996687103413592, 38.903077893948357 ], [ -119.997117645351381, 38.902710605276823 ], [ -119.997468460301249, 38.902593511263809 ] ] ] } }
]
}
