{
"type": "FeatureCollection",
"name": "X04852",
"crs": { "type": "name", "properties": { "name": "urn:ogc:def:crs:OGC:1.3:CRS84" } },
"features": [
{ "type": "Feature", "properties": { "part": "direct", "crossing_id": "X04852", "area_ac": 6.6 }, "geometry": { "type": "Polygon", "coordinates": [ [ [ -119.959953199140216, 38.937134499503351 ], [ -119.960485490183913, 38.937634847442119 ], [ -119.960937145371531, 38.937862828682007 ], [ -119.961225977053118, 38.937582074584093 ], [ -119.961364241653143, 38.937585677273489 ], [ -119.96148484354967, 38.937462696836882 ], [ -119.961622339219815, 38.93748429672052 ], [ -119.961951105514871, 38.937348721503078 ], [ -119.962849055098445, 38.937390127892556 ], [ -119.962915113701357, 38.93746391841637 ], [ -119.962888987556994, 38.938075834454345 ], [ -119.963001135432165, 38.938150825221648 ], [ -119.962882840113465, 38.938219814687081 ], [ -119.962872850423906, 38.938453782555932 ], [ -119.962730741550871, 38.938540169213773 ], [ -119.96219995099284, 38.938544361455271 ], [ -119.962203025446144, 38.938472371389111 ], [ -119.962041714613974, 38.938468169314859 ], [ -119.962052475683208, 38.93821620411218 ], [ -119.961914978447837, 38.938194604676639 ], [ -119.961745212350564, 38.938388374835633 ], [ -119.961520918930461, 38.938238390865465 ], [ -119.961265893803528, 38.938267781061292 ], [ -119.961292782303133, 38.938178394010812 ], [ -119.961115347882426, 38.938011612718164 ], [ -119.960759687884561, 38.938236572287352 ], [ -119.960706678420877, 38.938397348583429 ], [ -119.960520016530396, 38.938446536305328 ], [ -119.960384057578537, 38.938388940090178 ], [ -119.960241176906251, 38.938493321081879 ], [ -119.95999307304767, 38.93836073110019 ], [ -119.959873236246636, 38.938465712334789 ], [ -119.959689650675642, 38.938442908792432 ], [ -119.959695804625454, 38.938298928992253 ], [ -119.959468438878616, 38.938220931147065 ], [ -119.959541418068753, 38.938132746212482 ], [ -119.959456164774082, 38.937968365722057 ], [ -119.959552187857525, 38.93788078158056 ], [ -119.959688914359347, 38.937920381228444 ], [ -119.960049190689475, 38.937587440089985 ], [ -119.960078387752944, 38.937444060909442 ], [ -119.959877914052498, 38.937276677215024 ], [ -119.959953199140216, 38.937134499503351 ] ] ] } }
]
}
