{
"type": "FeatureCollection",
"name": "X04884",
"crs": { "type": "name", "properties": { "name": "urn:ogc:def:crs:OGC:1.3:CRS84" } },
"features": [
{ "type": "Feature", "properties": { "part": "direct", "crossing_id": "X04884", "area_ac": 1.1 }, "geometry": { "type": "Polygon", "coordinates": [ [ [ -119.956667823023736, 38.951913252061537 ], [ -119.956780755177306, 38.95197025188979 ], [ -119.956727724545672, 38.952131025280075 ], [ -119.956790707834784, 38.95227680894201 ], [ -119.956623203307387, 38.952416577187577 ], [ -119.956557138588749, 38.952342782965061 ], [ -119.956279012333667, 38.9523715585022 ], [ -119.956262831869793, 38.95274950335488 ], [ -119.956100719023183, 38.95276328915417 ], [ -119.955921721954866, 38.952632494080888 ], [ -119.955867987368691, 38.952270741603499 ], [ -119.956180719716144, 38.951972608083331 ], [ -119.956667823023736, 38.951913252061537 ] ] ] } }
]
}
