{
"type": "FeatureCollection",
"name": "X04834",
"crs": { "type": "name", "properties": { "name": "urn:ogc:def:crs:OGC:1.3:CRS84" } },
"features": [
{ "type": "Feature", "properties": { "part": "direct", "crossing_id": "X04834", "area_ac": 18.6 }, "geometry": { "type": "MultiPolygon", "coordinates": [ [ [ [ -119.952752218356622, 38.940441958088151 ], [ -119.952774492149331, 38.940460557610237 ], [ -119.95275144730121, 38.94045995544051 ], [ -119.952752218356622, 38.940441958088151 ] ] ], [ [ [ -119.950775196802724, 38.939201126225043 ], [ -119.950932650195995, 38.939295330563212 ], [ -119.951027142306273, 38.939243748609769 ], [ -119.951393538969342, 38.939307379975602 ], [ -119.952228447239747, 38.939743605570726 ], [ -119.952295267601272, 38.939799404388843 ], [ -119.95224146667455, 38.939978173328996 ], [ -119.952397381525472, 38.940108370517137 ], [ -119.952472595797886, 38.940506721092497 ], [ -119.952677686309471, 38.940566133010044 ], [ -119.95275144730121, 38.94045995544051 ], [ -119.952770636891017, 38.940550544373053 ], [ -119.95290967718681, 38.940536159952828 ], [ -119.953202322122365, 38.940705963646721 ], [ -119.953435855084052, 38.940639994828651 ], [ -119.953409726584198, 38.940711382238156 ], [ -119.953523409573563, 38.940750387136674 ], [ -119.953607880924679, 38.940932768849528 ], [ -119.953832164776173, 38.941082767663033 ], [ -119.953851355871279, 38.941173356471175 ], [ -119.953731505397812, 38.941278330792947 ], [ -119.953817519458283, 38.941424717652922 ], [ -119.953932745381735, 38.941427727465971 ], [ -119.954020301557691, 38.941538119457597 ], [ -119.954015676957653, 38.94164610367806 ], [ -119.954156260721945, 38.941595723105664 ], [ -119.95431218260299, 38.941725917983291 ], [ -119.954518819606619, 38.941749332099029 ], [ -119.954623257448546, 38.942004304552718 ], [ -119.954831436539692, 38.941991723387559 ], [ -119.954920535897742, 38.942066120011127 ], [ -119.954993524805488, 38.941977938358789 ], [ -119.955202474274273, 38.941947359137572 ], [ -119.955215503473013, 38.942181926896509 ], [ -119.955463610623113, 38.942314527152789 ], [ -119.955458217658887, 38.942440508895587 ], [ -119.955662546109906, 38.942517913259444 ], [ -119.955628715116234, 38.942769275148081 ], [ -119.955839207410392, 38.942702700079423 ], [ -119.955972859439271, 38.942814293940998 ], [ -119.955804606554793, 38.942972059429735 ], [ -119.955846846294179, 38.943063249605558 ], [ -119.955571067674711, 38.943038032753734 ], [ -119.955378997117236, 38.943213193302078 ], [ -119.955390485915885, 38.94348375580465 ], [ -119.955619403954643, 38.943525767259104 ], [ -119.955624796842216, 38.943399785520945 ], [ -119.955809163753216, 38.94340459851648 ], [ -119.955823735642596, 38.943603171459877 ], [ -119.955752286700488, 38.943655358800164 ], [ -119.954389418015154, 38.944232367713752 ], [ -119.954088355500247, 38.943720014522562 ], [ -119.953999255095255, 38.943645617232704 ], [ -119.953768796071344, 38.943639597338304 ], [ -119.953794925485596, 38.943568209907752 ], [ -119.953681237923703, 38.943529205103822 ], [ -119.953454716981483, 38.942892675080991 ], [ -119.95253461265456, 38.941751549123133 ], [ -119.952341857975497, 38.941404179359523 ], [ -119.952118347725616, 38.941236180430742 ], [ -119.952058467477357, 38.941018405426149 ], [ -119.951726676239488, 38.940685418165565 ], [ -119.951732075469593, 38.940559436822575 ], [ -119.950836614932129, 38.939382907081416 ], [ -119.950775196802724, 38.939201126225043 ] ] ], [ [ [ -119.950706835149958, 38.939181321244931 ], [ -119.950729108008304, 38.939199921124143 ], [ -119.950706063612145, 38.939199318566892 ], [ -119.950706835149958, 38.939181321244931 ] ] ], [ [ [ -119.950684562303195, 38.939162721361825 ], [ -119.950706835149958, 38.939181321244931 ], [ -119.950683790760266, 38.939180718683517 ], [ -119.950684562303195, 38.939162721361825 ] ] ], [ [ [ -119.950662289468042, 38.939144121474918 ], [ -119.950684562303195, 38.939162721361825 ], [ -119.950661517920011, 38.939162118796254 ], [ -119.950662289468042, 38.939144121474918 ] ] ] ] } }
]
}
