{
"type": "FeatureCollection",
"name": "X04898",
"crs": { "type": "name", "properties": { "name": "urn:ogc:def:crs:OGC:1.3:CRS84" } },
"features": [
{ "type": "Feature", "properties": { "part": "direct", "crossing_id": "X04898", "area_ac": 3.0 }, "geometry": { "type": "Polygon", "coordinates": [ [ [ -120.015359291631654, 38.909809304224332 ], [ -120.015457876555189, 38.910208217997464 ], [ -120.015549267771689, 38.910228574086041 ], [ -120.01562365741249, 38.910104352817747 ], [ -120.015692012180821, 38.910124119413538 ], [ -120.015558725567914, 38.910553136247195 ], [ -120.015646345493607, 38.910663484714107 ], [ -120.01555042742271, 38.910751119596931 ], [ -120.015567428975316, 38.910895696881148 ], [ -120.015421665090798, 38.911072145253087 ], [ -120.015019478398742, 38.911314102995497 ], [ -120.014534197647734, 38.911337719223958 ], [ -120.014436013261871, 38.911479348489721 ], [ -120.014343866132123, 38.911476989945307 ], [ -120.014211683353011, 38.911329464297182 ], [ -120.014215457015567, 38.911239471985347 ], [ -120.014405788103673, 38.911100201453664 ], [ -120.01428341699372, 38.910718695847287 ], [ -120.014536818916255, 38.910725181695405 ], [ -120.014770957251812, 38.910641085077771 ], [ -120.014732430040098, 38.910459921237084 ], [ -120.014962794678752, 38.910465816566649 ], [ -120.015105540400967, 38.910361362668603 ], [ -120.014882721440543, 38.910175482869484 ], [ -120.014866475897207, 38.910012907054444 ], [ -120.015221074063561, 38.909805767600254 ], [ -120.015359291631654, 38.909809304224332 ] ] ] } }
]
}
