{
"type": "FeatureCollection",
"name": "X04839",
"crs": { "type": "name", "properties": { "name": "urn:ogc:def:crs:OGC:1.3:CRS84" } },
"features": [
{ "type": "Feature", "properties": { "part": "direct", "crossing_id": "X04839", "area_ac": 4.7 }, "geometry": { "type": "Polygon", "coordinates": [ [ [ -119.990387010785327, 38.929383504589111 ], [ -119.990544499255364, 38.929477656761101 ], [ -119.990777203721834, 38.929429608180271 ], [ -119.991283580321266, 38.930001219885199 ], [ -119.991279014122966, 38.930109208042872 ], [ -119.991507915399566, 38.930151148211579 ], [ -119.991297490255178, 38.930217790631723 ], [ -119.991333681626855, 38.930452953828059 ], [ -119.991217708414538, 38.930467979659305 ], [ -119.991060977982769, 38.930355830267025 ], [ -119.991011848754752, 38.930426633381629 ], [ -119.990688493792931, 38.930436308086442 ], [ -119.990411984884645, 38.930429173107377 ], [ -119.990299818030678, 38.930354207970566 ], [ -119.990274491764652, 38.930407607364167 ], [ -119.990113956353341, 38.930385446797132 ], [ -119.990040261064095, 38.930491650802942 ], [ -119.989952659678679, 38.930381284016143 ], [ -119.989834402156404, 38.9304503024699 ], [ -119.98969995498426, 38.930356744054485 ], [ -119.989603978195134, 38.930444355011744 ], [ -119.989491050726528, 38.930387387125862 ], [ -119.989029441813827, 38.930393488403986 ], [ -119.988970977460014, 38.930139731917663 ], [ -119.988835008746818, 38.930082168541652 ], [ -119.988863382512974, 38.929956777550892 ], [ -119.98900163584085, 38.929960346920097 ], [ -119.989314130731969, 38.9296621140887 ], [ -119.98954759794124, 38.929596070023834 ], [ -119.989738787582354, 38.929438846008118 ], [ -119.990013008462128, 38.929499976451581 ], [ -119.990086702666915, 38.929393772408325 ], [ -119.990387010785327, 38.929383504589111 ] ] ] } }
]
}
