{
"type": "FeatureCollection",
"name": "X04822",
"crs": { "type": "name", "properties": { "name": "urn:ogc:def:crs:OGC:1.3:CRS84" } },
"features": [
{ "type": "Feature", "properties": { "part": "direct", "crossing_id": "X04822", "area_ac": 0.2 }, "geometry": { "type": "MultiPolygon", "coordinates": [ [ [ [ -119.994446054724079, 38.916839762249111 ], [ -119.994468332949751, 38.916858354006237 ], [ -119.994445294848518, 38.916857760368565 ], [ -119.994446054724079, 38.916839762249111 ] ] ], [ [ [ -119.994469852688553, 38.916822357766563 ], [ -119.994492130915617, 38.916840949519141 ], [ -119.9944690928195, 38.9168403558864 ], [ -119.994469852688553, 38.916822357766563 ] ] ], [ [ [ -119.994033649058579, 38.916775081663658 ], [ -119.994240991675056, 38.916780424960891 ], [ -119.994444534972331, 38.91687575848789 ], [ -119.994208834380643, 38.916995808664794 ], [ -119.994047567413674, 38.916991652735113 ], [ -119.993914658698216, 38.916862103560177 ], [ -119.994033649058579, 38.916775081663658 ] ] ] ] } }
]
}
