{
"type": "FeatureCollection",
"name": "X04814",
"crs": { "type": "name", "properties": { "name": "urn:ogc:def:crs:OGC:1.3:CRS84" } },
"features": [
{ "type": "Feature", "properties": { "part": "direct", "crossing_id": "X04814", "area_ac": 0.1 }, "geometry": { "type": "Polygon", "coordinates": [ [ [ -119.97552145384833, 38.944818393006393 ], [ -119.975562954888034, 38.944927574780301 ], [ -119.975281800658081, 38.945028388034892 ], [ -119.975249567914048, 38.945243762814961 ], [ -119.975235707042273, 38.945027192461083 ], [ -119.975146581891806, 38.944952810409468 ], [ -119.97552145384833, 38.944818393006393 ] ] ] } }
]
}
