{
"type": "FeatureCollection",
"name": "X04863",
"crs": { "type": "name", "properties": { "name": "urn:ogc:def:crs:OGC:1.3:CRS84" } },
"features": [
{ "type": "Feature", "properties": { "part": "direct", "crossing_id": "X04863", "area_ac": 0.1 }, "geometry": { "type": "Polygon", "coordinates": [ [ [ -120.003752163984146, 38.918754836773431 ], [ -120.004143825568391, 38.918764897183991 ], [ -120.004232951440855, 38.918839257248592 ], [ -120.004066376318121, 38.918961102905591 ], [ -120.003772172608237, 38.91882742166819 ], [ -120.003752163984146, 38.918754836773431 ] ] ] } }
]
}
