{
"type": "FeatureCollection",
"name": "X04896",
"crs": { "type": "name", "properties": { "name": "urn:ogc:def:crs:OGC:1.3:CRS84" } },
"features": [
{ "type": "Feature", "properties": { "part": "direct", "crossing_id": "X04896", "area_ac": 0.9, "n_upstream": null }, "geometry": { "type": "Polygon", "coordinates": [ [ [ -119.996924886479889, 38.924777344393242 ], [ -119.997060093057044, 38.924852896371853 ], [ -119.997658393291303, 38.924886316851541 ], [ -119.997791323151191, 38.925015862465699 ], [ -119.997564973083868, 38.925460478161838 ], [ -119.997598905950809, 38.925749634733435 ], [ -119.997048199483885, 38.925681403884127 ], [ -119.997050477852596, 38.925627409478331 ], [ -119.997212524228118, 38.925613563890757 ], [ -119.99729075991317, 38.925399365810591 ], [ -119.99743356157461, 38.925294935996199 ], [ -119.99728290673707, 38.92503880981473 ], [ -119.996850447953392, 38.924901551560453 ], [ -119.996924886479889, 38.924777344393242 ] ] ] } },
{ "type": "Feature", "properties": { "part": "upstream", "crossing_id": "X04896", "area_ac": 1.8, "n_upstream": 1.0 }, "geometry": { "type": "Polygon", "coordinates": [ [ [ -119.996739041763732, 38.924808594502707 ], [ -119.996942610971132, 38.924903924594659 ], [ -119.996939573114147, 38.924975917137317 ], [ -119.99728290673707, 38.92503880981473 ], [ -119.997369754450943, 38.925167169510466 ], [ -119.997432802224836, 38.92531293413888 ], [ -119.99729075991317, 38.925399365810591 ], [ -119.997188723817374, 38.925630968820919 ], [ -119.996979835932748, 38.925661626014069 ], [ -119.996845387470657, 38.925568075761895 ], [ -119.996895266869757, 38.925479271641656 ], [ -119.996643335668281, 38.925436749181259 ], [ -119.996611939559614, 38.925634135276731 ], [ -119.996312406812166, 38.925626421680789 ], [ -119.99609187312376, 38.925386512065728 ], [ -119.9961901140245, 38.925244900747117 ], [ -119.996103268410977, 38.925116540254194 ], [ -119.996218472453506, 38.925119507286624 ], [ -119.996321270431721, 38.924869907078481 ], [ -119.996739041763732, 38.924808594502707 ] ] ] } }
]
}
