{
"type": "FeatureCollection",
"name": "X04800",
"crs": { "type": "name", "properties": { "name": "urn:ogc:def:crs:OGC:1.3:CRS84" } },
"features": [
{ "type": "Feature", "properties": { "part": "direct", "crossing_id": "X04800", "area_ac": 0.3 }, "geometry": { "type": "MultiPolygon", "coordinates": [ [ [ [ -120.077792940781421, 38.946146696011333 ], [ -120.077838299836117, 38.946165850499696 ], [ -120.077792201187293, 38.946164695399212 ], [ -120.077792940781421, 38.946146696011333 ] ] ], [ [ [ -120.076215119236096, 38.94580084476722 ], [ -120.07648726987, 38.945915774987455 ], [ -120.076809958962798, 38.945923863873624 ], [ -120.077012223514174, 38.946055059032489 ], [ -120.077792940781421, 38.946146696011333 ], [ -120.076412202720491, 38.946058036468607 ], [ -120.076189110099818, 38.945872264355536 ], [ -120.076004716552603, 38.945867641268244 ], [ -120.076006936665493, 38.945813643187961 ], [ -120.076215119236096, 38.94580084476722 ] ] ] ] } }
]
}
