{
"type": "FeatureCollection",
"name": "X04883",
"crs": { "type": "name", "properties": { "name": "urn:ogc:def:crs:OGC:1.3:CRS84" } },
"features": [
{ "type": "Feature", "properties": { "part": "direct", "crossing_id": "X04883", "area_ac": 0.8 }, "geometry": { "type": "Polygon", "coordinates": [ [ [ -119.946492370807661, 38.961574849191393 ], [ -119.94634864871108, 38.961697207282526 ], [ -119.946310904958622, 38.962038549956823 ], [ -119.946036455826558, 38.96251783239078 ], [ -119.945808257641431, 38.962457802831231 ], [ -119.945769888249544, 38.962276623493203 ], [ -119.945870602651496, 38.962081069919698 ], [ -119.946143504377361, 38.961637782174996 ], [ -119.946426309098854, 38.961501049404674 ], [ -119.946484783628378, 38.961214301860409 ], [ -119.946492370807661, 38.961574849191393 ] ] ] } }
]
}
