{
"type": "FeatureCollection",
"name": "X04803",
"crs": { "type": "name", "properties": { "name": "urn:ogc:def:crs:OGC:1.3:CRS84" } },
"features": [
{ "type": "Feature", "properties": { "part": "direct", "crossing_id": "X04803", "area_ac": 0.0 }, "geometry": { "type": "MultiPolygon", "coordinates": [ [ [ [ -120.077719607391089, 38.944000725690032 ], [ -120.077741916462699, 38.944019302623751 ], [ -120.077718867835003, 38.944018725083311 ], [ -120.077719607391089, 38.944000725690032 ] ] ], [ [ [ -120.077651201102285, 38.943980993650257 ], [ -120.077719607391089, 38.944000725690032 ], [ -120.077650461529402, 38.943998993042548 ], [ -120.077651201102285, 38.943980993650257 ] ] ], [ [ [ -120.076936694393623, 38.943963087242864 ], [ -120.077284642360453, 38.943917754019346 ], [ -120.077651201102285, 38.943980993650257 ], [ -120.077121822866715, 38.943949709285448 ], [ -120.077026669580505, 38.944019396139176 ], [ -120.076936694393623, 38.943963087242864 ] ] ] ] } }
]
}
