{
"type": "FeatureCollection",
"name": "X04890",
"crs": { "type": "name", "properties": { "name": "urn:ogc:def:crs:OGC:1.3:CRS84" } },
"features": [
{ "type": "Feature", "properties": { "part": "direct", "crossing_id": "X04890", "area_ac": 0.6 }, "geometry": { "type": "Polygon", "coordinates": [ [ [ -119.990335293840658, 38.943147648321542 ], [ -119.99037072419253, 38.943400809471136 ], [ -119.990227874617062, 38.943505228500634 ], [ -119.989555713370692, 38.943577966827966 ], [ -119.98953571409146, 38.943505380057438 ], [ -119.989215347258579, 38.943443056481492 ], [ -119.989338199086561, 38.943266051949784 ], [ -119.989700849422348, 38.94341955479225 ], [ -119.989775321636131, 38.94329535379466 ], [ -119.990005025510499, 38.943319300516791 ], [ -119.990335293840658, 38.943147648321542 ] ] ] } }
]
}
