{
"type": "FeatureCollection",
"name": "X04851",
"crs": { "type": "name", "properties": { "name": "urn:ogc:def:crs:OGC:1.3:CRS84" } },
"features": [
{ "type": "Feature", "properties": { "part": "direct", "crossing_id": "X04851", "area_ac": 4.1 }, "geometry": { "type": "Polygon", "coordinates": [ [ [ -119.961184480589282, 38.938013414165404 ], [ -119.961265893803528, 38.938267781061292 ], [ -119.961520918930461, 38.938238390865465 ], [ -119.961745212350564, 38.938388374835633 ], [ -119.961914978447837, 38.938194604676639 ], [ -119.962052475683208, 38.93821620411218 ], [ -119.96205321387886, 38.939279258025245 ], [ -119.962206840203436, 38.939463435296894 ], [ -119.962044758446041, 38.939477230649658 ], [ -119.961752846627675, 38.939829976540445 ], [ -119.961254318141201, 38.939618794466455 ], [ -119.961000825847336, 38.939612188884496 ], [ -119.960967063239906, 38.938782502566269 ], [ -119.960518478455654, 38.93848253128246 ], [ -119.960544598953746, 38.938411141937252 ], [ -119.960706678420877, 38.938397348583429 ], [ -119.960759687884561, 38.938236572287352 ], [ -119.9608994915653, 38.938204180588286 ], [ -119.960926380490847, 38.93811479363896 ], [ -119.961184480589282, 38.938013414165404 ] ] ] } }
]
}
