{
"type": "FeatureCollection",
"name": "X04885",
"crs": { "type": "name", "properties": { "name": "urn:ogc:def:crs:OGC:1.3:CRS84" } },
"features": [
{ "type": "Feature", "properties": { "part": "direct", "crossing_id": "X04885", "area_ac": 73.3, "n_upstream": null }, "geometry": { "type": "Polygon", "coordinates": [ [ [ -119.958933957104904, 38.93615299638914 ], [ -119.959285730209317, 38.936558554583392 ], [ -119.959931693512928, 38.93709790382794 ], [ -119.959877914052498, 38.937276677215024 ], [ -119.960078387752944, 38.937444060909442 ], [ -119.959879421242505, 38.937781207402786 ], [ -119.959688914359347, 38.937920381228444 ], [ -119.959552187857525, 38.93788078158056 ], [ -119.959480747531487, 38.937932971590492 ], [ -119.959541418068753, 38.938132746212482 ], [ -119.959468438878616, 38.938220931147065 ], [ -119.959695804625454, 38.938298928992253 ], [ -119.959689650675642, 38.938442908792432 ], [ -119.959873236246636, 38.938465712334789 ], [ -119.959970028724427, 38.938360130382648 ], [ -119.960218132534791, 38.938492720411595 ], [ -119.960384057578537, 38.938388940090178 ], [ -119.960474696854504, 38.938427337583661 ], [ -119.959785641751779, 38.938895849512193 ], [ -119.959734937278583, 38.939002632820795 ], [ -119.959595131564356, 38.939035023034883 ], [ -119.959632758565789, 38.939234196819882 ], [ -119.95947525783653, 38.939680528657199 ], [ -119.959491378589462, 38.939843106696166 ], [ -119.95962733945413, 38.939900704022769 ], [ -119.959504422044915, 38.940077674598953 ], [ -119.959641921966693, 38.940099276989216 ], [ -119.959770190695195, 38.940336848868363 ], [ -119.959697209337051, 38.940425033838395 ], [ -119.959903075738893, 38.940466435801049 ], [ -119.959913043525646, 38.940772993580794 ], [ -119.960024422914685, 38.940865984699855 ], [ -119.960373176578386, 38.940803005393846 ], [ -119.96050067980714, 38.941058574072173 ], [ -119.960489912155339, 38.941310538788741 ], [ -119.960393885265972, 38.941398123519654 ], [ -119.960400778412918, 38.941776671211045 ], [ -119.960211030481915, 38.941897847946926 ], [ -119.960200261482811, 38.942149812559435 ], [ -119.960082725971517, 38.942200801296408 ], [ -119.960283213307221, 38.942368185091233 ], [ -119.960186415428694, 38.942473767041498 ], [ -119.960199461097034, 38.942708334886419 ], [ -119.960499055714095, 38.942716143998965 ], [ -119.960540532307107, 38.94282533018665 ], [ -119.960701852787338, 38.942829534727949 ], [ -119.960939232121603, 38.942673563489002 ], [ -119.961181200484617, 38.942950131932292 ], [ -119.961302581355596, 38.942809154670613 ], [ -119.961607558867357, 38.942690978514477 ], [ -119.961636735159772, 38.943088124271554 ], [ -119.96160446257278, 38.943303493723661 ], [ -119.961393973180861, 38.943370079345669 ], [ -119.961490748747465, 38.94380502154371 ], [ -119.961395488429929, 38.943874609495325 ], [ -119.961436966980756, 38.943983795427279 ], [ -119.961287154994864, 38.944250154590698 ], [ -119.961420818739541, 38.944361742636104 ], [ -119.9611342656396, 38.944588503426409 ], [ -119.960903802033812, 38.944582497498118 ], [ -119.960922233766652, 38.944691082969051 ], [ -119.960685616537887, 38.944829056384521 ], [ -119.960640263724429, 38.945350382359358 ], [ -119.959395748321413, 38.945317939153178 ], [ -119.959297405792555, 38.945459515000074 ], [ -119.959187559720718, 38.945330528109366 ], [ -119.957963013384386, 38.94537066033346 ], [ -119.956199465015843, 38.94291029639092 ], [ -119.955998986314029, 38.942742905906755 ], [ -119.957082187837386, 38.942230650321285 ], [ -119.957217381028784, 38.942306247964723 ], [ -119.957269631817169, 38.942163471203834 ], [ -119.95738100964158, 38.942256464779291 ], [ -119.957387169097203, 38.942112485382346 ], [ -119.95778741048656, 38.941924734703306 ], [ -119.957790489772506, 38.941852744974078 ], [ -119.955703568648346, 38.939942480380225 ], [ -119.956172165414841, 38.939774537007445 ], [ -119.956134547997735, 38.939575362497465 ], [ -119.956522514097259, 38.939135050329938 ], [ -119.956528674603717, 38.938991070970808 ], [ -119.956438807044023, 38.938934673048927 ], [ -119.956557879473337, 38.938847693009301 ], [ -119.956431164224128, 38.938574123239611 ], [ -119.95669004179743, 38.938454756628261 ], [ -119.956741520302387, 38.938329977377585 ], [ -119.95674768018921, 38.938185997969242 ], [ -119.956610185034307, 38.938164392341072 ], [ -119.956591760973097, 38.938055806414788 ], [ -119.956771549334334, 38.937628077720511 ], [ -119.95671319692616, 38.937374309685815 ], [ -119.95706809455352, 38.937167360213024 ], [ -119.9571019165178, 38.936915997388446 ], [ -119.957711061537296, 38.936697662000924 ], [ -119.957743341539711, 38.936482293769004 ], [ -119.957863177806814, 38.936377314686126 ], [ -119.957955352356407, 38.936379719090624 ], [ -119.95851066724704, 38.936880676413573 ], [ -119.958559832828627, 38.936809888539216 ], [ -119.95847150521432, 38.936717497292207 ], [ -119.958660472060743, 38.936614320325042 ], [ -119.958618231934395, 38.936523131091285 ], [ -119.958711945618887, 38.936489539978339 ], [ -119.958742683617714, 38.936310166268598 ], [ -119.958933957104904, 38.93615299638914 ] ] ] } },
{ "type": "Feature", "properties": { "part": "upstream", "crossing_id": "X04885", "area_ac": 180.6, "n_upstream": 4.0 }, "geometry": { "type": "MultiPolygon", "coordinates": [ [ [ [ -119.949523835133576, 38.931799242424901 ], [ -119.949524606766644, 38.931781245099927 ], [ -119.949546877109555, 38.931799845119968 ], [ -119.949523835133576, 38.931799242424901 ] ] ], [ [ [ -119.946649901052751, 38.931039369963408 ], [ -119.947587539491792, 38.931766597122405 ], [ -119.948548353957165, 38.931953898216584 ], [ -119.948474596523937, 38.932060073361015 ], [ -119.948563677143838, 38.932134474187791 ], [ -119.94879332598569, 38.932158500184329 ], [ -119.949003791796571, 38.932091936355249 ], [ -119.949500793158251, 38.931798639725294 ], [ -119.949844879754778, 38.931843674403261 ], [ -119.950183668543815, 38.931474166779154 ], [ -119.950344190335869, 38.931496381947873 ], [ -119.950743615811604, 38.93132665086177 ], [ -119.951075361460525, 38.931659639444689 ], [ -119.951465532666077, 38.931705874122152 ], [ -119.951553845026964, 38.93179827013325 ], [ -119.951715139176443, 38.931802486098363 ], [ -119.952235083546995, 38.932050302800135 ], [ -119.952367939791131, 38.932179897312984 ], [ -119.952447773917655, 38.932470263799786 ], [ -119.952655154245633, 38.932475682775468 ], [ -119.952800345233172, 38.932317318819564 ], [ -119.953285002568975, 38.932311963634653 ], [ -119.953734288362696, 38.932593962861723 ], [ -119.95446085731507, 38.93286518425365 ], [ -119.954523821394986, 38.933010968685544 ], [ -119.954639033778932, 38.933013977258888 ], [ -119.955398728613517, 38.932511304252479 ], [ -119.955780437397152, 38.932755496448614 ], [ -119.955751234281578, 38.9328988743816 ], [ -119.955865676554652, 38.932919879164096 ], [ -119.955791158565447, 38.933044056748713 ], [ -119.956012343371995, 38.933266040439797 ], [ -119.95729435967985, 38.932416636206298 ], [ -119.957497122968689, 38.932530031304857 ], [ -119.957706813200815, 38.932481448937416 ], [ -119.957927233057802, 38.932721426643226 ], [ -119.958242902374593, 38.932891818116822 ], [ -119.958281292891016, 38.933072994769645 ], [ -119.958185275193159, 38.93316057812325 ], [ -119.958267442586276, 38.93339694917853 ], [ -119.958702176200063, 38.933480357101942 ], [ -119.958721372137447, 38.933570945375834 ], [ -119.958907252750279, 38.933539757514275 ], [ -119.958880363423958, 38.93362914402573 ], [ -119.958970226612863, 38.933685539917988 ], [ -119.958661437888736, 38.933893698057375 ], [ -119.958703676730295, 38.933984887250574 ], [ -119.95848859654842, 38.93415945352772 ], [ -119.958501636874189, 38.934394021565389 ], [ -119.958333410520652, 38.934551791923276 ], [ -119.958298055563532, 38.934839150337517 ], [ -119.95779952668677, 38.9351684798647 ], [ -119.957794908867825, 38.93527646458292 ], [ -119.958082928020531, 38.935554240482368 ], [ -119.958032223750877, 38.935661023095754 ], [ -119.958216571035507, 38.935665831491313 ], [ -119.958232688589632, 38.935828409649204 ], [ -119.958417805838224, 38.935815220283864 ], [ -119.958585994998359, 38.936197974829206 ], [ -119.95876726609292, 38.936274772270139 ], [ -119.958711945618887, 38.936489539978339 ], [ -119.958618231934395, 38.936523131091285 ], [ -119.958660472060743, 38.936614320325042 ], [ -119.95847150521432, 38.936717497292207 ], [ -119.95855829385269, 38.93684588346089 ], [ -119.958464579622813, 38.936879474426753 ], [ -119.957977626372696, 38.936398317632829 ], [ -119.957863177806814, 38.936377314686126 ], [ -119.957743341539711, 38.936482293769004 ], [ -119.957711061537296, 38.936697662000924 ], [ -119.9571019165178, 38.936915997388446 ], [ -119.95706809455352, 38.937167360213024 ], [ -119.95671319692616, 38.937374309685815 ], [ -119.956771549334334, 38.937628077720511 ], [ -119.956591760973097, 38.938055806414788 ], [ -119.956610185034307, 38.938164392341072 ], [ -119.95674768018921, 38.938185997969242 ], [ -119.956741520302387, 38.938329977377585 ], [ -119.95669004179743, 38.938454756628261 ], [ -119.956431164224128, 38.938574123239611 ], [ -119.956557879473337, 38.938847693009301 ], [ -119.956438807044023, 38.938934673048927 ], [ -119.956528674603717, 38.938991070970808 ], [ -119.956522514097259, 38.939135050329938 ], [ -119.956134547997735, 38.939575362497465 ], [ -119.956172165414841, 38.939774537007445 ], [ -119.955705109237456, 38.939906485573282 ], [ -119.95587868358443, 38.940163261767708 ], [ -119.956634485233707, 38.940831618898059 ], [ -119.956727435505513, 38.94081602708458 ], [ -119.956900245627878, 38.941090799378358 ], [ -119.957345750286265, 38.941462774228576 ], [ -119.95708070248385, 38.941726121219219 ], [ -119.957088992053286, 38.941735856208751 ], [ -119.957368025641188, 38.94148137293071 ], [ -119.957790489772506, 38.941852744974078 ], [ -119.95778741048656, 38.941924734703306 ], [ -119.957387169097203, 38.942112485382346 ], [ -119.95738100964158, 38.942256464779291 ], [ -119.957315722810861, 38.942164673798594 ], [ -119.957154404345047, 38.942160464637411 ], [ -119.957124457681616, 38.942035680359211 ], [ -119.957112163357337, 38.942069274877774 ], [ -119.957217381028784, 38.942306247964723 ], [ -119.957035326789523, 38.942247445051244 ], [ -119.95602357255278, 38.94270751266442 ], [ -119.95597362974496, 38.942796296541879 ], [ -119.955839207410392, 38.942702700079423 ], [ -119.955628715116234, 38.942769275148081 ], [ -119.955662546109906, 38.942517913259444 ], [ -119.955458217658887, 38.942440508895587 ], [ -119.955463610623113, 38.942314527152789 ], [ -119.955216273952786, 38.942163929508176 ], [ -119.955297047984587, 38.942124855587124 ], [ -119.955174035496313, 38.942072739145459 ], [ -119.955159568465916, 38.941926750550877 ], [ -119.954920535897742, 38.942066120011127 ], [ -119.954831436539692, 38.941991723387559 ], [ -119.954623257448546, 38.942004304552718 ], [ -119.954518819606619, 38.941749332099029 ], [ -119.95431218260299, 38.941725917983291 ], [ -119.95416110365386, 38.941581615295945 ], [ -119.954015676957653, 38.94164610367806 ], [ -119.954020301557691, 38.941538119457597 ], [ -119.953932745381735, 38.941427727465971 ], [ -119.953817519458283, 38.941424717652922 ], [ -119.953731505397812, 38.941278330792947 ], [ -119.953851355871279, 38.941173356471175 ], [ -119.953832164776173, 38.941082767663033 ], [ -119.953409726584198, 38.940711382238156 ], [ -119.953432365906124, 38.940623524127609 ], [ -119.953202322122365, 38.940705963646721 ], [ -119.95290967718681, 38.940536159952828 ], [ -119.952770636891017, 38.940550544373053 ], [ -119.952775263198916, 38.94044256025748 ], [ -119.952677686309471, 38.940566133010044 ], [ -119.952472595797886, 38.940506721092497 ], [ -119.952397381525472, 38.940108370517137 ], [ -119.95224146667455, 38.939978173328996 ], [ -119.952295267601272, 38.939799404388843 ], [ -119.952228447239747, 38.939743605570726 ], [ -119.951393538969342, 38.939307379975602 ], [ -119.951073231141862, 38.93924495359412 ], [ -119.950932650195995, 38.939295330563212 ], [ -119.950640016644513, 38.939125521584181 ], [ -119.950076360890378, 38.938281976805719 ], [ -119.949809092767197, 38.938058776694632 ], [ -119.949684720453817, 38.937731208724507 ], [ -119.949372911593315, 38.937470807626489 ], [ -119.94909727081523, 38.936905054507399 ], [ -119.948699469320402, 38.936498262007731 ], [ -119.948707188996366, 38.936318289038141 ], [ -119.949108961435471, 38.936094573013897 ], [ -119.949280298495921, 38.935864827743337 ], [ -119.949175887708776, 38.935609851400592 ], [ -119.948818003377198, 38.935348243551879 ], [ -119.948825722437121, 38.93516827052688 ], [ -119.94867136855909, 38.935002074560806 ], [ -119.948633773965852, 38.934802898433659 ], [ -119.948473245464896, 38.934780680641474 ], [ -119.948478649314723, 38.934654699552908 ], [ -119.948275895606201, 38.934541289132014 ], [ -119.948130808981162, 38.934159125001948 ], [ -119.947886604542134, 38.933936524210758 ], [ -119.947233688395286, 38.934099609880562 ], [ -119.94701948057488, 38.933715635060302 ], [ -119.946862816944275, 38.93360342878686 ], [ -119.946759962507073, 38.933312456127048 ], [ -119.946928982659728, 38.933136706083729 ], [ -119.94728002368241, 38.933019772992289 ], [ -119.947406046105613, 38.932770826712527 ], [ -119.947105724714135, 38.932780982947207 ], [ -119.946717868553833, 38.932680741731509 ], [ -119.946315468508374, 38.932381925969075 ], [ -119.946289468354877, 38.931912790278801 ], [ -119.94592775025086, 38.931741160921746 ], [ -119.945708147803572, 38.931483164971119 ], [ -119.945741233118497, 38.931249804000117 ], [ -119.94600627962005, 38.93098648251263 ], [ -119.946060087744769, 38.930807716570591 ], [ -119.946442526068481, 38.931033940486344 ], [ -119.946649901052751, 38.931039369963408 ] ], [ [ -119.955275462712095, 38.941859177288194 ], [ -119.955194514670481, 38.941906374854319 ], [ -119.955436009797396, 38.941881386411971 ], [ -119.955275462712095, 38.941859177288194 ] ], [ [ -119.954619550644708, 38.941013244995453 ], [ -119.954592130300114, 38.941031932391354 ], [ -119.954825415181219, 38.941054655875021 ], [ -119.95482652284295, 38.94102878463363 ], [ -119.954619550644708, 38.941013244995453 ] ], [ [ -119.953530347362843, 38.940588410854382 ], [ -119.953457926295073, 38.940614364151614 ], [ -119.953776133352349, 38.940775006487172 ], [ -119.953530347362843, 38.940588410854382 ] ] ] ] } }
]
}
