{
"type": "FeatureCollection",
"name": "X04826",
"crs": { "type": "name", "properties": { "name": "urn:ogc:def:crs:OGC:1.3:CRS84" } },
"features": [
{ "type": "Feature", "properties": { "part": "direct", "crossing_id": "X04826", "area_ac": 3.8 }, "geometry": { "type": "Polygon", "coordinates": [ [ [ -119.996154144332706, 38.912433388814364 ], [ -119.99651058393367, 38.9127308508452 ], [ -119.996456917739508, 38.912909646127993 ], [ -119.996249585963653, 38.912904307209516 ], [ -119.996010864265017, 38.913096354376485 ], [ -119.995833657903034, 38.913470162507025 ], [ -119.995457470132209, 38.913640650224316 ], [ -119.995334689074724, 38.913817664609454 ], [ -119.995148872769789, 38.913848913339095 ], [ -119.995214945799376, 38.913922686272258 ], [ -119.995026850224619, 38.914007929211287 ], [ -119.99502153264541, 38.914133916174187 ], [ -119.99462762052336, 38.914177820554315 ], [ -119.994641810858269, 38.913295318516077 ], [ -119.994388404412916, 38.913288789127662 ], [ -119.994390683790556, 38.91323479473899 ], [ -119.994644090044432, 38.913241324114907 ], [ -119.994932687766507, 38.912960476221329 ], [ -119.995400260679858, 38.912810361870434 ], [ -119.995362541918141, 38.912611195441301 ], [ -119.995524558654921, 38.912597351013986 ], [ -119.995668095300246, 38.912474924098483 ], [ -119.995851629598334, 38.912497668852254 ], [ -119.995824795827133, 38.912587066320768 ], [ -119.995915424051617, 38.912625435851588 ], [ -119.995968331957897, 38.912464639014097 ], [ -119.996154144332706, 38.912433388814364 ] ] ] } }
]
}
