{
"type": "FeatureCollection",
"name": "X04841",
"crs": { "type": "name", "properties": { "name": "urn:ogc:def:crs:OGC:1.3:CRS84" } },
"features": [
{ "type": "Feature", "properties": { "part": "direct", "crossing_id": "X04841", "area_ac": 0.5 }, "geometry": { "type": "Polygon", "coordinates": [ [ [ -119.955998342039038, 38.941679856120501 ], [ -119.956104325687051, 38.941898832651063 ], [ -119.955706391439833, 38.942032585186894 ], [ -119.955569659702846, 38.941992980662327 ], [ -119.955309996678409, 38.942130341521192 ], [ -119.955174035496313, 38.942072739145459 ], [ -119.955157924487736, 38.941910160937688 ], [ -119.955436009797396, 38.941881386411971 ], [ -119.955488263743845, 38.941738610571669 ], [ -119.955998342039038, 38.941679856120501 ] ] ] } }
]
}
