{
"type": "FeatureCollection",
"name": "X04819",
"crs": { "type": "name", "properties": { "name": "urn:ogc:def:crs:OGC:1.3:CRS84" } },
"features": [
{ "type": "Feature", "properties": { "part": "direct", "crossing_id": "X04819", "area_ac": 25.1, "n_upstream": null }, "geometry": { "type": "Polygon", "coordinates": [ [ [ -120.005062906375016, 38.909527380158359 ], [ -120.005129743305517, 38.909583149447933 ], [ -120.005094595460449, 38.909870531082689 ], [ -120.004974872963402, 38.909975563664673 ], [ -120.004989581750834, 38.910174136595906 ], [ -120.004796207478421, 38.910385384383112 ], [ -120.005042035757228, 38.910571873916254 ], [ -120.005060529895701, 38.910680455266281 ], [ -120.005241792611685, 38.910757180121685 ], [ -120.00523573671741, 38.910901166650774 ], [ -120.005030680238235, 38.910841848613963 ], [ -120.005026137987997, 38.910949838488733 ], [ -120.005297276175298, 38.91108292410204 ], [ -120.005291220322789, 38.911226910630397 ], [ -120.005381852443307, 38.911265272941414 ], [ -120.005283650446245, 38.911406893784722 ], [ -120.00502797707523, 38.9114543826907 ], [ -120.004930531192883, 38.911578004885094 ], [ -120.004986013719062, 38.911903748943004 ], [ -120.005121962925742, 38.911961292775949 ], [ -120.00516046602786, 38.912142458820057 ], [ -120.004927069627826, 38.912208537164332 ], [ -120.00494026413017, 38.912443106661385 ], [ -120.004706866549753, 38.912509184514732 ], [ -120.004780842569403, 38.912943509986725 ], [ -120.004339352312613, 38.913022261177758 ], [ -120.004348001181398, 38.913364820405533 ], [ -120.004440149910224, 38.913367186935069 ], [ -120.004298140353598, 38.913453628577052 ], [ -120.004315876520167, 38.913580208275938 ], [ -120.00410702660534, 38.91361087981528 ], [ -120.003021554289262, 38.914195598367861 ], [ -120.001692044780043, 38.915098352887512 ], [ -120.001510017449618, 38.915039620517163 ], [ -120.001391796855714, 38.915108652305378 ], [ -120.001191280851373, 38.914941337771523 ], [ -120.001093823341577, 38.91506495624246 ], [ -120.000633828504931, 38.915035111004094 ], [ -120.000231571546152, 38.915277014708074 ], [ -120.000001194458576, 38.915271089700994 ], [ -119.999975123006593, 38.915342490037503 ], [ -119.999915869690227, 38.915106735637472 ], [ -119.999590308533541, 38.915170432497476 ], [ -119.999299922181137, 38.914946749811456 ], [ -119.999089549331288, 38.915013408516501 ], [ -119.998907524625494, 38.914954672174503 ], [ -119.998869036521697, 38.914773504709373 ], [ -119.998938149086484, 38.914775282910398 ], [ -119.998944977221115, 38.914613299107259 ], [ -119.999166248463538, 38.914835204563317 ], [ -119.999546227260581, 38.914574713751485 ], [ -119.999798122553401, 38.914617228554121 ], [ -120.000155346843556, 38.914896682159842 ], [ -120.000891499917728, 38.914393098372422 ], [ -120.001028966425366, 38.914414650545794 ], [ -120.001103385668387, 38.914290439795266 ], [ -120.001408936448897, 38.914154153286937 ], [ -120.001487902860163, 38.913921952784754 ], [ -120.001350437120848, 38.913900401183199 ], [ -120.001445618397895, 38.913830777129064 ], [ -120.001427129305583, 38.913722195441729 ], [ -120.001519278249958, 38.913724564294817 ], [ -120.001620522930068, 38.913510954101682 ], [ -120.001806336167817, 38.913479694905888 ], [ -120.001931374591649, 38.91324867827322 ], [ -120.002023522966297, 38.913251046704261 ], [ -120.00200579094502, 38.913124466814672 ], [ -120.002128554550737, 38.912947444680938 ], [ -120.002530791798449, 38.912705533571696 ], [ -120.002533064959451, 38.91265153877427 ], [ -120.002327248320853, 38.912610214150547 ], [ -120.002431519768137, 38.912324610001448 ], [ -120.002871492043866, 38.912281862486623 ], [ -120.002821322467895, 38.911830129900224 ], [ -120.003011676311402, 38.911690878928781 ], [ -120.002974694050053, 38.911473715834831 ], [ -120.003256435113329, 38.91135483019805 ], [ -120.003263252600306, 38.911192845658704 ], [ -120.003379949819703, 38.911159808172819 ], [ -120.003233087189841, 38.910813698063059 ], [ -120.003468752577902, 38.910693628116832 ], [ -120.003933265251973, 38.91061547135466 ], [ -120.003915530167887, 38.910488891597957 ], [ -120.004150436132889, 38.910386818477846 ], [ -120.004208624285042, 38.910100028940136 ], [ -120.004352141363157, 38.90997759049624 ], [ -120.004266811895249, 38.909813239342704 ], [ -120.00431666991642, 38.909724431037525 ], [ -120.005062906375016, 38.909527380158359 ] ], [ [ -120.003979847623341, 38.912796814908852 ], [ -120.003728713042136, 38.912736311002675 ], [ -120.003678851949644, 38.912825118904422 ], [ -120.003497585951934, 38.912748391500479 ], [ -120.003472276533202, 38.912801794539909 ], [ -120.003195075261473, 38.912812690804166 ], [ -120.003165977763899, 38.912956085145368 ], [ -120.003345728835967, 38.913068809625607 ], [ -120.003490768619514, 38.912910376031391 ], [ -120.003740388723415, 38.913006877034555 ], [ -120.003973031375338, 38.912958799509951 ], [ -120.003979847623341, 38.912796814908852 ] ] ] } },
{ "type": "Feature", "properties": { "part": "upstream", "crossing_id": "X04819", "area_ac": 0.4, "n_upstream": 1.0 }, "geometry": { "type": "Polygon", "coordinates": [ [ [ -120.003936803118108, 38.912723638331229 ], [ -120.003973031375338, 38.912958799509951 ], [ -120.003740388723415, 38.913006877034555 ], [ -120.003490768619514, 38.912910376031391 ], [ -120.003345728835967, 38.913068809625607 ], [ -120.003165977763899, 38.912956085145368 ], [ -120.003195075261473, 38.912812690804166 ], [ -120.003472276533202, 38.912801794539909 ], [ -120.003474548988663, 38.912747799696774 ], [ -120.003678851949644, 38.912825118904422 ], [ -120.003728713042136, 38.912736311002675 ], [ -120.003936803118108, 38.912723638331229 ] ] ] } }
]
}
