{
"type": "FeatureCollection",
"name": "X04916",
"crs": { "type": "name", "properties": { "name": "urn:ogc:def:crs:OGC:1.3:CRS84" } },
"features": [
{ "type": "Feature", "properties": { "part": "direct", "crossing_id": "X04916", "area_ac": 0.0 }, "geometry": { "type": "Polygon", "coordinates": [ [ [ -120.008003802484566, 38.93502587466773 ], [ -120.008069150653014, 38.935117639670537 ], [ -120.008136769721077, 38.935155409776215 ], [ -120.007933155776612, 38.935060097635031 ], [ -120.008003802484566, 38.93502587466773 ] ] ] } }
]
}
