{
"type": "FeatureCollection",
"name": "X04928",
"crs": { "type": "name", "properties": { "name": "urn:ogc:def:crs:OGC:1.3:CRS84" } },
"features": [
{ "type": "Feature", "properties": { "part": "direct", "crossing_id": "X04928", "area_ac": 193.4, "n_upstream": null }, "geometry": { "type": "Polygon", "coordinates": [ [ [ -120.018554167691406, 38.918323332667072 ], [ -120.02075010398012, 38.91875781572714 ], [ -120.020929898730174, 38.918870514661975 ], [ -120.020948418622979, 38.918979094394466 ], [ -120.0211750461999, 38.919074971297562 ], [ -120.021161488786646, 38.919398945231897 ], [ -120.021318246259185, 38.919511055242367 ], [ -120.021351521706023, 38.919818207386847 ], [ -120.021483734454122, 38.919965725952103 ], [ -120.021348953735611, 38.9204307465317 ], [ -120.021458127661901, 38.920577676776908 ], [ -120.021464598147077, 38.920974233278073 ], [ -120.021579045029256, 38.920995173574383 ], [ -120.021592294328812, 38.921229743100596 ], [ -120.021456005019218, 38.921730760750314 ], [ -120.023715919330087, 38.922292947636507 ], [ -120.023878707844872, 38.9222610658774 ], [ -120.024930294539018, 38.922486089104886 ], [ -120.026036721368087, 38.923054839336913 ], [ -120.026369549321672, 38.92336962770657 ], [ -120.026273625755039, 38.923457271094989 ], [ -120.026336732487039, 38.92360302238751 ], [ -120.026786273344911, 38.923884749560521 ], [ -120.027018939427748, 38.923836626896872 ], [ -120.027310955421697, 38.924024247791031 ], [ -120.02740763031349, 38.923918604896635 ], [ -120.027591207267079, 38.923941301186943 ], [ -120.02766484058003, 38.92383507086803 ], [ -120.027966629156495, 38.923788707777405 ], [ -120.028393888346201, 38.924051843269993 ], [ -120.02827868264535, 38.924048908057465 ], [ -120.028015459485857, 38.924276432625561 ], [ -120.027782792491834, 38.924324557245512 ], [ -120.027564897596648, 38.924571253633509 ], [ -120.027354518910428, 38.924637963184324 ], [ -120.027340235129074, 38.924979937265519 ], [ -120.02710380620195, 38.925118053579958 ], [ -120.027146129933399, 38.925209221326753 ], [ -120.026958790484784, 38.92527651735822 ], [ -120.026999610346039, 38.925403682408735 ], [ -120.026902932709575, 38.925509324838679 ], [ -120.026720103984061, 38.925468628696223 ], [ -120.026595872320485, 38.925681675197943 ], [ -120.02638849766511, 38.925676388355051 ], [ -120.026244983360229, 38.925798853893831 ], [ -120.026061402215248, 38.925776155318445 ], [ -120.025960961904232, 38.925971789938657 ], [ -120.025846505541026, 38.925950853596511 ], [ -120.025874060324085, 38.92584344950199 ], [ -120.025643643671529, 38.925837573764348 ], [ -120.02546307180198, 38.925742879837458 ], [ -120.025184315271261, 38.925789823732167 ], [ -120.024779063341995, 38.926103807033108 ], [ -120.024675609079097, 38.926371434732253 ], [ -120.024465222583345, 38.926438138735215 ], [ -120.024125616261472, 38.926285332048508 ], [ -120.022291906266688, 38.927661935365819 ], [ -120.020978502997664, 38.927628395970515 ], [ -120.020906362643672, 38.927698624416955 ], [ -120.02056073025021, 38.927689795581408 ], [ -120.021431812499074, 38.927820151160034 ], [ -120.020953638354129, 38.92822234718853 ], [ -120.020628785027156, 38.928268102557801 ], [ -120.020495052588956, 38.928156579695575 ], [ -120.020309206884534, 38.928187867435206 ], [ -120.020289932830565, 38.928097286204022 ], [ -120.020197763713341, 38.928094931440967 ], [ -120.020213269288476, 38.928275505225322 ], [ -120.020022147107824, 38.928432782032758 ], [ -120.02056762860569, 38.928626895589609 ], [ -120.020609192018739, 38.928736063929328 ], [ -120.019594569092746, 38.928728158454518 ], [ -120.021114620132337, 38.928785009661674 ], [ -120.021232846459867, 38.928715958148558 ], [ -120.021391130426267, 38.928792071665676 ], [ -120.021314468736676, 38.928970291471785 ], [ -120.018895001069964, 38.928908474940627 ], [ -120.021290672732221, 38.928987701502869 ], [ -120.021214010552654, 38.929165921219592 ], [ -120.021024394953315, 38.92928720260339 ], [ -120.021064452421001, 38.929432367849664 ], [ -120.020835532260392, 38.929390485136075 ], [ -120.020566990145596, 38.929743980573576 ], [ -120.020288968975208, 38.929772913483383 ], [ -120.020215318224629, 38.929879138375611 ], [ -120.020100103955158, 38.929876194724351 ], [ -120.019698901912378, 38.929541623722876 ], [ -120.019225230023821, 38.929835820777384 ], [ -120.019194647458576, 38.930015216727398 ], [ -120.018135430020578, 38.929970123037734 ], [ -120.018017198723427, 38.930039171196022 ], [ -120.017954104469126, 38.92989341598291 ], [ -120.018294804681773, 38.929469700516854 ], [ -120.018142556645159, 38.929249595104189 ], [ -120.017748569431546, 38.929293574800973 ], [ -120.01776633180306, 38.929420153251506 ], [ -120.017626567164626, 38.929452614915377 ], [ -120.017734991492134, 38.929617547155956 ], [ -120.017544614681242, 38.929756821051214 ], [ -120.017061471381126, 38.929726447462542 ], [ -120.016927742205539, 38.929614920643033 ], [ -120.016827619953915, 38.929252004781432 ], [ -120.017106740717082, 38.928646540210252 ], [ -120.017497707100048, 38.928674556404722 ], [ -120.017572869133616, 38.928532336392877 ], [ -120.017756453768357, 38.928555048502709 ], [ -120.0177424630388, 38.928338477706298 ], [ -120.018104690207849, 38.927951348580599 ], [ -120.018123544942398, 38.927501386690253 ], [ -120.018084248564719, 38.927338222193491 ], [ -120.017835312218921, 38.927223750902279 ], [ -120.017398269712928, 38.927194557669118 ], [ -120.017379753943928, 38.927085977633766 ], [ -120.017177657793127, 38.92695468502302 ], [ -120.017061694138576, 38.9269697370191 ], [ -120.016929478799028, 38.926822213439891 ], [ -120.016722857164254, 38.926798910840446 ], [ -120.016453147027946, 38.926629852018067 ], [ -120.016527554125858, 38.926505631087288 ], [ -120.016579616984558, 38.925263737644237 ], [ -120.016724654970673, 38.925105287686534 ], [ -120.016675147704646, 38.924635559645942 ], [ -120.016517632670812, 38.92454144177907 ], [ -120.016328022391335, 38.924662715775014 ], [ -120.016007711163326, 38.924600468093892 ], [ -120.015934060045637, 38.924706690321443 ], [ -120.015684381676536, 38.924610213335924 ], [ -120.015653793333897, 38.924789608233446 ], [ -120.015392793135263, 38.924963107252168 ], [ -120.01525454616386, 38.924959569518265 ], [ -120.015238298566999, 38.924796993945606 ], [ -120.014978807200734, 38.92493449512736 ], [ -120.015004867944555, 38.924863091081974 ], [ -120.014798252811005, 38.924839785312017 ], [ -120.014645269898494, 38.924637674423138 ], [ -120.014439410608063, 38.924596369620375 ], [ -120.014397858818711, 38.924487199480339 ], [ -120.014142897768082, 38.924516708256931 ], [ -120.013961590449952, 38.924439995643816 ], [ -120.013900774362412, 38.924240243384439 ], [ -120.013674141491677, 38.924144352148964 ], [ -120.013683959228374, 38.923910372763949 ], [ -120.013776877566286, 38.923894734042058 ], [ -120.013955531151439, 38.923484899677334 ], [ -120.013940041781055, 38.923304325597243 ], [ -120.014230485577826, 38.922428891039999 ], [ -120.014211220419739, 38.922338309091629 ], [ -120.014095263917639, 38.922353358417567 ], [ -120.014197240518115, 38.922121738141968 ], [ -120.014038224199922, 38.922063614091321 ], [ -120.014137180361686, 38.92190398756042 ], [ -120.013866739469691, 38.921752922027039 ], [ -120.013869759871739, 38.921680928329131 ], [ -120.013640114359063, 38.921657031003356 ], [ -120.013620094945594, 38.921584447405564 ], [ -120.013297534537458, 38.921576188138879 ], [ -120.013234456512222, 38.921430430862863 ], [ -120.012959487493163, 38.921387353835001 ], [ -120.01301160986236, 38.921244546620635 ], [ -120.012808782815924, 38.92113124570006 ], [ -120.012646748347365, 38.921145113503478 ], [ -120.012400864345594, 38.920958638078957 ], [ -120.012284154363812, 38.920991684080938 ], [ -120.012042805084036, 38.920697217560935 ], [ -120.011614873966053, 38.920452023557559 ], [ -120.011688526543267, 38.920345804072781 ], [ -120.011600146356997, 38.92025345095319 ], [ -120.011788240796065, 38.920168181214578 ], [ -120.011772757126238, 38.919987607002447 ], [ -120.012012973717844, 38.919759530182965 ], [ -120.011746323410676, 38.919518468189629 ], [ -120.012372162563011, 38.91944441150779 ], [ -120.012607087895688, 38.919342322166031 ], [ -120.012799710572651, 38.919149060160713 ], [ -120.013643487776449, 38.919927412632084 ], [ -120.014367163343749, 38.920270258675956 ], [ -120.014532970089604, 38.920166396187327 ], [ -120.014526930941201, 38.920310383706607 ], [ -120.014662904211576, 38.920367917274895 ], [ -120.015877970797746, 38.920543152406829 ], [ -120.015949353662876, 38.920490925370594 ], [ -120.016045635292741, 38.919844748944726 ], [ -120.016115508344839, 38.919828518702616 ], [ -120.015991660463442, 38.920582096561283 ], [ -120.01672440701644, 38.92070894700926 ], [ -120.016810531635386, 38.920855291947156 ], [ -120.017153112695098, 38.920936124514817 ], [ -120.017433362416668, 38.920853202285087 ], [ -120.018462618401088, 38.921059694642487 ], [ -120.018665454890396, 38.921172986070786 ], [ -120.018759876472146, 38.921121346174587 ], [ -120.018988768844324, 38.921163231924339 ], [ -120.01905110488039, 38.921326985056318 ], [ -120.019125501403565, 38.921202761973291 ], [ -120.019904341302166, 38.921330770531505 ], [ -120.019988966189842, 38.921513110443598 ], [ -120.020087154955789, 38.921371476820667 ], [ -120.020501123464541, 38.921400070082456 ], [ -120.020626118044021, 38.921169031827183 ], [ -120.02056905215494, 38.920879289639466 ], [ -120.020462139919047, 38.920678363014602 ], [ -120.020073475994892, 38.920596362820824 ], [ -120.020069273647579, 38.920145810932887 ], [ -120.019977868351091, 38.920125457867407 ], [ -120.019919298644012, 38.919871712512979 ], [ -120.0180897034639, 38.919500632904651 ], [ -120.018168623212816, 38.919268419378007 ], [ -120.017967300798077, 38.919119130297908 ], [ -120.018165940346165, 38.918781870801197 ], [ -120.018377062790876, 38.918697178928731 ], [ -120.018554167691406, 38.918323332667072 ] ], [ [ -120.020345381168283, 38.927323938868156 ], [ -120.020108931481687, 38.927462040106597 ], [ -120.0199416072264, 38.927601907079527 ], [ -120.020345381168283, 38.927323938868156 ] ], [ [ -120.020811191770875, 38.921155741365013 ], [ -120.020685444436467, 38.921404778381088 ], [ -120.020681677578949, 38.921494771066733 ], [ -120.020820671848341, 38.921480303572032 ], [ -120.020870518774515, 38.921391487848808 ], [ -120.020811191770875, 38.921155741365013 ] ] ] } },
{ "type": "Feature", "properties": { "part": "upstream", "crossing_id": "X04928", "area_ac": 731.4, "n_upstream": 15.0 }, "geometry": { "type": "MultiPolygon", "coordinates": [ [ [ [ -120.029783514528702, 38.905673019956865 ], [ -120.030799839760959, 38.906185375286171 ], [ -120.030908263417174, 38.906350295649581 ], [ -120.031431327150841, 38.906525768465713 ], [ -120.03201149853048, 38.9069909776236 ], [ -120.03226114098365, 38.907087418333468 ], [ -120.032811537062543, 38.907714026769241 ], [ -120.033111544385235, 38.908262193143351 ], [ -120.033382729374622, 38.908395215133339 ], [ -120.034917518670042, 38.909749540982965 ], [ -120.035440617892391, 38.909924997082065 ], [ -120.035459907958256, 38.910015576613695 ], [ -120.035620415939306, 38.910037673541005 ], [ -120.035819505132181, 38.910240929232302 ], [ -120.035956976918982, 38.910262440324878 ], [ -120.036017846243553, 38.910462183443606 ], [ -120.036196897402718, 38.910592857916129 ], [ -120.036190154916326, 38.910754847331724 ], [ -120.036408539154081, 38.911048681588916 ], [ -120.036381007277569, 38.911156089254966 ], [ -120.037082994910662, 38.912020761588963 ], [ -120.036885030253302, 38.912898607992304 ], [ -120.036764598129054, 38.913021673643016 ], [ -120.036825288005929, 38.913779965264489 ], [ -120.036998356291278, 38.914054629431263 ], [ -120.037008660495303, 38.914361194685732 ], [ -120.036584234051929, 38.914584644827336 ], [ -120.03643776325103, 38.914779119942864 ], [ -120.036404985037422, 38.91501251920122 ], [ -120.036466420642867, 38.915752811889369 ], [ -120.036407606154413, 38.916057621006587 ], [ -120.036514558258034, 38.916258534630906 ], [ -120.036329309628812, 38.916830399069532 ], [ -120.036284350704065, 38.91791032737666 ], [ -120.035729713666115, 38.918490822232847 ], [ -120.035708727651595, 38.918994788389213 ], [ -120.035515415674951, 38.919206089496029 ], [ -120.035468389362563, 38.919781465051763 ], [ -120.035110795863872, 38.920060661268224 ], [ -120.035081758289351, 38.920204065823924 ], [ -120.034428932815004, 38.920926200633438 ], [ -120.034252652388162, 38.921282075121262 ], [ -120.034110660312237, 38.921368553785037 ], [ -120.034099410580694, 38.921638535131699 ], [ -120.033840714961428, 38.921758081496044 ], [ -120.033969957758018, 38.921977582016275 ], [ -120.03389483560639, 38.922119814293268 ], [ -120.033682969310163, 38.922222533304229 ], [ -120.03363088701191, 38.922365351337156 ], [ -120.033470352252479, 38.922343250648161 ], [ -120.032712569886669, 38.923369008562368 ], [ -120.0327458954864, 38.923676159271835 ], [ -120.032563595581578, 38.924176020259793 ], [ -120.032612457656029, 38.924663744396035 ], [ -120.032530575438471, 38.924967964007536 ], [ -120.032861190540672, 38.925336731389471 ], [ -120.032964392799883, 38.925627641770802 ], [ -120.033862058132186, 38.926227043740276 ], [ -120.033986807365054, 38.926554536845302 ], [ -120.033980806167307, 38.926698526754429 ], [ -120.033885637005596, 38.926768177818253 ], [ -120.033036080024644, 38.926674498508085 ], [ -120.031532802799347, 38.925663286620868 ], [ -120.031215474418261, 38.925529085253316 ], [ -120.030893641883011, 38.92550287521712 ], [ -120.030603862945256, 38.925261266671079 ], [ -120.030542999001128, 38.925061521263927 ], [ -120.030183347666537, 38.924836150587282 ], [ -120.029998265115296, 38.924849455618407 ], [ -120.030025062057831, 38.924760048942666 ], [ -120.029915112928279, 38.924631124548419 ], [ -120.029544948801544, 38.924657733500702 ], [ -120.029276716637881, 38.924452706085418 ], [ -120.029000221206459, 38.924445663415071 ], [ -120.028801866482354, 38.924224397050914 ], [ -120.02841542651214, 38.924088427610094 ], [ -120.028418432461947, 38.924016432987386 ], [ -120.027851423925924, 38.923785772159803 ], [ -120.027264873202526, 38.924023073292865 ], [ -120.027018939427748, 38.923836626896872 ], [ -120.026786273344911, 38.923884749560521 ], [ -120.026336732487039, 38.92360302238751 ], [ -120.026273625755039, 38.923457271094989 ], [ -120.02640213776391, 38.923336542685512 ], [ -120.026346508443183, 38.923369040282182 ], [ -120.025902237236352, 38.922961321263465 ], [ -120.024930294539018, 38.922486089104886 ], [ -120.023878707844872, 38.9222610658774 ], [ -120.023715919330087, 38.922292947636507 ], [ -120.021456005019218, 38.921730760750314 ], [ -120.021592294328812, 38.921229743100596 ], [ -120.021579045029256, 38.920995173574383 ], [ -120.021464598147077, 38.920974233278073 ], [ -120.021458127661901, 38.920577676776908 ], [ -120.021348953735611, 38.9204307465317 ], [ -120.021483734454122, 38.919965725952103 ], [ -120.021351521706023, 38.919818207386847 ], [ -120.021318246259185, 38.919511055242367 ], [ -120.021161488786646, 38.919398945231897 ], [ -120.0211750461999, 38.919074971297562 ], [ -120.020948418622979, 38.918979094394466 ], [ -120.020929898730174, 38.918870514661975 ], [ -120.02075010398012, 38.91875781572714 ], [ -120.018533306703119, 38.918307814353845 ], [ -120.018574191490771, 38.918395915614148 ], [ -120.018455980554052, 38.918464965107979 ], [ -120.018377062790876, 38.918697178928731 ], [ -120.018117600055987, 38.918834688335238 ], [ -120.017967300798077, 38.919119130297908 ], [ -120.018168623212816, 38.919268419378007 ], [ -120.0180897034639, 38.919500632904651 ], [ -120.018522176144515, 38.919637812778788 ], [ -120.018431525903281, 38.919599460035585 ], [ -120.019919298644012, 38.919871712512979 ], [ -120.019977868351091, 38.920125457867407 ], [ -120.020069273647579, 38.920145810932887 ], [ -120.020073475994892, 38.920596362820824 ], [ -120.020462139919047, 38.920678363014602 ], [ -120.02056905215494, 38.920879289639466 ], [ -120.020626118044021, 38.921169031827183 ], [ -120.020501123464541, 38.921400070082456 ], [ -120.020087154955789, 38.921371476820667 ], [ -120.019988966189842, 38.921513110443598 ], [ -120.019904341302166, 38.921330770531505 ], [ -120.019125501403565, 38.921202761973291 ], [ -120.019203666329361, 38.9209885462597 ], [ -120.019184301128732, 38.920779308827647 ], [ -120.019097185011191, 38.921328162728706 ], [ -120.018988768844324, 38.921163231924339 ], [ -120.018597842654245, 38.921135222297977 ], [ -120.018810479467945, 38.921014532911343 ], [ -120.018622390414777, 38.921099814214763 ], [ -120.017291967895858, 38.920846901251117 ], [ -120.017268312195867, 38.920939070509981 ], [ -120.016810531635386, 38.920855291947156 ], [ -120.016745183791684, 38.920763531723381 ], [ -120.016860689084311, 38.920749652729548 ], [ -120.015969375243216, 38.920563508661395 ], [ -120.016075869932465, 38.920223895553086 ], [ -120.016082255602569, 38.919521365951596 ], [ -120.015949353662876, 38.920490925370594 ], [ -120.015854931053497, 38.920542562947496 ], [ -120.015260426235216, 38.920419244704348 ], [ -120.014822672217761, 38.92040804191474 ], [ -120.014786822684172, 38.92037813930154 ], [ -120.014777347697148, 38.920388864134949 ], [ -120.014526930941201, 38.920310383706607 ], [ -120.014532970089604, 38.920166396187327 ], [ -120.014367163343749, 38.920270258675956 ], [ -120.013643487776449, 38.919927412632084 ], [ -120.012910375080367, 38.919260000837852 ], [ -120.013056163077536, 38.919083556725944 ], [ -120.013357938381901, 38.919037231011025 ], [ -120.013505235042814, 38.91882478941708 ], [ -120.013668019178709, 38.918792921770802 ], [ -120.014586959403843, 38.919429049782742 ], [ -120.014973345245934, 38.919565063135494 ], [ -120.01513462112743, 38.919569190386937 ], [ -120.015276232074243, 38.918942192363218 ], [ -120.015487382077907, 38.918898538555247 ], [ -120.015511151910715, 38.918840096931326 ], [ -120.015725295588368, 38.918683416142585 ], [ -120.01570753832101, 38.918556837427225 ], [ -120.015803467350722, 38.918469202922729 ], [ -120.015941701797018, 38.918472739514385 ], [ -120.016275564979168, 38.918211013811266 ], [ -120.016358705718361, 38.918213140563374 ], [ -120.016303130319514, 38.918103612305615 ], [ -120.016472700870779, 38.917909754325905 ], [ -120.01635901508854, 38.917870810782681 ], [ -120.016388843210066, 38.917709413807373 ], [ -120.016486278883818, 38.917585781692914 ], [ -120.016809576411006, 38.917576032957641 ], [ -120.016909273829867, 38.917398404990209 ], [ -120.017048260519033, 38.917383941701281 ], [ -120.017144940446968, 38.917278307459092 ], [ -120.017201575797358, 38.917027506876686 ], [ -120.017040305364972, 38.917023382705416 ], [ -120.017025562659541, 38.916824810118378 ], [ -120.017234418020578, 38.916794115597305 ], [ -120.017519929326937, 38.916585202976179 ], [ -120.01738622278036, 38.916473677406955 ], [ -120.017490441301618, 38.916188057795097 ], [ -120.01749647357407, 38.916044069784789 ], [ -120.017358997709337, 38.916022536718863 ], [ -120.017434899059779, 38.915862317514183 ], [ -120.017646375472665, 38.915893298422063 ], [ -120.017573882661111, 38.915847853473132 ], [ -120.017675837440535, 38.915616229119102 ], [ -120.01781632840418, 38.91556576775298 ], [ -120.017796305997322, 38.915493184706854 ], [ -120.01802668755073, 38.915499074626844 ], [ -120.018146401463184, 38.915394028332457 ], [ -120.018400574689409, 38.91538250792734 ], [ -120.018615455172721, 38.915207822568377 ], [ -120.018695874963157, 38.914939611234225 ], [ -120.01883636391527, 38.914889148552653 ], [ -120.018704165608327, 38.914741627459016 ], [ -120.018634298118187, 38.914757859484702 ], [ -120.01857196783962, 38.914594106233764 ], [ -120.018571541455245, 38.914053561651457 ], [ -120.018296596620559, 38.91401049816055 ], [ -120.018305641867286, 38.913794515904037 ], [ -120.018425352356047, 38.913689469167714 ], [ -120.018290141943623, 38.913613941791567 ], [ -120.017965354699214, 38.913659692387853 ], [ -120.018021983481304, 38.913408891045329 ], [ -120.017790100913331, 38.913438998409056 ], [ -120.017677175228627, 38.91338205786456 ], [ -120.017736066409952, 38.913077261139271 ], [ -120.01758611373873, 38.912803160367694 ], [ -120.01726736192002, 38.91270492107261 ], [ -120.017011690134012, 38.912752436387429 ], [ -120.016945594714201, 38.912678674951202 ], [ -120.016689922854198, 38.91272618955567 ], [ -120.016507887576111, 38.912667480339024 ], [ -120.016510150143887, 38.912613484851427 ], [ -120.016810387835136, 38.912603145984349 ], [ -120.018954357210418, 38.912621922350091 ], [ -120.019049520394418, 38.91255228316269 ], [ -120.019005275915973, 38.911956565203731 ], [ -120.018765433349955, 38.911626115245696 ], [ -120.018264650961953, 38.911469172881723 ], [ -120.017749126326137, 38.9111136557527 ], [ -120.017588623071703, 38.911091534342475 ], [ -120.017352224373383, 38.911229632229563 ], [ -120.017144139530757, 38.911242329120299 ], [ -120.016965877719713, 38.911093628194728 ], [ -120.016975680082524, 38.910859647583138 ], [ -120.016619159754896, 38.910562245056234 ], [ -120.01627210344607, 38.910589403772448 ], [ -120.016090073908074, 38.910530694113113 ], [ -120.016050034863554, 38.910385527566511 ], [ -120.015893305329925, 38.910273411435057 ], [ -120.015920113122959, 38.910184008288944 ], [ -120.015683714532798, 38.910322102801899 ], [ -120.015615359580465, 38.910302336194505 ], [ -120.015692012180821, 38.910124119413538 ], [ -120.01562365741249, 38.910104352817747 ], [ -120.015549267771689, 38.910228574086041 ], [ -120.015437103343487, 38.910153633128296 ], [ -120.015359291631654, 38.909809304224332 ], [ -120.015454454206235, 38.90973966793343 ], [ -120.015342290621319, 38.90966472691327 ], [ -120.015369853214324, 38.909557325417317 ], [ -120.015574915852469, 38.909616625469667 ], [ -120.015784504602294, 38.909567934214543 ], [ -120.015937052499694, 38.909229498722596 ], [ -120.017150344245294, 38.908341622829333 ], [ -120.018642293175859, 38.907406802647152 ], [ -120.019264253429, 38.907422697125149 ], [ -120.01968642632508, 38.907253305963231 ], [ -120.02079439133955, 38.907227554796513 ], [ -120.021395875501526, 38.906630309171369 ], [ -120.021475520394802, 38.906380093382175 ], [ -120.02209250058408, 38.905963417790737 ], [ -120.022645635620336, 38.90541898451491 ], [ -120.02324605036884, 38.905398271922238 ], [ -120.023681459000258, 38.905463435437994 ], [ -120.023861978586893, 38.9055581303002 ], [ -120.024230539758904, 38.905567532799068 ], [ -120.024502448859906, 38.905682575802423 ], [ -120.024808672645122, 38.905528225916953 ], [ -120.025177233979818, 38.905537625421395 ], [ -120.02536677703759, 38.905416334096294 ], [ -120.026384077553317, 38.905352181631642 ], [ -120.02694443261953, 38.905186286044732 ], [ -120.027564875799527, 38.905238132941314 ], [ -120.027868838129962, 38.905137770781003 ], [ -120.028192079456559, 38.905127988179203 ], [ -120.02853385006496, 38.905226783739749 ], [ -120.02874416922036, 38.905160069578301 ], [ -120.029675845150095, 38.90549009993952 ], [ -120.029783514528702, 38.905673019956865 ] ], [ [ -120.018885629850161, 38.920872311470447 ], [ -120.018883818692387, 38.920847925377416 ], [ -120.018810479467945, 38.921014532911343 ], [ -120.018885629850161, 38.920872311470447 ] ], [ [ -120.017746750289419, 38.915956222128557 ], [ -120.017752911041171, 38.915978555375887 ], [ -120.017800160533426, 38.915989704258287 ], [ -120.017746750289419, 38.915956222128557 ] ], [ [ -120.028069315280305, 38.923539075074352 ], [ -120.027991473492563, 38.923488205088717 ], [ -120.028219329192268, 38.923813164389834 ], [ -120.028069315280305, 38.923539075074352 ] ], [ [ -120.027552903568676, 38.923201595247804 ], [ -120.027366928129595, 38.923160198689551 ], [ -120.027738685261227, 38.923323005916551 ], [ -120.027552903568676, 38.923201595247804 ] ], [ [ -120.027278668681106, 38.923140552764337 ], [ -120.02708832771458, 38.923279843793587 ], [ -120.027313492130659, 38.923148304225585 ], [ -120.027278668681106, 38.923140552764337 ] ], [ [ -120.026464720689802, 38.92329998285495 ], [ -120.026455627448087, 38.923305294969353 ], [ -120.026804318630482, 38.923452782432314 ], [ -120.026464720689802, 38.92329998285495 ] ], [ [ -120.017020086325914, 38.920730499527139 ], [ -120.01710346460689, 38.920720480685603 ], [ -120.017110096103295, 38.920679412998631 ], [ -120.017020086325914, 38.920730499527139 ] ], [ [ -120.018623804463516, 38.919964730495039 ], [ -120.018840894235453, 38.920195740642875 ], [ -120.018845908875363, 38.920168602971373 ], [ -120.018623804463516, 38.919964730495039 ] ], [ [ -120.018943822129685, 38.920379357459275 ], [ -120.018816084898333, 38.92033000069496 ], [ -120.01890598248022, 38.920386351690937 ], [ -120.018895685635755, 38.920431951952352 ], [ -120.018943822129685, 38.920379357459275 ] ], [ [ -120.018863507900022, 38.920574452758245 ], [ -120.018849349649813, 38.920637153107442 ], [ -120.018872061708265, 38.920689624794825 ], [ -120.018863507900022, 38.920574452758245 ] ], [ [ -120.016384031316363, 38.91947503240015 ], [ -120.01659742082947, 38.919336348498668 ], [ -120.016611153561627, 38.91930885410634 ], [ -120.016384031316363, 38.91947503240015 ] ], [ [ -120.016629222929041, 38.919272677270996 ], [ -120.016668373158495, 38.919194294115172 ], [ -120.016649145987429, 38.919195051966263 ], [ -120.016629222929041, 38.919272677270996 ] ], [ [ -120.015014388708209, 38.920030070952478 ], [ -120.015072692729632, 38.919945978654162 ], [ -120.015087032830607, 38.91960400809711 ], [ -120.015014388708209, 38.920030070952478 ] ], [ [ -120.01522828818662, 38.919535551809496 ], [ -120.015461235213479, 38.918962824333626 ], [ -120.015337048499077, 38.919141944035751 ], [ -120.01522828818662, 38.919535551809496 ] ], [ [ -120.019148533914432, 38.920630745664027 ], [ -120.01917706824544, 38.920701158645457 ], [ -120.019171907439471, 38.920645396868395 ], [ -120.019148533914432, 38.920630745664027 ] ] ], [ [ [ -120.020681677578949, 38.921494771066733 ], [ -120.020811945101897, 38.921137742824868 ], [ -120.020845218662515, 38.921444894983743 ], [ -120.020681677578949, 38.921494771066733 ] ] ], [ [ [ -120.02481686981217, 38.926302967057318 ], [ -120.024431644906187, 38.926689531055679 ], [ -120.024198967946248, 38.926737648099831 ], [ -120.022676093088975, 38.927851920990641 ], [ -120.022403800558877, 38.928295414057892 ], [ -120.022419311766029, 38.928475987764642 ], [ -120.022256508321775, 38.928507866872707 ], [ -120.022148074762868, 38.928342938466706 ], [ -120.021800932303279, 38.928370110253951 ], [ -120.021373361651584, 38.92866549350893 ], [ -120.021346552172218, 38.928754897659672 ], [ -120.021209803959607, 38.928715369642923 ], [ -120.021114620132337, 38.928785009661674 ], [ -120.019593815250218, 38.928746156951313 ], [ -120.020609192018739, 38.928736063929328 ], [ -120.02056762860569, 38.928626895589609 ], [ -120.020022147107824, 38.928432782032758 ], [ -120.020213269288476, 38.928275505225322 ], [ -120.020197763713341, 38.928094931440967 ], [ -120.020289932830565, 38.928097286204022 ], [ -120.020309206884534, 38.928187867435206 ], [ -120.020495052588956, 38.928156579695575 ], [ -120.020628785027156, 38.928268102557801 ], [ -120.020953638354129, 38.92822234718853 ], [ -120.021383467972043, 38.92787296983191 ], [ -120.021422358127396, 38.927916357769782 ], [ -120.021408770284481, 38.927819562704975 ], [ -120.021429386182689, 38.927816886037732 ], [ -120.020559976679706, 38.927707794097252 ], [ -120.020906362643672, 38.927698624416955 ], [ -120.020978502997664, 38.927628395970515 ], [ -120.022245821904377, 38.927660758794659 ], [ -120.024125616261472, 38.926285332048508 ], [ -120.024511306247604, 38.926439314399381 ], [ -120.024675609079097, 38.926371434732253 ], [ -120.024779063341995, 38.926103807033108 ], [ -120.025184315271261, 38.925789823732167 ], [ -120.02546307180198, 38.925742879837458 ], [ -120.025529187635215, 38.92581663712231 ], [ -120.025268958514374, 38.925972160427918 ], [ -120.025288238561302, 38.926062741090092 ], [ -120.025117917968075, 38.92627461043579 ], [ -120.02481686981217, 38.926302967057318 ] ], [ [ -120.021468181314361, 38.927915673228966 ], [ -120.021440136499621, 38.927936192251863 ], [ -120.021449581263838, 38.927946729319501 ], [ -120.021468181314361, 38.927915673228966 ] ], [ [ -120.022205029903276, 38.927690604935535 ], [ -120.021970970799529, 38.927797883412097 ], [ -120.022055458940628, 38.927800040650581 ], [ -120.022205029903276, 38.927690604935535 ] ] ], [ [ [ -120.020298543479726, 38.927340760049788 ], [ -120.020299297106405, 38.927322761537106 ], [ -120.020344627553229, 38.927341937381584 ], [ -120.020298543479726, 38.927340760049788 ] ] ], [ [ [ -120.020274747810774, 38.927358169889281 ], [ -120.020275501443948, 38.927340171377082 ], [ -120.02029778985235, 38.927358758562363 ], [ -120.020274747810774, 38.927358169889281 ] ] ], [ [ [ -120.020250952130226, 38.927375579723446 ], [ -120.02025170576988, 38.927357581211652 ], [ -120.020273994176947, 38.927376168401459 ], [ -120.020250952130226, 38.927375579723446 ] ] ], [ [ [ -120.020227156438096, 38.927392989552224 ], [ -120.020227910084216, 38.927374991040907 ], [ -120.020250198489904, 38.927393578235133 ], [ -120.020227156438096, 38.927392989552224 ] ] ], [ [ [ -120.020203360734342, 38.927410399375631 ], [ -120.020204114386956, 38.927392400864761 ], [ -120.020226402791295, 38.927410988063457 ], [ -120.020203360734342, 38.927410399375631 ] ] ], [ [ [ -120.020179565018935, 38.927427809193716 ], [ -120.02018031867803, 38.927409810683251 ], [ -120.020202607081046, 38.927428397886466 ], [ -120.020179565018935, 38.927427809193716 ] ] ], [ [ [ -120.020155769291947, 38.927445219006387 ], [ -120.020156522957535, 38.927427220496419 ], [ -120.020178811359173, 38.927445807704061 ], [ -120.020155769291947, 38.927445219006387 ] ] ], [ [ [ -120.020131973553333, 38.927462628813721 ], [ -120.020132727225388, 38.92744463030418 ], [ -120.020155015625704, 38.927463217516312 ], [ -120.020131973553333, 38.927462628813721 ] ] ], [ [ [ -120.020108177803138, 38.927480038615734 ], [ -120.020108931481687, 38.927462040106597 ], [ -120.020131219880597, 38.927480627323234 ], [ -120.020108177803138, 38.927480038615734 ] ] ], [ [ [ -120.018894247045793, 38.928926473425349 ], [ -120.018895001069964, 38.928908474940627 ], [ -120.021313715322279, 38.928988289995978 ], [ -120.018894247045793, 38.928926473425349 ] ] ], [ [ [ -120.018409240306767, 38.919580872586515 ], [ -120.018409994202273, 38.919562874080881 ], [ -120.018432279793672, 38.91958146152961 ], [ -120.018409240306767, 38.919580872586515 ] ] ], [ [ [ -120.020084382041304, 38.927497448412346 ], [ -120.020085135726319, 38.927479449903693 ], [ -120.020107424123921, 38.927498037124757 ], [ -120.020084382041304, 38.927497448412346 ] ] ], [ [ [ -120.020060586267846, 38.927514858203615 ], [ -120.020061339959341, 38.927496859695381 ], [ -120.020083628355607, 38.927515446920957 ], [ -120.020060586267846, 38.927514858203615 ] ] ], [ [ [ -120.020036790482777, 38.92753226798952 ], [ -120.020037544180752, 38.927514269481748 ], [ -120.020059832575683, 38.927532856711771 ], [ -120.020036790482777, 38.92753226798952 ] ] ], [ [ [ -120.020012994686127, 38.927549677770038 ], [ -120.020013748390582, 38.927531679262728 ], [ -120.020036036784134, 38.927550266497207 ], [ -120.020012994686127, 38.927549677770038 ] ] ], [ [ [ -120.019989198877838, 38.927567087545235 ], [ -120.019989952588773, 38.927549089038337 ], [ -120.020012240981004, 38.92756767627732 ], [ -120.019989198877838, 38.927567087545235 ] ] ], [ [ [ -120.019965403057938, 38.927584497315038 ], [ -120.019966156775354, 38.927566498808616 ], [ -120.019988445166234, 38.927585086052048 ], [ -120.019965403057938, 38.927584497315038 ] ] ], [ [ [ -120.0199416072264, 38.927601907079527 ], [ -120.019942360950296, 38.927583908573496 ], [ -120.019964649339826, 38.927602495821453 ], [ -120.0199416072264, 38.927601907079527 ] ] ] ] } }
]
}
