{
"type": "FeatureCollection",
"name": "X04953",
"crs": { "type": "name", "properties": { "name": "urn:ogc:def:crs:OGC:1.3:CRS84" } },
"features": [
{ "type": "Feature", "properties": { "part": "direct", "crossing_id": "X04953", "area_ac": 0.0 }, "geometry": { "type": "MultiPolygon", "coordinates": [ [ [ [ -120.002009222627066, 38.92071001764711 ], [ -120.002054543583199, 38.920729200263565 ], [ -120.002008464557349, 38.920728015879433 ], [ -120.002009222627066, 38.92071001764711 ] ] ], [ [ [ -120.001854769061225, 38.920543888091849 ], [ -120.001989215416259, 38.92063743252001 ], [ -120.001985425045461, 38.920727423680567 ], [ -120.001850978533241, 38.920633879242793 ], [ -120.001854769061225, 38.920543888091849 ] ] ] ] } }
]
}
