{
"type": "FeatureCollection",
"name": "X04918",
"crs": { "type": "name", "properties": { "name": "urn:ogc:def:crs:OGC:1.3:CRS84" } },
"features": [
{ "type": "Feature", "properties": { "part": "direct", "crossing_id": "X04918", "area_ac": 0.0 }, "geometry": { "type": "Polygon", "coordinates": [ [ [ -120.0072135803116, 38.934068678413695 ], [ -120.007256639769267, 38.934141854191544 ], [ -120.007417190456408, 38.934163991676371 ], [ -120.007232838695003, 38.934159261135349 ], [ -120.007119890288124, 38.934102309574193 ], [ -120.0072135803116, 38.934068678413695 ] ] ] } }
]
}
