{
"type": "FeatureCollection",
"name": "X04921",
"crs": { "type": "name", "properties": { "name": "urn:ogc:def:crs:OGC:1.3:CRS84" } },
"features": [
{ "type": "Feature", "properties": { "part": "direct", "crossing_id": "X04921", "area_ac": 287.8, "n_upstream": null }, "geometry": { "type": "Polygon", "coordinates": [ [ [ -120.028324764923639, 38.924050082156107 ], [ -120.028801866482354, 38.924224397050914 ], [ -120.029000221206459, 38.924445663415071 ], [ -120.029276716637881, 38.924452706085418 ], [ -120.029455037081874, 38.924601390205488 ], [ -120.028914567104593, 38.924839873212065 ], [ -120.02874726585847, 38.92497975380055 ], [ -120.028766550184713, 38.925070334063442 ], [ -120.028953136175673, 38.925021033697469 ], [ -120.029429742000374, 38.924654799385998 ], [ -120.029797652668094, 38.924682186829855 ], [ -120.029915112928279, 38.924631124548419 ], [ -120.030025062057831, 38.924760048942666 ], [ -120.029998265115296, 38.924849455618407 ], [ -120.030183347666537, 38.924836150587282 ], [ -120.030542999001128, 38.925061521263927 ], [ -120.030603862945256, 38.925261266671079 ], [ -120.030893641883011, 38.92550287521712 ], [ -120.031215474418261, 38.925529085253316 ], [ -120.031532802799347, 38.925663286620868 ], [ -120.032877787149232, 38.926598400479556 ], [ -120.033241207819685, 38.92673376983393 ], [ -120.033956263735064, 38.926733938266324 ], [ -120.033962802316424, 38.927130496455838 ], [ -120.033747704927322, 38.927863756571753 ], [ -120.033150631847647, 38.928353068772495 ], [ -120.033169172064831, 38.928461647235856 ], [ -120.032850855220957, 38.928903994828524 ], [ -120.032090965029312, 38.929425194708685 ], [ -120.031015219178315, 38.92977618923468 ], [ -120.030879213953369, 38.929718673603446 ], [ -120.030692616565062, 38.929767976589034 ], [ -120.030961384976621, 38.93051354847281 ], [ -120.031515691755857, 38.931050174079601 ], [ -120.032727014089815, 38.931873781569529 ], [ -120.033772554118215, 38.93280126733243 ], [ -120.033908567636871, 38.932858779882302 ], [ -120.034049833484318, 38.932790301238413 ], [ -120.034066875213853, 38.932934877027051 ], [ -120.034202889241243, 38.932992389251531 ], [ -120.035005684790406, 38.933102890039251 ], [ -120.03511640561473, 38.933213811603459 ], [ -120.035156493863582, 38.933358973131078 ], [ -120.035335598315015, 38.933489650670055 ], [ -120.035352642747952, 38.93363422636412 ], [ -120.035067859435998, 38.933825182780176 ], [ -120.034811910352843, 38.934431280979631 ], [ -120.034669141443871, 38.934535757882884 ], [ -120.033726562018813, 38.934457735040304 ], [ -120.031847702042299, 38.935256769656831 ], [ -120.03162452793913, 38.935629463193791 ], [ -120.031163116988878, 38.935077184907684 ], [ -120.029125664186324, 38.934700982045534 ], [ -120.028730147569391, 38.934780995176361 ], [ -120.027768289610748, 38.934612344081458 ], [ -120.026947440194064, 38.934933759609983 ], [ -120.024105721098621, 38.934482910841666 ], [ -120.022762815027392, 38.935151329629768 ], [ -120.022625300597852, 38.935129801326262 ], [ -120.022271344866667, 38.935318959902062 ], [ -120.021858801453149, 38.935254372755665 ], [ -120.0211754350739, 38.935597275483204 ], [ -120.01822571566187, 38.93552189728176 ], [ -120.017946916709022, 38.935568822106383 ], [ -120.017903845223373, 38.935495649828106 ], [ -120.017490551202556, 38.93544904577962 ], [ -120.017370800693058, 38.935554089724036 ], [ -120.017232532912004, 38.935550553529872 ], [ -120.017635609469878, 38.935290595663631 ], [ -120.017477315831101, 38.93521447670949 ], [ -120.017447827012759, 38.934817332322197 ], [ -120.017591374975922, 38.934694879088838 ], [ -120.017499952077969, 38.934674523417748 ], [ -120.017529032612046, 38.934531125173137 ], [ -120.017396803216513, 38.934383601699828 ], [ -120.017471217690684, 38.934259380563283 ], [ -120.017468545630081, 38.933772833218526 ], [ -120.017651389175455, 38.933813544453976 ], [ -120.017893146060317, 38.933549460171427 ], [ -120.017714829690973, 38.93340075862691 ], [ -120.01792750591909, 38.933280072569438 ], [ -120.018088813291513, 38.933284196952314 ], [ -120.018312463840857, 38.933452074695168 ], [ -120.018476788664302, 38.933384204705504 ], [ -120.0185036038296, 38.933294801486397 ], [ -120.018939176129564, 38.933359988980406 ], [ -120.018991296985206, 38.93321717921868 ], [ -120.019361507674503, 38.933190605721542 ], [ -120.01933653250731, 38.932685470430968 ], [ -120.019433985410529, 38.93256183673121 ], [ -120.019416973615037, 38.932417259964147 ], [ -120.019330077029835, 38.932288914925159 ], [ -120.018919816681901, 38.932170322706966 ], [ -120.018983247797621, 38.931757535742356 ], [ -120.019180413759585, 38.931456273306502 ], [ -120.019209066039636, 38.930772330957332 ], [ -120.019413438403419, 38.930849625082267 ], [ -120.01941461703683, 38.931372170082795 ], [ -120.019459524710214, 38.930850802852063 ], [ -120.019294782746769, 38.930378131030416 ], [ -120.019204872714909, 38.930321779910329 ], [ -120.019275509581504, 38.930287549688337 ], [ -120.019173112546724, 38.929978630831158 ], [ -120.019225230023821, 38.929835820777384 ], [ -120.019698901912378, 38.929541623722876 ], [ -120.020100103955158, 38.929876194724351 ], [ -120.020215318224629, 38.929879138375611 ], [ -120.020288968975208, 38.929772913483383 ], [ -120.020566990145596, 38.929743980573576 ], [ -120.020835532260392, 38.929390485136075 ], [ -120.021064452421001, 38.929432367849664 ], [ -120.021024394953315, 38.92928720260339 ], [ -120.021214010552654, 38.929165921219592 ], [ -120.021338264729508, 38.928952881435308 ], [ -120.021348812369723, 38.928700902083072 ], [ -120.02168346039339, 38.928421163859078 ], [ -120.022148074762868, 38.928342938466706 ], [ -120.022256508321775, 38.928507866872707 ], [ -120.02244310732965, 38.928458577484257 ], [ -120.022403800558877, 38.928295414057892 ], [ -120.022723683648309, 38.927817100295094 ], [ -120.022704253245223, 38.929384150417221 ], [ -120.022771274161201, 38.927782279578118 ], [ -120.024198967946248, 38.926737648099831 ], [ -120.024431644906187, 38.926689531055679 ], [ -120.02481686981217, 38.926302967057318 ], [ -120.025117917968075, 38.92627461043579 ], [ -120.025341092872367, 38.925901929025784 ], [ -120.02559906484305, 38.925800401354088 ], [ -120.025874060324085, 38.92584344950199 ], [ -120.025846505541026, 38.925950853596511 ], [ -120.025960961904232, 38.925971789938657 ], [ -120.026061402215248, 38.925776155318445 ], [ -120.026244983360229, 38.925798853893831 ], [ -120.02638849766511, 38.925676388355051 ], [ -120.026595872320485, 38.925681675197943 ], [ -120.026720103984061, 38.925468628696223 ], [ -120.026902932709575, 38.925509324838679 ], [ -120.026999610346039, 38.925403682408735 ], [ -120.026958790484784, 38.92527651735822 ], [ -120.027146129933399, 38.925209221326753 ], [ -120.02710380620195, 38.925118053579958 ], [ -120.027340235129074, 38.924979937265519 ], [ -120.027354518910428, 38.924637963184324 ], [ -120.027541104581744, 38.924588665069649 ], [ -120.027782792491834, 38.924324557245512 ], [ -120.028015459485857, 38.924276432625561 ], [ -120.028324764923639, 38.924050082156107 ] ], [ [ -120.01822824558127, 38.93381027644336 ], [ -120.018187851728953, 38.934223651803656 ], [ -120.018210895948087, 38.934224240975347 ], [ -120.01822824558127, 38.93381027644336 ] ], [ [ -120.022860881963638, 38.931153889927259 ], [ -120.022867357450579, 38.931550446071867 ], [ -120.022883925287488, 38.931154478137749 ], [ -120.022860881963638, 38.931153889927259 ] ], [ [ -120.0195724787731, 38.930907742666513 ], [ -120.019651081472659, 38.931234070896032 ], [ -120.019650753858187, 38.931792612909661 ], [ -120.019725488450376, 38.931109847978249 ], [ -120.019687694655985, 38.930910686903616 ], [ -120.0195724787731, 38.930907742666513 ] ] ] } },
{ "type": "Feature", "properties": { "part": "upstream", "crossing_id": "X04921", "area_ac": 25.5, "n_upstream": 7.0 }, "geometry": { "type": "MultiPolygon", "coordinates": [ [ [ [ -120.02874726585847, 38.92497975380055 ], [ -120.028914567104593, 38.924839873212065 ], [ -120.02924541115344, 38.924650104566361 ], [ -120.029477327189625, 38.924619975703166 ], [ -120.028953136175673, 38.925021033697469 ], [ -120.028766550184713, 38.925070334063442 ], [ -120.02874726585847, 38.92497975380055 ] ] ], [ [ [ -120.022770521146811, 38.927800278129844 ], [ -120.02268121049795, 38.929383562193586 ], [ -120.022747478910588, 38.927799689939256 ], [ -120.022770521146811, 38.927800278129844 ] ] ], [ [ [ -120.033851234822919, 38.929253760902121 ], [ -120.034003532808399, 38.929473847693394 ], [ -120.034008570466895, 38.929906403196732 ], [ -120.034214996149842, 38.93048822234514 ], [ -120.034567937485519, 38.930875570624096 ], [ -120.034691946710581, 38.931221061928291 ], [ -120.034954969333697, 38.931552069456764 ], [ -120.034969012628878, 38.931768640155724 ], [ -120.035102025255654, 38.931898146241721 ], [ -120.035072231283308, 38.932059549093083 ], [ -120.035203744635055, 38.932225052566835 ], [ -120.035072024395618, 38.93261809581152 ], [ -120.035126156073176, 38.932979828019697 ], [ -120.03505177320838, 38.933104061709827 ], [ -120.034384991851752, 38.933051073257879 ], [ -120.034066875213853, 38.932934877027051 ], [ -120.034049833484318, 38.932790301238413 ], [ -120.033908567636871, 38.932858779882302 ], [ -120.033772554118215, 38.93280126733243 ], [ -120.032727014089815, 38.931873781569529 ], [ -120.032500329813899, 38.931777925108548 ], [ -120.032055972369704, 38.931370226625965 ], [ -120.031292766542791, 38.930864322009839 ], [ -120.030961384976621, 38.93051354847281 ], [ -120.030729689949908, 38.929985133985213 ], [ -120.03069411869464, 38.92973197923849 ], [ -120.031015219178315, 38.92977618923468 ], [ -120.032090965029312, 38.929425194708685 ], [ -120.032612921623993, 38.929078119567329 ], [ -120.032971322511642, 38.928780934827437 ], [ -120.033169172064831, 38.928461647235856 ], [ -120.033150631847647, 38.928353068772495 ], [ -120.033822083949858, 38.927739523492072 ], [ -120.033639028977419, 38.928257384477952 ], [ -120.033881029963922, 38.929092358357813 ], [ -120.033851234822919, 38.929253760902121 ] ] ], [ [ [ -120.019416454177957, 38.930777631132635 ], [ -120.01939039525098, 38.930849036190565 ], [ -120.019393411048767, 38.930777042242433 ], [ -120.019416454177957, 38.930777631132635 ] ] ], [ [ [ -120.019413438403419, 38.930849625082267 ], [ -120.01941461703683, 38.931372170082795 ], [ -120.019391573715325, 38.931371581184727 ], [ -120.019413438403419, 38.930849625082267 ] ] ], [ [ [ -120.022883925287488, 38.931154478137749 ], [ -120.022844313998945, 38.931549857853113 ], [ -120.022860881963638, 38.931153889927259 ], [ -120.022883925287488, 38.931154478137749 ] ] ], [ [ [ -120.019651081472659, 38.931234070896032 ], [ -120.0195724787731, 38.930907742666513 ], [ -120.019687694655985, 38.930910686903616 ], [ -120.01972322682802, 38.931163843452708 ], [ -120.01962771039571, 38.931792024052903 ], [ -120.019651081472659, 38.931234070896032 ] ] ], [ [ [ -120.018182157410848, 38.933809098112725 ], [ -120.018210895948087, 38.934224240975347 ], [ -120.018187851728953, 38.934223651803656 ], [ -120.018182157410848, 38.933809098112725 ] ] ] ] } }
]
}
