{
"type": "FeatureCollection",
"name": "X04929",
"crs": { "type": "name", "properties": { "name": "urn:ogc:def:crs:OGC:1.3:CRS84" } },
"features": [
{ "type": "Feature", "properties": { "part": "direct", "crossing_id": "X04929", "area_ac": 0.2 }, "geometry": { "type": "Polygon", "coordinates": [ [ [ -120.016284056244317, 38.929562419777 ], [ -120.016533752465975, 38.929658896121637 ], [ -120.016481629813029, 38.929801704768394 ], [ -120.015951646692926, 38.929788146103952 ], [ -120.01605061053003, 38.929628518384988 ], [ -120.016284056244317, 38.929562419777 ] ] ] } }
]
}
