{
"type": "FeatureCollection",
"name": "X04912",
"crs": { "type": "name", "properties": { "name": "urn:ogc:def:crs:OGC:1.3:CRS84" } },
"features": [
{ "type": "Feature", "properties": { "part": "direct", "crossing_id": "X04912", "area_ac": 28.6, "n_upstream": null }, "geometry": { "type": "Polygon", "coordinates": [ [ [ -120.00798734357285, 38.916214945220673 ], [ -120.009476109959593, 38.917009870125703 ], [ -120.009401701839224, 38.917134086636096 ], [ -120.009468549093171, 38.917189853790362 ], [ -120.009656637527712, 38.917104587234647 ], [ -120.010536244054393, 38.917577578377923 ], [ -120.010461081230559, 38.917719793985022 ], [ -120.010694491617841, 38.917653705122824 ], [ -120.010941871518412, 38.917804186836207 ], [ -120.011194542194247, 38.917828679316223 ], [ -120.0115756232709, 38.918090692137994 ], [ -120.011497439448675, 38.918304902049712 ], [ -120.011614900833095, 38.918253858265139 ], [ -120.011912895777115, 38.918297528190081 ], [ -120.0121795423631, 38.91853858968814 ], [ -120.012036019912514, 38.918661037465142 ], [ -120.011852463019991, 38.918638317387284 ], [ -120.011494031902259, 38.918935436174074 ], [ -120.011380347555772, 38.918896487823325 ], [ -120.011192256131309, 38.918981757032853 ], [ -120.010714845263024, 38.919365913258488 ], [ -120.010319398349594, 38.919445866630049 ], [ -120.010149807673656, 38.919639714809122 ], [ -120.010144515769383, 38.919765703395861 ], [ -120.00966936234019, 38.920095859774086 ], [ -120.008630725970789, 38.919564730209828 ], [ -120.008467938243442, 38.9195965906586 ], [ -120.008427911012234, 38.919451422100579 ], [ -120.007996974363294, 38.919278208907762 ], [ -120.006442847689087, 38.918391498734046 ], [ -120.006541814839665, 38.918231879035211 ], [ -120.006298227992403, 38.917991396744128 ], [ -120.006417205998645, 38.917904361696259 ], [ -120.006402493010498, 38.917705788952603 ], [ -120.006499188645606, 38.917600164186055 ], [ -120.006363984623079, 38.917524623224779 ], [ -120.006601181739171, 38.91736855109928 ], [ -120.006444453242636, 38.91725642235906 ], [ -120.006430497049124, 38.917039851285509 ], [ -120.006592522768486, 38.917025991794972 ], [ -120.006624642807353, 38.91681060319673 ], [ -120.006907156777146, 38.916673711098632 ], [ -120.006843339033495, 38.916545949270194 ], [ -120.007271986577209, 38.916773161029809 ], [ -120.007416269424766, 38.916632720923857 ], [ -120.007602088955409, 38.91660145272391 ], [ -120.007724089065178, 38.916442422814264 ], [ -120.007885356810831, 38.916446559803099 ], [ -120.007869883282538, 38.916265985394958 ], [ -120.00798734357285, 38.916214945220673 ] ] ] } },
{ "type": "Feature", "properties": { "part": "upstream", "crossing_id": "X04912", "area_ac": 99.0, "n_upstream": 4.0 }, "geometry": { "type": "MultiPolygon", "coordinates": [ [ [ [ -120.016728723790735, 38.911249723274771 ], [ -120.016672846815823, 38.911482525455732 ], [ -120.016859818341288, 38.911973787567469 ], [ -120.016854539745594, 38.912099777091612 ], [ -120.016644944034425, 38.912148469988104 ], [ -120.016426297658583, 38.912413144443498 ], [ -120.016371172768743, 38.912627947870853 ], [ -120.016510150143887, 38.912613484851427 ], [ -120.01659777392284, 38.91272383272716 ], [ -120.016945594714201, 38.912678674951202 ], [ -120.017011690134012, 38.912752436387429 ], [ -120.017195988151059, 38.912757149321315 ], [ -120.01726736192002, 38.91270492107261 ], [ -120.017630680474568, 38.912840335430403 ], [ -120.017736066409952, 38.913077261139271 ], [ -120.017677175228627, 38.91338205786456 ], [ -120.017790100913331, 38.913438998409056 ], [ -120.018021983481304, 38.913408891045329 ], [ -120.017965354699214, 38.913659692387853 ], [ -120.018290141943623, 38.913613941791567 ], [ -120.018425352356047, 38.913689469167714 ], [ -120.018305641867286, 38.913794515904037 ], [ -120.018296596620559, 38.91401049816055 ], [ -120.018571541455245, 38.914053561651457 ], [ -120.01857196783962, 38.914594106233764 ], [ -120.018634298118187, 38.914757859484702 ], [ -120.018704165608327, 38.914741627459016 ], [ -120.01883636391527, 38.914889148552653 ], [ -120.018695874963157, 38.914939611234225 ], [ -120.018615455172721, 38.915207822568377 ], [ -120.018400574689409, 38.91538250792734 ], [ -120.018146401463184, 38.915394028332457 ], [ -120.01802668755073, 38.915499074626844 ], [ -120.01784389015971, 38.915458365709142 ], [ -120.01781632840418, 38.91556576775298 ], [ -120.017626745113418, 38.915687045049715 ], [ -120.017596920923395, 38.915848442533928 ], [ -120.017388822533647, 38.915861139323766 ], [ -120.017358997709337, 38.916022536718863 ], [ -120.01749647357407, 38.916044069784789 ], [ -120.01738622278036, 38.916473677406955 ], [ -120.017519929326937, 38.916585202976179 ], [ -120.017234418020578, 38.916794115597305 ], [ -120.017025562659541, 38.916824810118378 ], [ -120.017040305364972, 38.917023382705416 ], [ -120.017201575797358, 38.917027506876686 ], [ -120.017144940446968, 38.917278307459092 ], [ -120.017048260519033, 38.917383941701281 ], [ -120.016909273829867, 38.917398404990209 ], [ -120.016809576411006, 38.917576032957641 ], [ -120.016439446943124, 38.917602601564013 ], [ -120.01635901508854, 38.917870810782681 ], [ -120.016472700870779, 38.917909754325905 ], [ -120.016303884707341, 38.918085613829987 ], [ -120.016344681978595, 38.918212781838243 ], [ -120.016229486982937, 38.91820983510393 ], [ -120.016178128024137, 38.918334645690074 ], [ -120.015941701797018, 38.918472739514385 ], [ -120.015803467350722, 38.918469202922729 ], [ -120.01570753832101, 38.918556837427225 ], [ -120.015725295588368, 38.918683416142585 ], [ -120.015608590738012, 38.91871646569215 ], [ -120.015461300433046, 38.918928910203455 ], [ -120.015276232074243, 38.918942192363218 ], [ -120.01513462112743, 38.919569190386937 ], [ -120.014973345245934, 38.919565063135494 ], [ -120.014586959403843, 38.919429049782742 ], [ -120.013062577733649, 38.918381028339724 ], [ -120.013598901785315, 38.918791152137139 ], [ -120.013357938381901, 38.919037231011025 ], [ -120.013056163077536, 38.919083556725944 ], [ -120.012888091095263, 38.919241412393092 ], [ -120.012129687053047, 38.918627401383951 ], [ -120.0121795423631, 38.91853858968814 ], [ -120.011912895777115, 38.918297528190081 ], [ -120.011475156133372, 38.9182863133585 ], [ -120.011630048037517, 38.918124977438929 ], [ -120.011194542194247, 38.917828679316223 ], [ -120.010941871518412, 38.917804186836207 ], [ -120.010694491617841, 38.917653705122824 ], [ -120.010461081230559, 38.917719793985022 ], [ -120.010536244054393, 38.917577578377923 ], [ -120.010061503447972, 38.917349196928996 ], [ -120.01011136028437, 38.917260386167392 ], [ -120.010062259392157, 38.917331198553548 ], [ -120.009592978758917, 38.917105440395616 ], [ -120.009514626145375, 38.917191035140313 ], [ -120.009424740345523, 38.917134677325826 ], [ -120.009476109959593, 38.917009870125703 ], [ -120.00818939249514, 38.916346252107488 ], [ -120.008683026817934, 38.916124681824336 ], [ -120.008832599114498, 38.915858251279836 ], [ -120.009017659956029, 38.915844979076894 ], [ -120.009355670408553, 38.916033823519967 ], [ -120.008612806086319, 38.915600366180719 ], [ -120.008981414068529, 38.915609818851742 ], [ -120.009156290343057, 38.915289983437525 ], [ -120.009224647959215, 38.91530975393627 ], [ -120.009227672357625, 38.915237760464024 ], [ -120.009364387576738, 38.915277301337056 ], [ -120.009486381404017, 38.915118269306909 ], [ -120.009570615085309, 38.914760073743139 ], [ -120.009220913378797, 38.914300663851478 ], [ -120.009452045289862, 38.914288572167571 ], [ -120.009481130937104, 38.914145175807619 ], [ -120.00968544502058, 38.914222484886004 ], [ -120.009853511235733, 38.914064633532448 ], [ -120.010057069680954, 38.914159940351027 ], [ -120.00999551574678, 38.913978184911812 ], [ -120.01020209743902, 38.914001497929753 ], [ -120.010333520428063, 38.914167026324328 ], [ -120.010788226475725, 38.9143228220032 ], [ -120.010830523382012, 38.914413994746084 ], [ -120.010948734236905, 38.914344952970886 ], [ -120.011271261218141, 38.914353217445729 ], [ -120.011344907392768, 38.91424699785366 ], [ -120.011642130037714, 38.914308666238576 ], [ -120.011715020181086, 38.914220444800122 ], [ -120.01196767858211, 38.914244935126668 ], [ -120.012297003067189, 38.914091210971769 ], [ -120.012782302800886, 38.914067604835566 ], [ -120.014181196342776, 38.914806114888592 ], [ -120.014373801833869, 38.914612849500621 ], [ -120.01443044413999, 38.91436205046611 ], [ -120.014238200847856, 38.913996774226753 ], [ -120.014431558602496, 38.913785510170939 ], [ -120.014227994843623, 38.913690210798492 ], [ -120.014446653362612, 38.913425540992883 ], [ -120.01445721953408, 38.913173562552032 ], [ -120.014598462280148, 38.913105106484259 ], [ -120.014603745053662, 38.912979117241122 ], [ -120.014890756840714, 38.912734213709633 ], [ -120.015238578438669, 38.912689061072285 ], [ -120.015304672035299, 38.912762823407135 ], [ -120.015466687026077, 38.912748951120548 ], [ -120.015299742684959, 38.912330270505223 ], [ -120.015397926681743, 38.912188640508347 ], [ -120.015559185931224, 38.912192766520512 ], [ -120.015867719533816, 38.911984446681025 ], [ -120.016353004624619, 38.911960825058827 ], [ -120.016269153239989, 38.911760484566081 ], [ -120.016438707649172, 38.911566625862797 ], [ -120.016348822839291, 38.911510273404716 ], [ -120.016450020245443, 38.911296648384692 ], [ -120.016288008683674, 38.911310522178638 ], [ -120.016271759824647, 38.911147946450434 ], [ -120.016525163733007, 38.911154428042643 ], [ -120.016728723790735, 38.911249723274771 ] ], [ [ -120.009864381046341, 38.916551362639694 ], [ -120.009836050852371, 38.916676760662085 ], [ -120.009645695675971, 38.916816022676635 ], [ -120.009859845197212, 38.916659352886164 ], [ -120.009901908177625, 38.916687457807186 ], [ -120.009864381046341, 38.916551362639694 ] ] ], [ [ [ -120.009401701839224, 38.917134086636096 ], [ -120.009423984245601, 38.917152675691391 ], [ -120.009400945733461, 38.917152085001263 ], [ -120.009401701839224, 38.917134086636096 ] ] ] ] } }
]
}
