{
"type": "FeatureCollection",
"name": "X04922",
"crs": { "type": "name", "properties": { "name": "urn:ogc:def:crs:OGC:1.3:CRS84" } },
"features": [
{ "type": "Feature", "properties": { "part": "direct", "crossing_id": "X04922", "area_ac": 3.4 }, "geometry": { "type": "Polygon", "coordinates": [ [ [ -120.019222821874152, 38.932646528778164 ], [ -120.019358822244499, 38.932704057837185 ], [ -120.019361507674503, 38.933190605721542 ], [ -120.018991296985206, 38.93321717921868 ], [ -120.018939176129564, 38.933359988980406 ], [ -120.0185036038296, 38.933294801486397 ], [ -120.018476788664302, 38.933384204705504 ], [ -120.018312463840857, 38.933452074695168 ], [ -120.018088813291513, 38.933284196952314 ], [ -120.01792750591909, 38.933280072569438 ], [ -120.017714829690973, 38.93340075862691 ], [ -120.017893146060317, 38.933549460171427 ], [ -120.017651389175455, 38.933813544453976 ], [ -120.017468545630081, 38.933772833218526 ], [ -120.017437201801499, 38.933970226807546 ], [ -120.017343516218261, 38.934003866382703 ], [ -120.017278215740447, 38.935011189755521 ], [ -120.017367253434244, 38.93288737343314 ], [ -120.017209719846207, 38.93279325586348 ], [ -120.017236536315437, 38.932703852981845 ], [ -120.017556884885579, 38.932766098685832 ], [ -120.017516078744009, 38.932638930963741 ], [ -120.017608253516897, 38.932641288073697 ], [ -120.017673612435445, 38.932733048123922 ], [ -120.018365678768987, 38.93273272531583 ], [ -120.018500924313912, 38.932808253819886 ], [ -120.018712843291155, 38.93270556466549 ], [ -120.019102324721715, 38.932769573308057 ], [ -120.019222821874152, 38.932646528778164 ] ] ] } }
]
}
