{
"type": "FeatureCollection",
"name": "X04947",
"crs": { "type": "name", "properties": { "name": "urn:ogc:def:crs:OGC:1.3:CRS84" } },
"features": [
{ "type": "Feature", "properties": { "part": "direct", "crossing_id": "X04947", "area_ac": 0.0 }, "geometry": { "type": "Polygon", "coordinates": [ [ [ -120.007257345961889, 38.930286082414064 ], [ -120.007275846688131, 38.930394663430427 ], [ -120.0075055172818, 38.930418574292332 ], [ -120.007205961422557, 38.930410887859324 ], [ -120.007141375365535, 38.930301124235314 ], [ -120.007257345961889, 38.930286082414064 ] ] ] } }
]
}
